HIERARCHY
ROOT Hips
{
	OFFSET -0.001795 -0.223333 0.028219
	CHANNELS 6 Xposition Yposition Zposition Zrotation Yrotation Xrotation
	JOINT LeftUpLeg
	{
		OFFSET 0.069520 -0.091406 -0.006815
		CHANNELS 3 Zrotation Yrotation Xrotation
		JOINT LeftLeg
		{
			OFFSET 0.034277 -0.375199 -0.004496
			CHANNELS 3 Zrotation Yrotation Xrotation
			JOINT LeftFoot
			{
				OFFSET -0.013596 -0.397961 -0.043693
				CHANNELS 3 Zrotation Yrotation Xrotation
				JOINT LeftToe
				{
					OFFSET 0.026358 -0.055791 0.119288
					CHANNELS 3 Zrotation Yrotation Xrotation
					End Site
					{
						OFFSET 0.000000 0.000000 0.000000
					}
				}
			}
		}
	}
	JOINT RightUpLeg
	{
		OFFSET -0.067670 -0.090522 -0.004320
		CHANNELS 3 Zrotation Yrotation Xrotation
		JOINT RightLeg
		{
			OFFSET -0.038290 -0.382569 -0.008850
			CHANNELS 3 Zrotation Yrotation Xrotation
			JOINT RightFoot
			{
				OFFSET 0.015774 -0.398415 -0.042312
				CHANNELS 3 Zrotation Yrotation Xrotation
				JOINT RightToe
				{
					OFFSET -0.025372 -0.048144 0.123348
					CHANNELS 3 Zrotation Yrotation Xrotation
					End Site
					{
						OFFSET 0.000000 0.000000 0.000000
					}
				}
			}
		}
	}
	JOINT Spine
	{
		OFFSET -0.002533 0.108963 -0.026696
		CHANNELS 3 Zrotation Yrotation Xrotation
		JOINT Spine1
		{
			OFFSET 0.005487 0.135180 0.001092
			CHANNELS 3 Zrotation Yrotation Xrotation
			JOINT Spine2
			{
				OFFSET 0.001457 0.052922 0.025425
				CHANNELS 3 Zrotation Yrotation Xrotation
				JOINT Neck
				{
					OFFSET -0.002778 0.213870 -0.042857
					CHANNELS 3 Zrotation Yrotation Xrotation
					JOINT Head
					{
						OFFSET 0.005152 0.064970 0.051349
						CHANNELS 3 Zrotation Yrotation Xrotation
						End Site
						{
							OFFSET 0.000000 0.000000 0.000000
						}
					}
				}
				JOINT LeftShoulder
				{
					OFFSET 0.078845 0.121749 -0.034090
					CHANNELS 3 Zrotation Yrotation Xrotation
					JOINT LeftArm
					{
						OFFSET 0.090977 0.030469 -0.008868
						CHANNELS 3 Zrotation Yrotation Xrotation
						JOINT LeftForeArm
						{
							OFFSET 0.259612 -0.012772 -0.027456
							CHANNELS 3 Zrotation Yrotation Xrotation
							JOINT LeftHand
							{
								OFFSET 0.249234 0.008986 -0.001171
								CHANNELS 3 Zrotation Yrotation Xrotation
								End Site
								{
									OFFSET 0.000000 0.000000 0.000000
								}
							}
						}
					}
				}
				JOINT RightShoulder
				{
					OFFSET -0.081759 0.118833 -0.038615
					CHANNELS 3 Zrotation Yrotation Xrotation
					JOINT RightArm
					{
						OFFSET -0.096012 0.032551 -0.009143
						CHANNELS 3 Zrotation Yrotation Xrotation
						JOINT RightForeArm
						{
							OFFSET -0.253742 -0.013329 -0.021401
							CHANNELS 3 Zrotation Yrotation Xrotation
							JOINT RightHand
							{
								OFFSET -0.255298 0.007772 -0.005559
								CHANNELS 3 Zrotation Yrotation Xrotation
								End Site
								{
									OFFSET 0.000000 0.000000 0.000000
								}
							}
						}
					}
				}
			}
		}
	}
}
MOTION
Frames: 140
Frame Time: 0.050000
0.000000 0.957709 0.000000 -1.783840 14.289098 1.825512 0.704569 0.179696 3.123139 -4.208237 0.269802 -5.075629 7.836658 18.449999 17.347143 0.000000 0.000000 0.000000 -3.446144 0.208734 -3.102326 5.280049 -1.598929 18.346440 -6.601764 -15.694033 18.251964 0.000000 0.000000 0.000000 -0.483960 -0.481005 10.286240 3.984611 0.035301 -25.831393 -1.186931 -1.593780 27.773029 1.638816 1.381109 -20.930780 0.000000 0.000000 0.000000 -27.582485 -1.855396 -3.538425 -48.161546 -0.683065 -7.011279 -13.828220 -30.108166 4.792470 0.000000 0.000000 0.000000 20.241717 1.593621 2.017059 56.642919 0.981618 -7.947663 2.124066 35.007805 3.105736 0.000000 0.000000 0.000000
0.001603 0.956001 -0.000372 -2.099864 13.091778 1.921679 0.022857 0.249836 3.382739 -2.880402 0.244350 -5.689840 8.660276 19.386326 17.214001 0.000000 0.000000 0.000000 -3.365448 0.375847 -5.432384 5.383712 -1.871404 22.428922 -6.655947 -16.017363 16.201927 0.000000 0.000000 0.000000 -0.244063 -0.488368 10.108426 3.913810 0.057448 -27.229588 -1.721866 -0.808238 29.840636 1.926961 1.253876 -21.268001 0.000000 0.000000 0.000000 -26.179821 -0.782551 -3.890983 -49.479844 -1.418268 -7.215388 -13.276720 -29.856880 4.650494 0.000000 0.000000 0.000000 20.905699 2.333287 2.617241 57.050318 1.018560 -8.250453 0.837408 37.083773 3.048471 0.000000 0.000000 0.000000
0.002529 0.955499 -0.001148 -1.584199 12.231150 2.068888 -0.280838 0.228832 2.752114 -3.613408 0.281018 -4.613318 9.162368 19.987890 17.346491 0.000000 0.000000 0.000000 -4.274730 0.383897 -6.386191 5.965158 -2.181038 24.565982 -6.772439 -16.404579 14.328808 0.000000 0.000000 0.000000 -0.618871 -0.455546 10.350949 3.443151 0.129642 -26.329770 -1.772012 -1.162879 29.415371 1.317748 1.409930 -20.279138 0.000000 0.000000 0.000000 -26.454616 -1.300891 -3.269228 -48.869428 -1.853970 -6.988470 -12.712613 -30.086053 4.596557 0.000000 0.000000 0.000000 21.121712 3.409394 2.964281 56.429179 1.477363 -7.921143 1.783353 37.372573 3.247334 0.000000 0.000000 0.000000
0.003196 0.955862 -0.002414 -1.696986 10.913083 2.023220 -0.733495 0.283153 3.048253 -3.210393 0.279376 -4.812057 10.033199 20.992543 17.226307 0.000000 0.000000 0.000000 -4.711624 0.429667 -7.523586 6.640213 -2.617427 28.096642 -6.558611 -16.214263 13.297430 0.000000 0.000000 0.000000 -1.112506 -0.423377 10.839005 3.855736 0.044658 -27.557962 -1.681648 -0.854822 31.168876 1.899495 0.920578 -20.242562 0.000000 0.000000 0.000000 -27.485813 -1.127936 -3.256021 -48.414109 -1.867720 -7.120511 -12.591712 -30.441799 4.706916 0.000000 0.000000 0.000000 20.722339 4.227899 3.319141 56.088506 2.120661 -7.775582 1.441556 38.485694 3.254997 0.000000 0.000000 0.000000
0.003296 0.956692 -0.004401 -1.618594 10.529942 2.084006 -0.427854 0.221289 2.482053 -4.126489 0.325853 -3.940056 10.248941 21.250449 17.108660 0.000000 0.000000 0.000000 -4.954684 0.451291 -8.239855 7.175710 -2.996720 30.211088 -7.297303 -17.564162 14.863326 0.000000 0.000000 0.000000 -1.305369 -0.465608 12.086142 4.471608 -0.110286 -27.048199 -2.517771 -0.838090 30.107698 2.631146 0.297134 -19.480799 0.000000 0.000000 0.000000 -27.089294 -1.596636 -2.805744 -48.057646 -2.364104 -6.812868 -13.220920 -31.712623 5.091029 0.000000 0.000000 0.000000 20.546990 4.155749 3.114251 55.983004 2.080782 -7.619269 2.469953 39.666516 3.689962 0.000000 0.000000 0.000000
0.002986 0.957659 -0.006894 -1.975185 9.311239 2.106579 -0.067474 0.184896 2.236398 -4.443446 0.357192 -3.678104 10.917540 22.049969 17.312872 0.000000 0.000000 0.000000 -4.930729 0.537263 -9.655056 7.851476 -3.478640 33.748064 -7.361844 -17.806049 16.031379 0.000000 0.000000 0.000000 -1.238044 -0.495158 12.702744 4.676621 -0.158751 -27.514674 -2.582742 -1.284987 30.418575 3.199716 -0.339984 -19.242596 0.000000 0.000000 0.000000 -27.251424 -1.812340 -2.175913 -47.189309 -3.374328 -6.493516 -14.527603 -33.438390 5.892751 0.000000 0.000000 0.000000 20.367363 4.759736 3.108506 55.530152 1.728609 -7.733947 3.047537 40.581572 3.877488 0.000000 0.000000 0.000000
0.002254 0.958184 -0.009420 -2.278073 8.130719 2.345861 0.025510 0.132029 1.601943 -4.571988 0.379141 -3.501939 12.415334 23.875241 18.322366 0.000000 0.000000 0.000000 -5.152766 0.605949 -11.145934 8.828635 -4.089928 37.006412 -7.707527 -18.523848 16.836442 0.000000 0.000000 0.000000 -1.038318 -0.545938 13.442707 5.100358 -0.273551 -27.314437 -3.158239 -1.558343 29.792402 3.599881 -0.853705 -18.604972 0.000000 0.000000 0.000000 -26.974029 -1.940499 -1.665325 -46.331733 -4.398840 -6.074699 -16.389932 -36.487338 7.183158 0.000000 0.000000 0.000000 19.933358 5.028123 2.912468 55.071665 0.921876 -7.915470 4.781297 42.320595 4.595244 0.000000 0.000000 0.000000
0.001007 0.958033 -0.011514 -2.684314 6.284976 2.286297 0.244966 0.081905 1.068753 -4.335264 0.390345 -3.045562 13.973873 25.632610 20.185346 0.000000 0.000000 0.000000 -5.070561 0.716534 -12.632575 9.633160 -4.519615 40.670721 -7.881783 -19.014702 17.247262 0.000000 0.000000 0.000000 -0.625091 -0.622097 14.286584 5.295878 -0.341063 -27.302295 -3.182419 -1.922300 29.800721 3.764420 -1.330608 -17.662016 0.000000 0.000000 0.000000 -26.823716 -1.912855 -1.052836 -45.990479 -5.568763 -5.803798 -18.421022 -40.449387 9.020442 0.000000 0.000000 0.000000 19.218197 5.180980 2.543479 54.951312 -0.041018 -8.263828 6.598236 43.766717 5.320196 0.000000 0.000000 0.000000
-0.000862 0.957996 -0.013313 -2.803102 4.777384 2.302614 0.409661 0.069063 0.960092 -4.463007 0.415446 -3.046311 14.959859 26.674287 21.165163 0.000000 0.000000 0.000000 -5.285360 0.764286 -13.390556 10.348421 -4.807345 43.128431 -8.207668 -19.704505 17.156605 0.000000 0.000000 0.000000 -0.671556 -0.619460 14.839807 6.002193 -0.523672 -27.145301 -3.600378 -2.159219 29.578227 4.263996 -1.937881 -17.116526 0.000000 0.000000 0.000000 -26.984413 -1.880658 -0.626607 -45.377299 -6.256667 -5.613195 -20.142759 -44.707009 11.001341 0.000000 0.000000 0.000000 18.848681 5.199422 2.212363 54.482279 -1.333028 -8.699533 8.308829 45.083527 6.028486 0.000000 0.000000 0.000000
-0.003382 0.957929 -0.015389 -2.938893 2.875150 2.459898 0.599438 0.036366 0.604629 -4.891809 0.471156 -2.686409 16.503278 28.349407 21.827927 0.000000 0.000000 0.000000 -5.191930 0.853594 -14.026146 10.558082 -4.574620 44.575363 -8.185906 -19.856153 15.778534 0.000000 0.000000 0.000000 -0.418601 -0.655446 15.512442 6.279760 -0.598350 -27.278340 -3.822857 -2.930473 29.763490 4.599644 -2.616827 -16.137231 0.000000 0.000000 0.000000 -27.744161 -1.574212 -0.095682 -45.021103 -7.130307 -5.518415 -20.098254 -48.186266 12.306427 0.000000 0.000000 0.000000 18.280015 5.416570 1.818225 54.133376 -2.445037 -9.087864 10.531995 46.379971 6.884007 0.000000 0.000000 0.000000
-0.006312 0.958041 -0.018124 -3.106849 0.725927 2.755767 0.954887 -0.013033 0.073756 -5.136713 0.521991 -2.265161 17.443387 29.270636 22.699564 0.000000 0.000000 0.000000 -5.053946 0.939290 -14.296236 10.825501 -4.190766 45.066510 -8.164567 -19.994077 14.587534 0.000000 0.000000 0.000000 -0.113727 -0.693638 16.244690 6.803008 -0.750381 -27.113612 -4.269905 -3.164263 29.530501 5.486354 -3.638902 -14.951228 0.000000 0.000000 0.000000 -28.059929 -2.132435 0.881596 -44.596259 -8.164373 -5.296330 -19.109881 -49.674610 12.508374 0.000000 0.000000 0.000000 18.427912 5.253261 1.300494 53.340503 -3.412629 -9.294050 11.801179 46.948255 7.249413 0.000000 0.000000 0.000000
-0.009335 0.957961 -0.021581 -3.206654 -1.670834 3.235534 1.335170 -0.095939 -0.929876 -5.393855 0.586224 -1.495649 18.468773 30.144468 24.140410 0.000000 0.000000 0.000000 -4.628498 1.065786 -14.662566 10.635854 -3.402775 44.263477 -7.660864 -19.275511 12.337998 0.000000 0.000000 0.000000 0.227374 -0.723548 16.906185 7.394045 -0.905282 -27.037299 -4.698553 -4.071698 29.471715 5.691979 -4.321895 -13.430694 0.000000 0.000000 0.000000 -28.731953 -2.314308 1.945641 -44.272285 -9.344908 -5.146084 -16.922511 -49.975542 11.867198 0.000000 0.000000 0.000000 18.655308 5.717530 0.883080 52.105798 -4.194418 -9.278573 12.265678 47.174785 7.046727 0.000000 0.000000 0.000000
-0.012050 0.957301 -0.025337 -3.385999 -4.032041 3.739917 1.634534 -0.162797 -1.825894 -5.626150 0.651642 -0.911900 19.912699 31.478980 25.290872 0.000000 0.000000 0.000000 -4.008319 1.171075 -14.545566 9.440379 -2.136832 42.363112 -6.673023 -17.607029 10.961863 0.000000 0.000000 0.000000 0.532828 -0.746744 17.679154 7.690397 -1.075665 -26.173011 -4.813822 -4.717368 28.863351 5.590045 -4.638420 -11.986871 0.000000 0.000000 0.000000 -28.903039 -2.983606 3.212163 -44.556018 -11.087312 -4.749962 -14.846557 -49.116458 10.903929 0.000000 0.000000 0.000000 18.449882 5.757429 0.326561 51.905500 -5.187093 -9.484110 12.624629 47.250160 6.822744 0.000000 0.000000 0.000000
-0.014340 0.956582 -0.029249 -3.300610 -5.894228 4.099155 1.525785 -0.242052 -2.888145 -5.796833 0.717308 0.058150 21.584504 33.018838 26.460781 0.000000 0.000000 0.000000 -3.377225 1.234281 -14.212751 8.011501 -1.023143 40.201353 -5.686031 -15.755757 9.513661 0.000000 0.000000 0.000000 0.755126 -0.762742 18.586647 8.372406 -1.243218 -26.093158 -5.448701 -5.540522 29.367833 5.673633 -5.089635 -10.894924 0.000000 0.000000 0.000000 -29.118327 -3.558706 4.417611 -44.531571 -13.161208 -4.297275 -12.781320 -48.682506 10.041157 0.000000 0.000000 0.000000 18.749583 5.999138 -0.120787 51.240470 -5.764814 -9.513753 12.308510 47.281336 6.351434 0.000000 0.000000 0.000000
-0.016238 0.955444 -0.033399 -2.986528 -7.134574 4.339950 1.461314 -0.311618 -3.810669 -6.186811 0.815640 1.140963 21.903087 33.382892 26.253759 0.000000 0.000000 0.000000 -2.962973 1.250220 -13.808400 6.540860 -0.170277 37.637854 -4.832111 -14.377633 10.242134 0.000000 0.000000 0.000000 0.990538 -0.787090 19.385103 8.483646 -1.348608 -25.468283 -5.659693 -6.479857 29.282585 5.244950 -4.985918 -10.300940 0.000000 0.000000 0.000000 -28.404952 -4.002430 5.279385 -45.637112 -15.514050 -3.580011 -11.259381 -49.038360 9.680511 0.000000 0.000000 0.000000 17.983739 5.469438 -0.761663 51.734448 -6.644514 -9.933176 11.972015 46.198838 5.757562 0.000000 0.000000 0.000000
-0.018140 0.954513 -0.038503 -2.636730 -7.665874 4.494763 1.363734 -0.372728 -4.591263 -6.323476 0.876548 2.233490 20.960860 32.686263 24.663434 0.000000 0.000000 0.000000 -2.429198 1.262200 -13.462412 4.909103 0.513757 35.188378 -3.869009 -12.601385 10.074230 0.000000 0.000000 0.000000 1.420482 -0.863566 19.921157 8.683166 -1.488409 -24.646186 -6.136938 -7.398914 29.447625 5.378742 -5.330475 -9.335583 0.000000 0.000000 0.000000 -27.978667 -5.041073 6.358736 -45.805681 -17.759275 -2.821748 -9.742689 -51.204495 9.621846 0.000000 0.000000 0.000000 18.404188 5.207811 -1.316053 51.333725 -7.682953 -10.179356 12.085519 45.848334 5.541048 0.000000 0.000000 0.000000
-0.020326 0.953267 -0.044825 -2.332562 -7.840177 4.757575 1.618487 -0.427545 -5.470200 -6.606289 0.960576 3.327327 19.063364 30.993637 22.216036 0.000000 0.000000 0.000000 -1.901445 1.339877 -13.842774 3.846899 0.899834 33.877532 -2.952378 -10.718263 9.426319 0.000000 0.000000 0.000000 1.603026 -0.918403 20.917540 9.283010 -1.674882 -24.147416 -6.447190 -8.329220 29.013053 4.866864 -5.043428 -8.485999 0.000000 0.000000 0.000000 -27.480987 -5.402529 6.820113 -45.797815 -20.052462 -1.915555 -9.182660 -54.362770 10.249495 0.000000 0.000000 0.000000 17.903882 4.601373 -1.822959 51.468672 -9.144457 -10.747899 12.710256 45.801768 5.589485 0.000000 0.000000 0.000000
-0.022927 0.952388 -0.052560 -2.083954 -7.943740 4.954477 1.898632 -0.488954 -6.546480 -6.813404 1.051404 4.754109 17.369628 29.350075 19.917454 0.000000 0.000000 0.000000 -1.261105 1.423977 -14.182101 2.669767 1.291490 32.551417 -1.528474 -7.333360 7.694673 0.000000 0.000000 0.000000 2.091935 -1.043435 21.914709 9.686918 -1.811177 -23.751120 -6.786270 -8.804190 28.783571 5.076913 -5.299262 -7.652411 0.000000 0.000000 0.000000 -27.214352 -6.069737 7.325943 -44.984340 -22.175741 -1.106097 -9.958951 -57.638895 11.492184 0.000000 0.000000 0.000000 17.801099 4.133722 -2.177369 51.316488 -10.237832 -11.123757 13.531915 45.704085 5.810085 0.000000 0.000000 0.000000
-0.026062 0.951338 -0.061338 -1.559832 -7.467311 5.111501 2.004299 -0.530811 -7.197491 -7.088502 1.106108 5.187099 15.511323 27.357063 17.596399 0.000000 0.000000 0.000000 -0.964250 1.505714 -14.779466 1.917783 1.470634 31.836532 -0.439329 -4.468983 6.384226 0.000000 0.000000 0.000000 2.367619 -1.136921 22.469432 10.070026 -1.976774 -23.015864 -7.201496 -9.568845 28.313150 4.761377 -5.089043 -6.847104 0.000000 0.000000 0.000000 -26.795324 -6.384205 7.574827 -44.226734 -24.161840 -0.343909 -8.552211 -60.413631 11.451794 0.000000 0.000000 0.000000 17.383368 3.847461 -2.377550 52.345082 -11.182429 -11.746867 13.603902 45.788226 5.761337 0.000000 0.000000 0.000000
-0.029635 0.951469 -0.070722 -1.212863 -7.264040 5.263279 2.109500 -0.562638 -7.739932 -7.173407 1.134966 5.634598 13.953016 25.556789 15.391797 0.000000 0.000000 0.000000 -0.649861 1.604130 -15.447613 1.353187 1.602064 31.076063 0.543765 -2.059537 5.863950 0.000000 0.000000 0.000000 2.867280 -1.286236 23.333335 10.297615 -2.028138 -22.974643 -7.369091 -10.097908 28.120612 4.856167 -5.246878 -5.471820 0.000000 0.000000 0.000000 -26.521538 -6.777918 7.889160 -43.329852 -25.276617 0.018154 -8.043598 -62.183471 11.589598 0.000000 0.000000 0.000000 16.762503 3.109527 -2.719458 52.526099 -11.821293 -12.083210 15.022924 46.072094 6.278382 0.000000 0.000000 0.000000
-0.033402 0.952111 -0.080266 -0.917962 -6.680474 5.458670 2.414245 -0.560437 -7.902255 -7.244435 1.131713 5.639976 11.692786 22.602958 12.533565 0.000000 0.000000 0.000000 -0.453648 1.666088 -15.914600 0.850349 1.631406 29.905142 1.679674 0.283625 6.266062 0.000000 0.000000 0.000000 3.372288 -1.444536 23.666739 10.545461 -2.158742 -22.305969 -7.405868 -10.785196 27.538709 4.587480 -5.012753 -5.039189 0.000000 0.000000 0.000000 -26.647865 -6.922912 8.073469 -42.866704 -26.170794 0.352171 -6.711084 -62.487598 10.813389 0.000000 0.000000 0.000000 15.885671 2.805735 -2.759321 53.565161 -12.383689 -12.629573 15.657398 46.494605 6.517531 0.000000 0.000000 0.000000
-0.036873 0.953382 -0.089826 -0.655737 -6.282788 5.790692 2.884163 -0.558183 -8.254946 -7.369900 1.138928 5.543108 9.645593 19.535386 10.753371 0.000000 0.000000 0.000000 -0.272736 1.725151 -16.337583 0.623483 1.582148 28.767558 1.491682 -0.295966 6.605782 0.000000 0.000000 0.000000 3.967433 -1.624049 24.040486 10.546968 -2.136300 -22.386882 -7.406292 -11.514827 27.199121 4.636354 -5.082299 -4.156456 0.000000 0.000000 0.000000 -26.342011 -7.105535 8.280416 -42.839677 -26.566688 0.543337 -6.392684 -63.078672 10.824987 0.000000 0.000000 0.000000 15.248202 2.096830 -3.087749 53.927214 -13.430096 -13.198790 17.492578 46.715608 7.177149 0.000000 0.000000 0.000000
-0.039675 0.954295 -0.099158 -0.485287 -5.998627 5.853712 3.324305 -0.545306 -8.460355 -7.674436 1.209655 6.066108 8.109264 17.050883 8.361371 0.000000 0.000000 0.000000 -0.134201 1.758260 -16.551243 0.293808 1.607401 27.941887 1.644216 -0.005243 6.723272 0.000000 0.000000 0.000000 4.403851 -1.757819 24.341438 10.727096 -2.154804 -22.533383 -7.378647 -11.977240 27.201690 4.466463 -4.942690 -4.267790 0.000000 0.000000 0.000000 -26.396825 -6.887841 8.253757 -42.932459 -27.220034 0.781356 -5.700882 -63.165011 10.496196 0.000000 0.000000 0.000000 14.576285 2.046216 -3.014741 54.466502 -13.803888 -13.588034 17.440409 46.880673 7.118198 0.000000 0.000000 0.000000
-0.041788 0.955228 -0.108117 -0.288297 -5.536729 5.913517 3.606772 -0.540179 -8.587372 -8.122710 1.334385 7.196602 6.770964 14.577242 4.750885 0.000000 0.000000 0.000000 -0.280749 1.771015 -16.869270 0.599929 1.417485 27.430883 1.436594 -0.464979 6.804173 0.000000 0.000000 0.000000 5.041514 -1.944826 24.472236 10.936530 -2.192930 -22.581343 -7.428255 -12.275881 27.070319 4.510367 -4.942999 -4.896228 0.000000 0.000000 0.000000 -26.111433 -6.985595 8.253901 -43.350215 -27.552965 1.016240 -4.350882 -63.156589 9.700224 0.000000 0.000000 0.000000 14.565462 1.633521 -3.225953 53.783009 -14.114892 -13.473624 17.279575 46.512315 6.953417 0.000000 0.000000 0.000000
-0.043144 0.955456 -0.116789 0.020336 -4.923717 5.833692 3.695752 -0.546389 -8.677208 -8.628530 1.497418 8.757730 5.762124 12.297114 0.963653 0.000000 0.000000 0.000000 -0.522529 1.751561 -17.035290 0.617377 1.336612 27.156318 1.345102 -0.403644 6.405630 0.000000 0.000000 0.000000 5.610708 -2.131808 24.733856 11.041446 -2.187357 -22.768785 -7.295210 -12.801404 27.182327 4.262482 -4.735004 -5.676566 0.000000 0.000000 0.000000 -26.523798 -6.990898 8.421284 -43.394069 -28.102787 1.164487 -3.120148 -63.373267 9.044392 0.000000 0.000000 0.000000 14.416012 1.546513 -3.274430 52.836456 -13.803796 -13.029742 15.688260 45.778690 6.131301 0.000000 0.000000 0.000000
-0.043878 0.956046 -0.125672 0.254735 -4.109353 5.477767 3.646699 -0.542716 -8.414483 -8.871799 1.594003 10.130143 5.042345 10.273079 -2.275556 0.000000 0.000000 0.000000 -0.761068 1.697688 -16.935907 0.792819 1.189716 26.941600 1.167252 -0.631137 6.215027 0.000000 0.000000 0.000000 6.352939 -2.388236 25.193396 11.172091 -2.256141 -22.453895 -7.297132 -12.921077 26.778118 4.296874 -4.705213 -5.813676 0.000000 0.000000 0.000000 -26.237162 -7.227161 8.360089 -43.992715 -28.145363 1.362857 -2.693085 -64.331032 8.974580 0.000000 0.000000 0.000000 14.476342 1.349782 -3.300406 52.005141 -13.761321 -12.701727 14.214593 44.852256 5.463326 0.000000 0.000000 0.000000
-0.043977 0.956012 -0.135092 0.560760 -3.310851 5.495878 3.242255 -0.569548 -8.309339 -8.628996 1.582895 11.531272 5.765085 11.730489 -2.738863 0.000000 0.000000 0.000000 -1.027461 1.705430 -17.464988 1.073193 1.030256 27.137073 0.594439 -1.629638 5.790010 0.000000 0.000000 0.000000 7.053955 -2.616528 25.257915 11.189952 -2.222215 -22.681707 -7.330137 -13.228807 26.883897 4.603705 -4.898890 -7.107827 0.000000 0.000000 0.000000 -26.152278 -7.342816 8.377700 -44.383680 -28.356013 1.516946 -1.849866 -65.193580 8.659266 0.000000 0.000000 0.000000 14.260489 1.252000 -3.263534 51.479673 -13.299768 -12.359531 12.336694 43.930349 4.638741 0.000000 0.000000 0.000000
-0.043661 0.956520 -0.145181 0.739030 -2.169150 5.765378 2.787008 -0.594918 -8.133191 -8.381304 1.523657 12.519785 6.919765 14.271993 -1.788635 0.000000 0.000000 0.000000 -1.244641 1.739097 -18.331476 1.552156 0.756261 27.099104 -0.099293 -3.282873 6.248878 0.000000 0.000000 0.000000 7.747261 -2.857525 25.149461 11.473077 -2.224184 -23.028745 -7.276350 -13.485694 26.773245 4.495298 -4.719663 -8.281971 0.000000 0.000000 0.000000 -26.591066 -7.368697 8.371012 -44.604059 -27.970808 1.387993 -2.434408 -65.806822 9.135583 0.000000 0.000000 0.000000 14.168650 1.029571 -3.277252 50.545876 -13.085165 -11.962713 10.747448 43.299306 3.998847 0.000000 0.000000 0.000000
-0.043199 0.957186 -0.155970 0.972695 -1.049165 6.020125 2.022388 -0.612486 -7.723373 -7.720187 1.348748 13.233106 8.748020 18.144270 2.073327 0.000000 0.000000 0.000000 -1.680420 1.736076 -19.232460 2.185407 0.425257 27.025648 -0.727109 -4.795916 6.863393 0.000000 0.000000 0.000000 8.291546 -3.055373 24.978096 11.566967 -2.167114 -23.507620 -7.119008 -13.842145 26.887998 4.335847 -4.523794 -9.458046 0.000000 0.000000 0.000000 -26.520806 -7.288967 8.213850 -45.133688 -27.388514 1.260957 -3.490554 -65.387020 9.711839 0.000000 0.000000 0.000000 14.211579 1.312197 -3.097332 49.770246 -12.086427 -11.325726 8.657204 42.792710 3.210253 0.000000 0.000000 0.000000
-0.043082 0.958018 -0.167321 1.092229 -0.184615 6.308543 1.530973 -0.597973 -7.196163 -7.476447 1.270537 13.792788 11.473545 22.797522 8.187613 0.000000 0.000000 0.000000 -1.722919 1.783675 -20.155439 2.562003 0.206252 26.781099 -1.572591 -6.763751 7.590429 0.000000 0.000000 0.000000 8.801065 -3.230260 24.837079 11.370717 -2.064611 -23.811931 -6.713263 -13.924057 26.713625 3.751137 -3.976653 -10.492960 0.000000 0.000000 0.000000 -26.818868 -6.967049 7.943321 -45.561280 -26.362801 0.917757 -5.102282 -64.422863 10.499477 0.000000 0.000000 0.000000 14.094756 1.264495 -3.017036 48.815473 -11.104780 -10.649228 6.841009 42.208922 2.533265 0.000000 0.000000 0.000000
-0.043330 0.957998 -0.179246 0.950745 0.356921 6.594771 1.210619 -0.549912 -6.429387 -6.948559 1.138528 14.415023 12.822860 24.654114 11.487482 0.000000 0.000000 0.000000 -1.852883 1.829232 -21.124541 3.232692 -0.085452 26.212185 -2.004183 -7.933336 8.720016 0.000000 0.000000 0.000000 9.204778 -3.346341 24.580683 11.140190 -1.918132 -24.458956 -6.542264 -14.022104 27.184163 3.797545 -3.992556 -11.082680 0.000000 0.000000 0.000000 -26.912930 -7.005076 7.932619 -45.987961 -25.426859 0.578088 -6.086301 -62.588741 10.613717 0.000000 0.000000 0.000000 14.263896 1.837386 -2.737311 48.020792 -9.674595 -9.909523 4.803236 42.621672 1.827349 0.000000 0.000000 0.000000
-0.043789 0.957979 -0.191716 0.720635 1.307332 6.619058 1.108233 -0.427516 -4.885602 -7.130426 1.142489 14.711372 12.470285 24.183679 10.657441 0.000000 0.000000 0.000000 -1.483478 1.927430 -22.071326 3.317854 -0.202882 25.607876 -2.783446 -9.934463 11.070883 0.000000 0.000000 0.000000 9.063164 -3.356992 24.430716 11.412010 -1.904949 -24.998449 -6.324921 -13.917970 27.127358 3.396374 -3.641191 -10.752177 0.000000 0.000000 0.000000 -27.384728 -6.628965 7.541388 -46.624254 -23.700415 -0.032138 -8.230445 -60.547435 11.307780 0.000000 0.000000 0.000000 14.364300 2.282346 -2.400642 47.278783 -8.894705 -9.426239 2.894038 43.343714 1.215631 0.000000 0.000000 0.000000
-0.043872 0.957211 -0.204900 0.318150 1.810920 6.641893 1.281746 -0.299984 -3.319971 -7.183211 1.138764 15.068024 11.888422 23.290998 10.748600 0.000000 0.000000 0.000000 -1.292359 2.024532 -23.104490 3.853753 -0.427068 25.101515 -3.417592 -11.446100 13.116696 0.000000 0.000000 0.000000 9.221618 -3.378651 24.023823 10.864583 -1.683533 -25.752913 -6.174395 -13.939061 27.707655 3.410115 -3.679736 -10.596430 0.000000 0.000000 0.000000 -27.573339 -6.296626 7.289658 -47.354699 -21.975700 -0.713379 -9.477396 -57.251707 11.136796 0.000000 0.000000 0.000000 14.460525 2.757847 -2.120676 46.449999 -7.829235 -8.889029 1.749132 44.201566 0.824745 0.000000 0.000000 0.000000
-0.043343 0.955866 -0.218911 0.188023 2.781395 6.252934 1.122698 -0.133760 -1.266845 -7.535182 1.168929 14.952088 11.393179 22.545333 9.934264 0.000000 0.000000 0.000000 -1.259417 2.080586 -24.347372 3.947115 -0.540512 25.052057 -4.403454 -13.568035 17.019058 0.000000 0.000000 0.000000 8.704173 -3.219882 23.450432 11.362451 -1.813259 -25.572416 -6.377331 -13.653385 27.217735 3.905402 -4.006655 -9.683937 0.000000 0.000000 0.000000 -27.637953 -6.221346 6.897316 -48.106421 -19.223379 -1.651834 -10.249063 -55.713694 11.016015 0.000000 0.000000 0.000000 14.649756 3.264830 -1.719837 46.193105 -7.795404 -8.783662 -1.013790 45.447439 -0.149362 0.000000 0.000000 0.000000
-0.042257 0.954393 -0.234176 -0.234330 3.835900 5.662160 1.278475 0.027912 0.866038 -7.231390 1.032259 14.162168 10.773752 21.578224 10.588351 0.000000 0.000000 0.000000 -0.913609 2.137025 -24.965767 3.857327 -0.595899 24.835958 -5.185695 -14.900678 19.530587 0.000000 0.000000 0.000000 8.512132 -3.156123 22.969476 11.234961 -1.737209 -25.974781 -6.290929 -13.740145 27.433603 4.497126 -4.466005 -9.554781 0.000000 0.000000 0.000000 -28.454488 -5.807536 6.541652 -48.211664 -16.942346 -2.609028 -11.158896 -54.149445 10.989784 0.000000 0.000000 0.000000 14.645823 3.304598 -1.557192 45.592907 -7.605162 -8.635213 -1.653518 46.183002 -0.332952 0.000000 0.000000 0.000000
-0.040818 0.952438 -0.251464 -0.679147 4.548659 4.662686 1.039600 0.194568 2.919054 -6.994346 0.930209 12.881356 10.605049 21.275414 9.497436 0.000000 0.000000 0.000000 -0.083770 2.304833 -25.523671 2.881684 -0.320397 24.963357 -5.883045 -16.016629 22.390865 0.000000 0.000000 0.000000 7.697957 -2.900384 22.407222 11.803832 -1.908925 -25.705769 -6.652787 -12.878381 27.573033 5.349531 -5.112921 -8.521188 0.000000 0.000000 0.000000 -28.317197 -5.327919 5.692988 -48.451903 -14.819884 -3.343439 -11.665203 -53.000661 10.787138 0.000000 0.000000 0.000000 14.830696 3.180180 -1.335499 45.987484 -7.768684 -8.868167 -3.928506 47.432688 -1.068742 0.000000 0.000000 0.000000
-0.039098 0.950645 -0.271598 -1.119145 5.905968 3.809384 1.040984 0.310664 4.608205 -6.395419 0.741072 10.807365 10.242243 20.646931 8.664125 0.000000 0.000000 0.000000 0.215657 2.310953 -25.826016 2.684872 -0.358032 24.439163 -6.906871 -17.324348 24.599463 0.000000 0.000000 0.000000 6.951363 -2.749335 22.159652 12.431753 -1.995991 -26.191732 -7.035193 -12.823238 27.955306 5.871517 -5.587917 -7.683866 0.000000 0.000000 0.000000 -28.966597 -4.797140 5.068586 -47.537202 -12.709997 -4.156205 -12.598643 -51.986083 10.811955 0.000000 0.000000 0.000000 15.521474 3.026463 -1.307078 45.650309 -7.766951 -8.845085 -4.731924 47.136258 -1.212964 0.000000 0.000000 0.000000
-0.037032 0.949520 -0.295183 -1.569093 7.143708 2.635939 1.625661 0.347198 6.021618 -6.254146 0.670132 9.008765 10.609171 21.087101 7.297562 0.000000 0.000000 0.000000 0.258342 2.311176 -26.789530 2.132035 -0.255078 23.760980 -7.723850 -18.226906 31.994851 0.000000 0.000000 0.000000 6.142315 -2.662663 22.591572 12.198287 -1.904057 -26.614980 -7.242150 -12.779943 28.795283 6.441967 -6.208310 -6.450366 0.000000 0.000000 0.000000 -28.707015 -3.985448 4.220799 -47.397108 -11.245143 -4.705668 -13.035520 -51.637783 10.872845 0.000000 0.000000 0.000000 15.845198 2.368425 -1.474735 46.372135 -7.931257 -9.193294 -5.274940 47.922762 -1.274693 0.000000 0.000000 0.000000
-0.034540 0.951113 -0.322455 -1.777158 7.770969 2.018652 1.588713 0.375453 6.555455 -5.870073 0.586446 6.853343 10.891408 21.461929 6.794415 0.000000 0.000000 0.000000 -0.036682 2.264564 -27.770322 1.844084 -0.179497 22.423973 -7.965899 -18.416610 37.691721 0.000000 0.000000 0.000000 5.080445 -2.488613 22.957213 11.936941 -1.857340 -26.547300 -7.526023 -12.878215 28.674372 6.437817 -6.204186 -6.247937 0.000000 0.000000 0.000000 -28.659782 -2.914063 3.381358 -46.615396 -9.967135 -5.101546 -12.727897 -51.224836 10.559010 0.000000 0.000000 0.000000 16.027000 1.520941 -1.875850 47.220979 -7.714815 -9.297487 -4.512008 47.509039 -0.856713 0.000000 0.000000 0.000000
-0.031851 0.956235 -0.351924 -1.731336 9.213637 1.524674 1.270421 0.346606 5.888968 -5.497509 0.503369 5.844699 10.903128 21.423604 6.845588 0.000000 0.000000 0.000000 -0.692202 2.006669 -27.872429 1.073491 -0.005249 21.159824 -5.196570 -14.771414 34.066474 0.000000 0.000000 0.000000 3.858921 -2.335030 23.443922 11.603438 -1.757303 -26.726057 -7.799964 -13.024084 28.910750 6.799376 -6.470135 -6.256076 0.000000 0.000000 0.000000 -28.094139 -2.337417 2.708420 -45.866879 -9.774963 -5.064823 -12.382684 -50.632342 10.139945 0.000000 0.000000 0.000000 15.993830 0.816235 -2.054355 48.950801 -7.690899 -9.748614 -2.848636 47.402185 0.048321 0.000000 0.000000 0.000000
-0.029831 0.964665 -0.380992 -2.076255 11.121139 1.024306 1.418015 0.276148 5.272402 -5.375419 0.454497 4.393363 10.784968 21.367799 9.304463 0.000000 0.000000 0.000000 -1.322510 1.709676 -27.854951 1.508318 -0.208485 18.973805 -4.091476 -12.884459 32.442162 0.000000 0.000000 0.000000 2.604331 -2.204159 23.902254 12.008006 -1.947018 -25.929625 -7.604273 -13.729827 28.541252 6.608563 -6.099847 -7.638049 0.000000 0.000000 0.000000 -28.340836 -1.426722 1.952969 -45.368787 -10.079259 -4.875582 -10.619472 -50.515853 9.237201 0.000000 0.000000 0.000000 14.543917 -0.000621 -2.153056 51.149902 -7.186419 -10.077647 0.056181 47.284164 1.383382 0.000000 0.000000 0.000000
-0.029100 0.974003 -0.406872 -2.748986 12.094653 0.892964 1.992394 0.179944 4.581016 -5.392282 0.438588 2.827172 10.601754 21.375355 12.624694 0.000000 0.000000 0.000000 -1.917259 1.481647 -27.331398 2.981339 -0.680692 18.146911 -2.730874 -10.166388 25.639616 0.000000 0.000000 0.000000 1.308667 -1.920113 23.488325 12.458019 -1.969272 -26.761560 -7.757802 -13.166974 29.819536 6.323279 -5.627617 -9.107914 0.000000 0.000000 0.000000 -28.428195 -0.466574 0.948237 -43.711739 -10.293933 -4.709895 -11.884168 -49.118710 9.332558 0.000000 0.000000 0.000000 13.548468 -0.786421 -2.132339 52.604558 -7.056394 -10.528780 2.477038 46.802746 2.655947 0.000000 0.000000 0.000000
-0.029551 0.983029 -0.429081 -3.495621 13.217701 0.419556 2.654358 0.111492 4.605277 -5.523360 0.422040 1.012546 10.567305 21.474332 14.413919 0.000000 0.000000 0.000000 -1.865005 1.403841 -26.945184 3.506426 -1.138370 22.443587 -2.517838 -8.766650 17.912651 0.000000 0.000000 0.000000 0.390275 -1.666578 22.442125 13.251301 -2.177001 -26.742975 -7.679368 -13.578880 30.687636 4.835832 -4.393273 -9.669564 0.000000 0.000000 0.000000 -29.017269 0.484531 0.259344 -43.386564 -9.875191 -4.929963 -11.771421 -49.078713 9.304894 0.000000 0.000000 0.000000 11.273736 -0.403220 -1.542616 54.753136 -7.295664 -11.294681 5.138034 47.118311 3.941949 0.000000 0.000000 0.000000
-0.030916 0.991621 -0.448416 -4.554127 14.903080 0.142042 3.738096 -0.038161 3.727571 -5.288256 0.375621 0.643730 9.394448 20.107095 15.049543 0.000000 0.000000 0.000000 -1.401485 1.384759 -26.201078 3.732169 -1.859347 28.539312 -2.294929 -7.649762 13.323083 0.000000 0.000000 0.000000 0.104832 -1.609085 21.637296 13.068569 -2.090497 -27.140804 -7.426993 -14.238201 31.293653 4.978410 -4.256293 -11.874663 0.000000 0.000000 0.000000 -28.748425 1.356588 -0.488639 -43.666221 -9.185268 -5.161892 -11.773410 -48.650859 9.176196 0.000000 0.000000 0.000000 10.607590 -0.029052 -1.201812 56.164153 -7.088905 -11.598568 5.748994 46.845204 4.320041 0.000000 0.000000 0.000000
-0.032815 0.998245 -0.466280 -4.842850 16.123671 0.414577 3.954175 -0.133360 1.866091 -5.177929 0.350754 0.968192 8.805825 19.623059 16.284203 0.000000 0.000000 0.000000 -0.676084 1.450116 -24.644522 2.426838 -1.998618 33.850702 -1.801726 -6.322301 10.864733 0.000000 0.000000 0.000000 -0.451269 -1.413051 20.370168 13.548513 -2.217383 -27.000490 -7.345188 -13.938620 30.723283 5.465592 -4.559730 -10.944558 0.000000 0.000000 0.000000 -28.538508 1.224179 -0.883623 -43.738654 -7.501572 -5.521084 -13.214140 -48.747461 9.649914 0.000000 0.000000 0.000000 10.652443 -0.806186 -1.400669 56.739621 -7.347742 -11.739124 6.178554 48.349082 4.900407 0.000000 0.000000 0.000000
-0.034662 1.003648 -0.483135 -5.097525 17.443659 0.623038 4.013593 -0.200373 0.517268 -5.177272 0.332385 1.306533 7.933172 18.697596 16.591990 0.000000 0.000000 0.000000 0.367754 1.541148 -21.924282 1.306890 -2.170700 37.782186 -1.491517 -5.518805 9.918459 0.000000 0.000000 0.000000 -1.161736 -1.181474 18.899039 12.865714 -2.045304 -27.049067 -6.580345 -14.776966 30.908368 6.024817 -4.810301 -12.652468 0.000000 0.000000 0.000000 -28.113805 1.965993 -1.408008 -44.477179 -6.824290 -5.812544 -12.810349 -47.960479 9.306395 0.000000 0.000000 0.000000 10.442627 -0.396088 -1.158403 56.908445 -6.952630 -11.618345 6.643520 48.253613 5.137122 0.000000 0.000000 0.000000
-0.036030 1.006779 -0.499666 -4.782619 18.441142 1.171372 3.434291 -0.237696 -0.956651 -4.883033 0.297631 1.536643 7.012166 17.590399 16.145455 0.000000 0.000000 0.000000 0.710828 1.475694 -19.245018 0.550547 -2.302172 40.008806 -1.001600 -4.541280 10.090344 0.000000 0.000000 0.000000 -1.582585 -1.108829 18.610342 11.807313 -1.685280 -28.048723 -5.612075 -14.968111 31.451702 5.956269 -4.562416 -13.906899 0.000000 0.000000 0.000000 -28.150491 2.543258 -1.967590 -44.401420 -5.965604 -6.096107 -14.954089 -47.922134 10.221542 0.000000 0.000000 0.000000 10.092222 -1.311448 -1.455083 57.469551 -6.965136 -11.793641 8.462648 49.166803 6.239047 0.000000 0.000000 0.000000
-0.036973 1.008942 -0.516623 -4.270551 19.003119 1.971388 2.787338 -0.310851 -2.771983 -4.826926 0.284365 1.137698 5.650653 15.876498 15.669983 0.000000 0.000000 0.000000 1.093117 1.402634 -16.582527 -0.393988 -2.096179 40.959197 -0.544197 -3.622612 10.225605 0.000000 0.000000 0.000000 -1.760795 -1.037686 18.122574 11.876267 -1.601187 -28.937971 -5.441391 -13.935349 31.137133 6.716313 -4.921212 -13.850576 0.000000 0.000000 0.000000 -28.340731 2.363799 -2.455434 -44.896522 -4.628666 -6.404560 -15.428956 -47.185267 10.003950 0.000000 0.000000 0.000000 11.084033 -0.400316 -0.908107 56.527046 -6.989973 -11.522280 5.932771 49.671881 5.414566 0.000000 0.000000 0.000000
-0.038404 1.011573 -0.534567 -3.479493 19.463479 2.727350 1.738620 -0.430412 -4.873498 -4.519019 0.254778 1.977229 4.854975 14.743192 14.814242 0.000000 0.000000 0.000000 0.466306 1.189372 -14.338498 -1.445745 -1.482181 39.390488 -0.329891 -2.792873 8.726574 0.000000 0.000000 0.000000 -2.018743 -1.008694 18.243104 11.372560 -1.513122 -28.313415 -4.486245 -13.013846 29.742557 6.652473 -4.625537 -13.916913 0.000000 0.000000 0.000000 -28.882516 2.348916 -3.060831 -45.422725 -3.484652 -6.594424 -15.540983 -46.983066 9.776081 0.000000 0.000000 0.000000 11.338778 -0.024144 -0.580947 56.729739 -7.530693 -11.637682 4.988247 50.365729 5.251948 0.000000 0.000000 0.000000
-0.041373 1.013123 -0.553896 -3.149059 20.138095 3.317728 1.112090 -0.635299 -7.258201 -4.251446 0.223435 2.378765 4.148745 13.927923 14.769429 0.000000 0.000000 0.000000 0.407153 1.062120 -12.312515 -1.487971 -1.069029 34.607772 -0.690729 -3.049787 6.908713 0.000000 0.000000 0.000000 -1.540485 -1.191447 19.035305 11.616932 -1.519299 -28.794251 -4.496016 -11.211938 28.822162 8.430624 -5.745713 -13.156111 0.000000 0.000000 0.000000 -28.765257 1.803739 -3.582693 -46.330076 -2.095835 -6.868035 -15.893146 -47.289149 9.661642 0.000000 0.000000 0.000000 12.740264 0.317693 -0.159612 55.553293 -7.165106 -11.082339 3.571185 50.568419 4.927583 0.000000 0.000000 0.000000
-0.046685 1.013638 -0.574574 -2.397373 20.455760 3.896473 0.467798 -0.864436 -9.368171 -4.382234 0.217667 3.113130 4.486009 14.079160 13.389070 0.000000 0.000000 0.000000 0.463701 0.974903 -10.873237 -2.103234 -0.408640 30.047154 -0.629983 -2.667193 6.075425 0.000000 0.000000 0.000000 -1.743285 -1.196373 19.403000 11.392553 -1.489520 -28.375032 -3.837215 -10.021820 28.185597 8.177465 -5.317361 -13.219666 0.000000 0.000000 0.000000 -29.236620 1.768601 -4.214636 -46.619163 -1.560032 -6.876107 -16.499937 -47.075168 9.654955 0.000000 0.000000 0.000000 13.060809 1.481465 0.632823 55.352061 -6.195194 -10.542757 2.510705 50.518172 4.622131 0.000000 0.000000 0.000000
-0.053684 1.012857 -0.596659 -2.062687 20.151381 3.769220 0.240290 -1.117593 -11.451230 -4.230063 0.203026 3.489864 4.801572 14.416730 12.872953 0.000000 0.000000 0.000000 0.288099 0.936690 -10.527190 -1.914632 -0.165054 26.498619 -0.854624 -2.986339 5.054449 0.000000 0.000000 0.000000 -1.420429 -1.397461 20.786965 11.802595 -1.515663 -29.140065 -3.522761 -8.077482 28.455748 8.019848 -5.113237 -12.442860 0.000000 0.000000 0.000000 -30.173129 2.476032 -5.519909 -46.160773 -0.434051 -7.024997 -18.402125 -47.434827 10.350891 0.000000 0.000000 0.000000 13.822010 1.542919 0.970695 54.134509 -4.730577 -9.753825 2.876414 51.168163 5.152700 0.000000 0.000000 0.000000
-0.061271 1.014013 -0.619233 -1.603217 20.560445 3.520137 -0.143026 -1.389627 -13.361111 -4.295454 0.186216 4.368380 4.684045 14.314082 12.768245 0.000000 0.000000 0.000000 0.158416 0.925224 -10.654256 -1.114912 -0.350244 24.527383 -1.692813 -4.875850 5.267958 0.000000 0.000000 0.000000 -1.185532 -1.565721 21.728591 11.332207 -1.398991 -29.033453 -2.742552 -6.874965 28.249884 7.808958 -4.888079 -11.840176 0.000000 0.000000 0.000000 -30.467310 2.479066 -6.152480 -45.494147 -0.192304 -6.835776 -19.429451 -46.589530 10.369411 0.000000 0.000000 0.000000 13.816055 2.217502 1.548634 53.536228 -3.377575 -9.084603 1.827391 51.729865 4.925372 0.000000 0.000000 0.000000
-0.067995 1.017467 -0.641884 -1.598698 20.513872 3.301470 0.074545 -1.631803 -15.201961 -4.931978 0.220969 5.552502 4.712465 14.415563 12.827515 0.000000 0.000000 0.000000 0.002010 0.963225 -11.584408 0.197090 -0.735905 23.510821 -2.493387 -6.773466 6.980723 0.000000 0.000000 0.000000 0.036098 -2.008450 23.130554 11.442950 -1.412887 -28.940949 -2.852619 -4.471645 27.532014 8.065418 -4.831566 -11.349047 0.000000 0.000000 0.000000 -30.695071 2.609703 -7.247505 -45.251310 0.333940 -6.633300 -20.934060 -46.602592 10.671996 0.000000 0.000000 0.000000 14.188098 2.247520 1.935187 52.789323 -2.474980 -8.505627 1.961130 52.641930 5.390724 0.000000 0.000000 0.000000
-0.073061 1.021687 -0.663655 -1.128855 19.781809 3.545785 0.503336 -1.830937 -16.893021 -5.496950 0.273481 6.587219 5.541625 15.803003 13.799401 0.000000 0.000000 0.000000 -1.126055 0.937639 -13.713658 1.455347 -1.206346 24.530896 -2.402141 -6.775418 8.832190 0.000000 0.000000 0.000000 0.423114 -2.070342 23.263022 10.731233 -1.155947 -30.273211 -2.304514 -4.199145 28.737775 7.518164 -4.847347 -9.540705 0.000000 0.000000 0.000000 -31.871498 4.818288 -8.961882 -44.598564 1.793107 -7.119737 -23.096605 -45.251841 11.322760 0.000000 0.000000 0.000000 13.695324 3.250500 2.413616 50.783751 -1.536583 -8.005897 2.959416 53.879753 5.966464 0.000000 0.000000 0.000000
-0.076921 1.026220 -0.682870 -0.396914 19.445333 4.302067 0.544408 -1.883599 -17.323694 -6.851835 0.395288 9.189480 6.423851 16.561517 12.109725 0.000000 0.000000 0.000000 -2.372962 0.848270 -16.687883 2.138118 -1.542714 25.991007 -2.140404 -6.414671 10.084556 0.000000 0.000000 0.000000 0.297868 -1.809150 21.719658 11.124335 -1.313763 -29.132752 -2.178699 -2.474287 27.979328 7.389631 -4.690477 -8.723746 0.000000 0.000000 0.000000 -31.659436 3.875729 -8.958752 -44.479847 3.035094 -7.271617 -23.488466 -44.886950 11.127939 0.000000 0.000000 0.000000 13.191618 1.948797 1.945343 50.461269 -2.348230 -8.140185 5.735721 55.955411 8.016579 0.000000 0.000000 0.000000
-0.080012 1.030111 -0.698922 -0.090501 19.061500 3.653722 0.567144 -1.602906 -15.365970 -6.610254 0.192566 15.474092 8.064901 18.237138 9.618296 0.000000 0.000000 0.000000 -2.565055 0.848231 -19.015275 1.631811 -1.440999 27.695100 -1.825326 -6.032885 11.569680 0.000000 0.000000 0.000000 0.290634 -1.823184 22.034829 11.117369 -1.279274 -29.755545 -2.007598 -2.971588 28.298728 6.996350 -4.642468 -7.926055 0.000000 0.000000 0.000000 -32.367274 5.616581 -10.034127 -43.814003 3.830607 -7.488847 -25.008410 -44.780691 11.849672 0.000000 0.000000 0.000000 12.092553 1.464369 1.494431 49.694096 -2.387118 -8.033251 10.716035 57.031313 10.801338 0.000000 0.000000 0.000000
-0.082582 1.032417 -0.712593 -0.116529 20.476133 2.386952 -0.243732 -1.134186 -11.330918 -5.276398 -0.590491 21.937300 8.770254 18.722484 7.866928 0.000000 0.000000 0.000000 -2.765326 0.738267 -18.809390 2.252838 -1.726924 26.528878 -2.456691 -7.038724 11.157257 0.000000 0.000000 0.000000 1.017180 -1.980519 21.667669 9.897885 -1.002972 -29.708260 -1.871777 -4.324572 29.382094 7.964865 -5.721170 -7.566579 0.000000 0.000000 0.000000 -32.347564 3.837790 -8.550045 -42.770894 3.027218 -7.208645 -22.558657 -45.346445 11.045325 0.000000 0.000000 0.000000 13.001344 0.220782 0.924228 49.847671 -3.254782 -8.625694 11.697305 57.984641 11.713079 0.000000 0.000000 0.000000
-0.084829 1.034344 -0.725165 -1.266665 21.471972 1.477339 0.764985 -0.557208 -6.420678 -4.528120 -0.957471 23.068540 7.642759 16.852814 7.970847 0.000000 0.000000 0.000000 -2.533103 0.733992 -18.918222 3.267226 -2.053511 24.854555 -2.828266 -7.637522 11.755163 0.000000 0.000000 0.000000 1.772220 -2.042940 20.666289 10.398965 -1.139130 -29.315711 -3.166338 -5.392884 29.912521 8.831469 -6.754406 -6.762408 0.000000 0.000000 0.000000 -31.523476 4.881532 -8.873484 -42.605998 1.906717 -6.933647 -21.072593 -45.022652 10.365894 0.000000 0.000000 0.000000 13.289208 0.357870 0.972221 50.513752 -3.268306 -8.786746 11.865737 57.590272 11.704257 0.000000 0.000000 0.000000
-0.086740 1.036076 -0.738137 -2.022622 22.849944 1.635192 0.831296 -0.190979 -2.054363 -3.008024 -0.879179 18.198724 6.010001 14.111379 7.430056 0.000000 0.000000 0.000000 -3.337625 0.487190 -20.567894 3.958453 -2.430097 24.710862 -2.810741 -7.475207 12.524880 0.000000 0.000000 0.000000 2.338303 -1.966071 19.005887 10.480746 -1.212486 -27.976032 -3.977708 -6.579616 29.345120 8.353195 -6.328841 -6.807214 0.000000 0.000000 0.000000 -30.618686 4.147504 -8.060081 -42.236058 1.284172 -6.670102 -19.083022 -45.794442 9.680403 0.000000 0.000000 0.000000 14.099652 -0.819875 0.365945 51.088314 -3.939628 -9.100922 10.276215 57.144212 10.750256 0.000000 0.000000 0.000000
-0.088217 1.036601 -0.752936 -3.017256 23.188183 1.647697 1.905242 -0.049817 1.595727 -2.726047 -0.413624 12.353140 4.273721 11.443372 7.518019 0.000000 0.000000 0.000000 -3.359770 0.379758 -23.264911 4.494619 -2.853505 26.114483 -3.250889 -8.339350 13.821737 0.000000 0.000000 0.000000 2.120248 -1.822839 18.179179 11.007354 -1.305922 -28.443245 -4.346231 -7.138058 29.759876 8.098956 -6.364428 -5.911086 0.000000 0.000000 0.000000 -29.378497 4.760754 -8.029080 -41.664386 0.613236 -6.468236 -20.759771 -46.680685 10.627539 0.000000 0.000000 0.000000 14.992480 -2.249967 -0.386859 50.857573 -4.318057 -9.278821 11.950848 55.544202 11.223182 0.000000 0.000000 0.000000
-0.089451 1.035016 -0.770428 -3.219716 22.890158 1.736987 1.845206 0.033502 3.594231 -2.506446 -0.139107 7.778706 4.011248 10.734889 6.839623 0.000000 0.000000 0.000000 -3.905933 0.081323 -26.814380 4.302720 -3.165833 29.408193 -2.899025 -7.884551 14.593816 0.000000 0.000000 0.000000 1.581867 -1.694943 18.016763 11.044073 -1.354319 -28.158732 -4.692514 -7.425105 29.460264 7.835246 -6.135661 -5.927402 0.000000 0.000000 0.000000 -27.908080 4.588524 -7.386321 -42.090288 0.276636 -6.492190 -21.249564 -48.461737 11.342163 0.000000 0.000000 0.000000 15.359164 -3.212541 -0.981151 50.987469 -4.596955 -9.366949 11.377393 54.201728 10.504300 0.000000 0.000000 0.000000
-0.091171 1.032105 -0.789569 -3.599166 22.227615 1.191132 1.931889 0.043239 3.944421 -2.667672 -0.015709 5.753384 3.528398 10.198261 7.334153 0.000000 0.000000 0.000000 -3.865243 0.040190 -28.563909 4.791209 -3.449476 30.592180 -2.560917 -7.522008 15.739764 0.000000 0.000000 0.000000 0.846833 -1.647362 18.785392 10.839988 -1.285776 -28.687956 -4.794445 -7.878875 29.898198 7.032973 -5.243555 -7.292828 0.000000 0.000000 0.000000 -27.639437 4.814751 -7.097991 -41.920296 -1.007291 -6.215890 -20.669336 -49.639966 11.550896 0.000000 0.000000 0.000000 15.713810 -2.738357 -0.870284 51.164934 -4.520504 -9.455352 11.605676 52.699037 10.081184 0.000000 0.000000 0.000000
-0.094023 1.031261 -0.809530 -3.859875 21.059747 0.603744 2.124018 0.050341 4.350292 -3.518696 0.128642 4.311953 4.036041 11.153258 7.853568 0.000000 0.000000 0.000000 -4.217934 -0.135345 -31.426289 4.747820 -3.403298 31.979562 -2.438432 -7.844069 18.658716 0.000000 0.000000 0.000000 -0.412184 -1.481516 19.535201 10.312717 -1.217200 -28.432903 -4.451203 -8.901804 30.664617 5.807552 -3.976212 -9.619305 0.000000 0.000000 0.000000 -27.000943 5.876783 -6.931599 -42.194781 -2.747666 -5.979379 -20.231206 -51.742653 12.280271 0.000000 0.000000 0.000000 15.037097 -2.383410 -0.993178 51.763553 -3.545556 -9.214118 12.118631 51.494472 9.769229 0.000000 0.000000 0.000000
-0.098175 1.032067 -0.829315 -4.469814 19.438635 0.508060 2.634631 0.015039 4.201478 -4.249914 0.244626 2.059725 4.633690 12.751021 9.962169 0.000000 0.000000 0.000000 -4.346397 -0.175995 -34.256440 5.764599 -3.830251 33.652162 -4.737994 -11.982419 21.089516 0.000000 0.000000 0.000000 -1.424866 -1.330361 20.249141 11.999762 -1.598236 -29.023778 -5.381574 -7.463887 30.640039 5.731044 -3.693044 -10.348472 0.000000 0.000000 0.000000 -26.568784 5.222423 -6.531676 -42.248579 -2.483299 -6.025533 -20.671938 -55.038128 13.354933 0.000000 0.000000 0.000000 16.270859 -1.929342 -0.710271 50.824773 -2.670916 -8.773163 12.883694 52.094667 10.310696 0.000000 0.000000 0.000000
-0.103330 1.035169 -0.848057 -4.783382 18.190595 0.805125 3.000541 -0.017330 3.816415 -4.749873 0.294433 0.171529 5.405712 14.406397 12.009630 0.000000 0.000000 0.000000 -3.543745 0.077225 -37.354218 6.621180 -4.308937 35.877076 -4.725964 -12.127275 18.997633 0.000000 0.000000 0.000000 -2.750533 -1.052090 20.320942 11.990913 -1.661350 -28.410707 -4.928573 -7.962207 29.839215 3.877676 -2.198058 -11.354154 0.000000 0.000000 0.000000 -26.856638 6.376106 -6.881360 -42.279109 -2.650939 -6.064770 -21.229822 -57.619403 14.706977 0.000000 0.000000 0.000000 16.528837 -1.085760 -0.554759 50.409666 -2.885939 -8.716381 12.810125 52.581323 10.050969 0.000000 0.000000 0.000000
-0.109302 1.039494 -0.865591 -5.499975 17.804133 -0.268517 3.787496 -0.079105 3.987576 -5.289720 0.328847 -0.013931 5.933081 15.492775 13.541873 0.000000 0.000000 0.000000 -2.749673 0.384990 -37.755705 7.069191 -4.570071 36.444161 -5.380137 -13.242942 19.980931 0.000000 0.000000 0.000000 -3.467396 -1.039123 21.583932 11.933294 -1.677043 -28.288783 -4.467460 -7.863919 29.621516 4.314160 -2.624859 -10.946535 0.000000 0.000000 0.000000 -27.849594 5.761463 -6.637351 -40.840970 -3.254464 -5.641660 -19.011778 -59.527185 13.935296 0.000000 0.000000 0.000000 16.782235 -1.068979 -0.590655 50.099834 -2.783695 -8.634566 13.444333 53.904362 10.677937 0.000000 0.000000 0.000000
-0.115902 1.043917 -0.882070 -6.788199 17.389816 -0.476477 5.084473 -0.207972 3.649853 -5.284730 0.310421 -1.781872 6.284574 16.399801 15.688149 0.000000 0.000000 0.000000 -2.304295 0.611685 -37.920520 8.902171 -5.702981 37.803605 -8.875477 -18.622265 22.152081 0.000000 0.000000 0.000000 -4.325956 -0.822920 20.852345 13.333662 -2.055276 -28.179802 -5.128254 -7.871433 30.214040 3.793534 -2.230934 -11.004867 0.000000 0.000000 0.000000 -27.504631 5.260451 -6.130490 -40.501430 -2.463884 -5.898502 -19.624047 -63.144067 15.401343 0.000000 0.000000 0.000000 17.458178 -0.603918 -0.415009 49.854210 -2.925740 -8.667125 14.071597 55.595509 11.356346 0.000000 0.000000 0.000000
-0.122477 1.047488 -0.897273 -7.613651 17.194100 -0.011095 5.814647 -0.289496 3.225431 -5.443949 0.302944 -2.468893 6.692514 16.853128 15.423239 0.000000 0.000000 0.000000 -2.017836 0.742904 -38.236038 9.808994 -6.813854 41.197836 -7.344364 -16.594933 20.012532 0.000000 0.000000 0.000000 -4.543246 -0.681622 19.483263 12.140454 -1.743948 -28.615333 -4.169207 -9.890123 31.426297 2.572633 -1.452554 -12.067806 0.000000 0.000000 0.000000 -28.088783 6.369874 -6.188294 -40.046484 -2.085750 -6.267192 -21.538383 -64.204476 17.502270 0.000000 0.000000 0.000000 15.592075 -0.505951 -0.681040 51.748944 -3.752830 -9.340190 16.297009 56.737359 12.594968 0.000000 0.000000 0.000000
-0.128586 1.047645 -0.911354 -8.243202 16.295935 0.251159 6.671979 -0.365998 2.334116 -6.156237 0.327170 -2.845622 7.810645 18.202382 15.128967 0.000000 0.000000 0.000000 -1.213840 1.204382 -36.758328 9.508881 -7.115296 44.094628 -7.475037 -17.023383 18.647291 0.000000 0.000000 0.000000 -5.163735 -0.464494 18.116224 12.278068 -1.787866 -28.514874 -4.710933 -10.300019 32.803480 2.435859 -1.389004 -13.125130 0.000000 0.000000 0.000000 -27.752912 6.386463 -5.761250 -40.142497 -1.688596 -6.605327 -20.733410 -65.848843 17.829673 0.000000 0.000000 0.000000 16.831264 1.270897 0.064128 50.949932 -3.476608 -9.225004 15.743594 59.375743 12.859399 0.000000 0.000000 0.000000
-0.134170 1.048127 -0.924617 -8.501537 16.168138 1.068116 6.794780 -0.397315 0.714806 -5.773355 0.301622 -3.467166 7.710878 18.202666 15.630100 0.000000 0.000000 0.000000 -0.146855 1.614276 -34.793829 8.747762 -7.357641 47.289007 -7.891181 -17.894257 17.323340 0.000000 0.000000 0.000000 -5.461227 -0.372283 17.544280 12.406372 -1.825310 -28.313179 -4.596259 -10.005656 32.426122 2.637096 -1.539446 -12.683363 0.000000 0.000000 0.000000 -27.009493 6.326546 -5.699259 -40.701614 -0.312701 -7.051853 -25.595242 -66.978080 21.482676 0.000000 0.000000 0.000000 17.177911 0.681088 -0.221399 51.172903 -3.928370 -9.410159 15.695930 61.369872 13.464760 0.000000 0.000000 0.000000
-0.138964 1.048539 -0.936638 -8.103837 15.434842 1.838384 6.662303 -0.404337 -0.631160 -6.229142 0.317693 -3.692066 8.059694 18.564244 15.069127 0.000000 0.000000 0.000000 1.100022 2.056745 -31.785529 7.267045 -6.778427 49.567149 -6.469176 -15.730207 13.194182 0.000000 0.000000 0.000000 -6.369395 -0.198529 17.485114 11.821901 -1.684025 -28.252153 -3.859279 -9.849133 31.681326 3.813984 -2.571081 -11.933430 0.000000 0.000000 0.000000 -27.804857 6.248303 -5.728403 -40.750542 0.111440 -7.146085 -26.117856 -65.737638 21.360800 0.000000 0.000000 0.000000 16.818751 1.492553 0.153855 52.223035 -4.064783 -9.584665 13.928588 62.971143 12.797788 0.000000 0.000000 0.000000
-0.143663 1.048324 -0.947785 -7.594826 15.942729 2.301537 5.973149 -0.417564 -2.335554 -6.349896 0.312297 -3.650913 8.207985 18.965874 15.997242 0.000000 0.000000 0.000000 1.709796 2.082135 -27.652460 6.205475 -5.932130 47.153364 -5.641956 -14.141522 12.241397 0.000000 0.000000 0.000000 -6.726849 -0.184755 18.267676 11.119562 -1.505273 -28.390827 -4.026900 -9.874112 30.996395 4.633346 -3.431186 -10.091494 0.000000 0.000000 0.000000 -27.160223 6.304945 -5.803976 -41.112093 -0.317134 -6.957422 -25.234832 -64.304569 20.078631 0.000000 0.000000 0.000000 17.732734 0.334793 -0.487548 52.487710 -3.312766 -9.241127 12.657022 64.461398 12.475268 0.000000 0.000000 0.000000
-0.148072 1.047109 -0.958314 -7.562434 15.182313 3.045128 6.065329 -0.453684 -3.384261 -6.983783 0.327523 -3.999610 8.977982 19.922545 16.060079 0.000000 0.000000 0.000000 1.987215 2.069529 -24.175308 6.551406 -5.329990 43.287803 -5.740097 -14.381113 14.400623 0.000000 0.000000 0.000000 -7.617712 0.016506 17.416646 10.268031 -1.308480 -28.596678 -2.905667 -10.180151 31.836178 3.933541 -2.798819 -11.550185 0.000000 0.000000 0.000000 -27.567579 7.395115 -6.299640 -40.694088 -1.203032 -6.761902 -26.154780 -62.745724 20.290730 0.000000 0.000000 0.000000 16.343961 -0.225181 -0.857168 53.407443 -1.943010 -8.877865 14.618242 65.507855 13.956889 0.000000 0.000000 0.000000
-0.152193 1.045042 -0.968702 -7.682786 15.032107 3.421803 6.213144 -0.476769 -3.813499 -6.962908 0.293999 -4.893855 10.030127 21.387523 17.837065 0.000000 0.000000 0.000000 2.015227 1.958007 -21.683024 6.717903 -4.997623 40.670455 -6.525457 -15.745885 15.064935 0.000000 0.000000 0.000000 -8.097895 0.128013 16.090608 11.266238 -1.623997 -27.652969 -3.157934 -10.066022 31.909562 3.549885 -2.468330 -11.528854 0.000000 0.000000 0.000000 -26.741060 7.412493 -6.179825 -41.561852 -1.376760 -6.844893 -25.000059 -62.094289 19.372944 0.000000 0.000000 0.000000 15.809488 -0.286994 -0.851575 52.854761 -0.847563 -8.318453 15.187047 65.510433 14.294249 0.000000 0.000000 0.000000
-0.155786 1.040896 -0.978356 -7.037574 14.357764 4.778255 5.567507 -0.508018 -5.010119 -6.347475 0.256117 -6.099830 9.637134 21.005256 18.873452 0.000000 0.000000 0.000000 1.462694 1.739425 -19.084566 6.182921 -4.557252 40.621874 -6.418726 -15.684673 14.354145 0.000000 0.000000 0.000000 -8.520847 0.259617 14.673587 11.037057 -1.497066 -28.363680 -2.516460 -9.960054 32.413798 2.665265 -1.732275 -12.245589 0.000000 0.000000 0.000000 -26.932046 7.851616 -6.401103 -41.045818 -1.874414 -6.689270 -27.073382 -61.285919 20.414866 0.000000 0.000000 0.000000 14.161624 -0.052312 -0.665944 53.252781 -0.274998 -8.179994 15.551596 66.379507 14.760546 0.000000 0.000000 0.000000
-0.158948 1.034944 -0.986954 -6.296883 14.555643 5.274604 4.969011 -0.532504 -5.666591 -6.586784 0.254796 -6.082539 9.208644 20.546896 18.984187 0.000000 0.000000 0.000000 1.339664 1.531979 -16.306308 5.393518 -4.159761 40.247653 -6.461463 -15.750936 15.087238 0.000000 0.000000 0.000000 -8.545053 0.281123 13.724925 11.009871 -1.554565 -27.445240 -2.809821 -9.140372 30.968563 2.682613 -1.880955 -9.134755 0.000000 0.000000 0.000000 -26.178021 7.624504 -6.526806 -41.464216 -1.819876 -6.534567 -28.375764 -61.104713 20.861046 0.000000 0.000000 0.000000 14.037850 0.206680 -0.373660 53.749854 -0.588147 -8.212869 12.025880 67.982514 13.103917 0.000000 0.000000 0.000000
-0.161924 1.029356 -0.994914 -5.327986 15.036905 5.423953 3.889725 -0.534716 -5.924804 -6.548541 0.245301 -6.119191 9.026217 20.405312 19.276251 0.000000 0.000000 0.000000 1.157291 1.208102 -12.236700 5.284485 -3.919464 38.098093 -6.713566 -16.148877 15.548959 0.000000 0.000000 0.000000 -8.288432 0.248725 13.600701 10.169302 -1.318342 -27.863365 -2.894280 -8.022119 30.330575 3.906439 -2.994375 -7.058744 0.000000 0.000000 0.000000 -24.964534 6.499364 -6.103602 -41.386658 -1.598512 -6.403263 -29.349159 -59.946498 20.531609 0.000000 0.000000 0.000000 14.726264 -0.648899 -0.576839 53.099891 -1.005248 -8.241879 11.212491 68.626723 13.101547 0.000000 0.000000 0.000000
-0.165299 1.025174 -1.003367 -4.562101 14.337433 5.671420 3.439408 -0.559487 -6.414893 -6.852755 0.279157 -5.752427 9.693213 21.120208 18.696952 0.000000 0.000000 0.000000 0.702622 0.912847 -9.024280 4.960993 -3.362478 36.231542 -6.227293 -15.353468 16.556762 0.000000 0.000000 0.000000 -8.496540 0.301372 12.918083 10.161187 -1.360275 -27.290869 -2.865376 -6.624665 29.449804 4.395342 -3.403539 -6.070592 0.000000 0.000000 0.000000 -24.614515 6.890766 -6.625321 -41.530811 -1.472127 -6.292108 -30.998277 -58.615634 20.707765 0.000000 0.000000 0.000000 14.835391 -0.478952 -0.336079 53.048192 -0.918224 -8.099765 11.481920 68.652083 13.509212 0.000000 0.000000 0.000000
-0.169781 1.020620 -1.013528 -3.481157 13.822387 6.129496 2.760346 -0.645619 -7.585833 -7.044745 0.333162 -4.768329 10.341827 21.844994 17.772247 0.000000 0.000000 0.000000 -0.321398 0.556651 -5.553066 4.772960 -2.729126 32.600002 -5.732568 -14.520964 17.299618 0.000000 0.000000 0.000000 -8.675921 0.347905 12.591946 10.291473 -1.374965 -27.425343 -2.797762 -5.570822 29.194534 4.201676 -3.139578 -6.082535 0.000000 0.000000 0.000000 -24.912370 6.915965 -6.949017 -41.206891 -1.484967 -6.147026 -31.179897 -57.237361 20.045239 0.000000 0.000000 0.000000 15.076485 -0.073521 0.006850 53.352539 -0.805893 -8.084516 13.293992 69.498885 15.247810 0.000000 0.000000 0.000000
-0.175938 1.016209 -1.025843 -2.651968 13.034351 6.726628 2.256001 -0.809152 -9.465559 -7.270696 0.404993 -3.467438 10.951400 22.596358 17.477051 0.000000 0.000000 0.000000 -0.733709 0.317321 -3.022808 3.777322 -1.803635 28.893453 -4.332681 -12.145215 17.402566 0.000000 0.000000 0.000000 -8.714877 0.387298 12.511183 10.682498 -1.506679 -26.851733 -2.947447 -4.100138 28.431670 4.550246 -3.406505 -5.424071 0.000000 0.000000 0.000000 -24.718037 6.799432 -7.176211 -41.524592 -1.916323 -5.903063 -29.382370 -55.885491 18.250775 0.000000 0.000000 0.000000 15.366830 0.862440 0.657949 53.341816 -0.012355 -7.674395 11.249948 69.519323 14.048669 0.000000 0.000000 0.000000
-0.184028 1.010982 -1.040700 -1.710944 12.268973 7.533895 1.644641 -1.079039 -12.101398 -7.248130 0.474576 -1.806266 11.071045 22.759648 16.549351 0.000000 0.000000 0.000000 -1.259947 0.132714 -1.049257 3.683659 -1.322453 24.308122 -3.733093 -11.093312 16.766732 0.000000 0.000000 0.000000 -8.353725 0.387887 12.940535 10.601706 -1.460133 -26.934985 -2.731931 -3.184657 28.014787 4.249660 -3.173276 -4.836176 0.000000 0.000000 0.000000 -25.450602 6.534182 -7.343791 -41.150808 -2.562111 -5.562186 -27.468937 -54.120625 16.451281 0.000000 0.000000 0.000000 15.540126 1.120329 0.867763 53.545565 0.720945 -7.360854 12.415535 69.230610 14.898213 0.000000 0.000000 0.000000
-0.193890 1.006067 -1.058075 -0.951124 11.535638 8.290085 1.468315 -1.355963 -14.714127 -7.683064 0.562143 -0.219729 11.643766 23.519896 15.632364 0.000000 0.000000 0.000000 -1.753797 0.063765 -0.210108 3.169984 -0.850377 20.234568 -3.457263 -10.652139 16.809833 0.000000 0.000000 0.000000 -8.100179 0.393974 13.441716 10.840506 -1.521280 -26.735974 -2.930282 -2.260859 27.665167 4.075078 -2.869879 -5.305109 0.000000 0.000000 0.000000 -25.512193 6.308081 -7.389722 -41.455038 -3.086023 -5.367033 -25.273440 -53.189748 14.890857 0.000000 0.000000 0.000000 16.203970 1.743711 1.295098 53.728724 1.359045 -7.095906 12.392706 69.270503 14.996013 0.000000 0.000000 0.000000
-0.205053 0.998836 -1.077690 -0.562289 10.654547 8.401141 1.811176 -1.573780 -17.147890 -7.776571 0.659421 2.244620 11.926332 23.905428 14.042795 0.000000 0.000000 0.000000 -1.685066 0.017997 0.302665 2.777846 -0.540628 16.753525 -3.614369 -10.989964 16.504336 0.000000 0.000000 0.000000 -7.496185 0.332394 15.013997 11.135081 -1.551548 -27.041012 -2.748191 -1.348609 27.563516 3.530951 -2.197506 -6.165606 0.000000 0.000000 0.000000 -25.955213 6.097668 -7.469057 -41.812372 -3.145185 -5.353948 -24.184257 -52.801225 14.172859 0.000000 0.000000 0.000000 16.580448 1.856448 1.410457 53.643398 1.365890 -7.079873 14.746583 68.951646 16.542395 0.000000 0.000000 0.000000
-0.216833 0.990401 -1.098508 -0.197513 9.861115 8.489742 2.192272 -1.735925 -19.212843 -8.020639 0.757750 4.287726 12.157042 24.248240 12.950520 0.000000 0.000000 0.000000 -1.610883 0.110035 -0.689944 2.659989 -0.436029 15.478661 -3.677105 -11.200714 16.565557 0.000000 0.000000 0.000000 -6.862857 0.253209 16.092143 11.234924 -1.567446 -26.997122 -2.597939 -0.820542 27.645843 3.021228 -1.586400 -7.285551 0.000000 0.000000 0.000000 -26.329807 5.654448 -7.258864 -42.312003 -2.973945 -5.496755 -23.159670 -52.604782 13.634207 0.000000 0.000000 0.000000 16.795664 2.677891 1.844017 53.722472 1.304910 -7.131378 13.669879 68.785243 15.652858 0.000000 0.000000 0.000000
-0.228620 0.982187 -1.119393 0.248832 9.442843 8.219498 2.782780 -1.874243 -21.351490 -8.174575 0.831475 5.918682 11.333290 23.160879 13.662050 0.000000 0.000000 0.000000 -1.286345 0.178429 -1.491308 2.873229 -0.458099 14.753497 -4.432720 -12.573564 16.450535 0.000000 0.000000 0.000000 -6.337739 0.151473 17.738874 11.905918 -1.716272 -26.990300 -2.729784 -0.188633 27.285296 2.673323 -1.103190 -8.266279 0.000000 0.000000 0.000000 -26.429721 5.374688 -7.218731 -43.751936 -1.855945 -5.992630 -23.985644 -53.667179 14.363591 0.000000 0.000000 0.000000 17.038314 2.948175 2.042993 53.076977 0.651679 -7.305001 14.974784 69.386692 16.704270 0.000000 0.000000 0.000000
-0.240243 0.975805 -1.139582 0.760504 9.490848 8.037591 2.967027 -1.999680 -22.749669 -8.282788 0.867462 6.785052 11.124967 22.940255 14.601662 0.000000 0.000000 0.000000 -0.936547 0.234281 -2.132607 2.695910 -0.408577 14.493293 -5.141546 -13.763994 15.561542 0.000000 0.000000 0.000000 -5.673819 0.008100 18.770737 11.525596 -1.618634 -27.052929 -2.491004 -0.130278 27.149317 2.536284 -0.979069 -8.329672 0.000000 0.000000 0.000000 -26.775474 5.050336 -7.103989 -44.312279 -1.102492 -6.316885 -24.944819 -54.276991 15.083147 0.000000 0.000000 0.000000 17.079417 3.025781 2.083160 52.732487 -0.159217 -7.594068 15.497903 69.047210 16.866849 0.000000 0.000000 0.000000
-0.251734 0.970942 -1.159056 0.939067 9.147783 7.198261 3.734028 -1.902257 -23.105974 -8.410834 0.896992 6.711367 10.802815 22.515778 16.503527 0.000000 0.000000 0.000000 -0.197534 0.262449 -2.465254 2.552483 -0.354248 14.302600 -6.468479 -16.163580 14.758688 0.000000 0.000000 0.000000 -5.113831 -0.120166 19.675658 12.014752 -1.808533 -26.390171 -2.710458 0.542601 26.783882 2.733269 -1.162601 -7.780573 0.000000 0.000000 0.000000 -27.420054 5.073887 -7.409935 -44.719267 0.605865 -6.890207 -26.345621 -55.911614 16.319543 0.000000 0.000000 0.000000 18.101989 3.114831 2.257840 51.158425 -0.185466 -7.472987 14.892277 68.245704 16.127773 0.000000 0.000000 0.000000
-0.262947 0.966697 -1.178302 1.084297 9.039576 6.807027 4.574769 -1.859490 -24.122538 -8.656051 0.956172 7.448041 10.486150 22.118892 16.941791 0.000000 0.000000 0.000000 0.382127 0.295155 -2.792007 2.659704 -0.361046 13.347710 -7.389952 -17.895325 12.979852 0.000000 0.000000 0.000000 -4.384716 -0.296448 20.644530 11.194397 -1.538858 -27.130526 -2.148544 1.013403 27.179118 3.108016 -1.313389 -8.583721 0.000000 0.000000 0.000000 -27.589971 4.642337 -7.284863 -44.725537 1.672433 -7.266947 -27.923247 -56.417535 17.321890 0.000000 0.000000 0.000000 18.363658 2.575823 2.068027 49.852804 -0.609696 -7.561420 15.479592 67.220434 16.195790 0.000000 0.000000 0.000000
-0.273335 0.962732 -1.197293 0.955915 9.376244 6.528838 5.616084 -1.759537 -24.740254 -8.421636 0.942822 8.710672 10.191095 21.743386 16.069762 0.000000 0.000000 0.000000 0.985878 0.382037 -3.579693 3.504218 -0.586762 13.487186 -8.223608 -19.622252 10.412680 0.000000 0.000000 0.000000 -3.299507 -0.563773 21.242885 11.117321 -1.553787 -26.822610 -2.430606 1.551078 27.082078 3.750892 -1.366789 -11.024459 0.000000 0.000000 0.000000 -27.672202 5.015901 -7.812984 -44.919835 2.104229 -7.365030 -29.109007 -56.183325 17.750951 0.000000 0.000000 0.000000 18.332541 2.529557 2.201189 49.221810 -0.027325 -7.276653 13.562761 64.984373 14.342584 0.000000 0.000000 0.000000
-0.282013 0.959330 -1.214888 0.926377 9.215858 6.622517 7.002624 -1.542668 -25.047220 -8.597605 1.000495 9.750377 10.919891 22.705752 16.589489 0.000000 0.000000 0.000000 0.842118 0.605714 -5.767188 4.336268 -0.843613 15.060446 -8.238533 -19.760194 9.116517 0.000000 0.000000 0.000000 -3.259689 -0.554040 21.024195 11.520699 -1.589785 -27.340233 -2.439288 0.946609 28.022005 2.400539 -0.401490 -11.058539 0.000000 0.000000 0.000000 -29.038094 6.228144 -8.684511 -44.209166 3.588135 -7.828865 -30.893293 -56.180921 18.933952 0.000000 0.000000 0.000000 17.685155 3.834190 2.761501 47.551122 0.546600 -6.937529 13.760545 63.713939 13.821182 0.000000 0.000000 0.000000
-0.288563 0.957758 -1.228952 1.240501 9.595195 6.465580 6.749392 -1.544709 -24.207415 -8.915847 1.120430 13.795218 9.966545 21.374221 15.054994 0.000000 0.000000 0.000000 0.794357 0.716200 -6.905215 4.621874 -0.970863 15.875151 -8.650766 -20.629910 8.378908 0.000000 0.000000 0.000000 -2.867231 -0.595317 20.091514 11.181387 -1.636569 -26.094323 -2.040728 2.377557 27.019541 3.103869 -0.525964 -12.407939 0.000000 0.000000 0.000000 -28.347575 2.964812 -7.031605 -44.439927 4.352465 -7.917584 -27.594477 -56.353382 16.750702 0.000000 0.000000 0.000000 18.784776 1.558147 1.931265 46.695031 -0.595446 -7.273032 14.616621 62.569151 14.328677 0.000000 0.000000 0.000000
-0.293078 0.958273 -1.239608 1.274057 9.355557 5.060296 6.502994 -1.365091 -21.618396 -8.860100 1.194883 20.782657 9.473453 20.397514 12.384031 0.000000 0.000000 0.000000 0.956546 0.678835 -6.463226 4.495609 -0.934699 16.117041 -8.806557 -20.867230 9.036715 0.000000 0.000000 0.000000 -2.468957 -0.702354 20.610139 10.314253 -1.318376 -27.648676 -2.230728 0.409267 29.041576 3.542515 -1.402115 -10.928966 0.000000 0.000000 0.000000 -29.103628 5.394300 -7.909303 -44.444889 3.207611 -7.917320 -26.593052 -53.953522 15.937764 0.000000 0.000000 0.000000 18.739953 2.527173 2.038849 46.455923 0.706684 -6.944514 15.116844 59.361777 13.283189 0.000000 0.000000 0.000000
-0.295651 0.959551 -1.248069 1.233448 9.985011 4.973216 5.819440 -1.239169 -18.379632 -7.732186 0.832739 21.647265 9.529481 20.560690 14.169139 0.000000 0.000000 0.000000 0.863439 0.667469 -6.380997 4.751844 -0.985359 14.864556 -8.856220 -20.809743 9.990148 0.000000 0.000000 0.000000 -2.098079 -0.699108 18.985095 9.935372 -1.349267 -26.281784 -2.312306 -0.734535 28.288577 2.248511 -0.381642 -11.727661 0.000000 0.000000 0.000000 -28.960684 4.646148 -7.103935 -44.627099 2.406907 -7.719203 -22.718749 -51.895057 13.400040 0.000000 0.000000 0.000000 19.356782 2.641921 1.948626 46.475690 0.148104 -7.099529 12.494765 57.520250 11.136015 0.000000 0.000000 0.000000
-0.296438 0.960551 -1.255232 0.949305 10.107299 5.195923 5.855557 -0.968551 -14.448431 -7.461990 0.773798 18.955216 9.339018 20.436819 17.352365 0.000000 0.000000 0.000000 1.182204 0.719814 -6.773889 4.368527 -0.864933 14.252854 -8.460949 -19.995034 10.239200 0.000000 0.000000 0.000000 -1.976241 -0.641258 17.553495 10.078706 -1.304441 -27.121060 -2.615228 -1.314904 29.106267 2.465161 -0.465159 -13.059418 0.000000 0.000000 0.000000 -28.161309 4.700895 -6.756456 -45.152786 2.066806 -7.852260 -21.805945 -49.650504 12.424487 0.000000 0.000000 0.000000 19.340211 1.770432 1.381682 46.708258 -0.071999 -7.272529 13.682710 55.391635 11.213687 0.000000 0.000000 0.000000
-0.295920 0.960794 -1.261390 0.502214 9.916564 5.493307 5.713060 -0.768450 -11.079204 -6.601966 0.619845 15.236572 8.178476 18.917082 18.044535 0.000000 0.000000 0.000000 1.557981 0.773904 -7.145651 3.715343 -0.661686 13.440360 -7.690713 -18.476535 10.505679 0.000000 0.000000 0.000000 -1.603236 -0.602946 15.852681 9.999475 -1.316582 -26.879120 -2.882982 -1.540815 28.389320 2.243398 -0.215623 -13.953026 0.000000 0.000000 0.000000 -27.776273 5.404880 -7.077609 -45.348624 1.994745 -7.799265 -22.079652 -47.275801 11.883314 0.000000 0.000000 0.000000 19.105508 1.293570 1.011213 47.546317 0.057192 -7.213588 12.834662 52.956447 10.131462 0.000000 0.000000 0.000000
-0.294032 0.960818 -1.266724 0.054168 9.791648 5.275693 5.476806 -0.612181 -8.222080 -5.585233 0.462614 11.646604 7.026095 17.338304 17.724095 0.000000 0.000000 0.000000 1.621573 0.779573 -7.160173 3.811952 -0.659047 12.642428 -7.579460 -18.184334 11.698641 0.000000 0.000000 0.000000 -1.428778 -0.547464 14.392951 10.015968 -1.299947 -27.175061 -3.011779 -1.718308 28.494760 2.497634 -0.385369 -14.384259 0.000000 0.000000 0.000000 -27.591585 5.910988 -7.285392 -45.626240 2.165159 -7.939062 -21.923449 -45.046032 11.235732 0.000000 0.000000 0.000000 18.976221 0.948847 0.774839 47.912072 0.270933 -7.186546 13.186070 50.145469 9.607841 0.000000 0.000000 0.000000
-0.290665 0.961061 -1.271077 -0.273364 9.588220 5.115014 4.887545 -0.467249 -5.454024 -4.664277 0.363308 7.606916 6.427724 16.419067 17.099827 0.000000 0.000000 0.000000 1.736249 0.789751 -7.201233 3.400393 -0.537163 12.010423 -7.371474 -17.737077 12.891914 0.000000 0.000000 0.000000 -1.206240 -0.503938 13.044925 9.908355 -1.291354 -27.125713 -3.079182 -1.585934 28.359782 2.389252 -0.199225 -15.153042 0.000000 0.000000 0.000000 -27.781379 6.252341 -7.590799 -45.841458 2.125898 -7.922903 -21.106191 -42.686974 10.242592 0.000000 0.000000 0.000000 18.684513 0.531206 0.544119 48.692390 0.671793 -7.100151 12.586697 47.311993 8.695821 0.000000 0.000000 0.000000
-0.285989 0.961054 -1.274840 -0.617354 9.687118 4.499681 4.394656 -0.343894 -3.270849 -3.664509 0.269290 4.426238 6.310599 16.232937 16.972900 0.000000 0.000000 0.000000 1.793738 0.739822 -6.683380 3.373123 -0.526048 11.613790 -7.517663 -17.962473 13.564967 0.000000 0.000000 0.000000 -0.967744 -0.499693 12.317243 10.015384 -1.300730 -27.434412 -3.217256 -1.438841 28.526487 2.618759 -0.232901 -16.009222 0.000000 0.000000 0.000000 -28.032200 6.359804 -7.804270 -46.052272 2.170943 -7.956446 -20.520104 -40.637306 9.456545 0.000000 0.000000 0.000000 18.702343 0.188043 0.416572 48.949024 0.759297 -7.128945 12.787286 45.452241 8.402508 0.000000 0.000000 0.000000
-0.280427 0.961190 -1.278287 -0.902498 9.631136 4.124161 3.799372 -0.216104 -1.187014 -2.786440 0.220409 1.346125 6.149469 15.905288 16.410031 0.000000 0.000000 0.000000 1.940788 0.694928 -6.201798 3.093449 -0.447082 10.916806 -7.780561 -18.410990 14.127642 0.000000 0.000000 0.000000 -0.542402 -0.485668 11.121852 9.425015 -1.185417 -27.344200 -3.086622 -1.357862 28.377868 2.437833 0.072862 -17.443336 0.000000 0.000000 0.000000 -28.593026 6.281782 -7.934278 -45.997538 2.086741 -7.875020 -19.577977 -38.288108 8.511524 0.000000 0.000000 0.000000 18.832347 0.151364 0.423905 49.445518 0.522400 -7.280374 12.601998 43.426706 7.883788 0.000000 0.000000 0.000000
-0.274519 0.961235 -1.281652 -1.039723 9.746783 3.570029 3.209395 -0.113766 0.232860 -2.420078 0.214562 -0.433645 6.442060 16.268481 16.274884 0.000000 0.000000 0.000000 1.685782 0.605426 -5.441937 3.231807 -0.472079 10.335202 -7.963917 -18.725169 14.256967 0.000000 0.000000 0.000000 -0.367246 -0.478953 10.630395 9.102404 -1.098328 -27.606341 -3.174708 -1.264900 28.419576 2.585787 0.036832 -17.796837 0.000000 0.000000 0.000000 -29.200124 5.985705 -7.958816 -45.590039 2.137330 -7.785055 -18.541440 -37.138018 7.850162 0.000000 0.000000 0.000000 19.751034 0.136591 0.476846 49.218320 0.471042 -7.331460 12.217837 41.959884 7.416690 0.000000 0.000000 0.000000
-0.268675 0.961058 -1.284904 -1.243812 9.696466 2.930590 2.784214 -0.013373 1.612064 -2.179264 0.221270 -2.135844 6.832797 16.812539 16.610752 0.000000 0.000000 0.000000 1.513228 0.511087 -4.606777 3.173744 -0.447334 9.635582 -7.967157 -18.717504 14.635309 0.000000 0.000000 0.000000 -0.327113 -0.461122 10.235420 8.747986 -1.003027 -27.949130 -3.155479 -1.209461 28.698524 2.678076 0.077399 -18.740873 0.000000 0.000000 0.000000 -29.813229 5.528986 -7.804806 -45.339976 1.893135 -7.666714 -17.495524 -35.875492 7.219462 0.000000 0.000000 0.000000 20.235230 0.208300 0.540347 49.524148 0.517540 -7.403891 11.919410 40.505233 6.992842 0.000000 0.000000 0.000000
-0.263214 0.960576 -1.287993 -1.399507 9.666110 2.507023 2.480393 0.050826 2.417064 -2.272267 0.235731 -2.824546 7.150231 17.119167 15.874661 0.000000 0.000000 0.000000 1.454878 0.467528 -4.212746 3.224013 -0.455637 9.479772 -8.375300 -19.459274 14.541335 0.000000 0.000000 0.000000 -0.376015 -0.428343 9.743928 8.687921 -0.986528 -28.004015 -3.345237 -1.289788 28.731306 2.588575 0.151483 -19.026808 0.000000 0.000000 0.000000 -30.365733 5.109537 -7.611450 -44.766958 1.788332 -7.531755 -17.008482 -35.192826 6.917160 0.000000 0.000000 0.000000 20.948245 0.581456 0.738437 49.292789 0.401611 -7.448086 11.451137 39.440187 6.556966 0.000000 0.000000 0.000000
-0.258235 0.960192 -1.291032 -1.573354 9.658495 1.958570 2.300019 0.121077 3.436606 -2.477186 0.258145 -4.112022 7.683773 17.858314 16.278374 0.000000 0.000000 0.000000 1.221050 0.400599 -3.636358 3.335500 -0.474327 9.100877 -8.414383 -19.510546 14.843870 0.000000 0.000000 0.000000 -0.390504 -0.406853 9.366962 8.287527 -0.896197 -28.152086 -3.336092 -1.420737 28.852897 2.576419 0.239587 -20.021014 0.000000 0.000000 0.000000 -30.692569 4.503199 -7.214265 -44.525808 1.654179 -7.467977 -16.076529 -34.407794 6.469641 0.000000 0.000000 0.000000 21.377980 0.921598 0.916596 49.696651 0.432890 -7.514977 10.908599 37.774842 6.016741 0.000000 0.000000 0.000000
-0.253791 0.960076 -1.294014 -1.706824 9.716801 1.682777 2.116236 0.171934 4.120465 -2.529760 0.263549 -4.778455 7.553718 17.581692 15.475673 0.000000 0.000000 0.000000 1.006442 0.373568 -3.419303 3.596158 -0.531136 9.059398 -8.574248 -19.802781 14.709164 0.000000 0.000000 0.000000 -0.385390 -0.390740 9.046066 7.939786 -0.779982 -28.800882 -3.477176 -1.655042 29.131413 2.914498 0.010034 -20.340266 0.000000 0.000000 0.000000 -30.904957 4.217938 -6.980078 -44.479448 1.751269 -7.534824 -15.767591 -34.004292 6.313726 0.000000 0.000000 0.000000 21.783065 1.017357 0.933519 49.875565 0.191151 -7.656477 10.595106 36.356922 5.613519 0.000000 0.000000 0.000000
-0.249969 0.960031 -1.296749 -1.918001 10.088046 1.341636 2.083358 0.200548 4.664975 -2.646166 0.267032 -5.606235 7.722199 17.838063 15.631240 0.000000 0.000000 0.000000 0.768176 0.335712 -3.095027 3.742510 -0.567739 8.821738 -8.392623 -19.406198 15.159025 0.000000 0.000000 0.000000 -0.326557 -0.376203 8.631425 7.458913 -0.678401 -28.845679 -3.602533 -2.127980 29.146609 2.853882 0.118634 -21.390215 0.000000 0.000000 0.000000 -31.095702 3.803749 -6.655512 -44.392250 1.842724 -7.568478 -15.411518 -33.549546 6.126965 0.000000 0.000000 0.000000 22.184902 1.004675 0.868683 50.287992 0.015205 -7.770936 9.530365 34.844532 4.982085 0.000000 0.000000 0.000000
-0.246842 0.959759 -1.299005 -2.010767 10.308982 1.082006 2.001618 0.235638 5.243409 -2.618209 0.264278 -6.284505 7.414575 17.392294 15.308370 0.000000 0.000000 0.000000 0.686395 0.298844 -2.756151 3.864626 -0.594663 8.577113 -8.640943 -19.829685 15.110155 0.000000 0.000000 0.000000 -0.375872 -0.354341 8.282535 7.337528 -0.645322 -28.969775 -3.702802 -2.235011 29.353304 2.939673 0.071016 -21.444567 0.000000 0.000000 0.000000 -31.354161 3.365192 -6.423568 -44.309412 1.908129 -7.583266 -15.383771 -33.187239 6.045814 0.000000 0.000000 0.000000 22.553330 1.263312 1.054748 50.144009 -0.063192 -7.824133 8.776053 33.480010 4.510829 0.000000 0.000000 0.000000
-0.244483 0.959639 -1.300725 -2.138488 10.361125 0.744488 2.081488 0.251068 5.675473 -2.804297 0.267335 -6.931629 7.591147 17.714241 16.029660 0.000000 0.000000 0.000000 0.400697 0.257666 -2.406012 4.082644 -0.635644 8.265232 -8.435642 -19.424277 15.606780 0.000000 0.000000 0.000000 -0.392917 -0.349389 8.202867 7.014022 -0.563483 -29.275286 -3.668260 -2.273507 29.503566 2.627199 0.353545 -22.269383 0.000000 0.000000 0.000000 -31.575959 3.166918 -6.326382 -44.386376 1.957697 -7.628130 -15.187809 -32.317389 5.822982 0.000000 0.000000 0.000000 22.451544 1.432555 1.164634 50.836100 -0.062394 -7.931848 7.628038 32.089197 3.967937 0.000000 0.000000 0.000000
-0.242766 0.959413 -1.302099 -2.195112 10.443042 0.512549 2.198368 0.256127 5.997523 -3.065271 0.267967 -7.546931 7.692652 17.934548 16.780245 0.000000 0.000000 0.000000 0.304686 0.208248 -1.946376 4.230610 -0.656544 7.705779 -8.597313 -19.693870 15.759374 0.000000 0.000000 0.000000 -0.409534 -0.334022 7.922263 6.588918 -0.477662 -29.340360 -3.596050 -2.458436 29.495364 2.420133 0.493767 -22.569890 0.000000 0.000000 0.000000 -31.650595 3.130996 -6.268792 -44.631105 2.409659 -7.837551 -15.290356 -31.577080 5.720394 0.000000 0.000000 0.000000 22.527461 1.720271 1.300098 50.917353 -0.045548 -7.926420 6.805243 30.554489 3.493646 0.000000 0.000000 0.000000
-0.241580 0.959213 -1.303153 -2.287299 10.445502 0.325229 2.378424 0.257135 6.359769 -3.327364 0.265210 -8.209453 7.791164 18.126010 17.420131 0.000000 0.000000 0.000000 0.200266 0.144244 -1.347937 4.267330 -0.647345 6.912074 -8.310493 -19.204326 15.739001 0.000000 0.000000 0.000000 -0.414413 -0.327632 7.798139 6.247094 -0.391407 -29.742178 -3.574400 -2.436293 29.574753 2.035849 0.808877 -23.289837 0.000000 0.000000 0.000000 -31.840375 3.122870 -6.315236 -44.734386 2.723070 -7.963179 -15.549256 -30.517730 5.587942 0.000000 0.000000 0.000000 22.475019 1.758333 1.335141 51.249121 -0.129633 -8.009912 6.209188 29.612408 3.211091 0.000000 0.000000 0.000000
-0.240730 0.959138 -1.303922 -2.333519 10.354708 0.275540 2.337931 0.264509 6.407999 -3.245443 0.261521 -8.580867 7.981761 18.444307 18.209425 0.000000 0.000000 0.000000 0.206548 0.108486 -1.010892 4.027370 -0.585700 6.197567 -8.081281 -18.791157 16.065713 0.000000 0.000000 0.000000 -0.474612 -0.305341 7.453999 6.123864 -0.352972 -30.066889 -3.499851 -2.261400 29.864452 1.872886 0.961598 -23.625008 0.000000 0.000000 0.000000 -31.923563 3.307782 -6.505626 -44.962826 3.140722 -8.160129 -15.823720 -29.699825 5.503291 0.000000 0.000000 0.000000 22.234931 1.774640 1.391832 51.401609 0.065290 -7.985718 5.987501 29.275020 3.120610 0.000000 0.000000 0.000000
-0.240103 0.959208 -1.304346 -2.405254 10.303763 0.116747 2.406010 0.265364 6.540407 -3.314810 0.263133 -8.555034 8.008616 18.471164 18.195871 0.000000 0.000000 0.000000 0.164699 0.065632 -0.611588 3.862241 -0.543621 5.499729 -7.800176 -18.271396 16.735363 0.000000 0.000000 0.000000 -0.471954 -0.303317 7.407525 5.726006 -0.269130 -30.226101 -3.354796 -2.298958 29.878256 1.233205 1.404732 -24.299598 0.000000 0.000000 0.000000 -31.920367 3.514467 -6.620756 -45.161866 3.248452 -8.246104 -16.081188 -29.060491 5.453073 0.000000 0.000000 0.000000 21.846352 1.783778 1.374399 51.802672 0.125191 -8.001033 6.060869 29.052105 3.111746 0.000000 0.000000 0.000000
-0.239607 0.959341 -1.304368 -2.359359 10.166471 -0.080338 2.232379 0.292350 6.702935 -3.170933 0.265888 -8.411597 8.079093 18.553629 18.230250 0.000000 0.000000 0.000000 0.193985 0.018565 -0.177677 3.672849 -0.502959 5.157788 -7.739995 -18.196720 16.640168 0.000000 0.000000 0.000000 -0.543811 -0.283261 7.114663 5.564580 -0.250512 -29.947010 -3.343594 -2.124144 29.642097 0.989002 1.587711 -24.462778 0.000000 0.000000 0.000000 -31.934287 3.434263 -6.614791 -45.182243 3.532164 -8.315538 -16.311002 -28.583699 5.407011 0.000000 0.000000 0.000000 21.763192 1.767492 1.376015 51.803341 0.272699 -7.917380 6.192459 29.076383 3.147001 0.000000 0.000000 0.000000
-0.239223 0.959265 -1.304004 -2.408257 9.982830 -0.248374 2.191960 0.309910 6.925153 -3.073162 0.267395 -8.407532 8.189354 18.675691 18.233864 0.000000 0.000000 0.000000 0.135303 -0.040342 0.365598 3.658597 -0.492557 4.597978 -7.381899 -17.618296 16.486060 0.000000 0.000000 0.000000 -0.568044 -0.273483 6.956073 5.238985 -0.177047 -30.129317 -3.132419 -1.932414 29.659164 0.522993 1.910688 -24.773517 0.000000 0.000000 0.000000 -31.841193 3.501107 -6.665626 -45.120024 3.702366 -8.366244 -16.495459 -27.898992 5.312051 0.000000 0.000000 0.000000 21.535675 1.724777 1.369985 52.057137 0.236322 -7.968939 6.420008 29.308256 3.246529 0.000000 0.000000 0.000000
-0.239009 0.959081 -1.303516 -2.455710 9.672329 -0.398216 2.248190 0.315471 7.038125 -3.150310 0.274384 -8.210070 8.381798 18.893600 18.213321 0.000000 0.000000 0.000000 0.219813 -0.088041 0.791610 3.394000 -0.440100 4.258105 -6.971118 -16.958754 16.141343 0.000000 0.000000 0.000000 -0.587576 -0.261063 6.729585 5.093981 -0.156620 -30.007198 -2.971565 -1.645323 29.569525 0.551678 1.904965 -24.655030 0.000000 0.000000 0.000000 -31.635646 3.444711 -6.619556 -44.951519 3.736318 -8.333026 -16.774648 -27.443988 5.277176 0.000000 0.000000 0.000000 21.405081 1.655099 1.343513 52.040375 0.528166 -7.839255 6.488041 29.289261 3.263971 0.000000 0.000000 0.000000
-0.238935 0.958889 -1.303222 -2.469266 9.500472 -0.349157 2.381810 0.304945 7.026402 -3.396386 0.279682 -8.217560 8.476533 19.000693 18.216692 0.000000 0.000000 0.000000 0.136487 -0.097901 0.891419 3.333582 -0.426316 3.920156 -6.657453 -16.430825 16.288837 0.000000 0.000000 0.000000 -0.591586 -0.250218 6.509274 4.799121 -0.105102 -29.847313 -2.907071 -1.565470 29.376956 0.512885 1.939879 -24.865839 0.000000 0.000000 0.000000 -31.461323 3.410535 -6.553776 -44.812133 3.497103 -8.212564 -16.749801 -26.924565 5.159349 0.000000 0.000000 0.000000 21.333648 1.659798 1.331257 52.332363 0.673693 -7.789311 6.542882 29.432445 3.302459 0.000000 0.000000 0.000000
-0.238883 0.958756 -1.303256 -2.543476 9.269962 -0.314400 2.442873 0.295374 6.869882 -3.415324 0.285321 -7.991407 8.639402 19.190424 18.186994 0.000000 0.000000 0.000000 0.086939 -0.094102 0.864307 3.343797 -0.424947 3.841039 -6.310498 -15.855475 16.276035 0.000000 0.000000 0.000000 -0.610692 -0.245503 6.435562 4.703210 -0.087407 -29.872714 -2.779395 -1.349767 29.273499 0.536445 1.940215 -24.872053 0.000000 0.000000 0.000000 -31.348530 3.248936 -6.447985 -44.628893 3.416149 -8.136184 -16.705221 -26.735513 5.100188 0.000000 0.000000 0.000000 21.285824 1.685789 1.356643 52.592650 0.953642 -7.691820 6.533815 29.634143 3.336343 0.000000 0.000000 0.000000
-0.238803 0.958636 -1.303515 -2.622363 9.027498 -0.299535 2.398958 0.293970 6.678668 -3.250622 0.288347 -7.690636 8.824232 19.408627 18.146674 0.000000 0.000000 0.000000 -0.024775 -0.089973 0.841683 3.491379 -0.446407 3.846697 -5.943403 -15.244527 16.075404 0.000000 0.000000 0.000000 -0.581613 -0.240968 6.298175 4.563930 -0.074642 -29.587869 -2.761541 -1.276139 28.957717 0.487508 1.954236 -24.780426 0.000000 0.000000 0.000000 -31.361175 3.157131 -6.368902 -44.348251 3.255058 -8.001043 -16.281390 -26.299802 4.904865 0.000000 0.000000 0.000000 21.335557 1.866117 1.425637 52.816158 1.180256 -7.580246 6.355017 29.578652 3.275660 0.000000 0.000000 0.000000
-0.238779 0.958509 -1.303812 -2.622133 8.890697 -0.304720 2.374175 0.300093 6.713498 -3.242699 0.289474 -7.747389 8.901689 19.498828 18.167986 0.000000 0.000000 0.000000 -0.139713 -0.067566 0.647314 3.612339 -0.466669 4.237422 -5.777163 -14.964861 15.805882 0.000000 0.000000 0.000000 -0.699210 -0.238067 6.399454 4.536901 -0.070331 -29.528288 -2.746902 -1.356810 28.843967 0.436703 1.949960 -24.690421 0.000000 0.000000 0.000000 -31.571383 3.012730 -6.240148 -44.123436 3.059237 -7.899630 -15.523127 -25.967564 4.669661 0.000000 0.000000 0.000000 21.357815 1.987898 1.443739 52.917525 1.310244 -7.520969 6.460711 29.631719 3.301728 0.000000 0.000000 0.000000
-0.238913 0.958354 -1.304114 -2.684494 8.656181 -0.431891 2.356474 0.307716 6.753038 -3.125880 0.291314 -7.579156 9.062596 19.686257 18.146998 0.000000 0.000000 0.000000 -0.179833 -0.062277 0.602062 3.605005 -0.463801 4.506510 -5.434977 -14.389100 15.688128 0.000000 0.000000 0.000000 -0.784898 -0.235967 6.472456 4.607711 -0.097230 -29.258889 -2.846898 -1.271751 28.816592 0.555149 1.856818 -24.533346 0.000000 0.000000 0.000000 -31.896291 2.647461 -6.018621 -43.838136 2.803822 -7.762155 -14.574351 -25.547764 4.373559 0.000000 0.000000 0.000000 21.699760 2.065910 1.469035 52.931589 1.457554 -7.466060 6.174452 29.727617 3.239282 0.000000 0.000000 0.000000
-0.239354 0.958186 -1.304506 -2.783550 8.597003 -0.525335 2.512130 0.295530 6.773036 -3.179353 0.293572 -7.499474 9.119342 19.749182 18.078651 0.000000 0.000000 0.000000 -0.089235 -0.054540 0.519509 3.675079 -0.476501 4.732816 -5.436231 -14.398289 15.659456 0.000000 0.000000 0.000000 -0.792029 -0.235354 6.460559 4.520576 -0.103566 -28.664951 -2.955703 -1.469764 28.568311 0.657495 1.744004 -24.399054 0.000000 0.000000 0.000000 -32.183273 2.280435 -5.724550 -43.786924 2.567997 -7.675947 -13.611607 -25.184865 4.099322 0.000000 0.000000 0.000000 21.930018 2.269421 1.511827 52.966136 1.488840 -7.425098 5.984682 29.837839 3.189385 0.000000 0.000000 0.000000
-0.240084 0.958101 -1.304962 -2.774787 8.346697 -0.664966 2.555160 0.300710 6.860042 -3.239804 0.298800 -7.392612 9.258261 19.913087 18.128569 0.000000 0.000000 0.000000 0.031205 -0.061530 0.571895 3.552704 -0.452589 4.858699 -5.430451 -14.413773 15.428224 0.000000 0.000000 0.000000 -0.976256 -0.228794 6.574191 4.626008 -0.144174 -28.307930 -3.171821 -1.352406 28.470591 1.034290 1.512509 -24.492950 0.000000 0.000000 0.000000 -32.508455 1.922927 -5.514392 -43.514563 2.321229 -7.536649 -12.629201 -24.885294 3.829001 0.000000 0.000000 0.000000 22.300823 2.320624 1.522379 53.115357 1.440404 -7.456375 5.877948 29.995310 3.181388 0.000000 0.000000 0.000000
-0.241052 0.958170 -1.305547 -2.895285 8.351099 -0.729441 2.629242 0.290992 6.804531 -3.039332 0.294435 -7.289204 9.282389 19.945175 18.113676 0.000000 0.000000 0.000000 0.243477 -0.073193 0.655551 3.511058 -0.445078 4.735698 -5.415331 -14.385439 15.427459 0.000000 0.000000 0.000000 -1.111217 -0.221256 6.579114 4.745829 -0.182963 -28.014269 -3.338872 -1.397581 28.327213 1.154682 1.429201 -24.433397 0.000000 0.000000 0.000000 -32.647039 1.645905 -5.335454 -43.609697 2.132141 -7.479388 -12.067769 -24.600389 3.660741 0.000000 0.000000 0.000000 22.501976 2.415659 1.565118 53.268061 1.293078 -7.521084 5.744875 29.924775 3.135417 0.000000 0.000000 0.000000
-0.242198 0.958196 -1.306175 -3.015139 8.363392 -0.785347 2.626889 0.286066 6.708511 -2.685529 0.285609 -7.141222 9.316394 19.989890 18.083008 0.000000 0.000000 0.000000 0.501057 -0.095807 0.827967 3.329319 -0.413318 4.411994 -5.300718 -14.181410 15.489253 0.000000 0.000000 0.000000 -1.229606 -0.208583 6.426934 4.746157 -0.201598 -27.619623 -3.308404 -1.553791 28.281486 1.233261 1.354176 -24.402326 0.000000 0.000000 0.000000 -32.625551 1.531327 -5.186733 -44.097110 1.950311 -7.522562 -12.010742 -24.748453 3.684279 0.000000 0.000000 0.000000 22.441852 2.648653 1.661806 53.597607 1.282194 -7.548253 5.601838 29.696153 3.063645 0.000000 0.000000 0.000000
-0.243583 0.958178 -1.306896 -3.044942 8.509614 -0.830252 2.700851 0.276488 6.697814 -2.587876 0.281491 -7.180567 9.240047 19.901557 18.056148 0.000000 0.000000 0.000000 0.724220 -0.140101 1.185915 3.162009 -0.386689 3.846130 -5.306357 -14.168279 15.354242 0.000000 0.000000 0.000000 -1.258911 -0.204755 6.363799 4.657695 -0.186441 -27.469491 -3.408661 -1.648743 28.320576 1.411093 1.249827 -24.473494 0.000000 0.000000 0.000000 -32.566967 1.352213 -5.050725 -44.419785 1.780482 -7.526575 -12.215016 -25.082727 3.786764 0.000000 0.000000 0.000000 22.382008 2.571936 1.621296 53.807148 1.133280 -7.634835 5.747960 29.591971 3.091606 0.000000 0.000000 0.000000
-0.245257 0.958098 -1.307667 -3.131615 8.570157 -0.742619 2.784821 0.259205 6.526182 -2.387840 0.275609 -7.203707 9.231771 19.896537 18.044637 0.000000 0.000000 0.000000 0.976081 -0.168356 1.386995 2.922835 -0.349598 3.284232 -5.056707 -13.706571 15.198299 0.000000 0.000000 0.000000 -1.280076 -0.203379 6.356820 4.592137 -0.170134 -27.495489 -3.294590 -1.544964 28.377746 1.632819 1.143533 -24.543057 0.000000 0.000000 0.000000 -32.362062 1.437239 -5.135838 -44.788520 1.685270 -7.551657 -12.804495 -25.696703 4.018791 0.000000 0.000000 0.000000 22.332291 2.441151 1.593314 53.998875 1.120228 -7.676420 5.892353 29.206984 3.089070 0.000000 0.000000 0.000000
-0.247095 0.958027 -1.308582 -3.155585 8.634489 -0.659342 2.982867 0.235050 6.413823 -2.490720 0.277501 -7.323861 9.189451 19.849884 18.069838 0.000000 0.000000 0.000000 1.147659 -0.194944 1.579563 2.685768 -0.316681 2.593530 -4.833260 -13.306885 15.380915 0.000000 0.000000 0.000000 -1.300902 -0.195161 6.177518 4.614371 -0.176311 -27.445877 -3.202245 -1.351062 28.263222 1.699473 1.137460 -24.451640 0.000000 0.000000 0.000000 -31.829835 1.485535 -5.177997 -45.009811 2.008508 -7.678495 -13.823708 -26.675155 4.410748 0.000000 0.000000 0.000000 22.310069 2.403433 1.635647 54.071688 0.881000 -7.782822 6.169069 29.061781 3.143837 0.000000 0.000000 0.000000
-0.248830 0.957816 -1.309621 -3.204489 8.675387 -0.483328 3.256874 0.198484 6.169145 -2.701875 0.281672 -7.404436 9.175687 19.835859 18.052246 0.000000 0.000000 0.000000 1.354744 -0.211808 1.677298 2.581503 -0.305591 2.026830 -4.756718 -13.149977 15.145146 0.000000 0.000000 0.000000 -1.235078 -0.191835 6.002809 4.633962 -0.175617 -27.557962 -3.135015 -1.250596 28.146500 1.996778 0.973806 -24.384375 0.000000 0.000000 0.000000 -31.192158 1.818293 -5.350575 -45.325512 2.333137 -7.833887 -15.067443 -27.380895 4.832005 0.000000 0.000000 0.000000 22.088210 2.141549 1.512406 54.145032 0.716864 -7.842082 6.503925 29.022255 3.229117 0.000000 0.000000 0.000000
-0.250115 0.957579 -1.310760 -3.150987 8.464331 -0.428280 3.342679 0.186390 5.975363 -2.868542 0.288226 -7.256599 9.304425 19.989630 18.074121 0.000000 0.000000 0.000000 1.218738 -0.205337 1.648569 2.543710 -0.300909 1.760025 -4.311146 -12.382293 15.215512 0.000000 0.000000 0.000000 -1.207990 -0.188978 5.904570 4.477336 -0.130325 -27.906093 -2.807569 -1.056812 28.434664 2.082688 0.924598 -24.330098 0.000000 0.000000 0.000000 -30.703388 1.990748 -5.378942 -45.398487 2.539587 -7.957367 -16.310671 -28.017145 5.267303 0.000000 0.000000 0.000000 21.992244 1.876716 1.377409 54.097681 0.701864 -7.872321 6.936900 29.054059 3.348140 0.000000 0.000000 0.000000
-0.250820 0.957525 -1.311875 -3.165582 8.306817 -0.319073 3.275821 0.184013 5.744733 -2.693079 0.285678 -7.171321 9.413729 20.125404 18.122762 0.000000 0.000000 0.000000 1.283824 -0.206805 1.645217 2.395945 -0.281328 1.508482 -4.047079 -11.906936 14.980037 0.000000 0.000000 0.000000 -1.169461 -0.175903 5.521670 4.510308 -0.152527 -27.631190 -2.619836 -0.994591 28.209519 2.182422 0.793733 -23.543542 0.000000 0.000000 0.000000 -30.221646 2.106124 -5.359505 -45.804219 2.762084 -8.101886 -16.878814 -28.524391 5.515754 0.000000 0.000000 0.000000 21.751335 1.942236 1.393446 54.119077 0.784360 -7.802007 6.886431 29.108408 3.337567 0.000000 0.000000 0.000000
-0.250943 0.957649 -1.312800 -3.097462 8.081475 -0.277153 3.186154 0.195929 5.763800 -2.705355 0.288298 -7.325644 9.506613 20.239330 18.297177 0.000000 0.000000 0.000000 1.219829 -0.208207 1.667700 2.230655 -0.257952 1.403252 -3.736055 -11.350283 14.726778 0.000000 0.000000 0.000000 -1.135576 -0.171058 5.362313 4.513032 -0.144389 -27.902153 -2.442354 -1.014077 28.427514 2.171504 0.765807 -23.489565 0.000000 0.000000 0.000000 -30.102507 2.401538 -5.453337 -46.056588 2.794002 -8.205552 -17.262759 -28.452992 5.621498 0.000000 0.000000 0.000000 21.538415 1.699890 1.205338 54.002539 0.827509 -7.779394 7.349412 29.466091 3.503560 0.000000 0.000000 0.000000
-0.250685 0.957781 -1.313573 -3.020035 7.853578 -0.239065 3.133538 0.211062 5.918122 -2.841284 0.293497 -7.684346 9.576151 20.322502 18.509598 0.000000 0.000000 0.000000 1.193514 -0.217934 1.752492 2.071470 -0.236280 1.280325 -3.588756 -11.071408 14.324741 0.000000 0.000000 0.000000 -1.026643 -0.161684 4.987742 4.503760 -0.140465 -27.991467 -2.307124 -1.046844 28.583847 2.058326 0.788404 -23.303013 0.000000 0.000000 0.000000 -30.180499 2.654334 -5.553196 -46.092712 3.138304 -8.372759 -17.159836 -28.223106 5.565380 0.000000 0.000000 0.000000 21.562594 1.468299 1.020279 53.674917 0.846931 -7.746626 7.692896 29.795985 3.631894 0.000000 0.000000 0.000000
-0.250276 0.958090 -1.314232 -2.962338 7.720554 -0.280555 3.153227 0.225414 6.212911 -3.062428 0.297892 -8.147738 9.567516 20.312090 18.748587 0.000000 0.000000 0.000000 1.011713 -0.216027 1.775921 2.095035 -0.240217 1.182269 -3.387898 -10.750738 14.571822 0.000000 0.000000 0.000000 -0.961447 -0.151133 4.636166 4.588647 -0.163360 -27.888927 -2.389584 -1.169501 28.526615 2.086020 0.710262 -23.013955 0.000000 0.000000 0.000000 -30.429185 2.991292 -5.746236 -46.199169 3.355951 -8.483946 -16.698220 -27.686863 5.354110 0.000000 0.000000 0.000000 21.828249 1.184898 0.789522 53.241849 0.724743 -7.745078 7.843808 30.093835 3.704006 0.000000 0.000000 0.000000
-0.249913 0.958449 -1.314813 -2.926435 7.404143 -0.345271 3.179591 0.242188 6.500663 -3.275374 0.303827 -8.512288 9.662531 20.423773 19.046759 0.000000 0.000000 0.000000 0.867419 -0.220447 1.845640 2.073236 -0.236949 1.095035 -3.080559 -10.249697 14.662493 0.000000 0.000000 0.000000 -0.965611 -0.136533 4.253106 4.738877 -0.200835 -27.880728 -2.357477 -1.323408 28.551503 2.007452 0.677322 -22.771858 0.000000 0.000000 0.000000 -30.637713 3.296382 -5.838778 -46.300603 3.644532 -8.648347 -16.260350 -26.915663 5.116098 0.000000 0.000000 0.000000 21.688395 1.016859 0.578951 53.417013 0.489507 -7.840991 7.791281 30.516456 3.739759 0.000000 0.000000 0.000000
-0.249686 0.958851 -1.315220 -2.982261 7.107381 -0.468567 3.191530 0.251843 6.611603 -3.263947 0.308068 -8.463655 9.802554 20.587573 19.232476 0.000000 0.000000 0.000000 0.800063 -0.208248 1.756561 2.195501 -0.248925 1.282097 -2.943017 -10.086382 14.976044 0.000000 0.000000 0.000000 -0.937166 -0.131031 4.064282 4.947097 -0.246362 -27.967805 -2.471437 -1.238386 28.614943 2.272935 0.463903 -22.475618 0.000000 0.000000 0.000000 -30.720764 3.470210 -5.923246 -46.214663 3.799737 -8.704299 -15.678652 -25.991985 4.797991 0.000000 0.000000 0.000000 21.884678 0.787279 0.404268 53.021577 0.443941 -7.818693 7.895733 30.443223 3.743650 0.000000 0.000000 0.000000
-0.249630 0.959147 -1.315410 -2.947381 6.832097 -0.597148 3.044180 0.285764 6.934694 -3.119723 0.308329 -8.738240 9.902156 20.701942 19.483190 0.000000 0.000000 0.000000 0.821322 -0.233161 1.967548 2.231749 -0.256660 0.988397 -3.124719 -10.493445 15.239842 0.000000 0.000000 0.000000 -1.056659 -0.124822 4.018286 5.178025 -0.304213 -27.880466 -2.660001 -0.938492 28.128274 2.459773 0.338475 -22.085870 0.000000 0.000000 0.000000 -30.309853 3.784271 -6.115851 -46.328026 4.116544 -8.789438 -15.716970 -25.350182 4.669685 0.000000 0.000000 0.000000 22.156483 0.503131 0.249261 52.978696 0.009771 -7.956164 8.254066 30.460969 3.845599 0.000000 0.000000 0.000000
-0.249597 0.959236 -1.315472 -2.959840 6.974565 -0.695750 3.318288 0.274341 7.277276 -3.555407 0.308818 -9.184264 9.751186 20.522507 19.544399 0.000000 0.000000 0.000000 0.721445 -0.253651 2.168998 2.420819 -0.285155 0.806264 -3.129564 -10.502018 15.385242 0.000000 0.000000 0.000000 -1.223353 -0.109377 3.748752 5.086905 -0.276310 -28.028348 -2.677451 -1.374192 28.227695 2.277158 0.416017 -22.343298 0.000000 0.000000 0.000000 -30.474010 4.012967 -6.164619 -45.675293 4.261714 -8.755775 -15.568805 -24.766258 4.532103 0.000000 0.000000 0.000000 22.043260 0.506759 0.160198 53.168684 -0.699890 -8.271488 8.357583 29.925023 3.767605 0.000000 0.000000 0.000000
-0.249594 0.959134 -1.315606 -2.791796 6.918170 -0.890248 3.189884 0.309489 7.723777 -3.656461 0.307465 -9.552195 9.717182 20.477616 19.649805 0.000000 0.000000 0.000000 0.346728 -0.275195 2.457917 2.631150 -0.316495 0.499941 -2.992767 -10.325736 15.781063 0.000000 0.000000 0.000000 -1.024326 -0.127420 4.047115 4.600570 -0.174162 -27.973452 -2.648389 -1.193473 27.967961 2.334536 0.385446 -22.093456 0.000000 0.000000 0.000000 -30.465684 4.008413 -6.226781 -45.286620 4.137433 -8.593915 -14.910538 -24.250565 4.273155 0.000000 0.000000 0.000000 22.811188 -0.060682 -0.169935 52.855123 -0.955242 -8.326837 8.450703 30.291331 3.859024 0.000000 0.000000 0.000000
-0.249498 0.959349 -1.316003 -3.029932 6.577737 -0.633356 3.449643 0.267059 7.215320 -3.761569 0.321135 -8.834399 9.691799 20.395501 18.787716 0.000000 0.000000 0.000000 0.404159 -0.167241 1.483421 2.994991 -0.354518 1.221886 -3.098625 -10.661370 16.552528 0.000000 0.000000 0.000000 -1.115443 -0.113511 3.756371 4.768091 -0.213461 -27.972901 -2.514136 -0.785872 27.783026 2.881350 0.112946 -22.505307 0.000000 0.000000 0.000000 -30.132329 4.132799 -6.323528 -45.085253 4.270672 -8.565203 -16.405495 -23.575492 4.447145 0.000000 0.000000 0.000000 22.159107 -0.409018 -0.295685 53.572192 -1.197802 -8.517991 8.061807 28.452110 3.504987 0.000000 0.000000 0.000000
-0.249472 0.960557 -1.316549 -2.797726 7.619042 -1.277359 3.510224 0.273641 7.906806 -4.199961 0.314537 -8.580764 8.748907 19.192616 17.661708 0.000000 0.000000 0.000000 0.207678 -0.299751 2.701115 3.285597 -0.411842 -0.138756 -4.086628 -12.400972 18.386961 0.000000 0.000000 0.000000 -1.386283 -0.112512 3.976030 4.350303 -0.140684 -27.238854 -2.358989 -1.137342 27.393364 3.082637 0.002943 -22.155905 0.000000 0.000000 0.000000 -29.440451 3.638689 -6.001898 -45.675731 3.700215 -8.438816 -14.846002 -23.181892 4.023163 0.000000 0.000000 0.000000 23.173474 -0.423578 -0.208035 53.057254 -0.559936 -8.228058 7.325150 26.821782 3.107673 0.000000 0.000000 0.000000
