HIERARCHY
ROOT Hips
{
	OFFSET -0.001795 -0.223333 0.028219
	CHANNELS 6 Xposition Yposition Zposition Zrotation Yrotation Xrotation
	JOINT LeftUpLeg
	{
		OFFSET 0.069520 -0.091406 -0.006815
		CHANNELS 3 Zrotation Yrotation Xrotation
		JOINT LeftLeg
		{
			OFFSET 0.034277 -0.375199 -0.004496
			CHANNELS 3 Zrotation Yrotation Xrotation
			JOINT LeftFoot
			{
				OFFSET -0.013596 -0.397961 -0.043693
				CHANNELS 3 Zrotation Yrotation Xrotation
				JOINT LeftToe
				{
					OFFSET 0.026358 -0.055791 0.119288
					CHANNELS 3 Zrotation Yrotation Xrotation
					End Site
					{
						OFFSET 0.000000 0.000000 0.000000
					}
				}
			}
		}
	}
	JOINT RightUpLeg
	{
		OFFSET -0.067670 -0.090522 -0.004320
		CHANNELS 3 Zrotation Yrotation Xrotation
		JOINT RightLeg
		{
			OFFSET -0.038290 -0.382569 -0.008850
			CHANNELS 3 Zrotation Yrotation Xrotation
			JOINT RightFoot
			{
				OFFSET 0.015774 -0.398415 -0.042312
				CHANNELS 3 Zrotation Yrotation Xrotation
				JOINT RightToe
				{
					OFFSET -0.025372 -0.048144 0.123348
					CHANNELS 3 Zrotation Yrotation Xrotation
					End Site
					{
						OFFSET 0.000000 0.000000 0.000000
					}
				}
			}
		}
	}
	JOINT Spine
	{
		OFFSET -0.002533 0.108963 -0.026696
		CHANNELS 3 Zrotation Yrotation Xrotation
		JOINT Spine1
		{
			OFFSET 0.005487 0.135180 0.001092
			CHANNELS 3 Zrotation Yrotation Xrotation
			JOINT Spine2
			{
				OFFSET 0.001457 0.052922 0.025425
				CHANNELS 3 Zrotation Yrotation Xrotation
				JOINT Neck
				{
					OFFSET -0.002778 0.213870 -0.042857
					CHANNELS 3 Zrotation Yrotation Xrotation
					JOINT Head
					{
						OFFSET 0.005152 0.064970 0.051349
						CHANNELS 3 Zrotation Yrotation Xrotation
						End Site
						{
							OFFSET 0.000000 0.000000 0.000000
						}
					}
				}
				JOINT LeftShoulder
				{
					OFFSET 0.078845 0.121749 -0.034090
					CHANNELS 3 Zrotation Yrotation Xrotation
					JOINT LeftArm
					{
						OFFSET 0.090977 0.030469 -0.008868
						CHANNELS 3 Zrotation Yrotation Xrotation
						JOINT LeftForeArm
						{
							OFFSET 0.259612 -0.012772 -0.027456
							CHANNELS 3 Zrotation Yrotation Xrotation
							JOINT LeftHand
							{
								OFFSET 0.249234 0.008986 -0.001171
								CHANNELS 3 Zrotation Yrotation Xrotation
								End Site
								{
									OFFSET 0.000000 0.000000 0.000000
								}
							}
						}
					}
				}
				JOINT RightShoulder
				{
					OFFSET -0.081759 0.118833 -0.038615
					CHANNELS 3 Zrotation Yrotation Xrotation
					JOINT RightArm
					{
						OFFSET -0.096012 0.032551 -0.009143
						CHANNELS 3 Zrotation Yrotation Xrotation
						JOINT RightForeArm
						{
							OFFSET -0.253742 -0.013329 -0.021401
							CHANNELS 3 Zrotation Yrotation Xrotation
							JOINT RightHand
							{
								OFFSET -0.255298 0.007772 -0.005559
								CHANNELS 3 Zrotation Yrotation Xrotation
								End Site
								{
									OFFSET 0.000000 0.000000 0.000000
								}
							}
						}
					}
				}
			}
		}
	}
}
MOTION
Frames: 140
Frame Time: 0.050000
0.000000 0.970880 0.000000 -2.206894 8.869399 -1.256789 3.374900 0.230216 7.056573 -3.274901 0.298550 -6.857233 0.535228 9.367459 21.333690 0.000000 0.000000 0.000000 2.037678 -0.534843 4.044019 1.130668 -0.131101 0.451424 -2.500452 -9.524547 18.468658 0.000000 0.000000 0.000000 -1.444890 -0.292760 8.798999 4.153520 -0.102395 -26.689831 -1.437698 -2.985178 28.777660 -0.277506 1.958080 -22.594167 0.000000 0.000000 0.000000 -30.460104 1.041850 -3.905957 -45.723726 -2.699376 -6.454320 -11.746270 -26.333150 3.956879 0.000000 0.000000 0.000000 23.155197 1.143084 0.455280 52.392336 2.082791 -7.162191 4.491111 28.970769 2.688959 0.000000 0.000000 0.000000
-0.000108 0.969975 0.000420 -2.351022 8.728911 -0.831154 3.382797 0.214091 6.702678 -2.735987 0.283923 -7.244198 0.158947 8.988152 21.804473 0.000000 0.000000 0.000000 1.817682 -0.442941 3.403709 1.779490 -0.216633 0.394391 -2.549154 -9.707828 19.083933 0.000000 0.000000 0.000000 -0.994993 -0.301718 8.253303 3.993111 -0.060430 -26.892066 -1.600228 -3.228572 28.619355 -1.276532 2.572166 -23.239719 0.000000 0.000000 0.000000 -30.195734 2.144716 -4.500934 -45.997809 -2.726624 -6.501498 -12.662000 -26.731402 4.264132 0.000000 0.000000 0.000000 22.840258 1.116812 0.340822 53.634656 1.081242 -7.663133 3.256065 31.188635 2.639831 0.000000 0.000000 0.000000
-0.000154 0.969376 0.000681 -2.016079 8.530620 -0.499364 3.222441 0.209693 6.181480 -3.041452 0.296357 -6.285859 -0.006403 8.352940 20.391106 0.000000 0.000000 0.000000 1.615966 -0.404481 3.162433 1.669622 -0.200655 0.426481 -2.768505 -10.026591 18.411103 0.000000 0.000000 0.000000 -0.852466 -0.298057 7.999206 3.941833 -0.034278 -27.267247 -2.028797 -3.353825 29.008932 -1.578911 2.720544 -23.323024 0.000000 0.000000 0.000000 -30.167162 1.923474 -4.210591 -45.973644 -2.938769 -6.496688 -12.212481 -27.139670 4.249395 0.000000 0.000000 0.000000 22.739376 1.252375 0.341736 53.652650 0.972713 -7.707456 4.169450 30.820308 2.809219 0.000000 0.000000 0.000000
-0.000122 0.969387 0.000852 -2.153404 8.596059 -0.613387 3.016749 0.240166 6.495468 -2.438817 0.275677 -6.233578 -0.054240 7.990243 19.302422 0.000000 0.000000 0.000000 1.648758 -0.442846 3.453147 2.215330 -0.275623 0.229527 -3.217445 -10.755925 18.163613 0.000000 0.000000 0.000000 -0.787445 -0.307482 8.076207 4.447373 -0.115291 -28.056612 -2.351956 -3.406702 29.724195 -1.465220 2.646667 -23.257043 0.000000 0.000000 0.000000 -30.903624 2.478948 -4.685659 -45.728735 -2.753471 -6.579836 -12.523388 -27.646150 4.427671 0.000000 0.000000 0.000000 22.890092 1.587994 0.565546 53.230703 1.210040 -7.638466 3.898038 31.003438 2.759881 0.000000 0.000000 0.000000
-0.000092 0.969229 0.001070 -2.146450 8.227369 -0.644283 2.858124 0.262984 6.541588 -2.133335 0.267889 -6.128897 -0.058637 7.924631 19.274005 0.000000 0.000000 0.000000 1.595787 -0.472796 3.707154 2.071952 -0.261147 -0.108095 -2.791100 -10.076421 18.013180 0.000000 0.000000 0.000000 -0.629733 -0.332517 8.377710 4.905167 -0.229236 -27.810444 -2.568626 -2.801796 29.052570 -1.310593 2.556251 -21.868078 0.000000 0.000000 0.000000 -30.877159 2.049958 -4.555670 -45.696585 -2.515550 -6.553057 -13.020600 -28.150006 4.608073 0.000000 0.000000 0.000000 22.498819 1.421296 0.536767 53.672618 1.182691 -7.625343 4.532343 31.184194 2.957757 0.000000 0.000000 0.000000
0.000095 0.968974 0.001334 -2.178684 8.062683 -0.758907 2.746902 0.282572 6.678172 -1.755857 0.254603 -6.043769 -0.270384 7.572818 19.136202 0.000000 0.000000 0.000000 1.551825 -0.519399 4.090675 2.200230 -0.278784 -0.246352 -2.655499 -9.777497 17.277356 0.000000 0.000000 0.000000 -0.606323 -0.335588 8.415296 5.103847 -0.264390 -28.018309 -2.629845 -2.777502 29.275176 -1.163653 2.433173 -21.552327 0.000000 0.000000 0.000000 -30.879463 2.127389 -4.564838 -45.831722 -2.552534 -6.590218 -12.938388 -28.485790 4.656635 0.000000 0.000000 0.000000 22.623128 1.829576 0.759393 53.394277 1.143637 -7.635181 4.468728 31.339174 2.945688 0.000000 0.000000 0.000000
0.000379 0.968548 0.001626 -2.098537 7.805483 -0.820351 2.562405 0.313387 6.871648 -1.620081 0.251606 -6.079592 -0.216903 7.547598 18.935458 0.000000 0.000000 0.000000 1.541499 -0.542972 4.284853 2.035158 -0.257823 -0.283911 -2.588737 -9.633148 16.760545 0.000000 0.000000 0.000000 -0.542097 -0.349893 8.634068 5.311869 -0.313660 -27.990919 -2.795703 -2.608561 29.212622 -0.961192 2.285156 -21.203036 0.000000 0.000000 0.000000 -30.849661 2.030301 -4.481565 -46.138879 -2.369184 -6.700287 -13.100919 -28.799535 4.762618 0.000000 0.000000 0.000000 22.477553 1.964517 0.831599 53.657375 1.051815 -7.692510 4.900572 31.977460 3.140635 0.000000 0.000000 0.000000
0.000816 0.968012 0.001903 -2.054050 7.506289 -0.938546 2.421757 0.335947 6.956368 -1.261403 0.237517 -5.948020 -0.575137 7.043782 19.043532 0.000000 0.000000 0.000000 1.492134 -0.548008 4.351284 2.026386 -0.249685 0.029070 -2.576305 -9.566357 16.102774 0.000000 0.000000 0.000000 -0.384205 -0.371453 8.845893 5.336683 -0.317431 -28.085563 -2.850561 -2.321408 29.185747 -0.696697 2.100695 -20.641784 0.000000 0.000000 0.000000 -30.684463 1.937300 -4.421305 -46.453240 -2.137844 -6.822277 -12.741942 -29.085906 4.720254 0.000000 0.000000 0.000000 22.450976 1.980091 0.865391 53.697127 0.835374 -7.793353 5.515819 32.676488 3.407026 0.000000 0.000000 0.000000
0.001329 0.967853 0.002153 -2.032817 7.350416 -0.975593 2.348782 0.347229 6.993977 -1.115841 0.229661 -5.783661 -0.763634 6.695019 18.835726 0.000000 0.000000 0.000000 1.399084 -0.547516 4.387050 1.897342 -0.230502 0.148334 -2.259680 -8.994404 15.888315 0.000000 0.000000 0.000000 -0.305079 -0.386699 9.037287 5.401694 -0.330644 -28.122364 -2.929366 -2.204310 29.127478 -0.537962 1.983805 -20.376146 0.000000 0.000000 0.000000 -30.612342 2.095095 -4.519811 -46.887134 -1.843030 -6.987713 -12.444301 -29.260664 4.681507 0.000000 0.000000 0.000000 22.514485 1.842313 0.781893 53.747339 0.561443 -7.911288 5.614017 33.422813 3.540518 0.000000 0.000000 0.000000
0.001799 0.967702 0.002353 -1.980721 7.074364 -1.067684 2.229744 0.371252 7.149220 -0.992566 0.224448 -5.713368 -0.850469 6.495191 18.716284 0.000000 0.000000 0.000000 1.242788 -0.536206 4.365709 1.879122 -0.222354 0.390341 -2.033178 -8.612152 15.756747 0.000000 0.000000 0.000000 -0.232796 -0.395356 9.128843 5.352727 -0.316757 -28.181552 -2.946108 -2.113781 29.234289 -0.169743 1.692973 -19.878555 0.000000 0.000000 0.000000 -30.586609 2.088346 -4.458193 -47.215668 -1.586688 -7.158393 -12.037705 -29.649012 4.658947 0.000000 0.000000 0.000000 22.521359 1.864497 0.768450 53.912029 0.208097 -8.089096 5.833730 34.460908 3.747879 0.000000 0.000000 0.000000
0.002205 0.967659 0.002430 -1.965712 6.869957 -1.007890 2.249796 0.370334 7.105558 -1.050773 0.226185 -5.613408 -0.936494 6.298557 18.575941 0.000000 0.000000 0.000000 1.125594 -0.494161 4.072845 1.946140 -0.224735 0.669038 -1.955323 -8.533906 15.931181 0.000000 0.000000 0.000000 -0.204835 -0.397697 9.149383 5.332817 -0.309297 -28.284385 -2.962034 -2.116749 29.274561 -0.001293 1.543845 -19.666450 0.000000 0.000000 0.000000 -30.619559 2.149305 -4.443920 -47.190092 -1.440037 -7.228539 -11.806191 -29.721448 4.620248 0.000000 0.000000 0.000000 22.703988 1.749725 0.657558 53.815373 0.091551 -8.128546 5.818769 34.959319 3.808205 0.000000 0.000000 0.000000
0.002477 0.967628 0.002306 -1.975069 6.776977 -1.096009 2.209426 0.375425 7.100298 -1.052515 0.222776 -5.396901 -0.800127 6.433980 18.438495 0.000000 0.000000 0.000000 1.102818 -0.464209 3.838096 2.020288 -0.226934 1.069853 -2.080064 -8.812031 16.176579 0.000000 0.000000 0.000000 -0.342933 -0.395029 9.339808 5.291018 -0.285591 -28.591017 -2.876368 -2.400774 29.653267 0.530262 1.123256 -19.774301 0.000000 0.000000 0.000000 -30.740724 2.252556 -4.365163 -46.920538 -1.371756 -7.297033 -11.750970 -29.973425 4.677024 0.000000 0.000000 0.000000 22.787105 1.681874 0.526554 53.672847 0.144603 -8.122003 5.955026 35.041632 3.845531 0.000000 0.000000 0.000000
0.002683 0.967446 0.001792 -2.048666 6.680047 -1.107608 2.255222 0.370175 7.055923 -1.149709 0.225556 -5.280249 -0.537545 6.703639 18.166102 0.000000 0.000000 0.000000 1.189009 -0.430847 3.533682 2.072089 -0.225524 1.543744 -2.226184 -9.063822 16.053182 0.000000 0.000000 0.000000 -0.393326 -0.401468 9.557062 5.123941 -0.250994 -28.630917 -2.763756 -2.665924 29.685228 0.686658 0.976171 -20.036802 0.000000 0.000000 0.000000 -30.678702 2.414248 -4.325132 -46.851256 -1.478133 -7.295517 -11.581279 -30.115209 4.677883 0.000000 0.000000 0.000000 22.930314 1.758932 0.467934 53.758222 0.230219 -8.086372 5.732415 35.190881 3.777892 0.000000 0.000000 0.000000
0.002947 0.967257 0.000769 -2.105456 6.321396 -1.013660 2.216867 0.365909 6.827170 -1.313526 0.232321 -5.114259 0.081132 7.492456 18.060996 0.000000 0.000000 0.000000 1.012280 -0.379976 3.172660 2.280977 -0.246996 1.872580 -1.920400 -8.548156 15.899407 0.000000 0.000000 0.000000 -0.609915 -0.389737 9.746608 5.264286 -0.278265 -28.742520 -2.722843 -2.600779 29.894553 1.369086 0.494778 -20.220262 0.000000 0.000000 0.000000 -30.588334 2.353252 -4.181458 -46.581640 -1.477756 -7.302113 -11.668382 -30.379356 4.757209 0.000000 0.000000 0.000000 23.265261 1.689911 0.370593 53.617988 0.563692 -7.950530 5.503932 35.366307 3.729334 0.000000 0.000000 0.000000
0.003436 0.967182 -0.000847 -2.272179 5.852286 -1.003380 2.458162 0.346794 6.725589 -1.537280 0.244506 -5.027754 0.218971 7.599502 17.991946 0.000000 0.000000 0.000000 1.069069 -0.329805 2.734229 2.263355 -0.233712 2.419045 -1.608770 -8.030595 15.719717 0.000000 0.000000 0.000000 -0.760631 -0.385773 9.994068 5.230443 -0.281737 -28.682389 -2.539429 -2.738017 29.898574 1.611411 0.282640 -20.560951 0.000000 0.000000 0.000000 -30.536839 2.523509 -4.101363 -46.360697 -1.447330 -7.337611 -11.596726 -30.775675 4.834017 0.000000 0.000000 0.000000 23.207095 1.724927 0.249685 53.825944 0.643837 -7.917403 5.528183 35.710646 3.752985 0.000000 0.000000 0.000000
0.004431 0.967118 -0.003044 -2.397386 5.499452 -1.014232 2.374854 0.332136 6.259475 -1.665536 0.244371 -4.460663 1.040353 8.701055 17.958511 0.000000 0.000000 0.000000 1.194755 -0.222006 1.785369 2.006026 -0.178288 3.461602 -1.481183 -7.983170 16.375202 0.000000 0.000000 0.000000 -1.101023 -0.359428 10.141115 5.576193 -0.385134 -28.234305 -2.518321 -2.731635 30.042186 2.365073 -0.271249 -20.501148 0.000000 0.000000 0.000000 -30.284526 2.554374 -3.982020 -46.121490 -1.650875 -7.270229 -11.892520 -31.339120 5.029321 0.000000 0.000000 0.000000 23.524287 1.760505 0.189537 53.360100 0.514849 -7.916134 5.564907 36.766870 3.884452 0.000000 0.000000 0.000000
0.006170 0.966804 -0.005938 -2.504948 4.834692 -1.010488 2.334575 0.322486 5.885685 -1.920431 0.259428 -4.229067 1.806115 9.787603 18.383686 0.000000 0.000000 0.000000 1.199354 -0.137475 1.056088 1.680941 -0.108237 4.358178 -0.954403 -7.127861 16.211042 0.000000 0.000000 0.000000 -1.285917 -0.356489 10.592196 5.451628 -0.383721 -27.969079 -2.104734 -2.742857 30.083251 2.388703 -0.332308 -20.813331 0.000000 0.000000 0.000000 -30.027435 2.486121 -3.704973 -46.032645 -2.102465 -7.163214 -11.953265 -31.424887 5.092243 0.000000 0.000000 0.000000 23.475383 1.654984 -0.021525 53.145180 0.355344 -7.930894 6.079947 37.685894 4.130883 0.000000 0.000000 0.000000
0.008966 0.966506 -0.009471 -2.619607 4.183204 -1.011337 2.346308 0.304576 5.468837 -2.224654 0.273558 -3.572287 2.169331 10.077076 17.819226 0.000000 0.000000 0.000000 1.350787 0.003440 -0.193916 1.323370 -0.011458 6.045217 -0.964508 -7.227215 16.115766 0.000000 0.000000 0.000000 -1.574072 -0.346553 11.196202 5.978716 -0.512144 -27.863776 -2.244582 -2.781882 30.109012 2.994616 -0.792068 -21.052221 0.000000 0.000000 0.000000 -29.811094 2.750578 -3.655972 -45.900902 -2.105992 -7.197337 -12.584664 -32.103596 5.437002 0.000000 0.000000 0.000000 23.524918 1.595635 -0.220792 52.609700 0.034196 -7.956106 6.643922 38.820617 4.419288 0.000000 0.000000 0.000000
0.012801 0.966252 -0.013687 -2.718827 3.219358 -0.992514 2.181196 0.302841 5.088879 -2.379180 0.286432 -3.299118 2.683917 10.724232 18.048817 0.000000 0.000000 0.000000 1.085916 0.161657 -1.590515 1.446510 0.024162 8.330384 -0.631264 -6.534755 15.037045 0.000000 0.000000 0.000000 -1.608956 -0.362852 11.987118 5.955955 -0.531090 -27.740581 -2.080004 -2.803146 29.948548 3.224066 -1.014776 -21.341113 0.000000 0.000000 0.000000 -29.530000 2.907934 -3.473301 -45.976204 -2.303823 -7.190078 -12.875865 -32.921260 5.728776 0.000000 0.000000 0.000000 23.366851 1.476784 -0.510746 52.388400 -0.349164 -8.013873 7.120865 39.842762 4.646931 0.000000 0.000000 0.000000
0.017435 0.965536 -0.018414 -2.778806 2.448360 -1.062362 1.902385 0.315647 4.899926 -2.667668 0.311540 -3.252874 3.489311 11.743175 18.015226 0.000000 0.000000 0.000000 0.844563 0.423474 -4.014055 1.496853 0.112456 12.666974 -0.537355 -6.156158 13.777597 0.000000 0.000000 0.000000 -1.941494 -0.346881 12.888289 6.616793 -0.684624 -27.722960 -2.526764 -2.976491 30.068247 3.784001 -1.511195 -21.239650 0.000000 0.000000 0.000000 -29.314674 3.034867 -3.246873 -45.834534 -2.380110 -7.234575 -13.711398 -33.903794 6.242679 0.000000 0.000000 0.000000 23.872320 1.674900 -0.666928 51.579120 -1.065341 -8.132394 7.654561 41.396701 4.953974 0.000000 0.000000 0.000000
0.022408 0.964648 -0.023755 -3.012675 1.837073 -1.239761 1.675467 0.315543 4.627911 -2.979230 0.337065 -2.956708 4.732514 13.352196 17.697649 0.000000 0.000000 0.000000 0.678063 0.714464 -6.797023 1.995027 0.100477 18.171778 -0.739267 -6.152857 12.060313 0.000000 0.000000 0.000000 -2.159608 -0.352930 14.209464 7.097149 -0.780246 -27.885512 -2.420536 -3.409050 30.411045 3.996672 -1.773791 -21.546265 0.000000 0.000000 0.000000 -29.445725 3.145693 -2.980254 -45.249065 -2.900490 -7.112093 -14.744206 -34.767478 6.824551 0.000000 0.000000 0.000000 23.739650 1.081371 -1.289475 50.692370 -1.665755 -8.207764 9.101895 42.665086 5.561755 0.000000 0.000000 0.000000
0.027245 0.963508 -0.029828 -3.148652 1.152423 -1.464416 1.407750 0.324280 4.466029 -3.254595 0.363981 -2.997928 5.829540 14.819805 17.868343 0.000000 0.000000 0.000000 0.909683 1.119737 -10.472587 1.916834 0.276404 25.124608 -1.135158 -6.734982 11.096050 0.000000 0.000000 0.000000 -2.326227 -0.359164 15.624356 7.734191 -0.909039 -28.111545 -3.119554 -4.619884 31.296399 4.167668 -2.145175 -22.128106 0.000000 0.000000 0.000000 -29.585413 3.001913 -2.168290 -44.829726 -3.887817 -7.016895 -15.014632 -36.281256 7.422568 0.000000 0.000000 0.000000 23.622182 1.235456 -1.713356 50.358369 -2.442351 -8.422538 9.913989 44.468622 5.952296 0.000000 0.000000 0.000000
0.031553 0.962685 -0.036366 -3.506816 0.609468 -1.481457 1.833898 0.285915 4.177390 -3.666572 0.400906 -2.746810 5.474023 14.143506 16.833803 0.000000 0.000000 0.000000 1.398007 1.577715 -14.200064 1.603209 0.584884 32.035615 -0.959926 -6.176275 10.140688 0.000000 0.000000 0.000000 -2.343620 -0.388959 17.309467 8.702668 -1.142198 -27.849996 -3.829836 -5.469647 30.454695 4.784386 -2.730561 -22.024250 0.000000 0.000000 0.000000 -30.017865 2.957372 -1.762233 -43.302554 -4.253471 -6.743499 -16.272313 -37.971235 8.283018 0.000000 0.000000 0.000000 23.862179 0.987685 -2.343799 49.660835 -4.075505 -8.722441 10.841346 45.154054 6.182176 0.000000 0.000000 0.000000
0.035064 0.961862 -0.042587 -3.630276 0.530221 -1.961898 1.862704 0.304243 4.416232 -4.261215 0.451791 -2.745062 6.029825 14.837802 16.053467 0.000000 0.000000 0.000000 2.115699 2.062737 -17.602958 0.375216 1.380081 39.888539 -0.578287 -5.346421 9.883776 0.000000 0.000000 0.000000 -2.640846 -0.393721 19.503282 9.798508 -1.240215 -29.162404 -5.321166 -7.022786 31.936643 5.642335 -3.602061 -22.635794 0.000000 0.000000 0.000000 -30.205478 2.604488 -0.769952 -42.107647 -5.859846 -6.447354 -15.936447 -39.836156 8.768801 0.000000 0.000000 0.000000 23.820420 0.775423 -2.987569 49.693654 -4.611742 -8.954218 12.171021 45.629742 6.596820 0.000000 0.000000 0.000000
0.037697 0.961321 -0.047609 -4.135949 0.263971 -2.504334 2.891018 0.291116 4.910394 -5.321652 0.543798 -2.784556 5.743118 14.306883 15.193359 0.000000 0.000000 0.000000 2.564078 2.493459 -20.486137 0.911168 1.387409 46.600047 -0.908384 -6.156041 10.301047 0.000000 0.000000 0.000000 -2.610101 -0.424733 20.639226 10.186407 -1.394186 -28.633647 -5.982488 -9.389824 31.884335 5.194530 -3.840728 -21.686363 0.000000 0.000000 0.000000 -30.558946 3.123758 -0.132014 -40.799855 -7.526461 -6.084994 -15.557284 -42.121336 9.432053 0.000000 0.000000 0.000000 21.849857 0.317582 -3.744836 50.679818 -5.874402 -9.505327 16.328511 45.603640 7.846119 0.000000 0.000000 0.000000
0.039287 0.960829 -0.051295 -4.769155 0.392920 -2.940151 3.514143 0.264661 5.021020 -6.175495 0.615610 -2.646412 7.119652 16.280766 14.748484 0.000000 0.000000 0.000000 2.549336 2.848432 -23.354442 3.659456 -0.202875 56.375454 -2.536649 -8.861868 8.339925 0.000000 0.000000 0.000000 -2.842524 -0.414227 21.374866 10.800268 -1.481872 -29.025998 -6.733658 -12.055463 33.322504 5.149441 -4.222298 -22.942436 0.000000 0.000000 0.000000 -31.677430 2.751655 1.343026 -38.711530 -9.578500 -5.793165 -12.993736 -44.637839 9.195683 0.000000 0.000000 0.000000 19.868926 -0.081558 -4.323668 51.606730 -6.914454 -10.194011 19.267759 46.059600 8.690083 0.000000 0.000000 0.000000
0.039606 0.960495 -0.053822 -5.156612 -0.156917 -3.133434 3.780341 0.255271 4.943084 -6.190029 0.638696 -2.017249 7.554925 16.813092 13.855549 0.000000 0.000000 0.000000 2.373685 3.069817 -25.171392 6.731532 -2.504902 67.475646 -4.691081 -13.363465 9.276874 0.000000 0.000000 0.000000 -3.093156 -0.346930 21.086871 11.587141 -1.678482 -28.825818 -7.687224 -13.698520 34.223835 4.882197 -4.499002 -22.367199 0.000000 0.000000 0.000000 -32.041393 2.466542 2.571032 -38.179618 -11.601606 -5.625791 -9.556155 -47.164435 8.620860 0.000000 0.000000 0.000000 18.342152 -0.242584 -4.597746 52.543131 -8.410161 -11.129085 22.308808 46.485934 9.665087 0.000000 0.000000 0.000000
0.038511 0.959068 -0.056643 -5.403895 -0.989751 -3.173045 3.666607 0.259899 4.719012 -5.879630 0.635005 -1.325552 8.424796 17.989883 12.588689 0.000000 0.000000 0.000000 3.121928 3.217143 -24.786774 8.373829 -3.948845 75.863385 -5.368825 -15.063258 12.413103 0.000000 0.000000 0.000000 -3.319325 -0.269274 20.656254 11.698269 -1.761587 -28.386603 -8.074520 -14.073806 34.541005 5.318230 -4.986278 -22.100262 0.000000 0.000000 0.000000 -32.772766 1.188280 3.964031 -36.643412 -12.579781 -5.418511 -4.194127 -49.028306 6.471427 0.000000 0.000000 0.000000 18.453209 0.281135 -4.590973 52.801487 -9.456778 -11.641404 22.092590 46.723185 9.494430 0.000000 0.000000 0.000000
0.036515 0.958071 -0.060450 -5.744693 -0.885085 -2.814243 3.761984 0.203645 3.907355 -5.194383 0.571306 -0.686742 8.325950 17.781370 11.371449 0.000000 0.000000 0.000000 3.397333 3.079456 -23.438545 9.919917 -5.867737 79.791927 -5.354974 -15.168577 13.677309 0.000000 0.000000 0.000000 -3.131957 -0.304852 20.533068 11.375678 -1.806833 -27.427464 -7.984290 -14.634893 33.387098 5.198840 -5.065993 -20.346559 0.000000 0.000000 0.000000 -32.494665 0.224241 4.770496 -36.294621 -13.374317 -5.128589 -0.717862 -50.420034 5.102079 0.000000 0.000000 0.000000 18.627068 -0.249317 -5.080303 52.600951 -11.010473 -12.065395 22.684357 46.939211 9.637725 0.000000 0.000000 0.000000
0.034188 0.957121 -0.066244 -5.813681 -1.984580 -2.008645 3.691059 0.132220 2.517265 -4.638912 0.530150 0.053501 8.517223 18.005603 10.894032 0.000000 0.000000 0.000000 3.345951 2.761776 -20.974652 9.962753 -5.063085 78.687491 -4.588938 -13.457282 10.861533 0.000000 0.000000 0.000000 -3.151412 -0.254933 20.737423 11.250819 -1.619658 -28.602803 -8.262940 -13.997083 33.275887 6.412087 -6.089416 -18.416586 0.000000 0.000000 0.000000 -32.624415 0.006556 4.930424 -35.585790 -13.808924 -4.944894 1.168741 -50.758751 4.151369 0.000000 0.000000 0.000000 19.083795 0.589592 -4.785040 52.170782 -11.794174 -12.226177 21.533869 48.411134 9.478417 0.000000 0.000000 0.000000
0.031834 0.956249 -0.073844 -5.289047 -3.234002 -0.771031 3.255332 0.018958 0.499486 -4.406285 0.520187 0.680674 8.590042 18.053953 11.151850 0.000000 0.000000 0.000000 3.434600 2.463092 -18.647225 8.530995 -2.571934 73.607090 -3.439953 -10.677602 7.671519 0.000000 0.000000 0.000000 -3.393017 -0.139244 20.497002 10.568683 -1.533366 -28.017415 -7.907780 -13.132423 31.709293 6.271606 -5.951871 -17.167403 0.000000 0.000000 0.000000 -32.381031 -0.259575 4.942008 -35.617677 -13.935796 -4.744947 2.280810 -50.473577 3.557020 0.000000 0.000000 0.000000 19.536346 1.307103 -4.521614 52.848307 -12.169555 -12.389491 19.471594 50.098638 8.920184 0.000000 0.000000 0.000000
0.028913 0.956280 -0.083061 -4.846923 -4.577855 0.347086 2.962588 -0.090206 -1.221811 -4.523882 0.549799 0.677338 9.304105 19.090507 12.106091 0.000000 0.000000 0.000000 4.371707 2.141189 -15.637729 5.942887 0.374748 65.312906 -2.911805 -8.595578 3.759050 0.000000 0.000000 0.000000 -3.773560 0.007191 20.840239 10.214642 -1.432476 -28.094876 -7.535152 -12.062696 30.350007 7.351492 -6.734994 -15.122938 0.000000 0.000000 0.000000 -31.531115 -0.332296 4.663539 -36.558469 -13.532663 -4.648824 3.116517 -50.647944 3.196150 0.000000 0.000000 0.000000 20.540227 2.241191 -4.260596 52.163473 -11.823611 -11.784059 17.201945 51.147901 8.069377 0.000000 0.000000 0.000000
0.025296 0.956487 -0.092980 -4.544156 -5.887187 1.473109 3.021486 -0.188520 -2.772146 -4.831286 0.599660 0.281804 9.974481 19.995988 13.191323 0.000000 0.000000 0.000000 4.910289 1.748948 -12.819120 3.064353 2.406734 54.857053 -2.239210 -7.368086 4.388250 0.000000 0.000000 0.000000 -4.389810 0.195245 20.480947 9.862627 -1.407650 -27.603824 -6.789743 -11.682928 30.154012 7.254276 -6.670936 -15.172374 0.000000 0.000000 0.000000 -31.163552 0.444048 4.223601 -37.754092 -13.690185 -4.648468 2.715874 -50.735357 3.583582 0.000000 0.000000 0.000000 20.262131 3.265848 -3.803322 52.536655 -10.379714 -11.208751 15.426057 52.435079 7.315877 0.000000 0.000000 0.000000
0.021197 0.957341 -0.102699 -4.310958 -7.827536 2.476001 2.993029 -0.270070 -4.167784 -4.784248 0.613241 0.010687 10.997116 21.293821 14.746828 0.000000 0.000000 0.000000 5.232819 1.340126 -10.191291 0.505222 3.454967 44.689968 -1.202577 -5.281837 4.636475 0.000000 0.000000 0.000000 -5.275396 0.449394 19.787663 10.586357 -1.572043 -27.272710 -6.510439 -10.287286 29.771980 7.203330 -6.641550 -13.961295 0.000000 0.000000 0.000000 -30.771598 1.558572 3.294503 -38.370487 -13.379538 -4.676018 1.059403 -51.497899 4.573100 0.000000 0.000000 0.000000 19.941961 4.230588 -3.176186 52.489116 -8.336691 -10.289674 14.741110 52.941345 7.050689 0.000000 0.000000 0.000000
0.017065 0.958573 -0.111591 -4.067851 -8.623164 3.031294 3.101850 -0.286291 -4.543189 -4.860447 0.615958 -1.293362 11.295404 21.550059 16.053862 0.000000 0.000000 0.000000 5.384487 1.039102 -8.325504 -1.124454 3.414670 36.683765 -0.119661 -4.041057 6.861282 0.000000 0.000000 0.000000 -5.614283 0.544246 19.355132 10.860310 -1.636438 -27.085814 -6.037863 -9.902516 29.920237 6.946734 -6.476722 -13.906500 0.000000 0.000000 0.000000 -30.606620 2.337110 2.772318 -39.322890 -13.219204 -4.757523 1.299557 -51.258079 4.571771 0.000000 0.000000 0.000000 18.840125 4.735438 -2.679402 52.717793 -6.265236 -9.566834 14.479789 53.899743 6.999470 0.000000 0.000000 0.000000
0.012877 0.959545 -0.120223 -3.863896 -9.284535 3.123288 3.233493 -0.271613 -4.460817 -4.877254 0.613206 -2.473173 11.515287 21.707447 17.178053 0.000000 0.000000 0.000000 5.496466 0.728396 -6.370904 -2.053139 3.083827 30.519786 1.045748 -1.583614 6.717493 0.000000 0.000000 0.000000 -5.634416 0.572062 19.264710 11.391088 -1.807413 -26.620563 -6.258305 -9.194185 29.955281 7.012325 -6.522740 -13.359294 0.000000 0.000000 0.000000 -30.513757 3.554343 1.751442 -39.627137 -12.860002 -4.830814 0.506356 -51.692955 5.075799 0.000000 0.000000 0.000000 18.554692 5.030077 -2.358090 52.438509 -4.492118 -8.806524 14.898034 55.003633 7.433149 0.000000 0.000000 0.000000
0.008705 0.960093 -0.129677 -3.392010 -9.775564 3.189799 3.141342 -0.269922 -4.404429 -4.973993 0.618829 -3.767495 11.627716 21.716365 18.281796 0.000000 0.000000 0.000000 5.408824 0.598285 -5.578283 -2.680553 2.834024 26.516174 1.314410 -0.739460 6.118212 0.000000 0.000000 0.000000 -5.750523 0.615340 19.158603 11.861360 -1.987522 -26.005456 -6.245119 -8.800175 29.860169 6.943752 -6.412778 -13.797081 0.000000 0.000000 0.000000 -31.122875 4.813053 0.783245 -39.086999 -12.234094 -4.971697 0.283002 -52.698622 5.290102 0.000000 0.000000 0.000000 18.553582 5.214856 -2.222460 52.016727 -3.194912 -8.182491 15.219507 56.464339 7.839356 0.000000 0.000000 0.000000
0.004346 0.960191 -0.140638 -3.107718 -9.668983 3.088608 3.506041 -0.281379 -4.900096 -5.405233 0.665861 -3.501347 11.013291 20.903200 17.691812 0.000000 0.000000 0.000000 5.479524 0.528846 -5.111325 -2.782372 2.484158 23.564452 1.775881 0.160920 6.281494 0.000000 0.000000 0.000000 -5.487703 0.555127 19.061264 12.450679 -2.285044 -24.868078 -6.466121 -8.348296 29.052145 6.768488 -6.122340 -14.030314 0.000000 0.000000 0.000000 -31.191674 5.766256 -0.267438 -38.704873 -10.875857 -5.145383 -0.343686 -54.535402 5.715217 0.000000 0.000000 0.000000 18.655692 5.543412 -1.896086 51.530732 -2.266767 -7.663001 15.169986 57.522886 8.109779 0.000000 0.000000 0.000000
-0.000440 0.960340 -0.153046 -2.673586 -9.877228 2.750533 3.557912 -0.284833 -5.077024 -5.495450 0.682597 -3.188512 10.317439 19.952826 16.722379 0.000000 0.000000 0.000000 5.515557 0.487680 -4.826569 -2.709580 2.311818 22.244767 1.777350 0.077938 6.381690 0.000000 0.000000 0.000000 -5.304065 0.552429 19.725953 12.214890 -2.241578 -24.889002 -6.189379 -7.866445 29.369408 6.101540 -5.597934 -14.197947 0.000000 0.000000 0.000000 -31.515012 6.887838 -1.267498 -37.756209 -9.726354 -5.354372 -1.543235 -56.862962 6.563473 0.000000 0.000000 0.000000 18.623796 5.116017 -1.992521 51.661260 -1.280372 -7.363236 16.075890 59.141684 8.997515 0.000000 0.000000 0.000000
-0.005374 0.961159 -0.166517 -2.195501 -9.929720 2.245539 3.853862 -0.274450 -5.252154 -5.621790 0.705667 -2.679975 8.951427 17.965571 16.033338 0.000000 0.000000 0.000000 5.647704 0.501330 -4.874855 -2.526321 2.118316 21.041067 1.477338 -1.553382 8.076323 0.000000 0.000000 0.000000 -5.020581 0.509111 20.068725 12.477392 -2.474291 -23.820915 -6.269491 -7.286786 28.896103 4.854516 -4.606123 -13.747610 0.000000 0.000000 0.000000 -31.705749 7.902797 -2.341678 -37.266177 -7.848283 -5.666120 -3.467451 -58.352723 7.674788 0.000000 0.000000 0.000000 19.171168 4.888950 -2.059360 51.226771 -0.370787 -6.865938 16.857405 60.422219 9.822117 0.000000 0.000000 0.000000
-0.010077 0.962307 -0.180836 -1.484947 -9.719278 1.784147 3.758572 -0.291179 -5.474295 -5.552755 0.706297 -1.987054 7.337246 15.556529 14.691131 0.000000 0.000000 0.000000 5.422220 0.466925 -4.623007 -2.597704 1.992945 19.856493 1.235598 -1.777894 7.589700 0.000000 0.000000 0.000000 -4.783695 0.473637 20.595768 12.418163 -2.492283 -23.688133 -6.100651 -6.615612 29.243079 3.618229 -3.615150 -13.662222 0.000000 0.000000 0.000000 -32.140456 8.245346 -2.926728 -36.875247 -6.227975 -6.000482 -5.471842 -59.119795 8.733355 0.000000 0.000000 0.000000 19.277183 4.736622 -1.898950 51.559696 0.527096 -6.668983 16.807735 61.468627 10.295193 0.000000 0.000000 0.000000
-0.014077 0.963797 -0.195988 -0.960960 -9.229181 0.906093 4.055958 -0.286377 -5.758276 -5.874356 0.746576 -1.661681 6.281383 14.039693 15.851976 0.000000 0.000000 0.000000 5.178022 0.462355 -4.518455 -2.225537 1.804151 19.252149 1.036214 -2.526030 8.311032 0.000000 0.000000 0.000000 -4.137299 0.368131 22.141058 12.447854 -2.626712 -22.988451 -5.952884 -5.959578 28.657263 2.152716 -2.389456 -12.664070 0.000000 0.000000 0.000000 -32.937411 9.080030 -4.054756 -36.782582 -4.345188 -6.343704 -8.754682 -59.877077 10.567745 0.000000 0.000000 0.000000 20.023176 4.322122 -1.959048 50.499550 0.535561 -6.469432 17.612017 62.516623 11.254439 0.000000 0.000000 0.000000
-0.017226 0.964790 -0.212117 -0.472632 -9.009215 0.455407 4.153402 -0.313287 -6.463172 -5.955996 0.762027 -1.302163 5.428531 12.837080 16.693333 0.000000 0.000000 0.000000 4.961601 0.480240 -4.613963 -2.215325 1.699849 18.352106 1.090435 -2.414797 8.344002 0.000000 0.000000 0.000000 -3.529864 0.244568 22.697731 12.254968 -2.587772 -23.018992 -5.707460 -4.926531 29.117119 1.701408 -1.905785 -12.627832 0.000000 0.000000 0.000000 -33.345780 9.485982 -4.824073 -37.328878 -2.415953 -6.856063 -12.013508 -59.025119 12.115849 0.000000 0.000000 0.000000 19.786729 4.034027 -1.704974 50.372176 1.101252 -6.386522 15.747561 62.696212 10.544877 0.000000 0.000000 0.000000
-0.019664 0.966485 -0.228796 0.133460 -8.436761 0.128180 3.775650 -0.429008 -8.190776 -5.835602 0.787052 0.879929 4.719446 11.823923 16.463650 0.000000 0.000000 0.000000 4.551581 0.602940 -5.458096 -1.750925 1.557819 18.350761 0.687745 -3.462233 8.917374 0.000000 0.000000 0.000000 -2.559366 0.036030 24.031434 11.374814 -2.304153 -23.636043 -5.038542 -3.285415 29.164799 1.192775 -1.239554 -12.374681 0.000000 0.000000 0.000000 -33.687376 9.439809 -5.642848 -38.074969 -1.309829 -7.074555 -16.276200 -58.317163 14.102328 0.000000 0.000000 0.000000 19.746828 3.111004 -1.586500 50.369570 1.161208 -6.558978 14.198200 61.549060 10.018950 0.000000 0.000000 0.000000
-0.021362 0.968230 -0.245091 1.172271 -8.074609 -0.128340 2.878145 -0.603150 -9.951188 -6.018783 0.886035 3.653620 4.512434 11.501669 15.992232 0.000000 0.000000 0.000000 3.321580 0.720080 -6.482048 -1.158254 1.467131 19.199978 0.686690 -3.007195 8.058057 0.000000 0.000000 0.000000 -2.541958 0.035498 24.609928 11.508219 -2.472644 -22.695383 -4.972862 -1.707594 28.226056 1.265762 -0.968967 -13.053136 0.000000 0.000000 0.000000 -33.368608 9.815108 -6.741929 -40.055586 0.017379 -7.440183 -19.597272 -57.097401 15.414427 0.000000 0.000000 0.000000 19.775073 2.755078 -1.264262 49.699743 1.014401 -6.560064 10.556557 60.160117 8.104038 0.000000 0.000000 0.000000
-0.022646 0.970844 -0.260083 1.742133 -6.748665 0.218705 2.368251 -0.791361 -12.015884 -5.962529 0.986421 7.999790 3.809657 10.248704 13.298318 0.000000 0.000000 0.000000 2.870750 0.913764 -8.032311 -0.756740 1.317751 19.392378 0.202755 -4.393700 9.213916 0.000000 0.000000 0.000000 -1.307353 -0.314597 24.558625 10.228763 -1.951111 -24.109218 -5.015483 -3.053799 29.454326 -0.942512 0.554645 -12.102375 0.000000 0.000000 0.000000 -34.512378 12.580261 -8.772003 -39.519934 1.065572 -7.752405 -25.949434 -55.512443 18.532055 0.000000 0.000000 0.000000 18.134513 3.938463 -0.569192 50.202443 1.384148 -6.623779 7.685635 56.970172 5.942835 0.000000 0.000000 0.000000
-0.023744 0.974963 -0.273174 2.763086 -5.056092 0.525345 1.044483 -1.145909 -14.644854 -6.014931 1.250968 16.290914 4.028907 10.181254 9.192610 0.000000 0.000000 0.000000 2.057876 1.072246 -9.563807 -0.864254 1.317915 20.013809 -0.117826 -5.343630 10.445980 0.000000 0.000000 0.000000 -1.408615 -0.370526 23.746361 9.911237 -1.722183 -25.128854 -4.376875 -2.090791 30.118145 -1.369365 1.143610 -12.143821 0.000000 0.000000 0.000000 -36.183691 10.071104 -7.882934 -38.258150 1.500757 -7.571465 -25.155753 -53.487049 16.827154 0.000000 0.000000 0.000000 17.524823 2.696238 -0.619239 50.075691 0.824562 -7.072744 7.444791 54.946986 6.047075 0.000000 0.000000 0.000000
-0.024195 0.979220 -0.284889 2.952406 -3.029552 -0.182081 0.443177 -1.246799 -14.540858 -7.028292 1.835485 25.351261 4.850136 11.719948 8.973664 0.000000 0.000000 0.000000 2.260795 0.975220 -8.653260 -1.106379 1.224344 19.026440 -0.779387 -6.594567 11.029790 0.000000 0.000000 0.000000 -0.560615 -0.655599 23.627561 8.835580 -1.379449 -25.863622 -4.112543 -2.666587 30.536256 0.824754 -0.636567 -10.585312 0.000000 0.000000 0.000000 -35.264125 10.644045 -8.418475 -38.612229 0.945934 -7.394282 -27.441529 -50.981039 17.029186 0.000000 0.000000 0.000000 16.097526 1.288250 -1.053323 51.011356 0.862684 -7.281504 7.792268 52.286218 6.011350 0.000000 0.000000 0.000000
-0.023693 0.984813 -0.296400 3.330052 -2.680008 0.008967 -0.288564 -1.209047 -13.039880 -7.663412 2.384630 31.613632 5.876509 13.631477 10.157341 0.000000 0.000000 0.000000 2.042775 1.036368 -9.258627 -1.026770 1.114640 17.895342 -1.279372 -8.213076 13.374910 0.000000 0.000000 0.000000 -0.801874 -0.607861 23.221047 8.732226 -1.284450 -26.427955 -4.055126 -2.361706 30.709441 1.531278 -1.122063 -10.985959 0.000000 0.000000 0.000000 -35.220944 10.364976 -8.380756 -38.906142 0.747202 -7.354109 -26.188375 -50.391612 16.145466 0.000000 0.000000 0.000000 15.853731 1.749739 -0.685151 51.176909 0.600459 -7.426311 5.904300 50.403006 4.974103 0.000000 0.000000 0.000000
-0.022034 0.988381 -0.307976 3.463805 -1.543994 0.169486 -1.610031 -1.019093 -9.752336 -7.143576 2.119107 34.061325 4.357785 11.208520 10.054327 0.000000 0.000000 0.000000 2.032320 1.044881 -9.339450 -1.491432 1.072906 15.980029 -1.472877 -9.010403 15.705764 0.000000 0.000000 0.000000 -0.289304 -0.763106 22.915458 7.708824 -0.936632 -27.526507 -3.618888 -3.107252 31.786652 3.341679 -2.691062 -10.744602 0.000000 0.000000 0.000000 -35.403431 8.099452 -6.515329 -39.040486 0.345662 -7.433881 -23.248704 -50.335726 14.688691 0.000000 0.000000 0.000000 16.422075 1.623095 -0.787463 51.685047 0.712586 -7.575444 2.027898 49.096477 3.179622 0.000000 0.000000 0.000000
-0.019539 0.988480 -0.320374 2.327684 -1.395075 0.805935 -1.542015 -0.642428 -6.247144 -6.672656 1.759044 31.095286 2.941741 8.700088 9.329755 0.000000 0.000000 0.000000 2.930065 1.189213 -10.068843 -1.075281 0.856164 14.103002 -1.745007 -9.871894 17.541362 0.000000 0.000000 0.000000 0.492398 -0.941579 22.575942 8.091432 -1.060837 -27.025763 -3.620255 -3.392243 30.826281 4.651311 -3.787793 -10.202246 0.000000 0.000000 0.000000 -34.668687 8.432649 -6.612783 -40.401753 -0.529796 -7.358732 -21.567109 -49.571590 13.755329 0.000000 0.000000 0.000000 16.469663 2.287943 -0.520493 51.748368 0.779704 -7.419068 0.127767 48.523983 2.222908 0.000000 0.000000 0.000000
-0.016671 0.986650 -0.333888 1.158230 -0.459313 2.323490 -1.642442 -0.413779 -4.152922 -5.300382 0.963391 25.234305 3.088005 8.534045 7.286563 0.000000 0.000000 0.000000 3.719522 1.596266 -12.787698 -1.191670 0.869672 14.332227 -1.296538 -9.233768 18.763384 0.000000 0.000000 0.000000 0.986300 -1.067026 21.598645 8.900631 -1.224813 -26.828654 -3.549262 -4.193877 30.779500 5.271849 -4.239186 -10.984154 0.000000 0.000000 0.000000 -34.650548 6.823366 -5.289548 -40.857050 -1.162580 -7.289060 -17.408171 -49.647862 11.786068 0.000000 0.000000 0.000000 17.309425 2.429948 -0.580924 51.642895 1.014114 -7.266636 -3.485523 48.400911 0.629460 0.000000 0.000000 0.000000
-0.013562 0.984190 -0.348399 -0.106498 0.040507 2.816640 -0.577714 -0.144306 -1.611906 -4.898011 0.706007 18.304859 3.234306 8.919624 7.705803 0.000000 0.000000 0.000000 4.661819 1.951884 -14.737067 -0.681550 0.789102 15.444273 -1.705698 -9.789654 18.677147 0.000000 0.000000 0.000000 0.733602 -1.057729 21.670799 10.315349 -1.437859 -27.537903 -3.711465 -5.231079 31.182291 6.186654 -5.015004 -11.651283 0.000000 0.000000 0.000000 -34.103494 6.567818 -4.658812 -41.032861 -2.382479 -7.092268 -15.809661 -48.804033 10.937772 0.000000 0.000000 0.000000 18.074106 2.565525 -0.771412 51.055553 1.841633 -6.831552 -3.182104 48.068808 0.628859 0.000000 0.000000 0.000000
-0.010175 0.980481 -0.363517 -1.212013 -0.444713 2.648489 -0.170101 -0.026968 -0.321835 -4.384350 0.561742 13.954254 4.035703 10.587815 9.206155 0.000000 0.000000 0.000000 5.431790 2.378972 -16.965520 -0.512601 0.871191 17.688881 -1.341984 -9.451420 19.466488 0.000000 0.000000 0.000000 0.490355 -1.006968 21.869592 11.662818 -1.812685 -26.905706 -4.516611 -5.335521 31.106303 6.589545 -5.260644 -12.566504 0.000000 0.000000 0.000000 -33.061823 5.527624 -3.559271 -41.794923 -3.508523 -6.927548 -11.663440 -48.464847 9.041209 0.000000 0.000000 0.000000 19.570350 2.934584 -0.857062 50.221945 2.361005 -6.433124 -4.780950 48.570159 -0.141599 0.000000 0.000000 0.000000
-0.006768 0.977842 -0.378661 -1.894078 -0.557273 2.079022 -0.110245 0.016917 0.166339 -3.918023 0.450325 11.866328 4.358943 11.585901 11.802155 0.000000 0.000000 0.000000 5.418627 2.620461 -18.486520 0.327375 0.718336 19.314648 -1.292893 -9.654852 20.735259 0.000000 0.000000 0.000000 -0.083790 -0.927109 22.855386 11.950600 -1.858016 -27.114131 -4.483268 -6.396632 31.171861 6.243965 -5.153529 -12.728054 0.000000 0.000000 0.000000 -33.441079 5.291007 -2.900838 -41.160032 -4.852969 -6.617841 -9.656586 -48.437477 8.238868 0.000000 0.000000 0.000000 20.598074 2.989304 -1.291733 50.329818 2.298116 -6.362048 -3.738556 48.511819 0.120245 0.000000 0.000000 0.000000
-0.003373 0.976788 -0.394183 -2.389815 -0.567516 1.572536 0.119577 0.051467 0.594215 -4.051562 0.471626 9.586421 5.109137 13.121123 14.214035 0.000000 0.000000 0.000000 5.149818 2.903238 -20.549247 1.036433 0.597170 21.582748 -0.853328 -9.040690 21.127336 0.000000 0.000000 0.000000 -0.930048 -0.757233 23.089028 12.676013 -2.086591 -26.700497 -4.967972 -7.202267 31.084783 6.083193 -5.208339 -12.246751 0.000000 0.000000 0.000000 -32.667376 4.742039 -2.095720 -41.300535 -5.487400 -6.530295 -8.039183 -49.268040 7.769972 0.000000 0.000000 0.000000 21.256948 3.306439 -1.451062 50.393518 1.763526 -6.489868 -2.407898 47.857679 0.551254 0.000000 0.000000 0.000000
-0.000529 0.976957 -0.410463 -3.052459 -0.442289 1.022763 0.693767 0.034800 0.527910 -4.040955 0.463017 8.370004 5.415231 13.942410 16.969126 0.000000 0.000000 0.000000 5.361960 3.108218 -21.631549 1.196835 0.577045 22.744190 -0.374286 -8.112967 20.540599 0.000000 0.000000 0.000000 -1.614688 -0.645589 23.905874 13.295032 -2.121592 -27.465819 -5.213256 -7.868847 31.547106 6.117843 -5.267852 -13.123351 0.000000 0.000000 0.000000 -32.807862 4.688843 -1.792209 -40.509411 -6.699818 -6.206104 -7.981721 -50.430151 8.013295 0.000000 0.000000 0.000000 22.319467 3.140741 -1.882218 50.219092 0.774560 -6.819384 -0.338094 47.810176 1.353996 0.000000 0.000000 0.000000
0.001433 0.978373 -0.427951 -3.645379 -0.752518 0.407505 1.253114 0.033632 0.613783 -4.099677 0.476414 7.285566 5.537353 14.155207 17.543184 0.000000 0.000000 0.000000 5.476821 3.279325 -22.476280 1.463272 0.538520 23.619912 0.198335 -6.863943 19.124425 0.000000 0.000000 0.000000 -2.783303 -0.381413 24.065835 13.256106 -2.213172 -26.893846 -4.838787 -9.138401 31.773947 5.562285 -4.850002 -15.075383 0.000000 0.000000 0.000000 -32.315107 5.132728 -1.480970 -40.438053 -8.843452 -5.731303 -6.688708 -51.034442 7.763694 0.000000 0.000000 0.000000 21.654840 3.142089 -2.249130 51.520374 -0.048532 -7.267200 2.374845 47.214953 2.243239 0.000000 0.000000 0.000000
0.002303 0.980402 -0.446461 -4.476194 -0.945984 -0.001319 2.227628 0.015658 0.564865 -4.691704 0.575181 6.300919 6.103170 14.904398 17.239714 0.000000 0.000000 0.000000 5.218519 3.355886 -23.169973 2.787269 0.158497 25.465630 -0.675519 -7.800776 17.082461 0.000000 0.000000 0.000000 -3.683797 -0.189868 24.734400 14.312259 -2.400655 -27.265228 -5.010732 -9.396093 32.029228 4.741303 -4.140040 -16.518147 0.000000 0.000000 0.000000 -31.209893 4.828273 -1.064392 -40.482223 -10.050837 -5.383854 -7.498271 -52.725730 8.600941 0.000000 0.000000 0.000000 20.779470 2.525710 -2.560433 51.984291 -0.590772 -7.588781 5.339376 47.225744 3.409667 0.000000 0.000000 0.000000
0.002326 0.982631 -0.465663 -5.101177 -1.887783 0.044932 3.032545 -0.017516 0.147597 -5.368528 0.688830 5.124461 6.876822 15.915584 17.476518 0.000000 0.000000 0.000000 4.927714 3.399692 -23.529877 3.390411 0.129444 30.244967 -2.092386 -9.725595 14.340220 0.000000 0.000000 0.000000 -4.091294 -0.049697 24.761698 14.013261 -2.243096 -27.856701 -5.054579 -10.736059 32.813964 2.769874 -2.991259 -17.310733 0.000000 0.000000 0.000000 -30.688820 5.293071 -0.569459 -40.523842 -12.369675 -4.973670 -7.243657 -53.161851 8.975036 0.000000 0.000000 0.000000 18.777427 2.751269 -2.597162 52.939516 -1.234513 -8.107065 9.995046 47.251087 5.029003 0.000000 0.000000 0.000000
0.001722 0.984482 -0.485232 -5.340747 -1.585759 -0.082301 3.785022 -0.062938 -0.486818 -6.030508 0.773211 4.425558 6.496482 15.413294 17.448741 0.000000 0.000000 0.000000 4.902354 3.346111 -23.283586 2.967590 0.428566 37.393837 -2.621981 -10.192825 12.424435 0.000000 0.000000 0.000000 -4.215606 -0.043163 24.747271 14.007880 -2.391059 -26.899680 -5.368570 -12.000798 31.873400 1.917354 -2.573812 -15.714452 0.000000 0.000000 0.000000 -30.473466 4.182287 0.577508 -39.796576 -13.535859 -4.586056 -4.426892 -53.653207 7.656277 0.000000 0.000000 0.000000 17.368556 2.862473 -2.558416 54.044949 -1.696843 -8.448083 11.345584 47.155714 5.340593 0.000000 0.000000 0.000000
0.000473 0.985022 -0.505037 -5.278464 -0.674127 -0.091157 4.216571 -0.122812 -1.413364 -6.104765 0.752789 3.803022 5.125161 13.578847 17.417632 0.000000 0.000000 0.000000 4.722157 3.010294 -21.501774 2.414139 0.716619 44.648795 -3.031784 -10.810093 12.254836 0.000000 0.000000 0.000000 -4.781844 0.031924 24.840097 13.983317 -2.297141 -27.507034 -5.424611 -12.875520 32.123840 1.853843 -2.621935 -16.047253 0.000000 0.000000 0.000000 -30.798225 3.436961 1.276974 -38.352253 -15.061352 -4.167454 -3.071502 -54.254198 6.969766 0.000000 0.000000 0.000000 17.024905 2.780719 -2.608336 53.906315 -2.308514 -8.722979 11.723770 47.154697 5.430347 0.000000 0.000000 0.000000
-0.001564 0.984998 -0.524791 -4.898001 0.412383 -0.185794 3.943846 -0.182273 -2.337717 -6.198870 0.731547 3.113841 4.845646 13.353723 17.694898 0.000000 0.000000 0.000000 4.132954 2.361747 -17.799018 1.995114 0.798865 49.531657 -2.397998 -9.787029 13.410766 0.000000 0.000000 0.000000 -5.005124 0.022638 24.143694 13.612090 -2.280458 -27.096693 -5.385316 -13.336578 31.888544 1.888667 -2.676040 -14.460918 0.000000 0.000000 0.000000 -30.456149 3.111160 1.414364 -37.892245 -15.869703 -3.859002 -3.877462 -55.234225 7.510126 0.000000 0.000000 0.000000 16.710206 2.141476 -2.832825 54.050863 -3.487111 -9.252988 12.853819 46.782284 5.856348 0.000000 0.000000 0.000000
-0.004884 0.982594 -0.544571 -4.069751 1.316352 0.020770 3.260210 -0.273307 -3.633200 -5.853234 0.660210 2.563082 3.856973 12.104173 17.869737 0.000000 0.000000 0.000000 3.281821 1.726810 -13.901081 1.051304 1.175055 51.836167 -1.263305 -8.080518 15.172453 0.000000 0.000000 0.000000 -5.682259 0.135163 23.740781 13.287826 -2.156665 -27.398375 -5.588786 -13.014122 32.031400 2.540970 -3.075420 -14.712089 0.000000 0.000000 0.000000 -30.815154 3.248008 1.008795 -36.883140 -16.540783 -3.588135 -3.563395 -55.932422 7.270392 0.000000 0.000000 0.000000 17.130265 1.923414 -2.815867 53.733142 -4.427699 -9.612954 12.804964 47.129694 6.050490 0.000000 0.000000 0.000000
-0.009665 0.979688 -0.565712 -3.413101 2.085170 0.255187 2.895513 -0.376003 -5.030095 -5.660045 0.609872 1.608924 3.107067 11.380558 19.071115 0.000000 0.000000 0.000000 2.569589 1.102960 -9.394789 -1.403949 2.451851 51.139343 0.646431 -5.320202 17.591335 0.000000 0.000000 0.000000 -6.092973 0.192679 23.149403 13.460212 -2.254171 -26.954563 -5.691505 -11.355926 30.891526 2.344768 -2.649439 -12.941201 0.000000 0.000000 0.000000 -30.966355 3.300097 0.037316 -36.347109 -16.113544 -3.326112 -4.686149 -56.165415 7.482789 0.000000 0.000000 0.000000 18.290897 1.692130 -2.641200 53.492339 -5.617876 -9.946732 11.587336 47.434914 5.941155 0.000000 0.000000 0.000000
-0.015798 0.974658 -0.589375 -2.317600 2.225627 0.799334 2.610501 -0.532599 -7.124271 -6.136739 0.652549 1.030563 2.411747 10.739002 20.582975 0.000000 0.000000 0.000000 1.641299 0.533458 -4.913940 -3.739597 3.583769 47.091799 2.561312 -2.129681 17.998906 0.000000 0.000000 0.000000 -6.316154 0.255594 23.322245 12.738565 -2.018131 -27.388832 -5.582760 -9.410824 29.748988 3.306479 -3.172044 -11.197731 0.000000 0.000000 0.000000 -31.023031 3.566344 -1.071178 -35.898720 -16.232801 -2.937558 -6.753192 -54.695695 7.904678 0.000000 0.000000 0.000000 18.367517 1.236466 -2.348897 53.767436 -6.628741 -10.440820 11.435034 47.919881 6.311443 0.000000 0.000000 0.000000
-0.023544 0.969356 -0.616866 -1.707884 2.753167 1.012681 2.608477 -0.684492 -9.186669 -6.289756 0.658559 0.905461 1.786148 10.087779 21.099012 0.000000 0.000000 0.000000 2.006839 0.205489 -2.069147 -5.109798 3.796036 41.527716 3.187279 0.394495 14.609709 0.000000 0.000000 0.000000 -6.053753 0.180308 24.302992 11.892817 -1.878411 -26.944460 -5.213723 -7.976674 28.271035 3.788508 -3.419507 -9.340253 0.000000 0.000000 0.000000 -31.049208 3.293839 -1.731186 -35.278468 -15.621722 -2.699589 -5.920476 -53.360438 6.812926 0.000000 0.000000 0.000000 18.975293 0.767216 -2.255328 54.101112 -5.833371 -10.080489 10.781258 48.151567 6.366276 0.000000 0.000000 0.000000
-0.032782 0.964103 -0.648097 -1.486740 2.003808 1.091252 3.120489 -0.820646 -11.760012 -6.562978 0.703974 0.991716 2.611202 11.526549 23.600599 0.000000 0.000000 0.000000 1.901254 0.037090 -0.670660 -5.761766 3.834091 36.565336 3.100359 1.499631 11.519036 0.000000 0.000000 0.000000 -5.761023 0.161840 25.444119 11.959641 -1.913369 -26.808161 -5.037732 -6.049201 27.987069 3.660294 -3.254294 -7.624752 0.000000 0.000000 0.000000 -32.095382 3.613916 -2.698748 -34.707010 -14.266527 -2.816878 -6.727464 -52.030931 6.694027 0.000000 0.000000 0.000000 19.548738 1.533642 -1.508652 53.930250 -4.000165 -9.286823 10.144183 49.603158 6.605187 0.000000 0.000000 0.000000
-0.043736 0.959420 -0.682169 -1.161869 0.999587 1.376600 3.598829 -0.929904 -14.363100 -6.742483 0.750808 1.328783 3.419076 12.550872 24.692591 0.000000 0.000000 0.000000 1.841944 0.025201 -0.600430 -5.663199 3.537010 32.272256 2.722077 1.882412 8.850278 0.000000 0.000000 0.000000 -5.544908 0.186387 25.954875 11.607019 -1.864271 -26.534282 -4.465017 -4.812664 28.521395 3.024110 -2.648745 -7.639743 0.000000 0.000000 0.000000 -33.283752 4.103991 -3.426887 -34.088627 -13.347766 -2.999598 -6.080485 -49.432713 5.866436 0.000000 0.000000 0.000000 18.851452 3.059984 -0.393419 53.995682 -0.886500 -8.093113 7.885165 50.634121 5.906693 0.000000 0.000000 0.000000
-0.056879 0.954489 -0.717997 -1.281189 0.798511 1.142573 4.696808 -0.923810 -16.633047 -6.898059 0.781798 1.658203 3.532129 12.873865 26.174467 0.000000 0.000000 0.000000 2.436571 0.137400 -1.609591 -4.342911 2.834143 30.022336 1.837146 0.740728 7.263236 0.000000 0.000000 0.000000 -5.074402 0.080042 27.085434 12.795572 -2.275072 -25.526925 -4.803201 -3.368662 27.856119 2.058537 -1.671309 -7.074925 0.000000 0.000000 0.000000 -34.773311 4.499093 -4.547376 -33.913417 -10.832304 -3.379428 -5.828563 -48.289202 5.398127 0.000000 0.000000 0.000000 19.384545 3.813176 0.315692 52.233863 1.677637 -6.745350 6.797933 52.562846 5.857938 0.000000 0.000000 0.000000
-0.072043 0.949800 -0.754376 -1.047041 0.867848 0.543345 5.511393 -0.892192 -18.277601 -6.586689 0.749700 1.878145 2.273326 11.564427 27.414115 0.000000 0.000000 0.000000 3.583429 0.218695 -2.278738 -3.914168 2.522031 28.181685 0.109122 -2.480685 6.001992 0.000000 0.000000 0.000000 -4.469889 -0.084283 27.747763 12.488031 -2.296577 -24.935391 -4.247769 -2.015041 27.800193 2.145458 -1.712368 -5.647987 0.000000 0.000000 0.000000 -35.772590 4.265113 -5.172148 -33.783396 -8.270115 -3.813641 -7.165684 -45.482341 5.408008 0.000000 0.000000 0.000000 19.243559 4.195058 0.918805 51.278827 3.490547 -5.999249 5.414763 54.557739 5.718571 0.000000 0.000000 0.000000
-0.088302 0.946918 -0.790629 -1.270057 1.205923 -0.225017 6.962161 -0.756003 -20.216502 -6.620976 0.758138 2.279980 1.977646 11.674288 29.777705 0.000000 0.000000 0.000000 4.389076 0.411720 -3.614888 -2.533341 1.962715 27.910983 -0.944431 -4.445727 5.082785 0.000000 0.000000 0.000000 -3.727587 -0.322347 28.504711 13.003432 -2.557183 -24.105140 -4.580550 -0.696478 27.583463 2.340248 -1.771561 -4.996221 0.000000 0.000000 0.000000 -36.200351 4.675281 -6.291255 -34.469834 -5.983376 -4.219819 -7.387432 -44.176383 5.203022 0.000000 0.000000 0.000000 20.024313 4.386555 1.401561 49.545581 5.272064 -5.199580 2.512566 54.823368 4.530023 0.000000 0.000000 0.000000
-0.104366 0.945699 -0.825410 -1.414981 1.707463 -0.710340 8.604748 -0.542498 -21.605104 -7.169965 0.800167 1.642620 2.063412 12.086297 31.173233 0.000000 0.000000 0.000000 4.860217 0.757150 -5.937171 -1.534022 1.611799 29.265812 -0.789796 -3.600149 3.824841 0.000000 0.000000 0.000000 -3.310560 -0.485019 28.952795 13.473307 -2.560435 -24.920961 -4.678249 -0.360775 28.557325 1.424084 -0.978726 -4.373687 0.000000 0.000000 0.000000 -37.250688 6.033074 -7.794728 -34.433650 -3.191001 -4.883818 -9.980237 -43.169338 6.058062 0.000000 0.000000 0.000000 19.651737 5.141499 2.021537 47.197908 6.509992 -4.705373 3.121889 55.443383 4.945835 0.000000 0.000000 0.000000
-0.118564 0.948884 -0.856373 -0.902759 2.761865 -0.699101 8.989753 -0.563054 -22.546912 -7.741320 0.867858 2.306402 3.379089 13.337694 28.378240 0.000000 0.000000 0.000000 4.849995 1.148596 -8.685399 -0.576553 1.164010 30.133821 -1.174792 -4.921891 5.247569 0.000000 0.000000 0.000000 -3.174608 -0.559454 27.719908 13.678681 -2.780639 -23.706911 -4.752380 0.130873 28.107094 1.498050 -0.935864 -4.425416 0.000000 0.000000 0.000000 -37.642782 5.577713 -8.093513 -35.017966 -0.362586 -5.493817 -10.694635 -43.624229 6.318084 0.000000 0.000000 0.000000 19.118282 5.071456 2.257745 46.947789 6.099533 -4.863842 2.541994 55.958525 4.884784 0.000000 0.000000 0.000000
-0.130833 0.953693 -0.882729 -0.004503 4.666277 -1.134137 8.124158 -0.857831 -23.267777 -7.795204 0.991679 7.874316 5.286933 15.166780 22.521489 0.000000 0.000000 0.000000 4.264127 1.291541 -9.982911 -0.515487 0.933793 30.385441 -0.596560 -3.880682 6.351641 0.000000 0.000000 0.000000 -3.355561 -0.630677 27.421771 13.173943 -2.368898 -25.674890 -4.471097 -0.449644 29.548243 1.478740 -1.017162 -3.574993 0.000000 0.000000 0.000000 -37.574715 6.260604 -8.766456 -34.684343 1.459594 -5.935956 -14.583259 -43.591661 7.847741 0.000000 0.000000 0.000000 19.139974 4.032824 1.856730 45.824326 5.146211 -5.300366 5.255747 56.357077 6.454125 0.000000 0.000000 0.000000
-0.141578 0.960829 -0.905754 0.642094 6.701887 -2.162258 6.953657 -1.122615 -22.332166 -7.642560 1.020924 15.142551 7.372810 17.691839 18.761966 0.000000 0.000000 0.000000 3.917109 1.250862 -9.813090 -0.211442 0.576016 28.723319 -0.648249 -4.757688 9.547954 0.000000 0.000000 0.000000 -3.619729 -0.693467 27.076457 12.025990 -2.070725 -25.836572 -3.653903 -1.520279 29.983108 2.048368 -1.590800 -3.571035 0.000000 0.000000 0.000000 -36.894417 6.762759 -8.979845 -35.445151 2.259572 -6.322631 -15.828720 -43.954072 8.461640 0.000000 0.000000 0.000000 17.762159 3.727203 1.724652 47.154155 4.084446 -5.856441 4.485816 56.263554 6.165335 0.000000 0.000000 0.000000
-0.150719 0.968035 -0.927277 1.253321 8.941254 -2.511657 5.432701 -1.412707 -21.400542 -6.573899 0.582102 22.734092 6.799757 16.780471 15.742889 0.000000 0.000000 0.000000 3.194059 1.191847 -9.799694 0.167028 0.220430 26.842887 -0.391936 -4.557440 11.752884 0.000000 0.000000 0.000000 -3.987752 -0.724997 26.493529 12.101440 -2.012775 -26.322357 -4.193488 -2.220525 30.254466 2.286280 -1.692673 -4.389552 0.000000 0.000000 0.000000 -35.932934 7.126636 -9.284691 -35.946068 2.592641 -6.446308 -17.013393 -43.581661 8.818243 0.000000 0.000000 0.000000 17.197448 3.422768 1.707579 47.893735 2.703252 -6.468292 4.175655 55.128060 6.003355 0.000000 0.000000 0.000000
-0.158426 0.975060 -0.948356 1.692716 10.364463 -2.701785 4.453029 -1.450026 -19.505441 -7.043797 0.448040 28.421938 7.388868 17.318939 13.014093 0.000000 0.000000 0.000000 2.518286 1.119674 -9.667356 0.181226 0.133139 24.334485 0.484031 -3.314435 14.249567 0.000000 0.000000 0.000000 -4.150345 -0.772462 26.394294 11.077219 -1.662725 -27.120821 -3.588568 -2.743192 30.218428 2.923033 -2.363696 -3.798489 0.000000 0.000000 0.000000 -35.627603 7.511569 -9.634306 -36.092681 2.511507 -6.430164 -19.105851 -43.278803 9.572339 0.000000 0.000000 0.000000 16.405182 2.869170 1.485440 48.541776 1.338692 -7.062796 4.882729 54.381773 6.347579 0.000000 0.000000 0.000000
-0.164757 0.981129 -0.969408 1.827323 11.674348 -2.668371 3.838294 -1.400372 -17.694388 -7.796498 0.382330 32.938818 7.553822 17.479448 12.240472 0.000000 0.000000 0.000000 2.491868 1.119019 -9.724281 -0.012427 0.146055 21.948238 0.563830 -3.403291 16.128593 0.000000 0.000000 0.000000 -4.257909 -0.791981 25.725362 11.244533 -1.637139 -27.666750 -3.813442 -3.198866 30.290034 3.286533 -2.586621 -4.542222 0.000000 0.000000 0.000000 -35.460254 8.060263 -10.159182 -36.376674 2.060667 -6.321669 -20.243022 -43.051211 9.951668 0.000000 0.000000 0.000000 15.638794 2.520159 1.369370 49.482918 0.561859 -7.461954 4.889377 52.689233 6.192559 0.000000 0.000000 0.000000
-0.169946 0.985582 -0.989959 1.819552 12.796878 -2.373198 3.214773 -1.164562 -14.299325 -8.340930 0.296762 35.482814 7.185520 16.691039 10.775081 0.000000 0.000000 0.000000 2.449265 1.171504 -10.332365 -0.122693 0.144479 20.193741 0.677270 -3.331944 17.579031 0.000000 0.000000 0.000000 -4.078210 -0.825954 24.631356 10.806887 -1.482386 -28.036706 -3.541993 -3.915919 30.070048 3.798342 -3.101088 -4.442229 0.000000 0.000000 0.000000 -35.588470 7.931843 -10.119981 -36.252643 1.241922 -6.072237 -21.442728 -42.458133 10.275273 0.000000 0.000000 0.000000 14.905092 1.740911 0.969475 50.422067 -0.702427 -8.032610 5.896353 51.450028 6.512559 0.000000 0.000000 0.000000
-0.174003 0.988175 -1.009811 1.255114 13.395244 -2.272078 3.315519 -0.804066 -10.256112 -8.880312 0.403850 35.280628 5.509471 14.058190 10.537596 0.000000 0.000000 0.000000 2.987457 1.251314 -10.653598 -0.267635 0.188465 18.260821 0.785256 -3.203115 18.489980 0.000000 0.000000 0.000000 -3.382357 -0.924560 23.438464 10.443926 -1.321168 -28.821297 -3.677344 -4.630584 30.431014 4.632469 -3.998010 -4.067639 0.000000 0.000000 0.000000 -34.532055 8.123588 -9.849298 -37.622573 0.058310 -6.075135 -22.065950 -41.919440 10.457922 0.000000 0.000000 0.000000 14.773873 1.252904 0.692417 50.714374 -1.483674 -8.406899 5.753040 50.165910 6.214862 0.000000 0.000000 0.000000
-0.177008 0.987768 -1.028899 0.494504 14.108429 -2.144762 3.626653 -0.398186 -4.741048 -8.589220 0.278734 33.348191 3.973721 11.608819 10.351882 0.000000 0.000000 0.000000 3.159669 1.360789 -11.601267 -0.414090 0.218632 16.883028 0.370411 -3.779501 18.673867 0.000000 0.000000 0.000000 -2.464270 -0.976881 21.291828 9.766004 -1.199391 -28.236207 -3.752273 -5.783336 30.075188 4.599056 -4.190451 -3.152596 0.000000 0.000000 0.000000 -33.589468 7.241125 -8.722065 -39.014711 -1.051117 -6.057962 -20.468625 -41.759760 9.886054 0.000000 0.000000 0.000000 14.463350 0.183526 0.034412 51.319984 -2.605671 -8.854448 6.750143 48.905771 6.361447 0.000000 0.000000 0.000000
-0.178839 0.985084 -1.048204 -0.559127 14.286848 -2.158389 3.782119 -0.132066 0.352165 -7.087914 -0.095200 30.288181 2.132103 8.630893 10.108707 0.000000 0.000000 0.000000 3.376216 1.548501 -13.282282 0.489072 -0.048142 16.839623 -0.890259 -6.083541 19.979672 0.000000 0.000000 0.000000 -1.648596 -1.032539 19.982655 10.398647 -1.298480 -28.761509 -4.643779 -6.804518 30.841082 4.759728 -4.339587 -3.862995 0.000000 0.000000 0.000000 -32.654858 7.453674 -8.259204 -40.245614 -1.920925 -6.172783 -20.725494 -41.990795 10.216689 0.000000 0.000000 0.000000 14.506020 -0.393983 -0.391881 51.629672 -2.667293 -8.984904 6.893636 47.647138 6.133463 0.000000 0.000000 0.000000
-0.179554 0.978502 -1.069515 -1.567302 14.769163 -2.329984 2.788507 0.145964 5.915624 -3.365321 -1.011595 25.908148 -0.378739 5.868459 12.957542 0.000000 0.000000 0.000000 3.609690 1.700923 -14.650063 0.981386 -0.210006 16.670688 -1.860978 -7.828781 21.993811 0.000000 0.000000 0.000000 -0.323990 -1.204538 19.073513 9.833058 -1.171572 -28.682565 -4.856702 -8.159696 30.944418 5.388238 -4.690936 -6.014225 0.000000 0.000000 0.000000 -31.306367 5.276613 -6.013426 -42.184040 -3.346508 -6.186828 -18.312636 -42.079659 9.471264 0.000000 0.000000 0.000000 14.771372 -1.175509 -0.982559 52.391130 -3.654204 -9.481405 5.666871 47.711169 5.502053 0.000000 0.000000 0.000000
-0.179662 0.971431 -1.093891 -2.506747 14.904033 -2.893192 2.508589 0.298399 10.656464 -1.407437 -1.048871 20.146803 -2.431785 4.388572 16.599877 0.000000 0.000000 0.000000 3.722777 1.864935 -16.283456 1.899206 -0.506565 17.163905 -2.822876 -9.603800 24.857805 0.000000 0.000000 0.000000 0.735062 -1.404076 19.132750 9.944113 -1.213937 -28.513686 -5.606614 -8.950160 30.760610 5.675279 -4.944152 -6.337578 0.000000 0.000000 0.000000 -30.045632 4.645781 -5.098828 -43.685092 -5.031043 -5.903935 -16.144760 -41.806068 8.670043 0.000000 0.000000 0.000000 15.816824 -1.314135 -1.262438 52.664998 -3.488969 -9.425437 4.230949 46.764033 4.657675 0.000000 0.000000 0.000000
-0.179562 0.963793 -1.121569 -3.104450 15.160267 -2.524967 2.417721 0.335467 13.103944 -0.919611 -0.606671 13.336806 -1.918742 5.448040 17.227397 0.000000 0.000000 0.000000 3.734214 2.125080 -19.552994 1.859860 -0.560869 18.522648 -2.997638 -9.918802 25.861593 0.000000 0.000000 0.000000 1.552154 -1.527392 18.816637 9.401862 -1.100065 -28.180145 -5.775820 -9.907660 30.610123 5.672076 -4.756196 -7.999025 0.000000 0.000000 0.000000 -28.388741 2.612807 -3.226233 -45.428740 -6.480310 -5.684051 -12.745403 -42.303149 7.558831 0.000000 0.000000 0.000000 16.759239 -2.007436 -1.870897 52.954512 -3.782104 -9.553027 2.118084 46.916730 3.692409 0.000000 0.000000 0.000000
-0.179511 0.957211 -1.150711 -3.306043 14.682461 -2.829830 2.679206 0.325335 14.658523 -1.395906 -0.211745 8.490200 -1.785587 6.033146 18.425310 0.000000 0.000000 0.000000 3.446329 2.268476 -21.987207 1.880767 -0.619035 20.390974 -2.617666 -9.447718 25.389521 0.000000 0.000000 0.000000 1.251217 -1.555571 19.666528 9.601719 -1.131078 -28.518089 -5.894476 -10.132132 30.526987 5.458089 -4.581523 -8.370494 0.000000 0.000000 0.000000 -27.815632 2.004678 -2.557704 -45.302128 -8.085388 -5.164130 -12.344190 -42.418454 7.473924 0.000000 0.000000 0.000000 17.865626 -1.728312 -1.951837 52.631615 -3.473505 -9.353065 1.433897 46.675916 3.281681 0.000000 0.000000 0.000000
-0.179411 0.951747 -1.179237 -3.025210 13.654389 -3.535824 1.727293 0.555120 15.957992 -1.857406 0.022577 4.732312 -0.076245 8.944582 20.892429 0.000000 0.000000 0.000000 2.972320 2.313510 -23.341910 2.023262 -0.617309 20.925421 -2.714635 -9.882044 26.076911 0.000000 0.000000 0.000000 0.816789 -1.522072 20.474896 9.512388 -1.152300 -28.267769 -5.905621 -9.629238 30.201121 5.043513 -4.115181 -9.120566 0.000000 0.000000 0.000000 -26.768621 1.235831 -1.905420 -45.455593 -9.036863 -4.828436 -11.041341 -43.168436 7.114634 0.000000 0.000000 0.000000 19.016770 -1.584256 -2.032909 52.376312 -3.170784 -9.154017 0.355954 46.244790 2.764026 0.000000 0.000000 0.000000
-0.179352 0.948521 -1.205712 -2.787256 12.928470 -4.431390 0.887718 0.754139 16.657552 -2.054785 0.103196 3.023150 0.974915 9.404919 18.065280 0.000000 0.000000 0.000000 2.553026 2.296444 -23.802468 1.957749 -0.555055 21.191928 -2.181858 -9.206238 25.551080 0.000000 0.000000 0.000000 0.093150 -1.473824 21.635994 9.393336 -1.080868 -29.167230 -5.606766 -9.290925 30.627435 4.544058 -3.610202 -10.102810 0.000000 0.000000 0.000000 -27.310192 1.064351 -1.750033 -44.824781 -9.892515 -4.552037 -11.523706 -43.657133 7.417382 0.000000 0.000000 0.000000 19.069388 -1.277866 -1.890217 53.065089 -2.547830 -9.079867 0.794752 45.618393 2.915916 0.000000 0.000000 0.000000
-0.179515 0.945860 -1.230426 -2.371814 12.226762 -4.940851 -0.079635 0.962259 16.741627 -1.968570 0.138738 1.416124 1.455455 9.564787 16.617714 0.000000 0.000000 0.000000 2.016467 2.273382 -24.672159 2.226123 -0.570945 20.749671 -2.501111 -10.027310 27.278173 0.000000 0.000000 0.000000 -0.619557 -1.347722 22.098921 9.480277 -1.125825 -29.044438 -5.788069 -9.167793 30.424398 4.237100 -3.249023 -11.194908 0.000000 0.000000 0.000000 -27.241954 1.281079 -1.753760 -44.866326 -9.835077 -4.598107 -11.335513 -43.865646 7.431546 0.000000 0.000000 0.000000 19.300952 -0.857644 -1.778175 53.775398 -2.009967 -8.944997 0.501838 44.395870 2.662776 0.000000 0.000000 0.000000
-0.180172 0.944267 -1.253912 -1.902383 11.342981 -5.150991 -1.017600 1.140320 16.211159 -2.130593 0.163434 1.202663 1.951869 9.273493 13.509994 0.000000 0.000000 0.000000 1.705298 2.260010 -24.752837 2.042926 -0.433445 20.201180 -1.975382 -9.190612 25.288994 0.000000 0.000000 0.000000 -1.379322 -1.169997 22.213643 9.263887 -1.085587 -29.105559 -5.615762 -8.911616 30.468848 3.870501 -2.860876 -12.382393 0.000000 0.000000 0.000000 -27.938736 1.546423 -1.857236 -44.441769 -9.551021 -4.717001 -11.754352 -44.442097 7.751772 0.000000 0.000000 0.000000 20.000637 -0.201523 -1.562815 53.796359 -1.183738 -8.601574 -0.301058 42.638437 2.189313 0.000000 0.000000 0.000000
-0.181782 0.944795 -1.276133 -1.749437 11.106935 -5.236989 -0.960192 1.110139 15.574106 -2.660685 0.220648 0.873546 1.328149 7.515292 11.032459 0.000000 0.000000 0.000000 1.044806 2.107418 -24.422753 2.353114 -0.506678 19.907615 -1.335273 -7.968676 23.118197 0.000000 0.000000 0.000000 -2.420702 -0.990487 22.569301 10.452232 -1.348672 -29.221208 -6.123396 -7.826526 30.302620 3.744014 -2.589974 -12.531628 0.000000 0.000000 0.000000 -28.316460 1.844065 -2.412432 -44.281844 -9.222451 -4.708432 -13.060684 -43.236940 7.915104 0.000000 0.000000 0.000000 21.156064 0.092212 -1.271552 53.632129 0.143299 -8.031613 -0.978957 40.218144 1.890563 0.000000 0.000000 0.000000
-0.184292 0.948409 -1.296656 -2.156108 10.849491 -5.631031 -0.306349 0.972283 14.689501 -3.497517 0.298869 0.812367 1.555819 7.842553 10.967976 0.000000 0.000000 0.000000 1.020763 2.094927 -24.021886 2.938745 -0.652947 19.189132 -1.211914 -7.992855 24.173799 0.000000 0.000000 0.000000 -2.924963 -0.896224 22.605308 10.552047 -1.417510 -28.879626 -5.543335 -8.109320 30.555864 3.348797 -2.193976 -14.046453 0.000000 0.000000 0.000000 -29.632523 2.998152 -3.134818 -43.895137 -9.018041 -4.827838 -13.922556 -42.410826 8.148117 0.000000 0.000000 0.000000 20.484292 0.572435 -1.055716 53.803983 1.245659 -7.598972 0.190825 38.329686 2.104925 0.000000 0.000000 0.000000
-0.187475 0.952466 -1.314712 -3.028479 10.003360 -5.831604 0.848148 0.784953 13.719903 -4.028754 0.353917 0.349634 1.458449 8.022981 12.089015 0.000000 0.000000 0.000000 0.719731 1.996588 -22.716904 4.347351 -1.083156 19.937883 -1.894097 -8.818936 21.856672 0.000000 0.000000 0.000000 -3.422493 -0.773659 22.469299 11.868919 -1.722954 -29.045698 -5.153960 -6.864039 30.694777 2.617051 -1.235138 -16.452430 0.000000 0.000000 0.000000 -30.849511 3.365297 -3.821310 -42.894848 -8.681407 -4.767478 -16.572246 -40.477171 8.610007 0.000000 0.000000 0.000000 19.925280 0.939191 -0.620267 53.712111 1.943827 -7.311083 1.336022 37.201055 2.437334 0.000000 0.000000 0.000000
-0.190867 0.956527 -1.329421 -3.702246 9.768788 -5.549203 1.372052 0.672085 12.722668 -3.796468 0.335306 -0.212230 1.568807 8.252692 12.280822 0.000000 0.000000 0.000000 0.167925 1.877288 -22.416158 5.419183 -1.784346 25.822017 -4.822342 -13.236699 18.856627 0.000000 0.000000 0.000000 -3.589752 -0.693381 21.595898 12.743491 -1.934679 -28.968408 -4.976062 -7.414148 31.207599 1.089819 -0.156078 -17.332605 0.000000 0.000000 0.000000 -32.303695 3.597701 -3.862157 -42.810986 -7.904543 -5.155731 -16.232709 -39.650213 8.380734 0.000000 0.000000 0.000000 17.757394 1.568903 -0.275647 54.441000 1.958812 -7.429598 3.327761 37.335912 3.030007 0.000000 0.000000 0.000000
-0.194566 0.960129 -1.340712 -4.149781 9.412903 -4.920923 1.537303 0.601639 11.443735 -3.056975 0.281069 -1.052098 1.473705 8.629088 13.958097 0.000000 0.000000 0.000000 -0.247678 1.706923 -20.717304 5.477738 -2.175450 31.109233 -6.461948 -16.033774 20.377934 0.000000 0.000000 0.000000 -3.126071 -0.663732 19.814669 12.072477 -1.791783 -28.797539 -5.037553 -8.090971 31.630441 -0.125484 0.730094 -19.816615 0.000000 0.000000 0.000000 -32.676401 4.488362 -4.206321 -43.242280 -7.486240 -5.466434 -16.515046 -37.905419 8.177487 0.000000 0.000000 0.000000 17.901645 2.447364 0.005172 53.744372 2.064607 -7.296383 3.444736 36.659071 2.899207 0.000000 0.000000 0.000000
-0.198744 0.962202 -1.349395 -3.994029 9.742799 -4.086758 1.407299 0.563559 10.460706 -2.559559 0.259291 -3.137307 1.022813 9.033644 17.327705 0.000000 0.000000 0.000000 -0.721257 1.350759 -16.492777 3.892777 -1.761899 33.956443 -6.849287 -16.770903 28.255256 0.000000 0.000000 0.000000 -2.798895 -0.617261 17.947321 12.068175 -1.792201 -28.629409 -5.563415 -7.530037 30.992761 0.045139 0.675107 -18.036638 0.000000 0.000000 0.000000 -32.158937 3.529518 -3.872762 -43.767775 -5.757178 -5.908754 -17.180669 -36.488327 7.953445 0.000000 0.000000 0.000000 19.291374 1.982108 -0.143798 52.303892 1.238384 -7.402812 3.934619 37.380440 3.167102 0.000000 0.000000 0.000000
-0.203859 0.962767 -1.355533 -3.455735 9.697165 -3.241989 1.485001 0.523100 9.714315 -3.088153 0.291391 -4.660561 0.601734 9.046499 19.431287 0.000000 0.000000 0.000000 -0.689880 0.982048 -11.169644 2.214854 -0.895575 31.834964 -3.780728 -12.624444 28.269333 0.000000 0.000000 0.000000 -2.930739 -0.494550 16.140750 10.629637 -1.433760 -28.773878 -5.272136 -7.793084 30.724555 0.177861 0.557334 -18.199661 0.000000 0.000000 0.000000 -32.445640 4.261182 -4.378014 -44.279764 -4.860636 -6.268682 -16.849387 -34.491760 7.386992 0.000000 0.000000 0.000000 19.439959 2.248672 -0.055685 52.211287 1.154543 -7.404303 3.958142 36.455358 3.049585 0.000000 0.000000 0.000000
-0.210060 0.962946 -1.360083 -3.080756 9.510365 -2.949032 1.108301 0.540307 9.119465 -2.563984 0.271994 -5.204940 0.829001 9.752439 21.023758 0.000000 0.000000 0.000000 0.252144 0.596255 -5.845002 0.857719 -0.100539 25.615523 -2.063267 -9.655420 24.461303 0.000000 0.000000 0.000000 -2.991943 -0.419364 14.883001 9.373952 -1.095094 -29.415394 -4.972210 -7.438666 30.949947 0.698634 0.215608 -17.932693 0.000000 0.000000 0.000000 -31.792884 4.790617 -4.785237 -44.523775 -4.053245 -6.546340 -17.477214 -32.490454 7.089097 0.000000 0.000000 0.000000 19.763845 1.489841 -0.405214 52.216178 0.862504 -7.569761 4.551032 36.039977 3.236273 0.000000 0.000000 0.000000
-0.216907 0.962991 -1.364452 -3.017943 8.086801 -2.339314 1.128998 0.546284 8.756876 -2.356331 0.278375 -6.109246 1.538981 10.582174 21.482707 0.000000 0.000000 0.000000 0.524862 0.202072 -1.890253 0.289003 0.275618 18.623072 -0.111008 -6.317926 21.564888 0.000000 0.000000 0.000000 -2.608472 -0.361787 13.075782 8.397358 -0.906115 -29.260007 -4.626162 -6.239213 30.629964 0.393284 0.568962 -18.588984 0.000000 0.000000 0.000000 -31.612373 5.086514 -5.149867 -44.443439 -3.293497 -6.693949 -17.013746 -31.226388 6.606168 0.000000 0.000000 0.000000 19.500544 1.569387 -0.259794 52.877738 0.450246 -7.806112 5.999442 36.008462 3.719670 0.000000 0.000000 0.000000
-0.223955 0.963726 -1.369572 -2.828254 6.858552 -1.877446 1.000774 0.547745 8.202047 -2.044356 0.278619 -6.475715 2.129039 11.304344 22.096455 0.000000 0.000000 0.000000 0.361776 -0.069393 0.602195 0.452166 0.231232 12.220837 0.306107 -5.767225 21.175249 0.000000 0.000000 0.000000 -2.553118 -0.295141 11.638442 7.874137 -0.793527 -29.338327 -4.273064 -5.409256 30.941581 -0.008827 0.952075 -19.918867 0.000000 0.000000 0.000000 -31.506612 5.473476 -5.421004 -44.158454 -2.998769 -6.766333 -16.869539 -30.226960 6.329046 0.000000 0.000000 0.000000 19.064541 1.991816 0.020057 52.937552 0.821412 -7.690163 5.964531 35.475420 3.645422 0.000000 0.000000 0.000000
-0.231099 0.964659 -1.375457 -2.703155 6.323429 -1.311218 1.062590 0.481608 7.141744 -1.793884 0.271451 -6.368851 2.397685 11.665197 22.543738 0.000000 0.000000 0.000000 0.203169 -0.265693 2.419356 1.053066 0.034288 7.102199 0.518759 -5.439263 20.833073 0.000000 0.000000 0.000000 -2.215899 -0.278398 10.472372 7.154282 -0.660712 -29.119253 -4.074839 -5.073124 30.536366 -0.631426 1.372839 -19.476696 0.000000 0.000000 0.000000 -31.671536 5.186028 -5.284269 -43.600932 -2.989752 -6.642906 -16.172026 -29.532903 5.943157 0.000000 0.000000 0.000000 18.985194 2.541336 0.312165 52.648738 0.848195 -7.589125 6.935667 35.504901 3.915801 0.000000 0.000000 0.000000
-0.238334 0.964999 -1.381329 -2.530421 5.806673 -1.265048 1.199633 0.450007 6.718706 -1.722033 0.272014 -6.349548 2.646130 11.970404 22.865537 0.000000 0.000000 0.000000 0.440014 -0.350746 3.117115 1.362920 -0.047172 5.304539 0.010894 -6.103117 19.671022 0.000000 0.000000 0.000000 -2.246566 -0.252265 9.925420 6.999597 -0.637742 -29.046204 -3.844591 -4.465389 30.535664 -0.571803 1.393761 -19.638648 0.000000 0.000000 0.000000 -31.685094 5.100441 -5.336760 -43.180714 -2.883820 -6.598346 -15.711114 -29.194803 5.715634 0.000000 0.000000 0.000000 19.132236 2.613790 0.414956 52.375436 1.126790 -7.460603 6.787951 35.731567 3.917397 0.000000 0.000000 0.000000
-0.245445 0.965394 -1.387419 -2.512785 5.265787 -1.387885 1.639401 0.400510 6.372847 -1.885437 0.280659 -6.176959 2.902817 12.276272 23.169070 0.000000 0.000000 0.000000 1.031085 -0.457708 3.837698 1.600055 -0.111859 3.647057 -0.881048 -7.508900 18.821400 0.000000 0.000000 0.000000 -1.941931 -0.259390 9.455394 6.469207 -0.560210 -28.578292 -3.587064 -4.071434 30.158491 -0.457110 1.315006 -19.267728 0.000000 0.000000 0.000000 -31.880500 4.793486 -5.185816 -42.465016 -2.911107 -6.457251 -14.668406 -28.919250 5.350064 0.000000 0.000000 0.000000 19.674370 2.979984 0.591956 51.824275 1.383949 -7.253819 6.775720 35.411731 3.850302 0.000000 0.000000 0.000000
-0.252094 0.965407 -1.393490 -2.437645 4.880653 -1.567929 2.007347 0.362641 6.115390 -2.223221 0.294262 -5.754582 3.302316 12.604030 22.470615 0.000000 0.000000 0.000000 1.456713 -0.491803 3.966899 1.787447 -0.151373 2.899915 -1.523639 -8.629241 18.667627 0.000000 0.000000 0.000000 -1.926584 -0.255919 9.354754 6.445529 -0.562624 -28.597765 -3.489911 -3.532103 29.992421 -0.089672 1.118565 -19.274357 0.000000 0.000000 0.000000 -31.667480 4.576392 -5.124459 -42.184689 -2.887333 -6.382025 -14.026795 -28.662560 5.099732 0.000000 0.000000 0.000000 19.996759 3.006067 0.659784 51.524982 1.764538 -7.058234 6.790193 35.185297 3.833833 0.000000 0.000000 0.000000
-0.257781 0.965852 -1.399857 -2.313114 4.647757 -1.832858 2.210262 0.335058 5.828626 -2.389630 0.298373 -5.086861 3.442914 12.616801 21.666786 0.000000 0.000000 0.000000 1.865921 -0.546222 4.256788 1.840005 -0.167494 2.374910 -2.102158 -9.504560 17.880253 0.000000 0.000000 0.000000 -1.867328 -0.260941 9.378119 6.196177 -0.535163 -28.279076 -3.324364 -3.379494 29.421693 0.125442 0.983576 -19.357738 0.000000 0.000000 0.000000 -31.925318 4.336223 -5.022009 -41.596133 -2.852918 -6.260939 -13.195083 -28.304716 4.791344 0.000000 0.000000 0.000000 20.306075 3.000949 0.619381 51.414320 2.199309 -6.809520 6.205662 34.251378 3.521081 0.000000 0.000000 0.000000
-0.262527 0.965947 -1.406356 -2.138480 4.501030 -2.046554 2.320191 0.316440 5.591715 -2.696169 0.310821 -4.323027 3.614774 12.532102 20.004960 0.000000 0.000000 0.000000 2.187607 -0.545294 4.134066 1.793689 -0.160123 2.386981 -2.644825 -10.351065 17.269039 0.000000 0.000000 0.000000 -1.869395 -0.268680 9.637037 6.058388 -0.492047 -28.524779 -3.299959 -2.918054 29.452364 0.181024 1.019954 -19.545455 0.000000 0.000000 0.000000 -31.917814 3.964280 -4.898556 -41.376851 -2.999867 -6.158359 -12.772461 -28.134885 4.627202 0.000000 0.000000 0.000000 20.947563 2.978700 0.684378 51.197187 2.643146 -6.641462 5.836940 33.595748 3.359498 0.000000 0.000000 0.000000
-0.266361 0.966525 -1.412947 -1.992362 4.509176 -2.209130 2.329604 0.304539 5.387909 -2.792922 0.312945 -3.736924 3.558357 12.187743 18.512092 0.000000 0.000000 0.000000 2.446683 -0.541696 4.016034 1.948379 -0.184708 2.226259 -3.387354 -11.582116 17.019739 0.000000 0.000000 0.000000 -1.836314 -0.275746 9.760537 5.815581 -0.442022 -28.514467 -3.185748 -2.999650 29.165269 0.345327 0.890309 -19.471306 0.000000 0.000000 0.000000 -31.942334 3.593228 -4.613256 -41.038078 -2.641681 -6.215699 -12.682359 -28.072812 4.582527 0.000000 0.000000 0.000000 21.187225 3.259010 0.802641 51.234712 3.040519 -6.456803 5.093414 32.541313 3.010647 0.000000 0.000000 0.000000
-0.269561 0.966909 -1.419200 -1.981865 4.283998 -2.375083 2.521109 0.301275 5.478486 -2.887849 0.319267 -3.487074 3.296131 11.491481 16.935686 0.000000 0.000000 0.000000 2.614379 -0.553658 4.053859 2.078665 -0.208707 1.813499 -3.479993 -11.751519 16.851247 0.000000 0.000000 0.000000 -1.779266 -0.286354 9.959299 5.659991 -0.387905 -28.907442 -3.001812 -2.759765 29.395028 0.616148 0.727062 -19.598281 0.000000 0.000000 0.000000 -32.083014 3.181789 -4.357714 -40.722074 -2.811899 -6.144688 -12.568378 -27.880712 4.511555 0.000000 0.000000 0.000000 21.557227 3.417459 0.917554 51.026708 3.580089 -6.259732 4.433827 31.350732 2.706830 0.000000 0.000000 0.000000
-0.272215 0.967448 -1.424885 -1.947657 4.340730 -2.576976 2.637533 0.299479 5.570209 -2.893944 0.319988 -3.557462 3.041891 11.018336 16.357173 0.000000 0.000000 0.000000 2.817822 -0.574454 4.144701 2.111941 -0.214752 1.752112 -3.611664 -11.877685 16.141798 0.000000 0.000000 0.000000 -1.738330 -0.291024 9.962424 5.602221 -0.385446 -28.761397 -3.005939 -2.655463 29.143076 0.890602 0.566404 -19.616648 0.000000 0.000000 0.000000 -31.916090 2.895677 -4.200996 -40.514497 -2.694160 -6.117537 -12.842768 -27.788156 4.545713 0.000000 0.000000 0.000000 21.859759 3.530252 1.010119 50.902865 3.858112 -6.126021 3.926906 29.900842 2.427568 0.000000 0.000000 0.000000
-0.274400 0.967658 -1.429852 -1.928692 4.567193 -2.673254 2.777010 0.282671 5.480669 -2.885335 0.317020 -3.397420 2.641694 10.278039 15.503539 0.000000 0.000000 0.000000 2.928363 -0.598220 4.284363 2.054337 -0.216769 1.295534 -3.503832 -11.634740 15.955355 0.000000 0.000000 0.000000 -1.829595 -0.280972 9.837134 5.571273 -0.370729 -28.868491 -2.890320 -2.614570 29.150519 0.830664 0.629169 -19.492708 0.000000 0.000000 0.000000 -31.869280 2.759608 -4.174190 -40.360344 -2.721660 -6.069599 -13.552585 -27.696286 4.694512 0.000000 0.000000 0.000000 21.857124 3.564905 1.089433 50.927594 3.598922 -6.246153 4.075122 29.099728 2.389780 0.000000 0.000000 0.000000
-0.276067 0.968149 -1.434066 -1.897621 4.696744 -2.911576 2.914850 0.285662 5.702981 -2.906958 0.319730 -3.693578 2.268844 9.742321 15.472813 0.000000 0.000000 0.000000 3.050661 -0.651821 4.644018 1.937288 -0.210204 0.892979 -3.405268 -11.402395 15.635589 0.000000 0.000000 0.000000 -1.869601 -0.277001 9.763109 5.502936 -0.361052 -28.795643 -2.810478 -2.675760 28.958200 0.790948 0.662703 -19.517175 0.000000 0.000000 0.000000 -31.600249 2.772336 -4.158812 -40.630980 -2.498948 -6.160647 -14.328076 -27.505883 4.853990 0.000000 0.000000 0.000000 21.608452 3.593933 1.114891 51.225153 3.451852 -6.317890 4.195069 28.190090 2.324772 0.000000 0.000000 0.000000
-0.277288 0.968486 -1.437718 -1.865571 4.634955 -3.025871 3.025115 0.286105 5.815242 -3.028047 0.328284 -3.692135 2.072616 9.295595 14.872379 0.000000 0.000000 0.000000 3.080557 -0.665313 4.738051 1.933093 -0.216916 0.519745 -3.365874 -11.361890 15.778794 0.000000 0.000000 0.000000 -1.952351 -0.261860 9.503616 5.497615 -0.366842 -28.705414 -2.783170 -2.535582 28.983942 1.055977 0.490511 -19.403851 0.000000 0.000000 0.000000 -31.423881 2.664407 -4.098706 -40.738809 -2.145263 -6.273021 -15.212929 -27.482895 5.065172 0.000000 0.000000 0.000000 21.719896 3.498709 1.086212 51.035552 3.109079 -6.443365 4.804288 27.717124 2.415158 0.000000 0.000000 0.000000
-0.278178 0.968845 -1.440872 -1.902694 4.493051 -3.055537 3.246042 0.284532 6.028117 -3.151080 0.338908 -4.079621 1.770862 8.765725 14.632076 0.000000 0.000000 0.000000 3.267090 -0.675583 4.742344 1.874122 -0.215683 0.203732 -3.473368 -11.579220 15.853910 0.000000 0.000000 0.000000 -1.946988 -0.249231 9.110539 5.400881 -0.371537 -28.321922 -2.640025 -2.597088 28.547253 0.989744 0.496380 -19.082366 0.000000 0.000000 0.000000 -31.111773 2.818870 -4.117119 -41.327560 -1.763585 -6.457526 -15.840829 -27.341307 5.209523 0.000000 0.000000 0.000000 21.459193 3.453181 1.004557 51.368175 2.590093 -6.624195 5.110296 27.391078 2.437317 0.000000 0.000000 0.000000
-0.278759 0.968836 -1.443506 -1.844153 4.285235 -3.022099 3.233996 0.293321 6.116551 -3.285445 0.349416 -4.311350 1.861159 8.786901 14.299382 0.000000 0.000000 0.000000 3.289828 -0.674206 4.724725 1.907197 -0.224258 -0.064908 -3.580264 -11.769046 15.666343 0.000000 0.000000 0.000000 -1.907997 -0.240650 8.794096 5.228674 -0.338347 -28.291016 -2.562165 -2.498042 28.588121 1.165810 0.370676 -19.094237 0.000000 0.000000 0.000000 -31.125336 2.697630 -4.018243 -41.677436 -1.567901 -6.578783 -16.077224 -27.167804 5.239798 0.000000 0.000000 0.000000 21.609341 3.440915 0.982220 51.301333 2.202508 -6.774774 5.550656 27.275618 2.519006 0.000000 0.000000 0.000000
-0.279160 0.968839 -1.445542 -1.838088 4.157017 -2.980403 3.295542 0.299001 6.270426 -3.279040 0.350914 -4.691930 1.654917 8.417865 14.146408 0.000000 0.000000 0.000000 3.302663 -0.680318 4.763155 1.955312 -0.234389 -0.308962 -3.544690 -11.687907 15.392654 0.000000 0.000000 0.000000 -1.909236 -0.234779 8.642492 5.080012 -0.304722 -28.304598 -2.481848 -2.560896 28.497175 0.953932 0.511394 -19.323200 0.000000 0.000000 0.000000 -31.036330 2.865495 -4.063046 -42.251557 -1.461556 -6.708502 -16.058609 -27.064485 5.235497 0.000000 0.000000 0.000000 21.410387 3.196602 0.802940 51.791343 1.862581 -6.950776 5.845637 27.007707 2.556286 0.000000 0.000000 0.000000
-0.279340 0.968984 -1.446950 -1.815734 4.165644 -2.968957 3.328411 0.301883 6.371989 -3.295484 0.352244 -4.922713 1.466213 8.103597 14.046806 0.000000 0.000000 0.000000 3.228710 -0.678109 4.776305 2.008625 -0.244375 -0.496300 -3.458319 -11.544043 15.458245 0.000000 0.000000 0.000000 -1.841620 -0.232235 8.408266 5.001496 -0.296393 -28.155628 -2.552608 -2.554754 28.153162 0.981688 0.496326 -19.263433 0.000000 0.000000 0.000000 -30.811063 2.829491 -4.034218 -42.813540 -1.464835 -6.751736 -16.002801 -26.816498 5.171883 0.000000 0.000000 0.000000 21.431983 2.964258 0.657029 52.164375 1.415909 -7.133047 6.115220 26.721977 2.583785 0.000000 0.000000 0.000000
-0.279389 0.969059 -1.447845 -1.779368 4.054271 -2.964547 3.273598 0.323128 6.659877 -3.306728 0.354372 -5.212103 1.447473 7.937119 13.607303 0.000000 0.000000 0.000000 3.202873 -0.686148 4.847278 1.969231 -0.244677 -0.743085 -3.400414 -11.466932 15.519126 0.000000 0.000000 0.000000 -1.861676 -0.219309 8.051472 4.917541 -0.299281 -27.818499 -2.524710 -2.539111 27.829831 0.958289 0.514886 -19.343260 0.000000 0.000000 0.000000 -30.639645 2.725144 -3.932586 -43.119516 -1.444021 -6.778543 -15.558393 -26.546272 5.009034 0.000000 0.000000 0.000000 21.472897 2.760744 0.506567 52.388388 0.979027 -7.295523 6.393888 26.603712 2.626889 0.000000 0.000000 0.000000
-0.279328 0.969069 -1.448464 -1.805144 3.843774 -2.902227 3.278822 0.329706 6.730665 -3.234713 0.352606 -5.370596 1.400931 7.807082 13.487871 0.000000 0.000000 0.000000 3.236612 -0.675817 4.757035 1.961129 -0.244957 -0.838412 -3.376487 -11.466008 15.607243 0.000000 0.000000 0.000000 -1.844924 -0.212170 7.812079 4.910012 -0.301244 -27.808697 -2.511945 -2.521162 27.774625 0.938622 0.510299 -19.304791 0.000000 0.000000 0.000000 -30.663123 2.808815 -3.954469 -43.184167 -1.649291 -6.722738 -15.185717 -26.424499 4.898656 0.000000 0.000000 0.000000 21.464974 2.591527 0.370913 52.567366 0.686478 -7.422502 6.467152 26.334217 2.606719 0.000000 0.000000 0.000000
-0.279187 0.969218 -1.449001 -1.801524 3.619399 -2.844381 3.271675 0.332514 6.705161 -3.206376 0.353358 -5.490335 1.388423 7.820731 13.696259 0.000000 0.000000 0.000000 3.139091 -0.652943 4.627544 2.021060 -0.249945 -0.808928 -3.196806 -11.190950 15.665493 0.000000 0.000000 0.000000 -1.841407 -0.208826 7.719760 4.904953 -0.314703 -27.658366 -2.609635 -2.470409 27.420916 1.063666 0.427224 -19.422130 0.000000 0.000000 0.000000 -30.645822 2.752420 -3.902027 -43.076374 -1.760684 -6.636099 -14.933126 -26.220490 4.789614 0.000000 0.000000 0.000000 21.437636 2.490340 0.268686 52.753621 0.288285 -7.556959 6.612050 26.313842 2.626739 0.000000 0.000000 0.000000
-0.278926 0.969200 -1.449492 -1.779660 3.485027 -2.832513 3.187304 0.335930 6.609838 -3.170710 0.352273 -5.338911 1.487544 7.935447 13.614940 0.000000 0.000000 0.000000 3.074791 -0.628715 4.474513 1.979945 -0.241517 -0.649178 -3.072595 -10.996021 15.691567 0.000000 0.000000 0.000000 -1.878487 -0.205883 7.719461 4.801637 -0.304723 -27.475635 -2.600606 -2.541515 27.194581 0.942328 0.507243 -19.698621 0.000000 0.000000 0.000000 -30.802973 2.792470 -3.904086 -42.651761 -1.914632 -6.515227 -14.796037 -26.197156 4.746957 0.000000 0.000000 0.000000 21.524354 2.452234 0.184330 52.799383 -0.102179 -7.688110 6.838152 26.205593 2.651272 0.000000 0.000000 0.000000
-0.278559 0.969481 -1.450031 -1.739366 3.256396 -2.749019 3.066987 0.349133 6.624415 -3.115652 0.351700 -5.407045 1.548367 7.975695 13.514695 0.000000 0.000000 0.000000 2.982640 -0.600922 4.300478 1.874360 -0.226113 -0.517569 -2.788433 -10.522113 15.636234 0.000000 0.000000 0.000000 -1.919653 -0.202096 7.727458 4.808171 -0.307606 -27.500536 -2.694827 -2.525782 27.133224 1.007444 0.469575 -20.047085 0.000000 0.000000 0.000000 -30.928071 2.722612 -3.823116 -42.444327 -2.040061 -6.450398 -14.375954 -25.908464 4.591420 0.000000 0.000000 0.000000 21.576026 2.324721 0.064626 52.989519 -0.338665 -7.794231 6.645933 26.258777 2.612871 0.000000 0.000000 0.000000
-0.278109 0.969679 -1.450532 -1.795292 3.088886 -2.725836 3.099815 0.350381 6.644839 -3.187955 0.357204 -5.470559 1.672227 8.144713 13.501490 0.000000 0.000000 0.000000 2.959642 -0.571227 4.084548 1.872025 -0.221430 -0.347456 -2.638304 -10.324111 15.881205 0.000000 0.000000 0.000000 -1.908885 -0.204366 7.798588 4.704123 -0.298707 -27.306551 -2.714205 -2.635117 26.971943 1.010877 0.457736 -20.366475 0.000000 0.000000 0.000000 -31.099012 2.598761 -3.678014 -42.361255 -2.196482 -6.398090 -13.775660 -25.841201 4.444053 0.000000 0.000000 0.000000 21.465493 2.415002 0.051880 53.118205 -0.423906 -7.814969 6.655608 26.557301 2.639089 0.000000 0.000000 0.000000
-0.277605 0.969769 -1.450928 -1.843679 2.986879 -2.787343 3.129925 0.357012 6.766738 -3.182922 0.358429 -5.660963 1.664789 8.179073 13.711143 0.000000 0.000000 0.000000 2.991299 -0.561737 4.003754 1.787990 -0.208875 -0.223999 -2.556818 -10.230332 16.078159 0.000000 0.000000 0.000000 -1.924405 -0.205268 7.861964 4.665377 -0.295797 -27.248601 -2.800859 -2.808187 26.999488 1.113101 0.380592 -20.794465 0.000000 0.000000 0.000000 -31.334359 2.461911 -3.511280 -42.241185 -2.270248 -6.388090 -13.206426 -25.688471 4.291364 0.000000 0.000000 0.000000 21.457004 2.498606 0.030086 53.245425 -0.493984 -7.849424 6.619246 26.978068 2.671394 0.000000 0.000000 0.000000
-0.277039 0.969947 -1.451172 -1.943897 2.828378 -2.757746 3.080248 0.367881 6.857142 -3.049580 0.353646 -5.903672 1.823671 8.438310 13.832896 0.000000 0.000000 0.000000 3.061496 -0.565586 4.004252 1.737938 -0.202736 -0.227338 -2.393530 -9.945173 15.951998 0.000000 0.000000 0.000000 -1.811513 -0.214582 7.937918 4.608674 -0.282009 -27.310273 -2.970626 -2.921569 27.082972 1.269689 0.264883 -21.109233 0.000000 0.000000 0.000000 -31.473135 2.359121 -3.360333 -42.317861 -2.268550 -6.433316 -12.780298 -25.813105 4.228168 0.000000 0.000000 0.000000 21.432564 2.456335 -0.051043 53.403611 -0.326792 -7.796110 6.491068 27.180390 2.661770 0.000000 0.000000 0.000000
-0.276374 0.969949 -1.451269 -1.979187 2.821054 -2.846207 3.007802 0.379716 6.961539 -2.993968 0.351946 -6.129191 1.967210 8.760683 14.231124 0.000000 0.000000 0.000000 3.077567 -0.582307 4.127989 1.670171 -0.196655 -0.289231 -2.346586 -9.871682 15.993358 0.000000 0.000000 0.000000 -1.798283 -0.218783 8.032684 4.444519 -0.246165 -27.318772 -3.061289 -3.165214 27.149728 1.392412 0.169513 -21.492606 0.000000 0.000000 0.000000 -31.546211 2.243927 -3.180433 -42.444829 -2.244609 -6.494728 -12.478994 -26.052144 4.213602 0.000000 0.000000 0.000000 21.380284 2.439609 -0.128191 53.666972 -0.427062 -7.867254 6.553918 27.632177 2.721251 0.000000 0.000000 0.000000
-0.275613 0.969897 -1.451287 -1.973182 2.858291 -2.866415 2.985069 0.386333 7.055878 -3.067938 0.355225 -6.118848 1.942912 8.649247 13.924880 0.000000 0.000000 0.000000 3.083910 -0.602666 4.279365 1.599578 -0.191614 -0.398735 -2.374711 -9.874294 15.770434 0.000000 0.000000 0.000000 -1.778998 -0.220290 8.032319 4.434655 -0.243267 -27.322906 -3.204353 -3.225834 27.142356 1.423650 0.146440 -21.530205 0.000000 0.000000 0.000000 -31.634968 2.242165 -3.176515 -42.563622 -2.250957 -6.510552 -12.734322 -26.170851 4.299011 0.000000 0.000000 0.000000 21.303174 2.251479 -0.242437 53.788644 -0.556958 -7.933967 6.683936 27.868139 2.779743 0.000000 0.000000 0.000000
-0.274832 0.969780 -1.451293 -1.946846 2.858578 -2.839470 2.960271 0.391219 7.109556 -3.073904 0.355879 -6.214241 1.790775 8.398521 13.859301 0.000000 0.000000 0.000000 3.014916 -0.623573 4.462748 1.508821 -0.187905 -0.647269 -2.227407 -9.577122 15.564131 0.000000 0.000000 0.000000 -1.694550 -0.223846 7.968511 4.299000 -0.214424 -27.299782 -3.206452 -3.252342 27.094415 1.492812 0.123941 -21.868794 0.000000 0.000000 0.000000 -31.678790 2.241692 -3.169637 -42.823284 -2.042445 -6.613782 -13.029309 -26.425351 4.423734 0.000000 0.000000 0.000000 21.251704 2.155610 -0.302206 54.125408 -0.699522 -8.034452 6.582417 28.076501 2.784962 0.000000 0.000000 0.000000
-0.274182 0.969741 -1.451389 -1.906364 2.860067 -2.828143 3.054448 0.387545 7.168928 -3.251913 0.364529 -6.235866 1.540234 7.972303 13.709340 0.000000 0.000000 0.000000 2.960832 -0.644405 4.641803 1.402088 -0.182597 -0.882878 -2.119248 -9.354235 15.397738 0.000000 0.000000 0.000000 -1.729109 -0.216637 7.814044 4.277721 -0.213001 -27.234414 -3.263546 -3.139401 27.098340 1.566705 0.113644 -22.100626 0.000000 0.000000 0.000000 -31.692840 2.263960 -3.235578 -43.059127 -1.765656 -6.721811 -13.163803 -26.819151 4.529477 0.000000 0.000000 0.000000 21.433379 2.065103 -0.334386 54.175923 -0.807802 -8.090716 6.465987 28.197696 2.780313 0.000000 0.000000 0.000000
-0.273717 0.969671 -1.451555 -1.866835 2.903194 -2.732534 3.002666 0.387832 7.126594 -3.324562 0.367778 -6.405627 1.570902 8.049645 13.806178 0.000000 0.000000 0.000000 2.907850 -0.661032 4.784926 1.287604 -0.178864 -1.184433 -1.966829 -9.033547 15.178647 0.000000 0.000000 0.000000 -1.776379 -0.211261 7.753544 4.153993 -0.178539 -27.343937 -3.223946 -3.095073 27.199600 1.570073 0.137057 -22.298090 0.000000 0.000000 0.000000 -31.597918 2.312231 -3.285000 -43.304920 -1.710288 -6.772694 -13.453889 -27.026225 4.641977 0.000000 0.000000 0.000000 21.498403 2.127797 -0.277442 54.357488 -0.714989 -8.089386 6.377714 28.053609 2.751192 0.000000 0.000000 0.000000
-0.273412 0.969695 -1.451751 -1.775080 2.847249 -2.669598 2.955934 0.393390 7.144151 -3.358675 0.370025 -6.450433 1.399680 7.746806 13.693450 0.000000 0.000000 0.000000 2.872230 -0.675708 4.910671 1.145084 -0.171803 -1.452909 -1.929856 -8.945400 15.024594 0.000000 0.000000 0.000000 -1.859936 -0.199471 7.563961 4.169512 -0.183403 -27.317885 -3.183026 -2.981804 27.188532 1.498952 0.189918 -22.205826 0.000000 0.000000 0.000000 -31.486061 2.319025 -3.305662 -43.494248 -1.498853 -6.859658 -13.816118 -27.226951 4.770521 0.000000 0.000000 0.000000 21.723961 2.197666 -0.230510 54.398157 -0.606522 -8.049770 6.279649 27.931289 2.719750 0.000000 0.000000 0.000000
-0.273180 0.969621 -1.451952 -1.754569 2.697975 -2.568104 3.049042 0.386372 7.109171 -3.394270 0.373126 -6.498071 1.122360 7.286492 13.649632 0.000000 0.000000 0.000000 2.810650 -0.674966 4.929900 1.135229 -0.178243 -1.716851 -1.806458 -8.753740 15.055631 0.000000 0.000000 0.000000 -1.851805 -0.195532 7.454255 4.079819 -0.146265 -27.629132 -3.122537 -2.841281 27.430393 1.364270 0.301773 -22.500128 0.000000 0.000000 0.000000 -31.415737 2.336888 -3.310769 -43.569880 -1.212715 -6.984196 -14.028037 -27.282511 4.838219 0.000000 0.000000 0.000000 21.933436 2.133785 -0.259643 54.374250 -0.570924 -8.061199 6.387321 27.681926 2.723755 0.000000 0.000000 0.000000
-0.272977 0.969620 -1.452138 -1.700724 2.646293 -2.582002 3.111441 0.386399 7.171134 -3.539725 0.380362 -6.605987 0.981378 7.099174 13.783118 0.000000 0.000000 0.000000 2.667144 -0.691803 5.126439 1.161593 -0.191535 -2.084189 -1.640611 -8.497366 15.196243 0.000000 0.000000 0.000000 -1.759492 -0.196855 7.308263 3.826713 -0.097655 -27.517474 -2.955552 -2.820075 27.338477 1.288506 0.356541 -22.600150 0.000000 0.000000 0.000000 -31.578547 2.370911 -3.357801 -43.382533 -0.947409 -7.033539 -14.270537 -27.323113 4.900740 0.000000 0.000000 0.000000 22.312868 2.175792 -0.268177 54.196998 -0.704275 -8.083441 6.316617 27.779883 2.715579 0.000000 0.000000 0.000000
-0.272708 0.969898 -1.452323 -1.708758 2.652762 -2.496869 3.101183 0.381299 7.081541 -3.483220 0.377606 -6.555218 0.872845 6.908445 13.704808 0.000000 0.000000 0.000000 2.731804 -0.710937 5.238900 1.119982 -0.195694 -2.355923 -1.706009 -8.591168 15.097766 0.000000 0.000000 0.000000 -1.754458 -0.191173 7.117530 3.849053 -0.084451 -27.857699 -2.890493 -2.695397 27.580930 1.182668 0.441732 -22.579903 0.000000 0.000000 0.000000 -31.652857 2.381547 -3.419325 -43.330156 -0.798919 -7.079314 -14.322885 -27.069708 4.858502 0.000000 0.000000 0.000000 22.448018 2.117558 -0.261558 54.292629 -0.731482 -8.142308 5.960807 27.687617 2.636443 0.000000 0.000000 0.000000
-0.272384 0.970303 -1.452458 -1.676603 2.601867 -2.463698 3.064805 0.376449 6.935900 -3.500630 0.378887 -6.336416 0.849628 6.868957 13.714979 0.000000 0.000000 0.000000 2.554802 -0.706581 5.289168 1.247084 -0.209386 -2.427787 -1.522757 -8.264373 15.061038 0.000000 0.000000 0.000000 -1.730924 -0.189933 7.040640 3.797598 -0.062430 -28.084389 -2.822985 -2.590633 27.798007 1.229920 0.431388 -22.727933 0.000000 0.000000 0.000000 -31.525761 2.353257 -3.402733 -43.557284 -0.916593 -7.086544 -14.067114 -26.382442 4.663182 0.000000 0.000000 0.000000 22.444842 2.148091 -0.215463 54.275142 -0.683429 -8.145326 5.767044 27.507147 2.577218 0.000000 0.000000 0.000000
-0.272046 0.970340 -1.452515 -1.671778 2.558131 -2.292667 2.978331 0.378221 6.862515 -3.676471 0.387179 -6.577756 1.262142 7.528398 13.807523 0.000000 0.000000 0.000000 2.562192 -0.724842 5.420681 1.147419 -0.213886 -2.888363 -1.398634 -8.028838 14.976132 0.000000 0.000000 0.000000 -1.808000 -0.178088 6.824447 4.003471 -0.108245 -28.032965 -2.901958 -2.255930 27.635640 1.329754 0.408019 -22.462937 0.000000 0.000000 0.000000 -30.837249 2.462330 -3.527059 -43.984136 -0.739414 -7.155283 -14.282795 -25.980951 4.628169 0.000000 0.000000 0.000000 22.637793 2.008485 -0.218845 54.148325 -0.635240 -8.101058 5.763966 27.510270 2.592405 0.000000 0.000000 0.000000
-0.271708 0.970151 -1.452498 -1.643187 2.700334 -2.203775 3.080064 0.382087 7.112226 -4.014208 0.398640 -7.028295 1.231765 7.423052 13.547357 0.000000 0.000000 0.000000 2.387135 -0.720735 5.467319 1.316517 -0.231997 -2.993840 -1.328914 -7.831722 14.756798 0.000000 0.000000 0.000000 -1.975418 -0.159146 6.499015 3.752792 -0.044456 -28.207267 -2.679744 -2.957916 28.062305 0.897666 0.603778 -23.019704 0.000000 0.000000 0.000000 -31.094490 2.705657 -3.454353 -43.875251 -0.806235 -7.229634 -14.034035 -25.144579 4.439958 0.000000 0.000000 0.000000 21.900282 2.430295 -0.097387 54.689734 -0.998956 -8.351446 5.834009 27.555761 2.586151 0.000000 0.000000 0.000000
-0.271478 0.969239 -1.452515 -1.525388 2.476652 -2.034851 2.895643 0.408898 7.267553 -3.872654 0.395278 -7.126167 1.118897 6.954846 12.632054 0.000000 0.000000 0.000000 1.992250 -0.691678 5.438644 1.569777 -0.259435 -3.228093 -1.012368 -7.232876 14.496776 0.000000 0.000000 0.000000 -1.929127 -0.152154 6.202824 3.584819 -0.031230 -27.790173 -2.507926 -2.842166 27.975722 0.799552 0.632767 -22.522817 0.000000 0.000000 0.000000 -31.254575 2.707155 -3.458764 -44.077150 -0.836907 -7.244361 -13.137835 -24.773732 4.174880 0.000000 0.000000 0.000000 22.428386 1.982447 -0.417094 54.187734 -0.479265 -8.025461 5.583772 27.930484 2.567019 0.000000 0.000000 0.000000
-0.271338 0.969108 -1.452573 -1.783526 2.003652 -1.675555 3.130114 0.377466 6.953491 -3.921718 0.402453 -7.010624 1.401009 7.232094 12.220415 0.000000 0.000000 0.000000 2.323357 -0.600370 4.537788 1.411502 -0.220939 -2.374169 -0.869182 -6.972235 14.242372 0.000000 0.000000 0.000000 -2.071602 -0.129479 5.694710 3.810648 -0.096645 -27.600205 -1.951301 -2.623007 27.691893 1.217722 0.333703 -22.065118 0.000000 0.000000 0.000000 -31.175113 3.135543 -3.726870 -44.532860 -0.671332 -7.343422 -14.022820 -23.517546 4.142268 0.000000 0.000000 0.000000 21.197271 1.872853 -0.426486 54.966524 -0.322248 -8.037722 5.182697 26.611534 2.331268 0.000000 0.000000 0.000000
-0.271391 0.971151 -1.452680 -1.873832 2.658871 -1.996274 3.371326 0.384023 7.584245 -4.143739 0.402601 -7.266521 1.008412 6.617786 12.021412 0.000000 0.000000 0.000000 2.601401 -0.724797 5.381802 1.315311 -0.245046 -3.452558 -1.221809 -7.818242 15.514591 0.000000 0.000000 0.000000 -2.153081 -0.115200 5.157474 4.276220 -0.254295 -26.412378 -2.089418 -2.475690 27.497905 1.405417 0.272590 -21.541135 0.000000 0.000000 0.000000 -30.512452 2.844598 -3.688573 -45.086801 -0.997882 -7.242276 -13.120628 -22.720240 3.783483 0.000000 0.000000 0.000000 22.019479 1.686019 -0.408475 54.318838 0.381010 -7.670278 4.734388 26.256876 2.228743 0.000000 0.000000 0.000000
