HIERARCHY
ROOT Hips
{
	OFFSET -0.001795 -0.223333 0.028219
	CHANNELS 6 Xposition Yposition Zposition Zrotation Yrotation Xrotation
	JOINT LeftUpLeg
	{
		OFFSET 0.069520 -0.091406 -0.006815
		CHANNELS 3 Zrotation Yrotation Xrotation
		JOINT LeftLeg
		{
			OFFSET 0.034277 -0.375199 -0.004496
			CHANNELS 3 Zrotation Yrotation Xrotation
			JOINT LeftFoot
			{
				OFFSET -0.013596 -0.397961 -0.043693
				CHANNELS 3 Zrotation Yrotation Xrotation
				JOINT LeftToe
				{
					OFFSET 0.026358 -0.055791 0.119288
					CHANNELS 3 Zrotation Yrotation Xrotation
					End Site
					{
						OFFSET 0.000000 0.000000 0.000000
					}
				}
			}
		}
	}
	JOINT RightUpLeg
	{
		OFFSET -0.067670 -0.090522 -0.004320
		CHANNELS 3 Zrotation Yrotation Xrotation
		JOINT RightLeg
		{
			OFFSET -0.038290 -0.382569 -0.008850
			CHANNELS 3 Zrotation Yrotation Xrotation
			JOINT RightFoot
			{
				OFFSET 0.015774 -0.398415 -0.042312
				CHANNELS 3 Zrotation Yrotation Xrotation
				JOINT RightToe
				{
					OFFSET -0.025372 -0.048144 0.123348
					CHANNELS 3 Zrotation Yrotation Xrotation
					End Site
					{
						OFFSET 0.000000 0.000000 0.000000
					}
				}
			}
		}
	}
	JOINT Spine
	{
		OFFSET -0.002533 0.108963 -0.026696
		CHANNELS 3 Zrotation Yrotation Xrotation
		JOINT Spine1
		{
			OFFSET 0.005487 0.135180 0.001092
			CHANNELS 3 Zrotation Yrotation Xrotation
			JOINT Spine2
			{
				OFFSET 0.001457 0.052922 0.025425
				CHANNELS 3 Zrotation Yrotation Xrotation
				JOINT Neck
				{
					OFFSET -0.002778 0.213870 -0.042857
					CHANNELS 3 Zrotation Yrotation Xrotation
					JOINT Head
					{
						OFFSET 0.005152 0.064970 0.051349
						CHANNELS 3 Zrotation Yrotation Xrotation
						End Site
						{
							OFFSET 0.000000 0.000000 0.000000
						}
					}
				}
				JOINT LeftShoulder
				{
					OFFSET 0.078845 0.121749 -0.034090
					CHANNELS 3 Zrotation Yrotation Xrotation
					JOINT LeftArm
					{
						OFFSET 0.090977 0.030469 -0.008868
						CHANNELS 3 Zrotation Yrotation Xrotation
						JOINT LeftForeArm
						{
							OFFSET 0.259612 -0.012772 -0.027456
							CHANNELS 3 Zrotation Yrotation Xrotation
							JOINT LeftHand
							{
								OFFSET 0.249234 0.008986 -0.001171
								CHANNELS 3 Zrotation Yrotation Xrotation
								End Site
								{
									OFFSET 0.000000 0.000000 0.000000
								}
							}
						}
					}
				}
				JOINT RightShoulder
				{
					OFFSET -0.081759 0.118833 -0.038615
					CHANNELS 3 Zrotation Yrotation Xrotation
					JOINT RightArm
					{
						OFFSET -0.096012 0.032551 -0.009143
						CHANNELS 3 Zrotation Yrotation Xrotation
						JOINT RightForeArm
						{
							OFFSET -0.253742 -0.013329 -0.021401
							CHANNELS 3 Zrotation Yrotation Xrotation
							JOINT RightHand
							{
								OFFSET -0.255298 0.007772 -0.005559
								CHANNELS 3 Zrotation Yrotation Xrotation
								End Site
								{
									OFFSET 0.000000 0.000000 0.000000
								}
							}
						}
					}
				}
			}
		}
	}
}
MOTION
Frames: 120
Frame Time: 0.050000
0.000000 0.958394 0.000000 -2.791919 9.788237 -1.604017 3.438371 0.322520 10.639341 -1.144909 0.244026 -8.022975 -0.811948 5.128615 13.674724 0.000000 0.000000 0.000000 2.457566 -0.703435 5.116569 0.527933 -0.110114 -1.333034 0.923549 -1.764453 12.063577 0.000000 0.000000 0.000000 -1.400610 -0.043635 1.705583 3.335130 0.050294 -25.934993 -2.424840 -6.157765 29.367293 1.954855 0.200330 -23.811256 0.000000 0.000000 0.000000 -24.929046 3.744807 -3.901666 -55.648238 -2.488353 -8.187550 -11.573363 -21.898990 3.433257 0.000000 0.000000 0.000000 16.232755 -1.126009 -1.174258 64.134669 4.582492 -6.717990 5.602666 24.150068 2.388425 0.000000 0.000000 0.000000
0.000289 0.957280 0.000481 -2.894971 9.765870 -1.021022 3.614832 0.281057 10.097709 -1.318808 0.247818 -8.148127 -0.705325 5.169607 13.369831 0.000000 0.000000 0.000000 1.910166 -0.573311 4.352848 1.330341 -0.201234 -1.240678 1.418073 -0.851611 12.260441 0.000000 0.000000 0.000000 -1.258020 -0.016272 0.759450 2.986324 0.131761 -25.891269 -2.544578 -6.564361 30.093711 2.107555 0.020811 -23.865933 0.000000 0.000000 0.000000 -25.609507 4.804233 -4.505883 -55.292569 -2.581994 -8.194871 -11.418622 -22.195374 3.488274 0.000000 0.000000 0.000000 15.961585 -1.750717 -1.547963 65.617098 4.355012 -7.040962 3.754749 24.907946 2.126881 0.000000 0.000000 0.000000
0.000523 0.956394 0.000752 -2.416118 9.465558 -1.081961 3.394018 0.317238 10.000934 -1.928344 0.259375 -7.584955 -0.556507 5.274102 13.144409 0.000000 0.000000 0.000000 1.612058 -0.609452 4.744392 0.838612 -0.152025 -1.534646 1.490829 -0.556419 11.624199 0.000000 0.000000 0.000000 -1.247914 -0.003015 0.259196 2.650593 0.201736 -25.591102 -2.943901 -6.790955 30.366671 0.984853 0.627272 -23.588232 0.000000 0.000000 0.000000 -24.529383 5.039847 -4.338720 -56.345313 -2.605310 -8.365719 -10.519106 -22.645362 3.418364 0.000000 0.000000 0.000000 16.185595 -1.259638 -1.414496 64.784650 4.163876 -7.111585 4.685680 24.431538 2.215106 0.000000 0.000000 0.000000
0.000703 0.956572 0.001034 -2.550634 9.804818 -1.433282 3.219574 0.346976 10.539515 -1.281137 0.245552 -7.946979 -0.713926 5.084739 13.174227 0.000000 0.000000 0.000000 1.505561 -0.664868 5.199162 1.109890 -0.187804 -1.673955 1.698015 -0.199593 11.944027 0.000000 0.000000 0.000000 -1.333928 0.000704 0.083373 2.838282 0.172311 -26.072365 -3.202018 -6.972431 31.272488 0.999622 0.614607 -23.631494 0.000000 0.000000 0.000000 -24.127746 5.827630 -4.754603 -57.489632 -2.315935 -8.727609 -10.648884 -22.683752 3.483235 0.000000 0.000000 0.000000 15.697968 -1.356422 -1.388221 65.031518 3.917117 -7.360119 5.406726 24.401888 2.373334 0.000000 0.000000 0.000000
0.000767 0.956488 0.001152 -2.484309 10.133352 -1.654234 3.190842 0.345211 10.619623 -1.268099 0.240820 -7.704796 -0.858036 4.852812 13.054650 0.000000 0.000000 0.000000 1.340209 -0.706453 5.571683 1.015328 -0.189338 -2.062773 2.015327 0.283524 12.525467 0.000000 0.000000 0.000000 -1.446619 -0.010050 0.476329 3.282643 0.064505 -25.706817 -3.616577 -6.683964 30.622075 0.889658 0.729715 -22.934197 0.000000 0.000000 0.000000 -23.373861 5.721859 -4.756413 -58.125164 -2.233276 -8.745011 -10.456429 -22.405638 3.365231 0.000000 0.000000 0.000000 16.047450 -1.644415 -1.484416 64.404743 3.752352 -7.295391 5.491673 23.466053 2.278647 0.000000 0.000000 0.000000
0.000826 0.956613 0.001282 -2.546212 10.219998 -1.870827 3.167083 0.350951 10.769238 -1.082592 0.235199 -7.578009 -0.884566 4.807177 13.011588 0.000000 0.000000 0.000000 1.261979 -0.760243 6.006776 1.079445 -0.211188 -2.539751 2.317829 0.719536 13.026736 0.000000 0.000000 0.000000 -1.420152 -0.013431 0.574954 3.179525 0.100927 -26.127705 -3.552447 -6.847136 31.243492 0.558137 0.898946 -22.697285 0.000000 0.000000 0.000000 -23.072573 6.051552 -4.858952 -58.742774 -2.339557 -8.846346 -10.543854 -22.311963 3.390090 0.000000 0.000000 0.000000 15.837281 -1.780001 -1.542846 64.410754 3.436271 -7.543304 5.440242 23.094968 2.227334 0.000000 0.000000 0.000000
0.000825 0.956359 0.001391 -2.501743 10.072271 -1.976278 3.178095 0.358003 10.866745 -1.216584 0.238541 -7.476634 -0.805765 4.882216 12.940299 0.000000 0.000000 0.000000 1.244055 -0.768752 6.086503 0.926557 -0.199550 -2.692828 2.479499 0.878016 13.411614 0.000000 0.000000 0.000000 -1.464257 -0.016549 0.683813 3.276458 0.073081 -26.062337 -3.658555 -6.850205 31.251983 0.648538 0.814436 -22.561846 0.000000 0.000000 0.000000 -22.949873 6.273525 -4.936240 -58.959326 -1.939738 -9.068069 -10.652182 -22.090750 3.384201 0.000000 0.000000 0.000000 15.799334 -1.874484 -1.616508 64.432577 3.000686 -7.781031 5.477421 22.870091 2.201449 0.000000 0.000000 0.000000
0.000836 0.956404 0.001469 -2.489838 9.987885 -2.106463 3.091946 0.373771 10.916465 -1.102264 0.234542 -7.280339 -0.749994 4.945535 12.900764 0.000000 0.000000 0.000000 1.252074 -0.776188 6.144217 0.868141 -0.188235 -2.538798 2.507483 0.932481 13.370607 0.000000 0.000000 0.000000 -1.347647 -0.019183 0.751498 3.241187 0.078214 -26.045593 -3.722488 -6.949228 31.380744 0.634321 0.781670 -22.375392 0.000000 0.000000 0.000000 -23.328214 5.975708 -4.762821 -58.489302 -1.882921 -9.055278 -10.569821 -22.050532 3.362372 0.000000 0.000000 0.000000 15.864235 -1.938415 -1.683077 64.424814 2.817241 -7.906974 5.371058 22.476535 2.131800 0.000000 0.000000 0.000000
0.000835 0.956554 0.001531 -2.445060 9.776888 -2.087732 2.945348 0.397551 10.869149 -0.980396 0.231586 -7.164349 -0.646874 5.099533 12.944849 0.000000 0.000000 0.000000 1.230849 -0.763359 6.066299 0.837489 -0.175625 -2.262208 2.494681 1.014579 12.959233 0.000000 0.000000 0.000000 -1.250661 -0.018071 0.698814 3.298635 0.058613 -25.954935 -3.877140 -6.823632 31.246908 0.843764 0.624908 -22.041509 0.000000 0.000000 0.000000 -23.265055 5.910108 -4.709346 -58.566533 -1.528793 -9.218346 -10.333383 -21.767439 3.266683 0.000000 0.000000 0.000000 15.852214 -2.139218 -1.800592 64.518299 2.353646 -8.144493 5.438989 22.353417 2.126784 0.000000 0.000000 0.000000
0.000790 0.956974 0.001513 -2.408582 9.513980 -2.142697 2.718959 0.437804 10.964464 -0.708066 0.225924 -7.162472 -0.540148 5.296549 13.100708 0.000000 0.000000 0.000000 1.195770 -0.765929 6.113911 0.836401 -0.167911 -2.036760 2.524707 1.170756 12.559027 0.000000 0.000000 0.000000 -1.108162 -0.016650 0.623979 3.119124 0.093824 -25.879785 -3.885198 -6.767410 31.262050 0.747412 0.683190 -22.238811 0.000000 0.000000 0.000000 -23.309742 5.854795 -4.646583 -58.507485 -1.240718 -9.350209 -10.265104 -21.584785 3.225365 0.000000 0.000000 0.000000 15.848071 -2.194956 -1.857669 64.680423 2.144419 -8.276324 5.554496 22.093101 2.111893 0.000000 0.000000 0.000000
0.000674 0.957350 0.001333 -2.402230 9.514088 -2.108341 2.734443 0.433499 10.901191 -0.737929 0.226493 -7.144428 -0.568042 5.297585 13.215666 0.000000 0.000000 0.000000 1.317786 -0.778099 6.151738 0.826325 -0.164856 -1.976906 2.230149 0.724807 12.174489 0.000000 0.000000 0.000000 -1.006920 -0.014346 0.537520 3.150587 0.086371 -25.891952 -4.002801 -6.845744 31.311175 0.723547 0.681712 -22.200614 0.000000 0.000000 0.000000 -23.541437 5.828690 -4.641427 -58.076141 -1.233543 -9.297843 -10.359782 -21.462214 3.220759 0.000000 0.000000 0.000000 15.955027 -2.125145 -1.847003 64.760406 2.049449 -8.343615 5.538071 21.822653 2.074311 0.000000 0.000000 0.000000
0.000471 0.957777 0.001012 -2.413602 9.462131 -2.179375 2.671526 0.445497 10.963759 -0.597935 0.223108 -7.155864 -0.566596 5.344218 13.344837 0.000000 0.000000 0.000000 1.413430 -0.802316 6.294048 1.006823 -0.181633 -1.873656 1.821524 0.065859 11.692277 0.000000 0.000000 0.000000 -0.875903 -0.019063 0.672829 3.127857 0.089832 -25.825982 -3.970459 -6.868937 31.241003 0.847633 0.597517 -22.309405 0.000000 0.000000 0.000000 -23.728292 5.633595 -4.532962 -57.756774 -1.372217 -9.189767 -10.389917 -21.454804 3.221446 0.000000 0.000000 0.000000 16.058472 -1.941869 -1.775143 64.580648 2.350633 -8.162799 5.672857 21.431772 2.044622 0.000000 0.000000 0.000000
0.000230 0.958071 0.000556 -2.411310 9.542834 -2.268868 2.550736 0.462732 11.070127 -0.346407 0.217287 -7.250843 -0.619978 5.308556 13.438917 0.000000 0.000000 0.000000 1.526648 -0.834920 6.483007 1.032834 -0.186136 -1.921339 1.533231 -0.417032 11.434493 0.000000 0.000000 0.000000 -0.880445 -0.027288 0.931117 3.220645 0.074926 -26.010526 -4.027477 -6.876244 31.381953 0.884451 0.588057 -22.470808 0.000000 0.000000 0.000000 -24.011262 5.509921 -4.503748 -57.317776 -1.778238 -8.958768 -10.486188 -21.623329 3.263791 0.000000 0.000000 0.000000 16.102930 -1.591950 -1.579442 64.589348 2.833322 -7.922784 5.897983 21.282290 2.067362 0.000000 0.000000 0.000000
-0.000041 0.958430 -0.000026 -2.398127 9.453656 -2.453238 2.396017 0.486886 11.100124 -0.094227 0.205556 -7.000525 -0.570864 5.391593 13.478575 0.000000 0.000000 0.000000 1.508599 -0.858749 6.674758 1.104545 -0.193405 -1.900084 1.501006 -0.475221 11.365483 0.000000 0.000000 0.000000 -0.879277 -0.038748 1.279043 3.331566 0.048269 -25.956853 -3.972646 -6.656048 31.293755 1.297091 0.352167 -22.528782 0.000000 0.000000 0.000000 -24.311618 5.342669 -4.493194 -56.761217 -2.045820 -8.749471 -10.469012 -21.815565 3.277722 0.000000 0.000000 0.000000 16.438121 -1.211017 -1.373042 64.087764 3.386955 -7.574374 5.945159 20.813557 2.016020 0.000000 0.000000 0.000000
-0.000292 0.958596 -0.000697 -2.372913 9.445003 -2.526368 2.284717 0.502460 11.121017 0.069787 0.199886 -6.970428 -0.568844 5.410090 13.519537 0.000000 0.000000 0.000000 1.502845 -0.865113 6.726588 1.067097 -0.186264 -1.799695 1.520034 -0.372279 11.158719 0.000000 0.000000 0.000000 -0.913414 -0.043873 1.442776 3.380459 0.033568 -25.849373 -3.911088 -6.603167 31.253317 1.308050 0.362938 -22.683324 0.000000 0.000000 0.000000 -24.593655 5.217903 -4.468452 -56.478782 -2.444651 -8.530353 -10.066269 -22.090868 3.238928 0.000000 0.000000 0.000000 16.496420 -0.697268 -1.095845 63.858197 3.976607 -7.243609 6.149648 20.878360 2.054237 0.000000 0.000000 0.000000
-0.000502 0.958714 -0.001388 -2.386227 9.322586 -2.569988 2.194878 0.520991 11.210367 0.234443 0.198306 -7.102068 -0.517299 5.502866 13.593672 0.000000 0.000000 0.000000 1.446098 -0.848227 6.634407 1.096166 -0.183715 -1.608096 1.682043 -0.043981 11.103050 0.000000 0.000000 0.000000 -0.821125 -0.051482 1.639347 3.412268 0.028739 -26.003508 -3.866402 -6.447195 31.452644 1.503821 0.263648 -22.911840 0.000000 0.000000 0.000000 -24.938747 4.985532 -4.386460 -56.009872 -2.833504 -8.316415 -9.678117 -22.109850 3.158765 0.000000 0.000000 0.000000 16.658982 -0.194875 -0.817091 63.295871 4.515067 -6.943573 6.435984 20.926314 2.105602 0.000000 0.000000 0.000000
-0.000613 0.958663 -0.001973 -2.380587 9.246707 -2.679222 2.086682 0.542994 11.351444 0.400917 0.195560 -7.186815 -0.476279 5.560655 13.602382 0.000000 0.000000 0.000000 1.414471 -0.844052 6.623679 1.081527 -0.178349 -1.483682 1.764240 0.102877 11.128051 0.000000 0.000000 0.000000 -0.780230 -0.059988 1.868961 3.590542 -0.021082 -25.778200 -3.931604 -6.450220 31.245655 1.286469 0.409772 -23.107723 0.000000 0.000000 0.000000 -25.294305 4.792304 -4.301050 -55.582202 -2.887512 -8.226175 -9.400612 -22.113103 3.098708 0.000000 0.000000 0.000000 16.767675 0.423212 -0.517142 62.713484 4.939877 -6.663325 6.659034 21.220952 2.166408 0.000000 0.000000 0.000000
-0.000642 0.958745 -0.002349 -2.382807 9.257020 -2.889724 2.041227 0.564229 11.719728 0.494621 0.199963 -7.473666 -0.512740 5.541084 13.698684 0.000000 0.000000 0.000000 1.580331 -0.869167 6.735892 0.906711 -0.154100 -1.343232 1.578868 -0.262185 11.106463 0.000000 0.000000 0.000000 -0.783266 -0.070236 2.156586 3.737116 -0.049842 -25.950224 -4.017912 -6.470239 31.484254 1.291404 0.419033 -23.394829 0.000000 0.000000 0.000000 -25.687892 4.591123 -4.207357 -55.292440 -3.156803 -8.105757 -9.047081 -21.893071 2.995939 0.000000 0.000000 0.000000 16.825402 0.864492 -0.283465 62.380582 5.562116 -6.349559 6.634166 21.405444 2.181912 0.000000 0.000000 0.000000
-0.000572 0.958606 -0.002536 -2.287433 9.176422 -2.956444 1.935295 0.590481 11.941088 0.473970 0.206701 -7.702892 -0.499339 5.572156 13.758411 0.000000 0.000000 0.000000 1.463750 -0.860068 6.729959 0.906548 -0.152263 -1.286569 1.592008 -0.270925 11.174007 0.000000 0.000000 0.000000 -0.759639 -0.074977 2.277677 3.718287 -0.048216 -25.931738 -4.090812 -6.502186 31.532237 1.249281 0.443077 -23.586751 0.000000 0.000000 0.000000 -25.860201 4.424391 -4.089268 -55.162383 -3.203527 -8.085692 -8.858120 -21.687294 2.930439 0.000000 0.000000 0.000000 16.741335 1.059748 -0.194771 62.280492 6.003046 -6.123319 6.677454 21.616558 2.212662 0.000000 0.000000 0.000000
-0.000469 0.958438 -0.002616 -2.125131 9.226866 -3.175786 1.800326 0.624559 12.327522 0.416790 0.213493 -7.924535 -0.562283 5.499668 13.811965 0.000000 0.000000 0.000000 1.438090 -0.882066 6.909379 0.697442 -0.124290 -1.166632 1.440291 -0.537627 11.070044 0.000000 0.000000 0.000000 -0.922319 -0.079275 2.472894 3.824033 -0.074457 -25.849848 -4.258773 -6.654936 31.537470 1.225839 0.406655 -23.224765 0.000000 0.000000 0.000000 -26.020246 4.466951 -4.092461 -54.992678 -3.050803 -8.137775 -8.821128 -21.603734 2.912620 0.000000 0.000000 0.000000 16.902687 1.399779 -0.057921 61.964125 6.139665 -6.032054 6.580732 21.964690 2.227939 0.000000 0.000000 0.000000
-0.000380 0.958466 -0.002673 -2.037995 9.195517 -3.268345 1.756958 0.647638 12.692526 0.317278 0.225957 -8.356447 -0.609705 5.482579 13.980289 0.000000 0.000000 0.000000 1.359912 -0.886801 6.986712 0.657748 -0.115749 -1.044742 1.427897 -0.515141 10.905760 0.000000 0.000000 0.000000 -0.967765 -0.080218 2.519107 3.767631 -0.063046 -25.819146 -4.218872 -6.729620 31.671920 1.078652 0.459001 -22.920885 0.000000 0.000000 0.000000 -26.072710 4.321287 -3.962926 -55.110655 -2.972122 -8.211907 -8.833729 -21.214939 2.861647 0.000000 0.000000 0.000000 16.969278 1.473264 -0.041104 61.851941 6.424939 -5.895363 6.652447 22.070155 2.251703 0.000000 0.000000 0.000000
-0.000360 0.958354 -0.002779 -2.007926 9.275818 -3.330223 1.689502 0.662807 12.891313 0.398694 0.229464 -8.605177 -0.662827 5.424414 14.017601 0.000000 0.000000 0.000000 1.376652 -0.889300 6.994221 0.541969 -0.099498 -0.963223 1.425318 -0.508862 10.907995 0.000000 0.000000 0.000000 -1.016609 -0.078032 2.477058 3.811392 -0.068681 -25.916061 -4.406001 -6.940423 31.889128 0.882633 0.531298 -22.605169 0.000000 0.000000 0.000000 -26.033790 4.435014 -3.965276 -55.218008 -2.840567 -8.313523 -9.318677 -20.981268 2.926853 0.000000 0.000000 0.000000 16.863975 1.640191 0.020322 61.812860 6.337378 -5.960807 7.099028 22.509252 2.383969 0.000000 0.000000 0.000000
-0.000432 0.958474 -0.002945 -2.020174 9.422225 -3.460891 1.743977 0.658229 13.083947 0.373678 0.232131 -8.748467 -0.759453 5.316784 14.076417 0.000000 0.000000 0.000000 1.439550 -0.921560 7.196206 0.392048 -0.092393 -1.272849 1.499612 -0.494641 11.394816 0.000000 0.000000 0.000000 -1.134721 -0.081456 2.631688 3.850284 -0.067848 -26.127977 -4.444735 -7.107866 32.092727 0.884754 0.499725 -22.442510 0.000000 0.000000 0.000000 -26.103485 4.450372 -3.949485 -55.402049 -2.671717 -8.439929 -9.746541 -20.676377 2.965090 0.000000 0.000000 0.000000 16.925338 1.539869 -0.045845 61.843889 6.153229 -6.083242 7.428829 22.759348 2.479627 0.000000 0.000000 0.000000
-0.000556 0.958528 -0.003135 -1.966046 9.523745 -3.497307 1.738400 0.659596 13.177719 0.318840 0.235029 -8.872726 -0.835029 5.236421 14.137411 0.000000 0.000000 0.000000 1.472568 -0.918098 7.150940 0.181497 -0.075072 -1.466076 1.557717 -0.584344 12.089549 0.000000 0.000000 0.000000 -1.124329 -0.088958 2.852307 3.794585 -0.039491 -26.522035 -4.532762 -7.287254 32.240184 0.852454 0.498479 -22.472456 0.000000 0.000000 0.000000 -26.042042 4.822555 -4.134012 -55.743192 -2.341926 -8.651971 -10.204304 -20.609507 3.052725 0.000000 0.000000 0.000000 16.986046 1.137970 -0.283559 61.940520 5.757738 -6.312964 7.714310 22.990869 2.567484 0.000000 0.000000 0.000000
-0.000693 0.958864 -0.003367 -1.966280 9.767493 -3.456689 1.754214 0.649385 13.201158 0.360708 0.236976 -9.081389 -0.991155 5.081924 14.274825 0.000000 0.000000 0.000000 1.507187 -0.909830 7.059332 0.073483 -0.073777 -1.758654 1.624624 -0.700085 13.001894 0.000000 0.000000 0.000000 -1.155467 -0.091853 2.963603 3.763560 -0.018076 -26.828911 -4.623996 -7.489141 32.438110 0.812243 0.518528 -22.577680 0.000000 0.000000 0.000000 -26.154022 5.030921 -4.265629 -55.907255 -2.024368 -8.833992 -10.550106 -20.578335 3.118658 0.000000 0.000000 0.000000 17.102377 0.798158 -0.471294 61.997783 5.209157 -6.625311 7.692731 23.167896 2.593807 0.000000 0.000000 0.000000
-0.000842 0.959007 -0.003657 -1.929991 9.732263 -3.486768 1.718014 0.656377 13.209227 0.360070 0.236723 -9.055670 -0.987165 5.102497 14.323984 0.000000 0.000000 0.000000 1.409068 -0.882052 6.903840 0.125981 -0.080083 -1.770232 1.731528 -0.709664 13.675425 0.000000 0.000000 0.000000 -1.171247 -0.101302 3.253927 3.662409 0.011071 -27.009737 -4.552277 -7.553491 32.396264 0.539564 0.666533 -22.384318 0.000000 0.000000 0.000000 -26.306556 5.189643 -4.356356 -55.833328 -1.565194 -9.038697 -10.651582 -20.905010 3.199369 0.000000 0.000000 0.000000 17.311569 0.631091 -0.594021 61.831820 4.642954 -6.910396 7.863610 23.439412 2.661212 0.000000 0.000000 0.000000
-0.000956 0.959247 -0.004046 -1.932675 9.514127 -3.444200 1.654901 0.669809 13.128359 0.426611 0.236075 -8.997916 -0.887375 5.255220 14.398786 0.000000 0.000000 0.000000 1.415760 -0.849623 6.671512 0.094099 -0.067065 -1.519333 1.818333 -0.581563 13.686214 0.000000 0.000000 0.000000 -0.971067 -0.103316 3.185265 3.472146 0.051258 -27.052486 -4.436697 -7.420161 32.411064 0.622277 0.619551 -22.474424 0.000000 0.000000 0.000000 -26.314554 5.334186 -4.447068 -55.736779 -1.390306 -9.108633 -10.747702 -21.007798 3.237466 0.000000 0.000000 0.000000 17.560888 0.412597 -0.729651 61.568639 4.159909 -7.144960 7.842325 23.447916 2.658316 0.000000 0.000000 0.000000
-0.000971 0.959387 -0.004558 -2.068941 9.309077 -3.437031 1.699558 0.662169 12.946096 0.544035 0.229734 -8.748303 -0.749830 5.418701 14.338395 0.000000 0.000000 0.000000 1.265989 -0.820912 6.531375 0.561239 -0.110301 -1.224094 1.968154 -0.237100 13.396301 0.000000 0.000000 0.000000 -0.829394 -0.112014 3.332516 3.409367 0.065196 -27.110613 -4.296879 -7.212153 32.390745 0.495673 0.748734 -22.971060 0.000000 0.000000 0.000000 -26.478365 5.304778 -4.479215 -55.411060 -1.206733 -9.141451 -10.998000 -21.386152 3.345228 0.000000 0.000000 0.000000 17.802090 0.065746 -0.914079 61.017548 3.771376 -7.297375 8.151588 23.691684 2.754053 0.000000 0.000000 0.000000
-0.000838 0.959496 -0.005294 -2.036975 8.820567 -3.521908 1.495372 0.707529 12.940436 0.699477 0.224502 -8.538545 -0.497009 5.750739 14.364646 0.000000 0.000000 0.000000 1.197058 -0.799263 6.425219 0.510868 -0.084408 -0.626905 2.136899 0.293984 12.549863 0.000000 0.000000 0.000000 -0.725964 -0.119292 3.450934 3.215391 0.102379 -27.160399 -3.976030 -6.920813 32.428043 0.139535 0.997101 -23.269869 0.000000 0.000000 0.000000 -26.440853 5.512153 -4.593514 -55.204438 -1.375082 -9.043029 -10.901882 -21.661868 3.375883 0.000000 0.000000 0.000000 17.609392 0.050041 -0.918678 60.905482 3.559272 -7.405326 8.428254 24.005716 2.850379 0.000000 0.000000 0.000000
-0.000415 0.959599 -0.006465 -1.994759 8.461973 -3.644521 1.521508 0.718214 12.964640 0.422960 0.228590 -8.375666 -0.344542 5.947771 14.394147 0.000000 0.000000 0.000000 1.118138 -0.780662 6.338511 0.409612 -0.057352 -0.182230 2.297568 0.717979 12.080332 0.000000 0.000000 0.000000 -0.801598 -0.123361 3.602049 3.260743 0.085409 -27.123046 -3.813030 -6.356421 32.479186 0.220157 1.032948 -23.680713 0.000000 0.000000 0.000000 -26.182043 5.619775 -4.737789 -55.066114 -1.319477 -9.025941 -11.214585 -21.927251 3.469147 0.000000 0.000000 0.000000 18.070075 -0.054347 -0.927839 60.365922 3.753066 -7.271496 8.187195 24.134665 2.833650 0.000000 0.000000 0.000000
0.000740 0.959809 -0.008721 -1.992847 8.199774 -3.808590 1.530656 0.724128 12.915900 0.174384 0.230519 -8.150122 -0.228631 6.089202 14.388186 0.000000 0.000000 0.000000 0.888598 -0.744799 6.176147 0.354399 -0.032276 0.368250 2.723337 1.648815 11.738829 0.000000 0.000000 0.000000 -0.807871 -0.133002 3.850263 3.113288 0.110820 -27.052473 -3.646215 -6.269613 32.534087 -0.033790 1.192737 -23.883930 0.000000 0.000000 0.000000 -25.943532 5.822339 -4.797300 -55.140616 -1.431713 -9.000540 -11.146636 -22.115273 3.496507 0.000000 0.000000 0.000000 17.924620 0.007415 -0.906113 60.322079 4.033826 -7.137034 8.236792 24.311230 2.864320 0.000000 0.000000 0.000000
0.003316 0.959965 -0.012821 -1.919413 7.818618 -3.940386 1.236002 0.758118 12.550225 0.099185 0.221199 -7.577603 -0.007035 6.340116 14.265062 0.000000 0.000000 0.000000 0.724780 -0.639666 5.420866 -0.046847 0.046252 1.135857 3.074164 2.026513 12.408789 0.000000 0.000000 0.000000 -1.156881 -0.128919 3.996494 3.649119 -0.029782 -26.671570 -3.688484 -5.937184 32.737221 0.148066 1.082399 -23.708393 0.000000 0.000000 0.000000 -26.098174 5.921545 -4.891960 -55.033121 -1.671760 -8.892383 -11.296122 -22.517466 3.599350 0.000000 0.000000 0.000000 18.085310 0.381915 -0.699470 60.012354 4.463151 -6.919332 7.910064 24.903557 2.881000 0.000000 0.000000 0.000000
0.007576 0.959309 -0.019283 -1.879360 7.553002 -3.881980 0.945758 0.770024 11.936460 -0.139403 0.221327 -7.202634 0.204946 6.508898 13.901090 0.000000 0.000000 0.000000 0.233429 -0.518520 4.604409 0.008960 0.052939 1.543370 3.375261 2.410492 12.807827 0.000000 0.000000 0.000000 -1.395176 -0.138569 4.488038 3.475316 0.014256 -26.961505 -3.238151 -5.915452 33.344358 0.119082 1.103714 -24.390467 0.000000 0.000000 0.000000 -25.798625 5.469753 -4.474909 -55.322826 -2.365301 -8.714407 -11.341426 -22.535605 3.627513 0.000000 0.000000 0.000000 17.860733 0.481987 -0.645567 59.930594 5.176546 -6.639527 7.988949 25.610368 3.002135 0.000000 0.000000 0.000000
0.013539 0.958249 -0.028226 -1.820304 7.218243 -3.849549 0.555639 0.779972 11.166887 -0.491776 0.225060 -6.744278 0.482412 6.728268 13.396328 0.000000 0.000000 0.000000 0.071071 -0.323971 2.951924 -0.616739 0.197900 3.101421 3.387437 2.254575 13.122724 0.000000 0.000000 0.000000 -1.598867 -0.147202 4.969057 4.048942 -0.133005 -26.696727 -3.562770 -5.727316 33.398797 0.149559 1.086054 -24.486935 0.000000 0.000000 0.000000 -25.619519 5.916459 -4.708602 -55.415159 -2.824678 -8.517440 -11.738185 -22.824246 3.772910 0.000000 0.000000 0.000000 17.848647 0.784814 -0.502741 59.772949 5.776187 -6.325586 7.747889 26.705469 3.099950 0.000000 0.000000 0.000000
0.020720 0.957498 -0.039545 -1.774828 7.043822 -3.900747 0.201188 0.786388 10.578890 -1.013942 0.245323 -6.742520 0.600207 6.800692 13.122463 0.000000 0.000000 0.000000 -0.286218 -0.164538 1.550720 -1.030865 0.314654 4.477165 3.372564 2.210326 13.080661 0.000000 0.000000 0.000000 -1.886082 -0.169275 6.021800 3.706695 -0.049118 -26.950994 -3.004450 -5.688395 33.544543 0.001547 1.192916 -25.022214 0.000000 0.000000 0.000000 -25.526499 5.577084 -4.438257 -55.672689 -3.509527 -8.277896 -11.246975 -23.287976 3.765753 0.000000 0.000000 0.000000 17.954404 0.529776 -0.655280 59.715827 6.494831 -5.993255 7.750861 27.380466 3.205858 0.000000 0.000000 0.000000
0.028524 0.957302 -0.052836 -1.660546 7.140768 -4.148620 0.027401 0.764291 10.007406 -2.025038 0.280214 -6.638606 0.498189 6.642944 13.082586 0.000000 0.000000 0.000000 -0.370803 0.044561 -0.478187 -1.980131 0.590674 7.230461 3.045763 1.574133 13.121825 0.000000 0.000000 0.000000 -2.619640 -0.169136 7.211990 4.496228 -0.217604 -27.119876 -3.085982 -5.889236 33.606502 -0.035362 1.166278 -24.755080 0.000000 0.000000 0.000000 -26.051248 5.856568 -4.612319 -55.652198 -3.979869 -8.103062 -11.738668 -23.593444 3.948729 0.000000 0.000000 0.000000 18.047007 0.670665 -0.622126 59.711423 6.933226 -5.801778 7.531781 28.359018 3.292596 0.000000 0.000000 0.000000
0.035874 0.957839 -0.067667 -1.756193 7.268628 -4.375186 0.401039 0.668614 9.192390 -3.567090 0.333376 -6.384506 0.309780 6.454877 13.334530 0.000000 0.000000 0.000000 -0.659200 0.175275 -1.840396 -2.183676 0.670963 8.221285 2.966700 0.926372 14.483164 0.000000 0.000000 0.000000 -3.372569 -0.157047 8.365797 5.407897 -0.418368 -27.267181 -3.053618 -6.147553 33.613403 -0.139762 1.185572 -24.709242 0.000000 0.000000 0.000000 -26.673140 5.835775 -4.597499 -55.474376 -4.867576 -7.727975 -11.917026 -24.080154 4.095195 0.000000 0.000000 0.000000 18.625622 0.894947 -0.583432 59.254831 7.332777 -5.600335 7.160828 28.879805 3.264800 0.000000 0.000000 0.000000
0.041991 0.959104 -0.083337 -2.029546 7.846157 -5.216741 0.863565 0.608236 9.134732 -4.712210 0.363359 -6.486407 -0.175571 5.979724 13.904432 0.000000 0.000000 0.000000 -0.858098 0.310685 -3.365947 -1.718031 0.642190 10.029478 2.246189 -1.333271 17.571561 0.000000 0.000000 0.000000 -4.300414 -0.143055 10.011053 5.942240 -0.524676 -27.559652 -2.705621 -7.223943 34.309655 -0.681616 1.452474 -26.543123 0.000000 0.000000 0.000000 -27.380937 6.187335 -4.609898 -55.037140 -5.931534 -7.377159 -11.869339 -24.786111 4.280187 0.000000 0.000000 0.000000 18.455150 0.991605 -0.681047 59.025213 7.242290 -5.718545 8.098079 29.679822 3.571199 0.000000 0.000000 0.000000
0.046341 0.961054 -0.099172 -2.651284 7.386433 -5.730850 1.626445 0.531571 8.954969 -5.643181 0.384533 -7.022119 -0.191558 6.239522 14.865635 0.000000 0.000000 0.000000 -0.952488 0.404094 -4.431650 -0.091093 0.341642 11.929181 1.161597 -3.007876 16.462017 0.000000 0.000000 0.000000 -4.869197 -0.123117 11.131745 7.498932 -0.879745 -27.758798 -2.844995 -6.922893 34.021235 -0.949387 1.621087 -26.277667 0.000000 0.000000 0.000000 -27.552080 6.779033 -5.030793 -54.349195 -6.173201 -7.149226 -13.503822 -24.545708 4.590703 0.000000 0.000000 0.000000 17.550674 0.844074 -0.726136 59.515163 6.745297 -5.941346 9.456695 30.759071 4.073594 0.000000 0.000000 0.000000
0.049120 0.962564 -0.114971 -2.985910 7.198795 -5.961640 2.102772 0.450473 8.212173 -6.406081 0.403562 -7.100211 -0.276890 6.383854 15.719231 0.000000 0.000000 0.000000 -1.134795 0.476566 -5.348435 1.263862 0.043773 17.980350 0.228612 -1.757866 6.173628 0.000000 0.000000 0.000000 -5.282399 -0.103279 11.880375 7.728812 -0.877115 -28.667738 -2.704100 -7.750567 34.598178 -2.713791 2.570299 -28.250620 0.000000 0.000000 0.000000 -28.041678 7.707459 -5.336795 -54.294712 -6.676169 -7.078111 -13.904416 -25.060275 4.877012 0.000000 0.000000 0.000000 16.074258 1.242434 -0.597524 59.810733 6.882126 -5.987918 11.603240 30.296774 4.494106 0.000000 0.000000 0.000000
0.050407 0.963809 -0.131581 -2.924896 7.561568 -6.567488 2.454710 0.398498 7.879233 -7.500430 0.415237 -7.243787 -0.704910 6.154291 16.752790 0.000000 0.000000 0.000000 -1.246102 0.407964 -4.665421 2.079993 -0.344634 25.544744 -1.185659 -1.643972 -3.881546 0.000000 0.000000 0.000000 -5.683725 -0.087584 12.297680 7.979029 -0.959011 -28.355496 -2.738184 -8.063039 33.938592 -2.989532 2.705360 -27.363637 0.000000 0.000000 0.000000 -28.852959 7.920159 -5.587069 -53.131853 -6.375936 -7.050837 -14.371430 -25.114896 4.971391 0.000000 0.000000 0.000000 15.100767 1.342148 -0.506919 60.677770 6.750319 -6.054924 11.477861 30.215419 4.431004 0.000000 0.000000 0.000000
0.050100 0.965078 -0.149740 -2.673547 8.381106 -7.178470 2.438076 0.353763 7.174222 -8.182702 0.423080 -6.924533 -1.307545 5.756382 17.781656 0.000000 0.000000 0.000000 -1.089766 0.265205 -3.036520 2.167296 -0.716790 33.040743 -2.184505 -2.744641 -8.750533 0.000000 0.000000 0.000000 -6.501025 -0.043604 12.853108 8.742817 -1.092220 -28.846152 -3.232505 -8.383676 34.540550 -3.202823 2.876253 -28.941765 0.000000 0.000000 0.000000 -29.549246 8.558193 -6.164361 -52.842177 -6.945757 -6.816912 -14.562267 -25.137180 5.018894 0.000000 0.000000 0.000000 14.893631 1.304929 -0.463443 60.705029 7.402081 -5.799722 11.429122 29.300047 4.279621 0.000000 0.000000 0.000000
0.047948 0.964513 -0.169975 -1.999532 9.633001 -7.336086 2.008461 0.303983 5.866942 -8.892507 0.420249 -6.584452 -2.024762 5.223369 18.654494 0.000000 0.000000 0.000000 -1.141383 0.019326 -0.459989 2.122649 -1.178565 38.732835 -2.448452 -4.408747 -6.684380 0.000000 0.000000 0.000000 -7.199965 -0.007452 12.526765 8.216519 -1.028282 -28.015055 -2.874019 -8.843243 33.738702 -3.228506 2.919918 -27.357007 0.000000 0.000000 0.000000 -29.688072 8.773572 -6.502436 -52.532007 -6.753087 -6.727266 -14.884758 -24.850655 4.988062 0.000000 0.000000 0.000000 14.149570 1.271678 -0.377424 61.369401 7.100160 -5.887844 10.657464 29.098286 4.062516 0.000000 0.000000 0.000000
0.043800 0.962577 -0.192754 -1.076650 10.492001 -7.184689 0.970114 0.256933 4.075352 -8.919883 0.421683 -6.171853 -2.429417 5.052026 19.396878 0.000000 0.000000 0.000000 -0.721452 -0.260787 2.319464 1.217761 -1.164546 43.654359 -1.316105 -5.242717 6.329983 0.000000 0.000000 0.000000 -7.771619 0.024992 12.056895 7.634438 -0.925313 -27.429667 -2.856781 -8.125741 32.982440 -3.277166 3.173035 -27.622053 0.000000 0.000000 0.000000 -30.075768 8.533714 -6.943235 -51.695349 -6.121536 -6.676601 -14.684156 -25.361908 4.934465 0.000000 0.000000 0.000000 14.760238 0.869521 -0.402416 60.860796 6.980269 -5.774934 10.293004 28.654263 3.953542 0.000000 0.000000 0.000000
0.037646 0.958712 -0.218853 -0.352465 10.809056 -7.064425 0.295949 0.155262 2.183987 -9.067002 0.429043 -5.973300 -2.495977 5.239419 20.037721 0.000000 0.000000 0.000000 -0.532699 -0.570356 5.091882 0.223069 -0.804317 46.305671 1.226842 -3.805761 19.259204 0.000000 0.000000 0.000000 -8.171146 0.053157 12.106351 7.360613 -0.844150 -27.638112 -2.570950 -7.037262 32.905302 -3.434184 3.486987 -27.225295 0.000000 0.000000 0.000000 -30.510284 8.708250 -7.646903 -51.308459 -5.547565 -6.716115 -14.893416 -25.024482 4.831707 0.000000 0.000000 0.000000 14.982713 0.215554 -0.497619 61.056315 7.598803 -5.424282 9.485513 28.539410 3.829224 0.000000 0.000000 0.000000
0.029440 0.953609 -0.248847 0.366658 11.192567 -6.807236 0.068869 -0.037972 -0.344629 -9.852139 0.464630 -5.437840 -2.565454 5.513084 20.932232 0.000000 0.000000 0.000000 -0.278192 -0.917293 7.893721 -0.672482 -0.344021 46.488996 3.578459 -1.138020 23.283695 0.000000 0.000000 0.000000 -8.375052 0.062592 11.442807 6.755544 -0.741407 -26.814109 -2.393311 -5.823269 32.602762 -3.709171 3.900387 -27.245522 0.000000 0.000000 0.000000 -30.750049 8.069127 -7.853223 -51.259860 -5.858949 -6.369140 -13.154551 -25.257975 4.376395 0.000000 0.000000 0.000000 16.066265 0.640704 -0.037832 59.816178 8.323573 -4.955055 9.260785 28.601872 3.851454 0.000000 0.000000 0.000000
0.018952 0.948424 -0.284042 1.269511 11.783480 -6.097264 -0.624921 -0.317638 -3.463707 -10.039285 0.457483 -5.308404 -2.808799 5.854213 22.598189 0.000000 0.000000 0.000000 0.724183 -1.312633 10.321451 -1.604456 0.231370 42.918184 5.100818 0.968464 24.671633 0.000000 0.000000 0.000000 -8.900713 0.093146 10.613504 6.166009 -0.634050 -25.991086 -2.210525 -5.249528 32.245172 -4.017671 4.236252 -26.923686 0.000000 0.000000 0.000000 -31.261215 7.154855 -7.724659 -50.846047 -5.240032 -6.444441 -11.361549 -25.836259 4.000509 0.000000 0.000000 0.000000 16.775794 1.341868 0.516522 58.771296 9.457312 -4.351319 8.689170 28.986304 3.807956 0.000000 0.000000 0.000000
0.005923 0.941856 -0.324972 1.457995 10.558794 -5.874500 -0.325093 -0.580738 -6.164074 -9.866687 0.452845 -5.971468 -2.208135 7.089743 24.669919 0.000000 0.000000 0.000000 1.757330 -1.815209 13.231688 -2.794899 1.230516 37.313290 4.673608 0.798605 23.195575 0.000000 0.000000 0.000000 -8.327204 0.093506 10.945360 5.330249 -0.413533 -26.436500 -1.371640 -3.301740 32.154395 -3.250628 3.999675 -26.645045 0.000000 0.000000 0.000000 -31.924866 6.780451 -8.134485 -50.209636 -4.387358 -6.554411 -10.469575 -26.483827 3.814375 0.000000 0.000000 0.000000 18.132602 0.392192 0.257996 57.929894 10.910099 -3.696029 8.373368 28.617827 3.745866 0.000000 0.000000 0.000000
-0.008970 0.936915 -0.370590 1.105996 9.761073 -5.742231 0.332446 -0.813957 -8.796556 -8.739782 0.428381 -6.457419 -2.804884 6.685160 26.161524 0.000000 0.000000 0.000000 3.135811 -2.230281 14.856174 -3.441032 1.599414 30.646679 3.023728 -1.018421 20.691418 0.000000 0.000000 0.000000 -7.413030 0.053028 11.923423 5.071075 -0.367615 -26.188994 -1.588235 -2.797401 31.420468 -3.087325 3.911886 -26.794431 0.000000 0.000000 0.000000 -32.886541 7.697906 -9.079219 -49.459127 -4.837389 -6.183931 -10.046840 -26.095070 3.636361 0.000000 0.000000 0.000000 18.429297 1.292070 0.725824 57.997174 11.715532 -3.239137 7.575400 29.017418 3.590421 0.000000 0.000000 0.000000
-0.025022 0.934636 -0.417908 0.424552 9.009004 -5.438503 1.960562 -0.972289 -11.701161 -8.207173 0.407133 -7.093030 -2.036933 8.173212 28.594760 0.000000 0.000000 0.000000 4.331310 -2.426172 15.128389 -2.938762 1.370475 24.700570 1.039866 -3.860950 18.784774 0.000000 0.000000 0.000000 -6.514762 -0.003277 12.687453 6.111202 -0.623309 -26.288775 -2.660617 -1.653864 30.598338 -3.284234 4.129777 -25.831438 0.000000 0.000000 0.000000 -33.138605 8.680922 -10.198297 -48.664474 -3.948850 -6.229574 -11.599776 -26.517700 3.992895 0.000000 0.000000 0.000000 19.335775 1.103556 0.746059 57.250232 12.386702 -2.873239 8.282752 29.870382 3.930324 0.000000 0.000000 0.000000
-0.040846 0.936579 -0.463579 -0.151224 8.192805 -4.959434 3.408735 -1.001074 -13.678240 -8.205787 0.369724 -8.271108 -0.449875 9.889014 28.602813 0.000000 0.000000 0.000000 5.563654 -2.506160 14.681868 -2.861598 1.262287 19.901328 -0.362265 -5.922217 16.905690 0.000000 0.000000 0.000000 -5.704797 -0.053110 12.134061 6.429547 -0.730508 -25.879970 -3.038027 -0.635407 30.661576 -3.401616 4.311904 -26.030939 0.000000 0.000000 0.000000 -32.678891 8.894010 -10.460732 -48.422974 -3.330183 -6.405237 -12.192492 -26.665796 4.123818 0.000000 0.000000 0.000000 19.321245 1.005441 0.826509 57.762528 12.804965 -2.676322 8.341240 29.750197 3.966409 0.000000 0.000000 0.000000
-0.055018 0.940422 -0.505893 -0.182073 6.892996 -5.155221 4.088806 -1.018264 -15.143746 -7.687326 0.543252 -4.781722 1.299267 10.435773 22.494349 0.000000 0.000000 0.000000 5.650139 -2.485771 14.716494 -2.672394 1.122267 16.039794 -0.539230 -5.283587 12.254295 0.000000 0.000000 0.000000 -5.557070 -0.047786 12.067981 6.300544 -0.690467 -26.269346 -2.930181 -0.554277 31.454164 -3.225491 4.104854 -26.554230 0.000000 0.000000 0.000000 -32.948505 10.173440 -11.105446 -48.125590 -2.578001 -6.808803 -13.989826 -27.144268 4.713779 0.000000 0.000000 0.000000 19.372766 1.145878 0.724082 57.968495 13.647239 -2.326111 10.408287 29.021111 4.323812 0.000000 0.000000 0.000000
-0.067027 0.946344 -0.544553 -0.126138 6.092652 -5.488100 4.208417 -1.041287 -15.918626 -7.455231 0.738858 1.145001 3.646389 12.318618 17.151079 0.000000 0.000000 0.000000 5.504651 -2.428822 14.671837 -2.115668 0.874577 12.842580 -0.367675 -4.292262 9.602259 0.000000 0.000000 0.000000 -6.068356 0.003985 12.397042 6.361404 -0.613748 -27.860658 -2.581924 -0.299389 32.998236 -3.202974 4.080250 -27.077209 0.000000 0.000000 0.000000 -32.992963 9.754109 -10.617971 -48.164171 -1.728136 -7.353947 -13.424061 -26.230516 4.462218 0.000000 0.000000 0.000000 19.496368 1.021523 0.636296 57.421496 12.833053 -2.954428 12.082514 28.472330 4.640593 0.000000 0.000000 0.000000
-0.077069 0.951562 -0.580348 0.086223 5.655780 -5.605942 3.773833 -1.119462 -16.364105 -6.581226 0.779696 8.836195 4.709927 13.139053 13.838993 0.000000 0.000000 0.000000 5.230052 -2.253917 13.966405 -1.572761 0.678916 10.828778 -0.072694 -3.114329 7.702780 0.000000 0.000000 0.000000 -6.617133 0.062178 12.792954 6.349081 -0.582140 -28.398345 -2.524223 -0.689066 33.199380 -3.246828 3.993229 -27.524764 0.000000 0.000000 0.000000 -32.931491 10.810593 -11.051641 -48.262153 -1.244745 -7.661707 -13.104881 -25.476020 4.305977 0.000000 0.000000 0.000000 18.732926 1.351026 0.662822 58.038589 12.091401 -3.327658 12.818474 27.757915 4.651544 0.000000 0.000000 0.000000
-0.085003 0.955324 -0.614108 0.331379 5.290345 -5.660700 3.785882 -1.102859 -16.281395 -6.578286 0.847358 16.073491 4.804541 12.770495 11.508813 0.000000 0.000000 0.000000 4.839870 -2.018362 12.924315 -1.106233 0.540445 9.645240 0.319996 -1.669859 5.979156 0.000000 0.000000 0.000000 -6.828349 0.090226 12.908193 6.184569 -0.492058 -29.279575 -2.487415 -0.768910 33.900254 -2.679181 3.605621 -27.876251 0.000000 0.000000 0.000000 -32.473505 10.419557 -10.446062 -48.992401 -1.058352 -7.990911 -11.937649 -24.661773 3.945390 0.000000 0.000000 0.000000 19.205225 0.484787 0.122111 57.336424 11.088320 -3.919944 13.774373 27.370036 4.804118 0.000000 0.000000 0.000000
-0.090866 0.958287 -0.646449 0.655868 5.316371 -5.495356 3.286929 -1.077189 -15.109616 -6.164658 0.722259 23.149652 4.366485 11.374904 8.427307 0.000000 0.000000 0.000000 4.420283 -1.663644 11.005760 -0.821537 0.463003 9.107631 0.703327 -0.714329 5.759354 0.000000 0.000000 0.000000 -6.750467 0.088665 13.087694 5.536002 -0.321812 -29.840883 -2.566958 -2.020222 33.951440 -2.798888 3.446183 -28.133766 0.000000 0.000000 0.000000 -32.388827 10.884916 -10.255073 -49.414536 -0.755195 -8.291275 -11.198835 -23.844019 3.712538 0.000000 0.000000 0.000000 18.683422 0.774957 -0.012157 57.731153 9.765645 -4.514108 13.341461 27.192430 4.591441 0.000000 0.000000 0.000000
-0.094437 0.960548 -0.678358 0.617100 4.830152 -5.088664 3.147786 -0.969947 -13.619474 -6.446828 0.822967 28.599953 4.546499 11.225579 6.692706 0.000000 0.000000 0.000000 4.495519 -1.362264 9.027215 -0.646989 0.403764 8.280503 0.678580 -0.698710 5.496428 0.000000 0.000000 0.000000 -6.131499 0.042389 12.505809 5.322911 -0.252681 -30.329986 -3.020551 -2.286599 34.374381 -1.834189 2.778044 -28.458260 0.000000 0.000000 0.000000 -32.259846 10.582496 -9.732544 -50.169715 -0.958873 -8.456603 -10.457281 -23.137645 3.488412 0.000000 0.000000 0.000000 18.827964 0.878824 -0.087210 57.215123 9.125812 -4.846828 12.853209 26.354536 4.275268 0.000000 0.000000 0.000000
-0.095855 0.963445 -0.710456 0.553156 4.035766 -4.880628 2.926194 -0.721967 -10.167585 -6.989656 1.115848 31.967578 4.883274 11.738594 6.616958 0.000000 0.000000 0.000000 4.289650 -0.998245 6.734345 -0.609283 0.379889 7.642533 1.361269 0.102965 7.086092 0.000000 0.000000 0.000000 -5.630318 0.011225 12.656939 5.020985 -0.158267 -30.924056 -2.770280 -2.576732 34.363066 -1.743836 2.614287 -29.443874 0.000000 0.000000 0.000000 -32.478631 10.644141 -9.504211 -50.814984 -1.293288 -8.506761 -10.089315 -22.845546 3.413780 0.000000 0.000000 0.000000 18.255367 0.321070 -0.561291 57.184804 8.300323 -5.209465 13.060665 25.884741 4.190457 0.000000 0.000000 0.000000
-0.095692 0.965169 -0.743094 0.416376 4.011838 -4.518025 2.491564 -0.525550 -7.097257 -7.002275 1.124458 34.121779 4.459301 10.799596 5.811730 0.000000 0.000000 0.000000 4.221472 -0.678888 4.541430 -0.638700 0.340145 6.467971 1.818524 0.303550 8.951836 0.000000 0.000000 0.000000 -5.031021 -0.042461 12.548468 5.748371 -0.286668 -31.064421 -3.738923 -3.172266 34.125324 -1.591336 2.409767 -29.426604 0.000000 0.000000 0.000000 -32.596228 11.261790 -9.741533 -51.167360 -1.399280 -8.531093 -11.015709 -23.839575 3.819630 0.000000 0.000000 0.000000 18.319056 0.616620 -0.571455 56.916752 7.665529 -5.437854 12.080290 25.400759 3.837494 0.000000 0.000000 0.000000
-0.094619 0.966306 -0.776053 0.039845 3.795494 -3.677290 2.252890 -0.256094 -3.254138 -6.685386 1.021722 34.808849 4.211951 10.502309 6.462490 0.000000 0.000000 0.000000 4.456026 -0.213215 1.174532 -0.850871 0.382039 6.586298 2.302764 0.588256 10.622741 0.000000 0.000000 0.000000 -3.918499 -0.128479 11.545643 5.757390 -0.317966 -30.491039 -4.079107 -3.241690 33.471255 -1.465098 2.317819 -29.510111 0.000000 0.000000 0.000000 -32.097272 10.701759 -9.189307 -52.024611 -1.671220 -8.491403 -11.813627 -24.740671 4.165555 0.000000 0.000000 0.000000 18.762879 0.020000 -0.993834 55.978011 6.511540 -5.805448 11.622853 25.931491 3.802796 0.000000 0.000000 0.000000
-0.093213 0.965582 -0.809184 -0.270787 3.617166 -3.246236 1.932187 0.015196 0.549486 -5.749667 0.650517 34.997131 3.121880 10.229035 13.049983 0.000000 0.000000 0.000000 4.099157 0.190244 -1.715325 -0.108430 0.252671 6.544414 2.664263 0.537342 12.425023 0.000000 0.000000 0.000000 -3.234163 -0.184449 11.304647 5.937473 -0.330190 -30.865451 -4.418438 -4.068646 33.517220 -1.707135 2.295393 -29.770706 0.000000 0.000000 0.000000 -32.284855 11.008076 -9.087315 -52.192263 -2.399768 -8.293227 -13.180824 -26.951296 4.990198 0.000000 0.000000 0.000000 18.463658 -0.285840 -1.381498 55.686707 5.341070 -6.268223 11.988354 26.234100 3.874818 0.000000 0.000000 0.000000
-0.091901 0.962950 -0.843229 -0.410723 3.475703 -2.762918 0.854530 0.383925 4.985941 -4.470382 0.181148 32.569057 1.238164 10.003749 24.197854 0.000000 0.000000 0.000000 4.185943 0.625595 -4.939205 -0.313060 0.302081 6.916787 2.655525 -0.097708 13.924635 0.000000 0.000000 0.000000 -3.043740 -0.176444 10.346687 6.199711 -0.465277 -29.534077 -4.910686 -4.935714 32.343641 -1.292581 1.882485 -29.175828 0.000000 0.000000 0.000000 -31.333116 10.133116 -7.921179 -53.448888 -3.528070 -7.956764 -12.690810 -28.731794 5.292287 0.000000 0.000000 0.000000 19.835847 -1.130196 -2.293615 55.275908 3.721926 -6.734376 11.355647 27.324344 3.837010 0.000000 0.000000 0.000000
-0.090167 0.957544 -0.879773 -0.856342 3.813510 -2.834879 0.525360 0.807313 10.276111 -2.889084 -0.293422 26.914363 -0.386972 8.207439 24.985851 0.000000 0.000000 0.000000 4.238607 0.961188 -7.386590 -0.023795 0.256140 7.160869 2.407323 -0.646185 14.310659 0.000000 0.000000 0.000000 -2.484375 -0.238713 10.609555 5.346928 -0.227588 -30.678123 -5.263709 -6.993852 33.385766 -1.157270 1.418664 -28.524527 0.000000 0.000000 0.000000 -31.184734 10.821863 -7.602355 -53.014269 -6.082783 -7.135227 -13.044571 -30.093183 5.855005 0.000000 0.000000 0.000000 19.849333 -0.872293 -2.633095 56.365217 3.201668 -7.133466 9.514889 27.082820 3.292591 0.000000 0.000000 0.000000
-0.087410 0.951241 -0.920284 -1.479013 5.772320 -2.598806 1.314375 0.917270 14.331509 -1.370130 -0.526390 18.413318 -0.867587 6.995282 21.535009 0.000000 0.000000 0.000000 3.959113 1.368855 -10.654994 0.655357 0.126850 7.774553 1.440881 -2.421966 15.320462 0.000000 0.000000 0.000000 -2.286412 -0.278581 10.736864 6.302499 -0.429865 -30.225753 -6.404407 -8.807616 32.801708 -1.571689 1.569144 -28.774667 0.000000 0.000000 0.000000 -31.174353 9.086636 -6.139134 -52.855247 -7.973852 -6.371111 -11.577673 -32.136490 5.887258 0.000000 0.000000 0.000000 20.538547 -1.874150 -3.472989 56.113988 1.591792 -7.692089 8.591538 28.931058 3.284376 0.000000 0.000000 0.000000
-0.083096 0.945363 -0.964572 -1.746276 6.768949 -3.134727 1.623160 0.949970 16.727067 -1.250732 -0.274593 11.699389 0.304563 8.159845 19.507040 0.000000 0.000000 0.000000 3.336311 1.554423 -12.670163 0.885726 0.060838 7.242156 1.130351 -3.338807 17.174325 0.000000 0.000000 0.000000 -2.782266 -0.288915 12.047530 6.621212 -0.478665 -30.420713 -6.133803 -9.950695 32.877965 -1.342095 1.318726 -28.531727 0.000000 0.000000 0.000000 -30.966878 8.189467 -5.270270 -52.225185 -10.745833 -5.224854 -12.518929 -32.727767 6.295315 0.000000 0.000000 0.000000 20.870221 -1.852571 -3.650532 56.202475 1.648978 -7.664285 7.054271 28.398092 2.824239 0.000000 0.000000 0.000000
-0.077692 0.943045 -1.010525 -1.665187 8.046504 -3.554044 1.343445 0.962782 17.361281 -1.074972 -0.126046 6.942174 -0.046795 6.314669 14.547981 0.000000 0.000000 0.000000 2.428603 1.683528 -14.935622 0.464074 0.119915 6.921551 0.975208 -4.246951 20.552621 0.000000 0.000000 0.000000 -3.613180 -0.266696 13.371545 6.709453 -0.527552 -30.008841 -5.390673 -11.012018 33.231079 -1.653735 1.498484 -30.335051 0.000000 0.000000 0.000000 -30.192525 7.204304 -4.341571 -52.341577 -12.897490 -4.370606 -12.345071 -34.579212 6.688647 0.000000 0.000000 0.000000 21.501259 -1.946927 -3.887075 55.883374 1.952562 -7.470928 6.078611 29.184848 2.661186 0.000000 0.000000 0.000000
-0.072472 0.945857 -1.053970 -1.514565 7.825316 -4.011113 0.544752 1.113676 17.336548 -1.639206 0.082696 3.024247 0.771582 7.113193 13.276136 0.000000 0.000000 0.000000 1.071486 1.698636 -17.043223 1.386060 -0.051753 6.693163 0.776249 -5.452181 23.985561 0.000000 0.000000 0.000000 -4.839228 -0.152406 14.046124 7.642548 -0.750638 -29.695977 -4.720054 -10.797220 33.518100 -2.773683 2.169091 -31.473091 0.000000 0.000000 0.000000 -30.354964 7.516506 -4.552838 -51.780171 -13.409336 -4.183679 -14.839830 -35.011202 7.616604 0.000000 0.000000 0.000000 20.790443 -1.879561 -3.702865 56.950307 2.363904 -7.496314 6.836038 29.182493 2.865971 0.000000 0.000000 0.000000
-0.068516 0.950427 -1.093113 -1.616261 8.176463 -4.424092 0.552892 1.053912 16.558510 -2.209971 0.186823 1.192621 0.165678 5.684731 11.720370 0.000000 0.000000 0.000000 0.294027 1.689472 -18.540976 2.116858 -0.187308 7.755305 -0.392983 -7.312733 24.806295 0.000000 0.000000 0.000000 -5.406055 -0.102966 13.927405 8.411149 -0.948775 -29.281745 -4.865826 -10.844979 33.867059 -3.588964 2.657512 -32.215069 0.000000 0.000000 0.000000 -29.364225 7.866732 -4.711898 -52.568287 -13.995247 -3.931796 -16.342738 -34.551861 8.034590 0.000000 0.000000 0.000000 19.648461 -1.213870 -3.075701 58.275138 2.079335 -7.901606 7.920830 29.583153 3.213361 0.000000 0.000000 0.000000
-0.066107 0.955620 -1.128784 -1.931018 8.450091 -5.147799 0.846961 0.961779 15.987523 -2.661671 0.241651 0.482623 -0.557860 3.767053 9.723257 0.000000 0.000000 0.000000 0.238750 1.698727 -18.895749 2.592368 -0.305984 11.635204 -2.003163 -9.231649 22.070026 0.000000 0.000000 0.000000 -5.360237 -0.130838 14.272663 8.781098 -1.043542 -29.150023 -4.729246 -10.381243 34.039956 -4.177054 3.099166 -32.988135 0.000000 0.000000 0.000000 -30.157178 7.389705 -4.678287 -52.271668 -13.273664 -4.263189 -16.173934 -34.373024 7.872483 0.000000 0.000000 0.000000 19.631563 -0.800862 -2.632817 58.650645 2.459807 -7.855036 7.621908 28.931270 3.128203 0.000000 0.000000 0.000000
-0.064929 0.960623 -1.162239 -2.331682 9.277334 -6.018359 1.274020 0.825601 15.323118 -2.487232 0.228186 -0.015160 -1.988798 1.068936 8.914165 0.000000 0.000000 0.000000 -0.127660 1.592242 -18.628046 3.873209 -0.856512 18.997472 -2.927394 -9.902992 16.686865 0.000000 0.000000 0.000000 -5.482554 -0.159704 14.761634 9.490847 -1.186089 -29.422900 -5.280775 -10.160348 34.699862 -4.052797 3.160770 -33.660214 0.000000 0.000000 0.000000 -29.890973 7.563397 -4.988670 -52.410346 -12.476107 -4.602394 -16.302287 -32.825786 7.473133 0.000000 0.000000 0.000000 19.274455 -0.796986 -2.362907 58.873193 2.605405 -7.907421 7.929029 28.889271 3.262953 0.000000 0.000000 0.000000
-0.064757 0.964884 -1.193783 -2.799692 9.992777 -6.361407 1.967359 0.634598 13.882504 -2.697157 0.238788 0.196759 -3.164491 -1.428502 7.935287 0.000000 0.000000 0.000000 0.316229 1.611569 -18.118013 3.824834 -1.243672 26.234858 -3.192001 -9.888585 13.063228 0.000000 0.000000 0.000000 -5.377891 -0.193377 14.695312 8.952967 -1.086719 -29.229120 -4.685121 -10.634813 34.474107 -3.735813 2.976829 -32.285950 0.000000 0.000000 0.000000 -30.128453 7.543744 -5.034450 -52.479314 -11.515839 -5.006227 -15.490443 -30.420595 6.599166 0.000000 0.000000 0.000000 18.554855 -0.411772 -2.031599 59.727716 2.285977 -8.175711 8.292918 28.996118 3.378319 0.000000 0.000000 0.000000
-0.065271 0.967786 -1.223155 -2.868744 10.503295 -6.465885 2.112671 0.551487 12.564576 -2.969937 0.269954 -0.963216 -4.146992 -2.339091 9.271495 0.000000 0.000000 0.000000 0.250175 1.451657 -16.187260 3.796184 -1.661400 31.842318 -2.869775 -9.083978 11.293015 0.000000 0.000000 0.000000 -5.990721 -0.144638 14.723089 9.161611 -1.096608 -29.799478 -4.563605 -9.830493 34.844625 -2.500525 2.500364 -32.412316 0.000000 0.000000 0.000000 -29.713016 7.934482 -5.686142 -52.566010 -10.101543 -5.498795 -15.274293 -28.141875 5.899903 0.000000 0.000000 0.000000 18.483405 -0.293249 -1.651725 59.981466 2.566365 -8.127788 8.548152 28.545904 3.467660 0.000000 0.000000 0.000000
-0.066296 0.969001 -1.250997 -2.602911 10.972391 -6.609653 2.107308 0.493083 11.213678 -3.637092 0.315986 -1.206133 -4.850497 -3.358379 9.547936 0.000000 0.000000 0.000000 0.661013 1.263407 -13.092546 3.472162 -1.935442 36.158089 -3.090983 -9.393236 10.072624 0.000000 0.000000 0.000000 -6.387206 -0.109357 14.339500 8.293920 -0.916565 -29.666153 -3.875263 -9.828086 34.502505 -2.184556 2.336081 -30.651399 0.000000 0.000000 0.000000 -29.883077 8.263893 -6.089339 -52.657795 -8.357763 -6.179519 -14.423378 -25.698444 5.094727 0.000000 0.000000 0.000000 18.029245 -0.653625 -1.714624 60.499295 2.410450 -8.240595 8.944845 28.291878 3.550490 0.000000 0.000000 0.000000
-0.067848 0.969454 -1.278098 -2.035125 11.160759 -6.652334 1.645101 0.499863 10.002428 -4.193384 0.349112 -2.268809 -5.512296 -3.476581 11.219646 0.000000 0.000000 0.000000 0.485412 0.924759 -9.346138 3.293417 -2.190294 39.739510 -3.220749 -9.977668 11.904407 0.000000 0.000000 0.000000 -7.413694 -0.009590 13.746193 8.429061 -0.951232 -29.655548 -3.559901 -8.535315 34.450347 -1.813659 2.364000 -30.039874 0.000000 0.000000 0.000000 -29.140707 8.736454 -6.828458 -53.062841 -6.584662 -6.798554 -14.287342 -23.218492 4.450059 0.000000 0.000000 0.000000 17.806109 -0.794185 -1.421947 60.713140 3.027730 -7.962534 8.873527 27.772882 3.550473 0.000000 0.000000 0.000000
-0.069852 0.968162 -1.305215 -1.243707 11.462383 -6.724124 1.015182 0.492320 8.477313 -4.922783 0.390254 -2.154900 -5.813791 -3.763685 11.554379 0.000000 0.000000 0.000000 0.174261 0.567522 -5.713006 3.137193 -2.447258 42.895549 -3.232737 -10.176896 12.595199 0.000000 0.000000 0.000000 -8.158161 0.049349 13.083132 7.770411 -0.848391 -28.959853 -2.681288 -8.144501 33.985411 -2.368083 2.752287 -28.641504 0.000000 0.000000 0.000000 -29.161402 9.450476 -7.561808 -53.015963 -4.547668 -7.538741 -14.271617 -21.895997 4.136158 0.000000 0.000000 0.000000 16.585772 -0.575673 -1.092266 61.194833 3.586802 -7.663004 8.960980 27.864354 3.605158 0.000000 0.000000 0.000000
-0.072623 0.965973 -1.333475 -0.136992 10.748037 -6.256500 -0.008390 0.458326 6.198391 -5.562230 0.441359 -1.961260 -5.733976 -3.234425 12.414210 0.000000 0.000000 0.000000 -0.703911 0.186579 -2.118570 2.451948 -2.024662 45.061133 -2.635658 -9.354085 13.538863 0.000000 0.000000 0.000000 -8.870554 0.121102 11.732134 7.233413 -0.793226 -27.890579 -2.013043 -6.322780 33.385006 -2.238572 2.932664 -28.630240 0.000000 0.000000 0.000000 -29.028032 9.329848 -8.002022 -53.160966 -3.226201 -7.901472 -12.873818 -20.928306 3.591307 0.000000 0.000000 0.000000 16.630801 -0.450632 -0.751863 61.375812 4.599007 -7.068371 8.461190 27.267638 3.463285 0.000000 0.000000 0.000000
-0.076818 0.963192 -1.363291 0.606224 10.789667 -5.822879 -0.837025 0.365574 4.217453 -5.684434 0.442209 -2.327903 -5.866815 -3.243013 12.794019 0.000000 0.000000 0.000000 -1.254670 -0.140867 1.187036 1.529170 -1.542602 46.103029 -0.489975 -7.005597 20.729555 0.000000 0.000000 0.000000 -9.280475 0.151281 11.170228 7.197502 -0.803433 -27.547989 -1.605329 -5.133163 33.047422 -2.266385 3.163952 -28.517849 0.000000 0.000000 0.000000 -28.887906 10.183711 -9.028752 -53.423618 -1.423991 -8.518285 -12.669063 -20.801299 3.477752 0.000000 0.000000 0.000000 16.526497 -0.437274 -0.499537 61.310233 6.549242 -5.969122 7.361198 27.514634 3.301559 0.000000 0.000000 0.000000
-0.083124 0.960260 -1.395439 1.252524 9.644544 -5.202769 -1.321629 0.192092 1.893389 -6.076447 0.467758 -2.973290 -5.360917 -2.000934 13.839139 0.000000 0.000000 0.000000 -1.986129 -0.490391 4.973242 0.439746 -0.454358 43.720238 3.576893 -2.879244 28.397981 0.000000 0.000000 0.000000 -9.187909 0.150524 9.553156 6.614606 -0.718416 -26.702542 -0.878403 -3.362765 33.266996 -2.372749 3.420146 -28.077740 0.000000 0.000000 0.000000 -28.605070 10.085588 -9.306099 -54.422120 -0.202272 -9.119479 -10.993862 -21.503719 3.246439 0.000000 0.000000 0.000000 17.360615 1.048279 0.518082 59.540822 8.632545 -4.894744 6.454661 27.967178 3.181661 0.000000 0.000000 0.000000
-0.092205 0.956836 -1.430753 1.994723 8.669891 -3.923173 -1.880729 -0.143250 -1.629486 -6.085787 0.476191 -3.254558 -4.921045 -0.712430 15.278080 0.000000 0.000000 0.000000 -2.014066 -0.806156 8.334202 -1.067830 0.706149 37.504498 6.892688 1.422526 29.600518 0.000000 0.000000 0.000000 -9.219480 0.190103 9.004578 6.656273 -0.728011 -26.672689 -0.317523 -1.601070 32.650632 -2.566075 3.732451 -27.443282 0.000000 0.000000 0.000000 -28.933506 9.748898 -9.640601 -54.237116 0.972320 -9.437211 -10.318073 -22.626506 3.227308 0.000000 0.000000 0.000000 18.293529 2.108164 1.353470 57.847363 10.774581 -3.814080 4.440476 28.634695 2.816068 0.000000 0.000000 0.000000
-0.104273 0.952385 -1.469639 2.086680 7.493121 -3.150089 -1.494597 -0.524720 -5.242465 -5.967212 0.490454 -3.066807 -4.349595 0.690912 16.778533 0.000000 0.000000 0.000000 -1.335118 -1.202336 11.728939 -2.241745 1.342709 29.123786 7.971153 4.018780 26.930022 0.000000 0.000000 0.000000 -8.486692 0.191514 9.240314 6.437452 -0.664379 -26.961510 -0.135626 0.136168 31.787280 -1.314185 3.149916 -26.521609 0.000000 0.000000 0.000000 -28.609832 10.289614 -10.346493 -54.725248 2.664735 -10.088667 -9.925125 -24.308060 3.331348 0.000000 0.000000 0.000000 18.966373 1.981836 1.506952 56.811453 12.605809 -2.881736 3.334759 29.137724 2.638907 0.000000 0.000000 0.000000
-0.118440 0.948592 -1.510939 1.894856 6.832347 -2.904087 -0.955933 -0.783558 -7.845443 -5.240595 0.441966 -3.958262 -4.307519 1.694476 19.217160 0.000000 0.000000 0.000000 -0.344224 -1.539090 13.764553 -2.782587 1.345276 20.762470 8.676754 4.737040 27.657419 0.000000 0.000000 0.000000 -7.619353 0.168007 10.445751 6.055463 -0.550335 -27.397541 -0.277145 0.444776 31.213130 -1.668519 3.362670 -27.148267 0.000000 0.000000 0.000000 -28.677682 10.430596 -10.448368 -54.440410 1.791228 -9.604367 -9.005437 -24.429172 3.141805 0.000000 0.000000 0.000000 19.874121 2.624368 1.827782 56.645108 13.751137 -2.304154 2.063899 30.301692 2.437247 0.000000 0.000000 0.000000
-0.133104 0.945674 -1.552977 1.240582 5.930157 -2.889155 0.375102 -0.935565 -10.174747 -4.866059 0.421587 -4.820291 -4.054933 2.934016 21.870700 0.000000 0.000000 0.000000 1.148956 -1.817162 14.576386 -2.816218 1.107728 14.211006 6.493975 2.774008 24.190512 0.000000 0.000000 0.000000 -6.662532 0.109087 11.283967 6.284173 -0.641239 -26.961888 -0.235962 1.683948 30.596226 -1.543399 3.411331 -27.151026 0.000000 0.000000 0.000000 -29.178160 10.066324 -10.634466 -54.061294 1.558011 -9.276274 -8.906046 -26.430693 3.332705 0.000000 0.000000 0.000000 20.823406 1.963863 1.644621 56.445799 14.884563 -1.763677 1.855704 31.956454 2.636338 0.000000 0.000000 0.000000
-0.146551 0.944454 -1.594574 0.444168 6.043499 -3.053682 1.110564 -1.057196 -12.072353 -4.086604 0.376325 -5.342553 -3.148562 4.571581 22.915746 0.000000 0.000000 0.000000 2.643961 -1.976230 14.192289 -2.332749 0.792293 9.894394 5.016035 1.269492 22.211987 0.000000 0.000000 0.000000 -5.659153 0.008533 12.226199 6.489207 -0.675074 -27.177806 -0.238072 2.230822 30.774154 -1.639284 3.607077 -27.849282 0.000000 0.000000 0.000000 -29.483025 9.293628 -10.456367 -53.283676 0.497415 -8.639206 -9.406475 -27.043213 3.483114 0.000000 0.000000 0.000000 21.204381 2.204066 1.972323 55.394963 16.101037 -1.297726 0.625914 31.206111 2.237071 0.000000 0.000000 0.000000
-0.157911 0.945443 -1.634006 -0.231260 5.252512 -2.560943 2.095433 -1.176178 -14.581210 -4.113353 0.388444 -4.811435 -1.054284 7.018871 22.242546 0.000000 0.000000 0.000000 3.062923 -1.754556 12.410388 -1.091397 0.469733 7.904201 4.713334 2.087574 18.517402 0.000000 0.000000 0.000000 -4.313290 -0.111249 12.342961 6.623622 -0.743233 -26.696173 -0.360936 2.437550 29.887387 -3.005580 4.321298 -27.090066 0.000000 0.000000 0.000000 -30.200365 10.194407 -11.210532 -51.914023 0.891503 -8.469950 -12.418504 -28.090954 4.368802 0.000000 0.000000 0.000000 20.569809 2.775187 2.165908 54.746737 16.270652 -1.133677 3.100277 31.179339 2.813804 0.000000 0.000000 0.000000
-0.167105 0.948331 -1.669327 -0.173623 5.147517 -1.814171 2.085676 -1.297963 -15.958509 -5.211447 0.468159 -3.344961 1.531662 9.657158 19.037491 0.000000 0.000000 0.000000 3.462158 -1.394902 9.638771 -0.463340 0.358491 8.083080 3.381021 1.072514 15.052367 0.000000 0.000000 0.000000 -4.055104 -0.113188 11.496245 6.909860 -0.850298 -26.013681 -0.694928 3.170666 29.170808 -2.665398 4.250895 -28.356947 0.000000 0.000000 0.000000 -29.984366 9.202566 -10.754144 -51.614543 0.772979 -8.258272 -12.754391 -28.225947 4.405331 0.000000 0.000000 0.000000 20.849968 1.469117 1.573978 54.439426 15.107965 -1.642912 3.913895 30.654968 2.992084 0.000000 0.000000 0.000000
-0.174312 0.952478 -1.700161 -0.083479 5.241406 -2.189460 1.568139 -1.374644 -16.082621 -5.581296 0.573586 2.741789 3.209825 10.614782 12.799110 0.000000 0.000000 0.000000 3.854002 -1.291848 8.709230 -0.566572 0.375958 8.055066 2.906948 1.389494 12.082895 0.000000 0.000000 0.000000 -3.823462 -0.153281 12.159001 6.807264 -0.698392 -27.832784 -0.881230 2.215653 30.193682 -1.874247 3.651485 -27.765874 0.000000 0.000000 0.000000 -30.532185 9.700088 -10.868407 -50.777874 0.303471 -8.097092 -13.797494 -27.601747 4.642654 0.000000 0.000000 0.000000 19.951550 1.317007 1.251445 54.764603 14.550827 -1.925013 6.416705 29.084263 3.357700 0.000000 0.000000 0.000000
-0.180069 0.956800 -1.726756 0.143388 5.349203 -2.471600 0.797296 -1.428151 -15.629953 -5.186711 0.543507 9.416353 3.619328 10.752503 10.702493 0.000000 0.000000 0.000000 3.832855 -1.161645 7.863007 -0.565799 0.354771 7.475877 2.981985 1.810978 11.473594 0.000000 0.000000 0.000000 -3.849235 -0.156617 12.305770 6.599334 -0.639615 -28.029787 -1.048213 1.463905 30.363060 -1.806054 3.482970 -27.400615 0.000000 0.000000 0.000000 -30.599757 9.594342 -10.511059 -50.645303 -0.461758 -7.887359 -14.144426 -26.767888 4.633437 0.000000 0.000000 0.000000 19.617005 1.471130 1.163932 54.684809 13.035152 -2.636735 8.073419 28.042235 3.553115 0.000000 0.000000 0.000000
-0.184418 0.960310 -1.749700 0.521707 5.536565 -2.686937 0.251262 -1.338189 -14.094422 -4.744631 0.397380 16.048571 3.844908 10.383810 7.806418 0.000000 0.000000 0.000000 3.566006 -0.980366 6.776535 -0.509385 0.333028 7.194104 3.066906 1.812948 11.926807 0.000000 0.000000 0.000000 -4.050181 -0.134355 12.067957 6.515714 -0.605234 -28.240566 -1.653784 0.998272 30.637744 -0.727526 2.719053 -25.775398 0.000000 0.000000 0.000000 -30.389638 8.852476 -9.760437 -50.285828 -1.001422 -7.721916 -13.604691 -26.190349 4.426639 0.000000 0.000000 0.000000 19.797124 1.688810 1.205722 54.915087 11.925228 -3.178836 7.876581 27.151039 3.346235 0.000000 0.000000 0.000000
-0.187498 0.962563 -1.769543 0.735231 5.142769 -2.961699 0.356411 -1.111482 -12.000685 -4.772382 0.358727 20.532000 3.998077 9.931729 5.295136 0.000000 0.000000 0.000000 3.494596 -0.894055 6.240839 -0.434227 0.314421 6.957724 2.710539 1.473968 10.890998 0.000000 0.000000 0.000000 -4.005394 -0.131831 11.829495 6.285763 -0.517638 -28.914883 -1.899255 0.500096 31.264853 -0.135320 2.218185 -25.621269 0.000000 0.000000 0.000000 -30.626593 9.048583 -9.624880 -50.162065 -1.108526 -7.802728 -12.919923 -26.412131 4.370913 0.000000 0.000000 0.000000 19.413998 1.393679 0.868477 55.305390 10.307757 -3.962515 9.124556 26.021897 3.428706 0.000000 0.000000 0.000000
-0.189249 0.963523 -1.786793 0.729696 5.685713 -3.224816 0.318492 -0.809704 -8.866778 -3.492158 -0.128426 23.247626 3.154695 7.846333 3.540066 0.000000 0.000000 0.000000 3.628005 -0.908393 6.278102 -0.165020 0.231640 6.003496 2.039845 0.567427 9.939763 0.000000 0.000000 0.000000 -3.608255 -0.174031 11.610351 5.342091 -0.299585 -29.175678 -2.036264 -0.770343 31.284215 0.821911 1.399924 -24.802042 0.000000 0.000000 0.000000 -30.069084 7.968019 -8.352475 -50.317894 -1.929768 -7.644091 -11.612237 -26.150345 4.073732 0.000000 0.000000 0.000000 19.290345 0.997177 0.420666 56.094603 8.487635 -4.787120 8.360680 25.050100 3.081266 0.000000 0.000000 0.000000
-0.189483 0.963665 -1.801807 0.262040 5.640090 -3.551699 0.973307 -0.505603 -5.922365 -3.183708 -0.249403 23.876578 3.264973 8.061299 3.606739 0.000000 0.000000 0.000000 3.845331 -0.896670 6.108973 0.201898 0.152048 5.435968 2.098250 0.836863 9.573833 0.000000 0.000000 0.000000 -3.288499 -0.200307 11.223766 5.330128 -0.284667 -29.490829 -2.259472 -1.585946 31.825573 1.544833 0.673909 -23.258195 0.000000 0.000000 0.000000 -29.959111 8.075488 -8.039999 -50.865322 -2.450851 -7.668616 -10.576046 -25.754673 3.842584 0.000000 0.000000 0.000000 19.119147 0.691336 0.071341 56.911148 7.403051 -5.361873 7.967270 23.585926 2.769700 0.000000 0.000000 0.000000
-0.188275 0.964019 -1.814633 -0.492957 6.562729 -3.046706 1.944609 -0.289398 -3.511810 -2.319655 -0.409232 20.163930 3.359801 8.953643 5.762642 0.000000 0.000000 0.000000 4.330418 -0.754974 4.903545 0.656549 0.051822 4.739288 2.010581 0.372020 10.644211 0.000000 0.000000 0.000000 -2.913653 -0.198151 9.599836 5.323643 -0.322235 -28.565526 -2.434879 -3.043472 31.084121 2.059709 0.102968 -22.227377 0.000000 0.000000 0.000000 -29.584728 7.111041 -7.024871 -51.124425 -2.097356 -7.871477 -9.213248 -25.749504 3.552278 0.000000 0.000000 0.000000 19.199061 0.859866 -0.061304 57.452151 5.423254 -6.205758 5.907694 22.968395 2.254619 0.000000 0.000000 0.000000
-0.185281 0.964348 -1.825112 -0.820357 6.280991 -2.762685 2.685915 -0.103924 -0.813698 -2.354243 -0.176223 15.157863 3.638177 9.806490 7.043344 0.000000 0.000000 0.000000 4.321059 -0.627597 4.033366 0.550623 0.070125 4.718470 2.458590 1.311240 10.498327 0.000000 0.000000 0.000000 -2.948917 -0.160461 8.332909 5.511466 -0.357309 -28.652541 -2.568965 -3.661756 31.531963 2.488719 -0.347991 -21.982094 0.000000 0.000000 0.000000 -28.898261 7.377638 -6.746170 -51.677386 -2.432839 -7.949097 -9.962283 -24.952741 3.660066 0.000000 0.000000 0.000000 18.766691 0.279207 -0.541743 57.850331 4.391301 -6.752514 5.933635 22.027156 2.132101 0.000000 0.000000 0.000000
-0.180471 0.964711 -1.833563 -1.163904 6.221657 -2.437791 3.186500 0.027095 1.615726 -2.346385 0.020634 9.273086 3.416823 9.987547 9.027567 0.000000 0.000000 0.000000 4.222605 -0.508162 3.231301 0.678160 0.052455 4.832850 2.565186 1.645280 10.206349 0.000000 0.000000 0.000000 -2.965094 -0.126941 6.991183 5.626314 -0.391941 -28.542619 -2.730047 -4.299118 31.412896 2.994756 -0.896605 -20.891474 0.000000 0.000000 0.000000 -27.845866 7.148722 -6.178598 -52.751920 -1.958416 -8.323439 -9.735736 -24.940131 3.643326 0.000000 0.000000 0.000000 17.914957 -0.239942 -0.942940 58.998594 3.327061 -7.305949 4.742333 21.643076 1.866100 0.000000 0.000000 0.000000
-0.173918 0.964734 -1.840207 -1.307260 6.024920 -2.481689 3.080897 0.149188 3.715296 -2.194429 0.115609 4.845596 3.206787 10.156177 10.976910 0.000000 0.000000 0.000000 3.978292 -0.435351 2.794665 0.575829 0.071939 4.894593 2.588474 1.576390 10.429668 0.000000 0.000000 0.000000 -2.937860 -0.108996 6.088734 5.443386 -0.352381 -28.617813 -2.815839 -4.863588 31.582487 2.988033 -1.043482 -20.575061 0.000000 0.000000 0.000000 -27.400280 7.331729 -5.972720 -53.320380 -1.786327 -8.541426 -10.176283 -24.228578 3.666709 0.000000 0.000000 0.000000 17.413421 -0.490691 -1.202859 59.518514 2.151754 -7.935107 5.019375 21.539646 1.883170 0.000000 0.000000 0.000000
-0.166161 0.964517 -1.845639 -1.543742 5.846561 -2.420818 2.754645 0.262496 5.409397 -1.755111 0.156408 0.726274 2.709431 9.690161 12.225862 0.000000 0.000000 0.000000 3.737978 -0.366354 2.360486 0.690806 0.055642 4.953419 2.385114 1.123581 10.469921 0.000000 0.000000 0.000000 -2.923522 -0.090530 5.182141 5.317983 -0.334922 -28.511686 -2.810723 -5.299936 31.534125 2.926537 -1.091636 -20.518296 0.000000 0.000000 0.000000 -26.866990 7.277590 -5.672737 -54.109588 -1.532835 -8.774582 -9.900217 -23.636812 3.536244 0.000000 0.000000 0.000000 16.962433 -0.752145 -1.435844 60.214182 1.627366 -8.246507 4.440879 21.154547 1.730353 0.000000 0.000000 0.000000
-0.157920 0.964070 -1.850076 -1.689951 5.759105 -2.572089 2.253966 0.363999 6.538279 -1.342951 0.164197 -1.385828 2.306397 9.073240 12.291920 0.000000 0.000000 0.000000 3.441861 -0.333523 2.199259 0.650618 0.063980 5.003195 2.199398 0.693796 10.574620 0.000000 0.000000 0.000000 -2.906261 -0.080695 4.583955 5.187680 -0.318807 -28.339856 -2.710632 -5.494234 31.666028 2.797565 -1.058076 -20.381212 0.000000 0.000000 0.000000 -26.883727 7.397117 -5.669954 -54.255137 -1.770980 -8.710415 -9.858411 -23.174787 3.463707 0.000000 0.000000 0.000000 16.843712 -1.332201 -1.784494 60.566853 1.381720 -8.419653 4.607044 21.074515 1.749978 0.000000 0.000000 0.000000
-0.149648 0.963549 -1.853623 -1.900735 5.763373 -2.742194 2.123859 0.425692 7.426801 -1.259892 0.191562 -2.957180 1.584524 7.954682 12.315792 0.000000 0.000000 0.000000 3.260848 -0.288590 1.917927 0.713286 0.061814 5.343502 1.758949 -0.254260 10.726471 0.000000 0.000000 0.000000 -3.068707 -0.064401 3.879308 5.365294 -0.378639 -28.005296 -2.732748 -5.710707 31.668701 2.788509 -1.090903 -20.249260 0.000000 0.000000 0.000000 -26.505451 7.449599 -5.580255 -54.929838 -1.725093 -8.812033 -9.729253 -22.669840 3.366240 0.000000 0.000000 0.000000 16.772298 -1.308446 -1.819267 60.998821 1.400719 -8.437056 4.235947 21.456950 1.719817 0.000000 0.000000 0.000000
-0.141824 0.963091 -1.856688 -2.021243 5.781660 -2.886771 1.761047 0.479632 7.820410 -0.977931 0.190610 -3.810729 1.071712 7.237842 12.584723 0.000000 0.000000 0.000000 3.152495 -0.274723 1.844509 0.630361 0.078101 5.447751 1.171299 -1.411548 10.653962 0.000000 0.000000 0.000000 -3.141864 -0.060039 3.650476 5.369997 -0.381875 -27.996028 -2.668985 -5.842442 31.743565 2.602275 -0.965856 -20.430788 0.000000 0.000000 0.000000 -26.592238 7.468037 -5.565024 -54.951522 -1.699714 -8.835114 -9.803809 -22.632927 3.381139 0.000000 0.000000 0.000000 16.759859 -1.520684 -1.956605 61.196096 1.637661 -8.341488 4.248857 21.817067 1.757432 0.000000 0.000000 0.000000
-0.134663 0.962886 -1.859777 -2.207479 5.854302 -2.929004 1.641512 0.504066 8.082820 -0.943155 0.207088 -4.683744 0.533892 6.537815 12.990561 0.000000 0.000000 0.000000 2.957609 -0.245940 1.670259 0.726451 0.058422 5.327720 0.843155 -2.220488 11.137904 0.000000 0.000000 0.000000 -3.174371 -0.058001 3.534792 5.319928 -0.380625 -27.831718 -2.566064 -6.077487 31.645230 2.590362 -0.962031 -20.686670 0.000000 0.000000 0.000000 -26.840307 7.031840 -5.254057 -54.865939 -2.127031 -8.647791 -9.414131 -22.238499 3.237123 0.000000 0.000000 0.000000 16.807621 -1.151082 -1.809792 61.340257 1.879379 -8.219108 4.746724 22.240020 1.878434 0.000000 0.000000 0.000000
-0.128334 0.963075 -1.862884 -2.265770 5.674636 -2.933557 1.614229 0.508724 8.068708 -1.576854 0.247083 -4.901892 0.561812 6.579550 13.051823 0.000000 0.000000 0.000000 2.941969 -0.218045 1.459741 0.427712 0.115177 5.532887 0.461120 -2.943727 10.942477 0.000000 0.000000 0.000000 -3.133177 -0.059343 3.556772 5.330579 -0.403363 -27.505531 -2.461521 -6.002355 31.256415 2.432858 -0.840614 -20.769081 0.000000 0.000000 0.000000 -27.094691 6.952349 -5.245469 -54.466989 -2.074555 -8.577900 -9.600809 -22.548038 3.314270 0.000000 0.000000 0.000000 17.095173 -0.851697 -1.706972 61.087373 2.095266 -8.027387 4.836065 22.840854 1.945046 0.000000 0.000000 0.000000
-0.122921 0.963356 -1.865636 -2.413932 5.591352 -2.967197 1.539301 0.515203 8.051431 -1.827514 0.263283 -5.069971 0.571680 6.599950 13.094866 0.000000 0.000000 0.000000 2.891854 -0.191992 1.270541 0.476397 0.108102 5.555366 0.077639 -3.814607 11.268083 0.000000 0.000000 0.000000 -3.011462 -0.063401 3.592403 5.349254 -0.412308 -27.451377 -2.421391 -5.675531 31.211171 2.557903 -0.855332 -20.951751 0.000000 0.000000 0.000000 -27.188463 6.406564 -4.996835 -54.057954 -2.164501 -8.470584 -9.479265 -22.614449 3.277052 0.000000 0.000000 0.000000 17.470608 -0.667017 -1.582339 60.908946 2.255922 -7.910968 5.090216 23.411829 2.062235 0.000000 0.000000 0.000000
-0.118335 0.963727 -1.867789 -2.475763 5.550903 -2.862858 1.523849 0.514435 8.014886 -2.239312 0.288146 -5.405319 0.521402 6.569171 13.260762 0.000000 0.000000 0.000000 2.829031 -0.182579 1.203446 0.417089 0.115470 5.446059 -0.207379 -4.331543 11.086515 0.000000 0.000000 0.000000 -2.909192 -0.064164 3.535036 5.274348 -0.413362 -27.137883 -2.275821 -5.625196 30.917266 2.434607 -0.774139 -20.783724 0.000000 0.000000 0.000000 -27.176229 6.373673 -5.000190 -53.812843 -2.170228 -8.400264 -9.769454 -22.721132 3.343757 0.000000 0.000000 0.000000 17.456351 -0.330312 -1.401222 60.973971 2.554718 -7.733752 5.125667 23.656290 2.091863 0.000000 0.000000 0.000000
-0.114473 0.964058 -1.869395 -2.519548 5.592880 -2.774041 1.483185 0.516121 8.002718 -2.536352 0.304264 -5.711260 0.438997 6.493660 13.411394 0.000000 0.000000 0.000000 2.686954 -0.178263 1.190286 0.599318 0.074124 5.036362 -0.584871 -5.178879 11.483105 0.000000 0.000000 0.000000 -2.795970 -0.066155 3.521628 5.233159 -0.406633 -27.067939 -2.193245 -5.316609 30.854276 2.413898 -0.682362 -20.941791 0.000000 0.000000 0.000000 -26.903549 6.144350 -4.931339 -53.889142 -2.242369 -8.348575 -9.853361 -22.756478 3.351022 0.000000 0.000000 0.000000 17.430115 -0.203623 -1.247627 61.245142 2.909443 -7.574733 4.976540 23.736934 2.091380 0.000000 0.000000 0.000000
-0.111142 0.964505 -1.871048 -2.551631 5.704819 -2.725135 1.416907 0.518874 7.988578 -2.736606 0.313451 -5.959051 0.322683 6.381983 13.582114 0.000000 0.000000 0.000000 2.599368 -0.210878 1.456461 0.677179 0.048441 4.554740 -0.870692 -5.672428 11.272317 0.000000 0.000000 0.000000 -2.612575 -0.072290 3.596412 5.159246 -0.392107 -26.995963 -2.214399 -5.147724 30.791687 2.354921 -0.572768 -21.261174 0.000000 0.000000 0.000000 -26.745072 6.050524 -4.940073 -53.696272 -2.044446 -8.381828 -10.079837 -22.955520 3.414543 0.000000 0.000000 0.000000 17.765727 -0.077298 -1.146085 61.223428 3.001054 -7.519070 4.523201 23.827084 2.026518 0.000000 0.000000 0.000000
-0.108282 0.964961 -1.872915 -2.537306 5.753979 -2.595302 1.261407 0.516259 7.750973 -2.746949 0.312593 -5.761587 0.104785 5.939952 13.253723 0.000000 0.000000 0.000000 2.331779 -0.250073 1.807969 0.831624 0.002764 3.714207 -0.857923 -5.624987 11.202525 0.000000 0.000000 0.000000 -2.372581 -0.079930 3.678133 4.880424 -0.331081 -26.924844 -2.149338 -4.887497 30.558545 2.350620 -0.473512 -21.710530 0.000000 0.000000 0.000000 -26.436012 5.757067 -4.816746 -53.602882 -1.887679 -8.395103 -10.280612 -22.938711 3.432164 0.000000 0.000000 0.000000 17.938903 -0.113718 -1.112057 61.185354 2.982569 -7.497756 4.487537 23.772806 2.024611 0.000000 0.000000 0.000000
-0.105790 0.965417 -1.874990 -2.409275 5.928449 -2.536697 1.146377 0.518634 7.670894 -2.919082 0.318799 -5.723110 -0.306952 5.236920 13.030083 0.000000 0.000000 0.000000 2.159842 -0.285762 2.125739 0.855606 -0.018530 3.047973 -1.169209 -6.196146 11.106844 0.000000 0.000000 0.000000 -2.329930 -0.082270 3.741363 4.711020 -0.289552 -26.928809 -2.097113 -4.839334 30.543645 2.340339 -0.433765 -21.803725 0.000000 0.000000 0.000000 -26.196585 5.468761 -4.653523 -53.648534 -2.069722 -8.313668 -10.306033 -22.884767 3.417586 0.000000 0.000000 0.000000 18.093071 -0.042968 -1.042359 61.169632 3.031734 -7.473828 4.175191 23.657132 1.960925 0.000000 0.000000 0.000000
-0.103679 0.965735 -1.876941 -2.392583 6.021038 -2.343094 1.136756 0.494231 7.312323 -3.000592 0.320820 -5.411722 -0.684718 4.496500 12.609524 0.000000 0.000000 0.000000 1.880801 -0.300827 2.305258 0.911629 -0.047043 2.266234 -0.938489 -5.767410 11.272245 0.000000 0.000000 0.000000 -2.209691 -0.088141 3.881414 4.572649 -0.249376 -27.059854 -2.131193 -4.720972 30.474556 2.217483 -0.293591 -22.129978 0.000000 0.000000 0.000000 -26.142443 5.322203 -4.616027 -53.565033 -1.966689 -8.332067 -10.678500 -23.009048 3.504984 0.000000 0.000000 0.000000 18.273521 -0.010010 -0.993070 61.134930 3.039589 -7.460292 4.073223 23.779943 1.961636 0.000000 0.000000 0.000000
-0.101944 0.966149 -1.878691 -2.351221 6.022387 -2.204525 1.147989 0.480912 7.126430 -3.013365 0.321248 -5.401882 -1.222106 3.644760 12.625906 0.000000 0.000000 0.000000 1.837033 -0.317984 2.450081 0.892105 -0.062588 1.578768 -1.132016 -6.201499 11.497570 0.000000 0.000000 0.000000 -2.051491 -0.093964 3.949962 4.452820 -0.218707 -27.100138 -2.122080 -4.505242 30.448867 2.260529 -0.263850 -22.383640 0.000000 0.000000 0.000000 -26.352131 5.082052 -4.566367 -53.378674 -1.914389 -8.319005 -10.580933 -23.219587 3.507418 0.000000 0.000000 0.000000 18.601098 0.026379 -0.940418 60.878016 3.177333 -7.371298 4.005721 23.910148 1.970558 0.000000 0.000000 0.000000
-0.100549 0.966417 -1.880166 -2.330927 6.081997 -2.037742 1.051751 0.467125 6.819139 -2.958036 0.318179 -5.586159 -1.426814 3.576198 13.263680 0.000000 0.000000 0.000000 1.695578 -0.334238 2.613562 0.890233 -0.078362 0.999336 -1.024393 -5.969882 11.445339 0.000000 0.000000 0.000000 -2.036284 -0.095234 4.013706 4.407433 -0.200021 -27.247642 -2.080734 -4.373623 30.544615 2.110928 -0.112081 -22.709198 0.000000 0.000000 0.000000 -26.550220 5.125067 -4.680889 -53.365249 -2.018392 -8.271502 -10.631464 -23.263778 3.520665 0.000000 0.000000 0.000000 18.835748 0.027779 -0.904451 60.744390 3.283119 -7.324689 4.121674 24.012066 2.013663 0.000000 0.000000 0.000000
-0.099442 0.966551 -1.881394 -2.348257 6.241860 -1.975435 1.044501 0.453929 6.648225 -2.909053 0.314469 -5.618415 -1.710078 3.226435 13.457446 0.000000 0.000000 0.000000 1.618716 -0.322516 2.537480 0.882004 -0.086303 0.691863 -1.025732 -6.080072 11.997431 0.000000 0.000000 0.000000 -1.978141 -0.100025 4.129093 4.396810 -0.187384 -27.399305 -2.081892 -4.263606 30.661974 2.105724 -0.069138 -22.776253 0.000000 0.000000 0.000000 -26.780055 5.161796 -4.810624 -53.416871 -1.930597 -8.314305 -10.514959 -23.396953 3.513475 0.000000 0.000000 0.000000 19.011386 -0.073618 -0.909817 60.681461 3.476091 -7.241541 4.363072 24.080622 2.080813 0.000000 0.000000 0.000000
-0.098626 0.966588 -1.882305 -2.413244 6.201556 -1.821567 1.035878 0.435103 6.358062 -2.778415 0.309533 -5.860542 -1.866959 3.290663 14.249951 0.000000 0.000000 0.000000 1.560234 -0.327687 2.590822 0.742233 -0.081826 0.241797 -0.643466 -5.371423 12.121247 0.000000 0.000000 0.000000 -2.022990 -0.098936 4.176791 4.436039 -0.189558 -27.536134 -2.053387 -4.073333 30.771220 1.771927 0.194407 -23.025536 0.000000 0.000000 0.000000 -27.114788 5.331879 -5.029280 -53.587811 -1.845821 -8.370298 -9.819162 -23.135954 3.324497 0.000000 0.000000 0.000000 19.142511 -0.045339 -0.856380 60.707091 3.487256 -7.252145 4.681086 24.256479 2.171132 0.000000 0.000000 0.000000
-0.098126 0.966493 -1.882829 -2.518463 6.245477 -1.744646 1.178330 0.422117 6.343711 -2.703921 0.306743 -6.148436 -2.204876 2.873271 14.504872 0.000000 0.000000 0.000000 1.678123 -0.344423 2.691580 0.635338 -0.080116 -0.121653 -0.581518 -5.256945 12.177877 0.000000 0.000000 0.000000 -2.076231 -0.100372 4.312503 4.432294 -0.182323 -27.659386 -1.922463 -3.945120 30.804450 1.928634 0.117681 -22.980049 0.000000 0.000000 0.000000 -27.417214 5.489864 -5.241702 -53.627561 -1.509474 -8.506802 -9.532710 -23.076728 3.251587 0.000000 0.000000 0.000000 19.295577 -0.004485 -0.801358 60.659451 3.362219 -7.316162 4.972190 24.616141 2.275851 0.000000 0.000000 0.000000
-0.097945 0.966624 -1.883032 -2.629802 5.896922 -1.547452 1.135215 0.428292 6.331734 -2.510424 0.303990 -6.586529 -2.027452 3.221952 14.813018 0.000000 0.000000 0.000000 1.882018 -0.337031 2.569109 0.469720 -0.069578 -0.409376 -0.474627 -5.137911 12.340274 0.000000 0.000000 0.000000 -2.198575 -0.093339 4.268613 4.709750 -0.232727 -27.934045 -1.874908 -3.580328 31.011596 1.604496 0.368037 -23.160036 0.000000 0.000000 0.000000 -27.694820 5.954451 -5.643981 -53.954635 -1.280909 -8.645197 -8.610049 -22.689892 3.007977 0.000000 0.000000 0.000000 19.134897 0.135091 -0.676967 61.095816 3.256330 -7.421221 5.045317 24.932181 2.337465 0.000000 0.000000 0.000000
-0.098234 0.966641 -1.882896 -2.758711 5.694735 -1.311046 1.078654 0.411061 5.992953 -2.132965 0.290749 -6.550336 -1.938279 3.408822 15.008043 0.000000 0.000000 0.000000 2.041729 -0.328220 2.446257 0.315361 -0.054270 -0.486277 -0.194284 -4.546697 12.062979 0.000000 0.000000 0.000000 -2.281674 -0.087689 4.225548 4.858040 -0.266735 -27.927026 -1.902438 -3.265717 30.925940 1.842008 0.238808 -22.951438 0.000000 0.000000 0.000000 -27.988270 6.125379 -5.885476 -53.961782 -0.880509 -8.782432 -7.904426 -21.863450 2.740008 0.000000 0.000000 0.000000 19.108276 0.244068 -0.574217 61.226976 3.114904 -7.488278 5.466407 25.246664 2.467056 0.000000 0.000000 0.000000
-0.099046 0.966379 -1.882383 -2.798764 5.586551 -1.193563 0.977407 0.428572 6.123871 -1.774739 0.282636 -6.996008 -1.922696 3.465396 15.132151 0.000000 0.000000 0.000000 2.361419 -0.355678 2.567335 0.178295 -0.049261 -0.777931 -0.464547 -5.006861 11.758187 0.000000 0.000000 0.000000 -2.477288 -0.077958 4.160176 4.977602 -0.306926 -27.661853 -2.083560 -2.930741 30.707551 1.945965 0.207010 -22.715455 0.000000 0.000000 0.000000 -27.554217 6.474940 -6.145690 -54.450973 -0.336489 -9.035625 -7.093954 -21.806612 2.569478 0.000000 0.000000 0.000000 19.272329 0.110277 -0.594977 61.545300 3.113532 -7.484359 5.707789 25.456168 2.560742 0.000000 0.000000 0.000000
-0.100324 0.965933 -1.881722 -2.837181 5.768518 -1.156565 1.024827 0.427647 6.197417 -1.609650 0.277400 -7.170535 -1.979696 3.357520 15.010563 0.000000 0.000000 0.000000 2.470313 -0.373761 2.674956 0.321256 -0.058766 -0.595074 -0.623021 -5.077682 10.939470 0.000000 0.000000 0.000000 -2.785383 -0.063472 4.004848 4.744481 -0.247835 -27.841345 -2.110380 -3.475847 31.125963 1.750187 0.313752 -23.528098 0.000000 0.000000 0.000000 -27.392265 6.877315 -6.214813 -54.107548 -0.127637 -9.147584 -7.659136 -21.184121 2.610474 0.000000 0.000000 0.000000 18.673287 0.307495 -0.551371 62.152604 2.399356 -7.941548 6.438552 25.865292 2.753754 0.000000 0.000000 0.000000
-0.102067 0.965390 -1.881202 -2.798651 5.659359 -0.909689 1.286270 0.419400 6.355596 -1.964295 0.296170 -7.850078 -1.970486 3.390904 15.117226 0.000000 0.000000 0.000000 2.312013 -0.376020 2.729529 0.543310 -0.100658 -1.095328 -0.349608 -4.525304 10.850088 0.000000 0.000000 0.000000 -2.700602 -0.061145 3.841609 4.141877 -0.145821 -27.214855 -1.796276 -3.609469 30.575724 1.524797 0.401398 -23.136708 0.000000 0.000000 0.000000 -27.838311 6.504487 -5.995313 -53.684802 0.143269 -9.154560 -7.095365 -21.303537 2.516496 0.000000 0.000000 0.000000 19.108476 -0.122569 -0.885531 61.542699 2.280115 -7.878344 6.951181 26.554811 2.940334 0.000000 0.000000 0.000000
-0.104240 0.965542 -1.881167 -3.107208 5.343792 -0.488677 1.685052 0.344413 5.640005 -1.887361 0.292347 -7.429914 -1.727114 3.674262 14.994893 0.000000 0.000000 0.000000 2.981946 -0.316938 2.071463 0.141920 -0.042043 -0.693277 -0.204350 -4.190225 10.566636 0.000000 0.000000 0.000000 -3.182932 -0.034465 3.468489 4.152175 -0.160543 -27.027435 -1.246194 -4.214877 30.363523 1.596281 0.272671 -23.826825 0.000000 0.000000 0.000000 -27.981871 7.256792 -6.235245 -53.468465 -0.215848 -8.999507 -8.739863 -20.617295 2.754749 0.000000 0.000000 0.000000 17.020121 0.190901 -0.789235 62.831246 1.915385 -8.156710 6.697527 26.302421 2.803230 0.000000 0.000000 0.000000
-0.106535 0.966759 -1.881490 -3.151202 5.415485 -0.762919 1.904595 0.363427 6.202966 -1.899702 0.297486 -7.976701 -1.900263 3.609652 15.499134 0.000000 0.000000 0.000000 3.482713 -0.450093 2.919090 0.129225 -0.092995 -2.074221 -0.757384 -5.565515 11.620901 0.000000 0.000000 0.000000 -2.959683 -0.053640 3.969377 4.430236 -0.235847 -26.759683 -1.573673 -3.521118 30.185452 1.702265 0.271758 -22.962010 0.000000 0.000000 0.000000 -26.819927 6.207030 -5.610011 -53.919194 0.127898 -9.158212 -7.426845 -21.544212 2.605200 0.000000 0.000000 0.000000 18.106629 0.323091 -0.599496 61.442637 2.702578 -7.611709 5.511640 26.914470 2.656062 0.000000 0.000000 0.000000
