HIERARCHY
ROOT Hips
{
	OFFSET -0.001795 -0.223333 0.028219
	CHANNELS 6 Xposition Yposition Zposition Zrotation Yrotation Xrotation
	JOINT LeftUpLeg
	{
		OFFSET 0.069520 -0.091406 -0.006815
		CHANNELS 3 Zrotation Yrotation Xrotation
		JOINT LeftLeg
		{
			OFFSET 0.034277 -0.375199 -0.004496
			CHANNELS 3 Zrotation Yrotation Xrotation
			JOINT LeftFoot
			{
				OFFSET -0.013596 -0.397961 -0.043693
				CHANNELS 3 Zrotation Yrotation Xrotation
				JOINT LeftToe
				{
					OFFSET 0.026358 -0.055791 0.119288
					CHANNELS 3 Zrotation Yrotation Xrotation
					End Site
					{
						OFFSET 0.000000 0.000000 0.000000
					}
				}
			}
		}
	}
	JOINT RightUpLeg
	{
		OFFSET -0.067670 -0.090522 -0.004320
		CHANNELS 3 Zrotation Yrotation Xrotation
		JOINT RightLeg
		{
			OFFSET -0.038290 -0.382569 -0.008850
			CHANNELS 3 Zrotation Yrotation Xrotation
			JOINT RightFoot
			{
				OFFSET 0.015774 -0.398415 -0.042312
				CHANNELS 3 Zrotation Yrotation Xrotation
				JOINT RightToe
				{
					OFFSET -0.025372 -0.048144 0.123348
					CHANNELS 3 Zrotation Yrotation Xrotation
					End Site
					{
						OFFSET 0.000000 0.000000 0.000000
					}
				}
			}
		}
	}
	JOINT Spine
	{
		OFFSET -0.002533 0.108963 -0.026696
		CHANNELS 3 Zrotation Yrotation Xrotation
		JOINT Spine1
		{
			OFFSET 0.005487 0.135180 0.001092
			CHANNELS 3 Zrotation Yrotation Xrotation
			JOINT Spine2
			{
				OFFSET 0.001457 0.052922 0.025425
				CHANNELS 3 Zrotation Yrotation Xrotation
				JOINT Neck
				{
					OFFSET -0.002778 0.213870 -0.042857
					CHANNELS 3 Zrotation Yrotation Xrotation
					JOINT Head
					{
						OFFSET 0.005152 0.064970 0.051349
						CHANNELS 3 Zrotation Yrotation Xrotation
						End Site
						{
							OFFSET 0.000000 0.000000 0.000000
						}
					}
				}
				JOINT LeftShoulder
				{
					OFFSET 0.078845 0.121749 -0.034090
					CHANNELS 3 Zrotation Yrotation Xrotation
					JOINT LeftArm
					{
						OFFSET 0.090977 0.030469 -0.008868
						CHANNELS 3 Zrotation Yrotation Xrotation
						JOINT LeftForeArm
						{
							OFFSET 0.259612 -0.012772 -0.027456
							CHANNELS 3 Zrotation Yrotation Xrotation
							JOINT LeftHand
							{
								OFFSET 0.249234 0.008986 -0.001171
								CHANNELS 3 Zrotation Yrotation Xrotation
								End Site
								{
									OFFSET 0.000000 0.000000 0.000000
								}
							}
						}
					}
				}
				JOINT RightShoulder
				{
					OFFSET -0.081759 0.118833 -0.038615
					CHANNELS 3 Zrotation Yrotation Xrotation
					JOINT RightArm
					{
						OFFSET -0.096012 0.032551 -0.009143
						CHANNELS 3 Zrotation Yrotation Xrotation
						JOINT RightForeArm
						{
							OFFSET -0.253742 -0.013329 -0.021401
							CHANNELS 3 Zrotation Yrotation Xrotation
							JOINT RightHand
							{
								OFFSET -0.255298 0.007772 -0.005559
								CHANNELS 3 Zrotation Yrotation Xrotation
								End Site
								{
									OFFSET 0.000000 0.000000 0.000000
								}
							}
						}
					}
				}
			}
		}
	}
}
MOTION
Frames: 140
Frame Time: 0.050000
0.000000 0.966063 0.000000 -3.858657 23.685981 -2.022102 3.823660 -0.145781 7.072306 -8.043184 -0.016638 -6.826778 2.680153 12.047179 15.603223 0.000000 0.000000 0.000000 -2.396366 0.240795 -4.240043 4.846679 -2.006318 17.369403 -3.827033 -9.423789 19.524919 0.000000 0.000000 0.000000 -2.032272 -0.407247 9.942836 2.524020 0.512822 -25.414212 -2.377662 -7.997008 27.979188 1.773134 0.918807 -18.614995 0.000000 0.000000 0.000000 -30.137036 -0.415944 -5.026494 -43.354910 0.620411 -6.542922 -21.016181 -38.862668 8.763095 0.000000 0.000000 0.000000 22.868418 -0.316763 1.124137 55.262174 -1.353300 -9.098483 8.401793 37.666459 5.613294 0.000000 0.000000 0.000000
0.000732 0.965091 -0.001852 -4.176744 24.039475 -1.968717 3.302935 -0.092617 7.286312 -6.717530 -0.064290 -8.024639 2.699579 12.200776 15.866659 0.000000 0.000000 0.000000 -3.036744 0.343583 -7.190216 5.752172 -3.017979 22.100297 -3.233134 -8.491234 20.193536 0.000000 0.000000 0.000000 -2.112014 -0.395622 9.830593 2.194829 0.566149 -27.447430 -3.016333 -8.871311 30.232034 2.194494 0.537177 -18.543519 0.000000 0.000000 0.000000 -28.810809 0.952131 -5.410110 -44.795355 -0.259158 -6.775084 -23.341426 -40.702992 10.221265 0.000000 0.000000 0.000000 23.997001 -0.903714 0.848213 54.326486 -2.181059 -9.643521 8.315968 39.030820 5.927514 0.000000 0.000000 0.000000
0.001240 0.965487 -0.003182 -4.160385 23.779695 -1.755213 3.653672 -0.130670 6.672180 -7.127297 -0.044836 -7.504103 2.138206 11.591384 16.242122 0.000000 0.000000 0.000000 -3.854535 0.318280 -9.011954 6.607016 -3.772127 24.780884 -3.182992 -8.544803 19.783413 0.000000 0.000000 0.000000 -1.718552 -0.369435 9.076665 2.576177 0.519526 -25.870926 -4.070387 -9.141556 29.771586 2.556128 0.051638 -17.266558 0.000000 0.000000 0.000000 -28.381246 0.193244 -4.645875 -44.600393 -0.505626 -6.679493 -22.626785 -41.088587 10.089414 0.000000 0.000000 0.000000 25.279042 -0.585857 0.883695 52.970407 -2.481303 -9.544622 7.987596 39.422609 5.768342 0.000000 0.000000 0.000000
0.001748 0.966023 -0.003927 -4.434218 23.613425 -2.017356 3.503297 -0.109874 7.075909 -7.460294 -0.070455 -7.748313 3.919649 13.653933 15.710866 0.000000 0.000000 0.000000 -3.759116 0.368274 -10.413434 6.631548 -4.498522 28.769346 -3.003054 -8.299356 17.855929 0.000000 0.000000 0.000000 -2.012532 -0.377115 9.502844 3.287718 0.345183 -26.918798 -4.726203 -9.766566 30.954687 3.173564 -0.663858 -16.338074 0.000000 0.000000 0.000000 -29.552759 0.456665 -4.708106 -43.371054 -0.493090 -6.626771 -24.117587 -41.203505 10.816115 0.000000 0.000000 0.000000 24.950607 -0.195049 0.937545 52.039818 -3.268570 -9.783479 8.433352 40.411342 6.035966 0.000000 0.000000 0.000000
0.001886 0.966483 -0.004526 -4.597741 23.063954 -2.218378 3.861701 -0.142914 6.981383 -8.212917 -0.080466 -7.682019 4.938043 15.125893 16.706220 0.000000 0.000000 0.000000 -3.846183 0.386022 -11.418015 6.880925 -5.225232 32.214562 -3.715847 -9.704731 17.085549 0.000000 0.000000 0.000000 -1.635870 -0.472045 10.475758 3.767189 0.229807 -26.619283 -5.279161 -10.082663 30.149385 3.579647 -1.215755 -15.280955 0.000000 0.000000 0.000000 -29.742645 0.177292 -4.252461 -43.004988 -0.503483 -6.577026 -24.772223 -41.767988 11.313401 0.000000 0.000000 0.000000 24.577261 -0.604244 0.332796 51.517136 -4.199674 -9.879750 9.961273 40.573764 6.487410 0.000000 0.000000 0.000000
0.001728 0.967178 -0.005291 -5.086022 21.612160 -2.664787 4.286029 -0.163766 7.167700 -8.301756 -0.053074 -7.910197 6.069281 16.741420 18.363802 0.000000 0.000000 0.000000 -3.376414 0.513340 -12.672220 6.872065 -5.996627 37.127195 -4.580658 -11.557580 16.714975 0.000000 0.000000 0.000000 -1.477745 -0.538534 11.281420 4.253374 0.091461 -27.547387 -5.385168 -10.524906 31.302942 4.325715 -2.038738 -15.233483 0.000000 0.000000 0.000000 -30.479333 -0.078029 -3.539887 -42.370839 -1.213272 -6.515494 -25.602401 -42.144239 11.978505 0.000000 0.000000 0.000000 24.196241 -0.438563 0.003647 50.574594 -5.188650 -10.110855 10.744352 40.526587 6.594679 0.000000 0.000000 0.000000
0.001060 0.967470 -0.006475 -5.427264 20.481347 -2.808247 4.590435 -0.174618 6.986411 -8.595198 -0.017645 -7.772449 7.387815 18.343693 19.167031 0.000000 0.000000 0.000000 -3.118415 0.613406 -14.309300 7.083622 -6.981733 42.166445 -5.017835 -12.606007 16.070309 0.000000 0.000000 0.000000 -1.163341 -0.630230 12.185596 5.142772 -0.131489 -26.981731 -6.097060 -11.360155 30.699570 4.818017 -2.698165 -14.988989 0.000000 0.000000 0.000000 -31.233247 -0.684595 -2.519502 -41.654572 -1.617628 -6.422704 -25.765052 -43.545213 12.681462 0.000000 0.000000 0.000000 23.621521 -0.042624 -0.352518 49.661247 -6.522675 -10.222153 11.314611 40.545289 6.529924 0.000000 0.000000 0.000000
0.000071 0.967475 -0.007782 -5.890188 18.626582 -2.753379 4.666995 -0.143215 6.302229 -8.117257 0.091930 -7.180316 8.950324 20.181970 20.242845 0.000000 0.000000 0.000000 -2.716909 0.778292 -16.537439 7.035542 -7.762477 48.052112 -5.164162 -13.258680 15.961173 0.000000 0.000000 0.000000 -0.567519 -0.753485 13.121641 5.697565 -0.281708 -27.371087 -6.557093 -12.318263 31.252133 5.811705 -3.928737 -14.280170 0.000000 0.000000 0.000000 -32.829993 -1.525274 -1.061864 -40.939403 -3.128562 -6.181716 -24.181132 -45.199530 12.825531 0.000000 0.000000 0.000000 22.858119 0.709522 -0.579187 48.620896 -7.597926 -10.279611 12.057953 39.921726 6.370924 0.000000 0.000000 0.000000
-0.001321 0.967809 -0.008841 -6.189763 17.106509 -2.737965 5.081051 -0.156932 6.230415 -8.452191 0.126643 -7.251750 10.113902 21.479715 21.070894 0.000000 0.000000 0.000000 -2.538385 0.895953 -18.261554 6.894653 -8.374707 53.532886 -4.980097 -13.301573 16.273001 0.000000 0.000000 0.000000 -0.163783 -0.896702 14.406932 6.600308 -0.506967 -27.623329 -7.358491 -12.968189 31.310344 6.662087 -4.882768 -13.961149 0.000000 0.000000 0.000000 -33.855312 -2.170123 0.170486 -40.302290 -4.735264 -5.860314 -23.962858 -46.670319 13.422283 0.000000 0.000000 0.000000 21.941749 0.752036 -1.059740 48.063247 -9.074192 -10.554505 12.675456 39.247440 6.222564 0.000000 0.000000 0.000000
-0.003121 0.967979 -0.009574 -6.417949 15.277336 -2.384968 5.229685 -0.138285 5.758742 -8.664404 0.192658 -7.026849 11.864464 23.362669 21.667148 0.000000 0.000000 0.000000 -2.405450 1.037922 -20.209203 6.676898 -8.560415 58.641972 -4.344466 -12.544937 16.077012 0.000000 0.000000 0.000000 0.212316 -1.000110 15.318877 7.217783 -0.630632 -28.379132 -8.108197 -14.316139 31.915922 7.575692 -6.059626 -13.777150 0.000000 0.000000 0.000000 -34.888223 -2.728651 1.864587 -40.116798 -6.732569 -5.682828 -22.583495 -48.911286 13.862034 0.000000 0.000000 0.000000 20.880717 1.652408 -1.247154 47.563017 -10.269412 -10.740506 14.335734 39.465168 6.498111 0.000000 0.000000 0.000000
-0.005711 0.967720 -0.010523 -6.617760 13.115867 -2.037274 5.740849 -0.153094 4.976511 -9.132007 0.292053 -6.455259 13.479963 25.057583 23.165953 0.000000 0.000000 0.000000 -2.203569 1.205321 -21.262991 6.831803 -8.427602 62.172573 -3.690164 -11.733299 16.267778 0.000000 0.000000 0.000000 0.420158 -1.068371 16.193912 8.338381 -0.900944 -28.391757 -8.991189 -14.857925 32.097666 8.441507 -7.203586 -12.465283 0.000000 0.000000 0.000000 -35.429839 -3.499124 3.481203 -39.672841 -8.836689 -5.350552 -20.386541 -51.233722 13.785003 0.000000 0.000000 0.000000 20.917222 1.460757 -2.005551 46.038036 -11.351115 -10.586059 15.799251 39.132517 6.633803 0.000000 0.000000 0.000000
-0.009432 0.968060 -0.012257 -6.714322 10.118384 -1.648108 5.852042 -0.107026 4.578700 -8.676894 0.397775 -6.119887 14.359228 25.884154 24.413562 0.000000 0.000000 0.000000 -1.385604 1.530158 -21.746412 6.833785 -7.269072 63.669351 -3.282696 -10.975246 14.317691 0.000000 0.000000 0.000000 0.467491 -1.078638 17.009916 9.234220 -1.155308 -28.020585 -9.578461 -15.454277 32.102470 8.651350 -7.704738 -12.268590 0.000000 0.000000 0.000000 -35.650541 -3.870744 5.017684 -39.391559 -11.228188 -4.978635 -18.098493 -53.473583 13.581343 0.000000 0.000000 0.000000 20.543557 2.156537 -2.375991 45.628013 -11.312633 -10.280555 15.067061 38.745091 5.965391 0.000000 0.000000 0.000000
-0.014170 0.968281 -0.015215 -6.928221 7.427755 -0.993630 6.278656 -0.108826 3.633643 -8.753110 0.499928 -5.633373 15.884819 27.329965 25.803553 0.000000 0.000000 0.000000 -0.750100 1.799734 -22.098337 6.966721 -6.042458 63.315780 -3.362565 -11.031953 12.873481 0.000000 0.000000 0.000000 0.213866 -1.059340 18.130941 10.250197 -1.417765 -27.885877 -9.785498 -15.754442 31.943400 8.502773 -7.868166 -11.601958 0.000000 0.000000 0.000000 -35.279757 -4.361212 6.352831 -39.537999 -13.551087 -4.559607 -14.352993 -55.997338 12.609876 0.000000 0.000000 0.000000 19.783665 2.200043 -2.858489 46.328296 -12.071698 -10.616056 16.034522 38.492937 5.978401 0.000000 0.000000 0.000000
-0.019704 0.968530 -0.019455 -6.997856 4.480104 -0.060586 6.171598 -0.088235 2.320394 -8.564134 0.601008 -5.014149 18.458839 29.756944 27.313712 0.000000 0.000000 0.000000 0.274657 2.129651 -22.188923 6.155162 -3.831425 61.105069 -3.322037 -10.598345 10.041934 0.000000 0.000000 0.000000 0.125167 -1.045665 19.437701 10.932973 -1.569554 -27.940398 -10.241213 -16.028283 31.904475 7.976528 -7.776419 -10.550135 0.000000 0.000000 0.000000 -34.699098 -4.107256 7.086347 -39.145731 -16.531171 -3.884195 -10.433767 -57.497892 11.103102 0.000000 0.000000 0.000000 19.078367 2.620638 -3.150037 47.418560 -11.937384 -10.760735 15.785989 37.593212 5.480164 0.000000 0.000000 0.000000
-0.025359 0.968071 -0.024931 -6.755568 1.739524 0.834625 5.896364 -0.079012 1.082026 -8.529079 0.687243 -4.622942 20.834453 31.843769 28.998512 0.000000 0.000000 0.000000 0.752559 2.272456 -21.649878 5.588451 -2.049061 56.979554 -3.401661 -10.789960 9.471515 0.000000 0.000000 0.000000 0.043528 -1.008495 20.788656 10.818119 -1.554488 -27.835403 -10.246887 -15.994642 31.878539 6.828887 -7.082180 -9.910971 0.000000 0.000000 0.000000 -33.784406 -4.706672 8.151840 -38.446565 -19.724212 -3.063461 -6.350314 -58.183546 9.123126 0.000000 0.000000 0.000000 18.675673 2.631073 -3.566969 48.892997 -12.281904 -11.244657 15.005222 36.700268 4.907123 0.000000 0.000000 0.000000
-0.030983 0.967966 -0.031613 -6.451138 -0.832978 2.118297 5.480246 -0.101284 -0.353721 -8.422739 0.753999 -4.379589 22.440198 33.332555 29.437303 0.000000 0.000000 0.000000 1.364770 2.434187 -21.370453 4.556331 -0.373444 52.444497 -2.769820 -9.532032 8.668594 0.000000 0.000000 0.000000 -0.271056 -0.875298 21.598442 11.293761 -1.654823 -27.725835 -10.582019 -15.831797 31.507136 5.679598 -6.267665 -9.706183 0.000000 0.000000 0.000000 -33.300610 -4.841788 8.731425 -37.213300 -21.436873 -2.640366 -3.712488 -59.640925 7.921459 0.000000 0.000000 0.000000 19.566883 3.125856 -3.993211 48.286717 -12.999037 -11.140875 14.592900 35.930228 4.514855 0.000000 0.000000 0.000000
-0.036734 0.967461 -0.039182 -6.231627 -2.679692 3.262079 5.355781 -0.151827 -1.843231 -8.572777 0.826950 -3.970788 23.523141 34.471220 29.152536 0.000000 0.000000 0.000000 1.348410 2.467395 -21.173658 3.942408 0.471049 47.860715 -1.932696 -8.523916 10.543108 0.000000 0.000000 0.000000 -0.513982 -0.762843 22.280163 10.886700 -1.614224 -27.273862 -10.344205 -16.112188 31.284976 4.373190 -5.314710 -10.202653 0.000000 0.000000 0.000000 -32.775717 -5.136773 9.406158 -36.412891 -23.772667 -2.055502 -0.155067 -60.065542 6.014031 0.000000 0.000000 0.000000 19.747227 3.683844 -4.209925 48.855125 -13.708085 -11.448877 13.413024 35.553751 3.970416 0.000000 0.000000 0.000000
-0.043114 0.967631 -0.047104 -5.872557 -4.389152 4.029339 4.945903 -0.210047 -3.333184 -8.084134 0.852826 -3.198941 24.618492 35.326098 30.042843 0.000000 0.000000 0.000000 1.467367 2.444618 -20.475940 3.055776 1.189921 43.352445 -0.948741 -7.042997 11.319293 0.000000 0.000000 0.000000 -0.877382 -0.611084 22.878383 10.867158 -1.651216 -26.899230 -10.460624 -15.748874 31.080906 3.244559 -4.453159 -10.204642 0.000000 0.000000 0.000000 -32.091001 -5.271067 9.588522 -35.812532 -25.400600 -1.577405 1.721686 -60.319032 4.973176 0.000000 0.000000 0.000000 20.071508 3.640896 -4.563915 48.550626 -14.574092 -11.592645 14.129116 34.981120 4.034901 0.000000 0.000000 0.000000
-0.050640 0.967130 -0.054650 -5.539604 -5.092384 4.458286 4.683882 -0.249134 -4.117517 -7.593069 0.830196 -2.884069 24.513698 35.422846 29.233344 0.000000 0.000000 0.000000 1.388522 2.356317 -19.777176 2.647835 1.333182 39.732467 -0.127331 -5.880753 12.222064 0.000000 0.000000 0.000000 -0.833482 -0.586909 23.209052 10.134297 -1.506485 -26.852354 -10.599047 -15.941554 31.215163 2.588871 -4.014446 -10.373884 0.000000 0.000000 0.000000 -31.556837 -5.334702 9.762785 -35.820507 -26.419434 -1.285393 3.143184 -59.757077 4.166964 0.000000 0.000000 0.000000 20.213830 3.385286 -4.965065 48.570781 -15.522670 -11.923021 15.023485 34.541361 4.169178 0.000000 0.000000 0.000000
-0.059295 0.966640 -0.061947 -4.926512 -5.196634 4.291022 4.237685 -0.284718 -4.601502 -7.516067 0.847174 -2.198999 24.777336 35.957510 28.289572 0.000000 0.000000 0.000000 1.406222 2.199292 -18.594382 2.010388 1.449009 36.585810 0.437940 -4.585490 11.548552 0.000000 0.000000 0.000000 -0.920100 -0.557750 23.418127 9.549133 -1.430244 -26.518787 -10.770542 -15.936769 31.321089 2.140809 -3.670517 -9.733062 0.000000 0.000000 0.000000 -31.167879 -5.676542 9.913340 -35.900414 -27.135806 -1.021558 3.815692 -58.024247 3.566804 0.000000 0.000000 0.000000 20.410446 2.956375 -5.281838 48.189925 -16.548696 -12.190047 16.957155 34.632027 4.714338 0.000000 0.000000 0.000000
-0.068696 0.965625 -0.069382 -4.348795 -4.970394 4.047359 4.390225 -0.295781 -4.912403 -7.609593 0.888192 -1.171711 22.781928 34.553583 25.594036 0.000000 0.000000 0.000000 1.614516 2.124777 -17.895819 1.248974 1.635189 34.916796 0.990841 -3.348678 11.186309 0.000000 0.000000 0.000000 -1.085819 -0.523273 23.368254 9.275056 -1.402689 -26.258621 -11.209500 -16.135842 31.398922 1.778320 -3.392193 -9.593347 0.000000 0.000000 0.000000 -31.070922 -5.579426 9.863807 -36.154128 -27.346111 -0.933270 4.169556 -55.671384 3.157355 0.000000 0.000000 0.000000 20.046762 2.875419 -5.251058 48.505900 -17.294641 -12.608299 18.573020 35.385035 5.258606 0.000000 0.000000 0.000000
-0.078310 0.964977 -0.077688 -3.594673 -4.485896 3.820876 4.527024 -0.317131 -5.370612 -7.865399 0.946903 -0.126322 20.657599 32.765602 23.171665 0.000000 0.000000 0.000000 1.624287 2.058473 -17.478196 0.613067 1.763991 33.883938 1.234379 -2.304858 9.998835 0.000000 0.000000 0.000000 -1.084072 -0.540544 23.452545 8.419737 -1.236495 -26.075436 -11.137504 -16.545884 31.405274 1.960274 -3.561995 -10.146356 0.000000 0.000000 0.000000 -30.965099 -5.641821 9.939882 -36.447350 -27.392049 -0.887536 4.032402 -54.003729 3.079049 0.000000 0.000000 0.000000 19.742262 2.730059 -5.287798 48.444111 -17.695755 -12.744419 20.976476 36.071229 6.025702 0.000000 0.000000 0.000000
-0.088036 0.964624 -0.086559 -2.991066 -3.366123 3.252579 4.735631 -0.340511 -5.877239 -8.129411 1.014242 1.354060 18.858314 31.160262 20.915359 0.000000 0.000000 0.000000 1.963019 2.030077 -17.112840 -0.034494 1.862915 33.582449 1.241952 -1.988128 9.588812 0.000000 0.000000 0.000000 -1.086195 -0.590018 23.323741 8.293239 -1.208141 -26.056495 -11.519921 -17.002500 31.697909 1.966072 -3.578841 -9.916306 0.000000 0.000000 0.000000 -31.055314 -5.685455 9.931530 -36.592233 -27.124602 -0.969828 4.335308 -52.326294 2.754031 0.000000 0.000000 0.000000 19.596252 2.872010 -5.103617 48.687193 -17.723607 -12.871188 22.807294 37.691020 6.904360 0.000000 0.000000 0.000000
-0.098033 0.964097 -0.095563 -2.349467 -1.958609 2.666717 5.254078 -0.370979 -6.798122 -8.338786 1.078257 3.021432 16.777189 28.807495 20.088406 0.000000 0.000000 0.000000 1.779260 1.915003 -16.563961 0.077043 1.601457 33.106030 1.022520 -2.100883 9.150811 0.000000 0.000000 0.000000 -0.908691 -0.697321 23.418596 8.136406 -1.166447 -26.037524 -11.556514 -17.242525 31.845617 2.868627 -4.254980 -9.636080 0.000000 0.000000 0.000000 -30.905266 -5.457789 9.545178 -37.250288 -26.688011 -1.013175 4.332664 -51.705001 2.776816 0.000000 0.000000 0.000000 18.974928 2.321557 -5.025557 48.649128 -17.128386 -12.704377 24.845519 39.064048 7.873624 0.000000 0.000000 0.000000
-0.108071 0.962658 -0.104400 -1.749120 -0.536193 2.192906 5.579458 -0.402931 -7.567187 -8.607706 1.145055 4.545738 14.986137 26.873095 18.262350 0.000000 0.000000 0.000000 2.009881 1.836048 -15.884693 -0.303976 1.533840 32.313357 0.646375 -2.263890 8.005358 0.000000 0.000000 0.000000 -0.584466 -0.835791 23.433971 7.768115 -1.066274 -26.076374 -11.337734 -17.345394 32.103920 3.372424 -4.607508 -10.182588 0.000000 0.000000 0.000000 -31.220526 -5.378008 9.310471 -37.084370 -25.581731 -1.370276 4.404066 -51.890289 2.718992 0.000000 0.000000 0.000000 18.602163 2.106862 -4.794704 48.628295 -16.227492 -12.431083 26.469352 41.111571 8.985519 0.000000 0.000000 0.000000
-0.117699 0.961163 -0.113452 -1.179021 0.973658 1.927436 6.068257 -0.447429 -8.792983 -9.079779 1.247064 6.236301 13.305346 24.888823 17.020038 0.000000 0.000000 0.000000 2.148034 1.777628 -15.449780 -0.067387 1.218150 31.534597 0.046760 -2.972103 6.914196 0.000000 0.000000 0.000000 -0.030854 -1.016842 23.176364 7.663388 -1.062843 -25.671418 -11.146636 -16.899302 31.560248 4.614107 -5.431542 -9.363074 0.000000 0.000000 0.000000 -31.719911 -5.310173 8.826800 -37.078687 -23.974807 -1.748489 3.490846 -52.464589 3.129768 0.000000 0.000000 0.000000 18.604209 2.014043 -4.446616 48.261973 -15.335401 -11.969629 27.310916 42.818280 9.914700 0.000000 0.000000 0.000000
-0.126145 0.959464 -0.123134 -0.503946 2.056283 1.663225 6.208397 -0.500500 -9.916275 -9.378304 1.350684 8.261848 11.576093 22.727857 14.935036 0.000000 0.000000 0.000000 2.048996 1.751162 -15.454196 -0.000445 1.049676 31.097164 -0.597898 -3.918160 5.908066 0.000000 0.000000 0.000000 0.374250 -1.160638 23.351181 7.633265 -1.006055 -26.081588 -10.640338 -16.328236 31.693685 5.406502 -5.927323 -10.005965 0.000000 0.000000 0.000000 -32.574976 -5.004608 8.331729 -36.942460 -22.687884 -2.129232 3.067582 -53.601906 3.393587 0.000000 0.000000 0.000000 18.568532 2.335101 -3.908756 47.704703 -13.836118 -11.290770 26.723691 44.763311 10.401201 0.000000 0.000000 0.000000
-0.133358 0.959296 -0.133241 -0.028618 2.872526 1.522055 6.730016 -0.537560 -11.414497 -9.773387 1.495780 10.555642 11.114798 22.148402 14.830587 0.000000 0.000000 0.000000 1.806974 1.778578 -16.074929 0.558170 0.729570 31.046957 -0.865562 -4.295124 5.457003 0.000000 0.000000 0.000000 1.051324 -1.361175 23.588597 8.184800 -1.175453 -25.518006 -10.141386 -15.286057 30.492460 6.369619 -6.455072 -9.685679 0.000000 0.000000 0.000000 -33.360862 -4.604802 7.454044 -36.794257 -20.948032 -2.444519 1.594592 -54.248267 4.039227 0.000000 0.000000 0.000000 19.025416 3.460449 -2.960600 46.810707 -12.450690 -10.471375 24.629027 46.984190 10.404159 0.000000 0.000000 0.000000
-0.139819 0.960081 -0.143259 0.837375 3.251677 1.652311 6.333817 -0.632349 -12.683576 -9.929056 1.592269 12.337954 11.866778 23.216867 14.857538 0.000000 0.000000 0.000000 0.994197 1.715977 -16.524868 1.121260 0.457654 30.598623 -0.886612 -4.317796 5.455090 0.000000 0.000000 0.000000 1.184266 -1.423167 23.930547 8.371873 -1.169284 -25.910366 -9.390384 -14.076884 30.357776 6.963170 -6.763389 -9.798097 0.000000 0.000000 0.000000 -33.645517 -4.414568 6.708048 -36.999231 -19.649600 -2.644682 -0.795435 -53.929330 5.040875 0.000000 0.000000 0.000000 19.807811 4.112157 -2.339821 45.415593 -10.472099 -9.428804 22.169137 48.375221 9.962965 0.000000 0.000000 0.000000
-0.146223 0.962564 -0.152528 1.305774 3.571671 1.597177 6.495312 -0.673983 -13.801227 -10.305765 1.742712 14.163566 13.127022 24.932574 15.356384 0.000000 0.000000 0.000000 0.547914 1.663735 -16.641160 2.102367 0.033375 29.762074 -0.648241 -4.026221 6.208339 0.000000 0.000000 0.000000 1.773400 -1.571562 23.989294 8.487900 -1.252554 -25.247678 -8.694094 -13.467070 29.216498 7.235234 -6.965171 -8.510810 0.000000 0.000000 0.000000 -34.393607 -3.628178 5.732992 -36.508307 -17.486587 -3.076336 -3.310466 -53.164491 5.981500 0.000000 0.000000 0.000000 20.461121 5.114175 -1.655704 44.321378 -8.560884 -8.453014 18.826193 49.954209 8.977524 0.000000 0.000000 0.000000
-0.152804 0.965277 -0.160997 1.766684 2.796016 1.828706 6.584052 -0.687283 -14.738662 -10.509126 1.924395 15.881834 14.985652 27.319746 16.001280 0.000000 0.000000 0.000000 -0.072877 1.633714 -17.014718 2.643976 -0.086600 28.841662 -0.361559 -3.735997 6.989117 0.000000 0.000000 0.000000 1.845764 -1.573734 24.405686 8.425407 -1.147066 -26.291441 -7.885868 -12.403850 29.318837 7.700818 -7.324710 -8.286729 0.000000 0.000000 0.000000 -34.542227 -2.636671 4.710678 -36.169708 -14.874987 -3.699764 -6.701040 -52.195587 7.358408 0.000000 0.000000 0.000000 21.092691 5.467438 -1.359770 42.785085 -6.851117 -7.594548 17.515235 52.205685 8.934175 0.000000 0.000000 0.000000
-0.159450 0.968437 -0.168944 1.926256 2.325944 2.112539 6.949380 -0.658870 -15.272345 -11.128183 2.216440 17.732065 15.955246 28.657734 15.422560 0.000000 0.000000 0.000000 -0.091233 1.681089 -17.446495 2.975131 -0.159896 27.592713 -0.187423 -3.813016 8.148431 0.000000 0.000000 0.000000 1.946732 -1.537931 23.944581 8.421622 -1.152679 -26.194225 -7.018637 -12.021414 29.002817 7.333748 -7.052600 -7.782458 0.000000 0.000000 0.000000 -34.839587 -1.451503 3.746119 -35.788998 -12.082295 -4.369043 -8.392107 -51.562254 7.981914 0.000000 0.000000 0.000000 21.768287 6.400579 -0.903488 41.850958 -5.534763 -6.945595 15.837044 54.235537 8.525845 0.000000 0.000000 0.000000
-0.165760 0.971396 -0.176504 2.054227 1.571136 1.955345 7.233167 -0.601331 -15.287969 -11.471744 2.500675 19.789009 16.037393 28.773610 15.164205 0.000000 0.000000 0.000000 -0.162625 1.719028 -17.770485 3.122484 -0.138428 27.162176 -0.036219 -3.905032 9.088199 0.000000 0.000000 0.000000 1.841855 -1.485510 24.161532 8.866260 -1.164717 -27.195963 -6.674190 -10.950789 30.005144 7.535455 -7.155024 -8.492110 0.000000 0.000000 0.000000 -34.828185 -0.742649 2.988108 -35.663201 -9.626330 -4.998211 -10.813796 -51.707886 9.124625 0.000000 0.000000 0.000000 22.348892 6.821998 -0.496625 41.255119 -3.613786 -6.388913 16.565671 56.352200 9.491788 0.000000 0.000000 0.000000
-0.171556 0.974219 -0.183505 2.165560 1.090655 1.759556 7.250219 -0.576320 -15.148686 -11.964587 2.863232 22.237401 15.606814 28.231155 14.771695 0.000000 0.000000 0.000000 -0.009446 1.740061 -17.666519 3.062279 -0.073659 26.491617 0.225876 -3.661964 9.757324 0.000000 0.000000 0.000000 1.513699 -1.353126 23.709059 9.461853 -1.398316 -26.281227 -5.939335 -10.322597 29.182171 6.829500 -6.407474 -8.944158 0.000000 0.000000 0.000000 -35.049104 0.009991 2.221138 -35.910017 -7.672995 -5.425125 -11.988159 -51.745927 9.698824 0.000000 0.000000 0.000000 22.757780 7.070605 -0.308509 40.682895 -2.411068 -5.873439 15.034183 56.997929 8.864590 0.000000 0.000000 0.000000
-0.176877 0.977359 -0.189902 2.193573 1.164399 1.372548 7.061541 -0.574481 -14.528635 -11.952353 3.021401 24.569078 15.559082 28.172450 14.675798 0.000000 0.000000 0.000000 0.023664 1.721483 -17.450180 3.140016 -0.111382 25.801120 0.316757 -3.820464 10.738430 0.000000 0.000000 0.000000 1.513424 -1.332277 23.374074 9.610143 -1.387924 -26.727003 -5.734570 -9.964998 30.163286 6.849690 -6.351808 -9.868076 0.000000 0.000000 0.000000 -35.295533 0.176079 1.997355 -36.029405 -6.372833 -5.822696 -13.626341 -52.232599 10.617049 0.000000 0.000000 0.000000 23.147641 6.924885 -0.276236 40.417193 -1.669284 -5.731513 14.199517 57.827906 8.694524 0.000000 0.000000 0.000000
-0.181851 0.980173 -0.195925 2.000419 1.866988 0.837292 6.648560 -0.580011 -13.145995 -11.224519 2.779038 25.856689 14.549714 26.969879 13.285210 0.000000 0.000000 0.000000 0.423617 1.687094 -16.718791 2.876097 -0.086942 24.998538 0.307186 -3.800897 10.877809 0.000000 0.000000 0.000000 1.175010 -1.251427 22.717701 10.520705 -1.616373 -26.534773 -5.495595 -9.418331 30.416738 6.837036 -6.227620 -10.039323 0.000000 0.000000 0.000000 -35.638848 0.546243 1.273384 -36.189229 -5.665742 -5.934069 -14.193183 -51.859967 10.728132 0.000000 0.000000 0.000000 22.818123 7.094430 0.219508 41.269187 -1.182326 -5.869368 12.007503 57.282131 7.681137 0.000000 0.000000 0.000000
-0.186384 0.982576 -0.202088 1.650521 2.434068 0.590134 6.468610 -0.536480 -11.365862 -10.632010 2.490825 25.543733 13.921741 26.081625 13.456079 0.000000 0.000000 0.000000 0.608982 1.670612 -16.409959 3.042963 -0.193418 24.097940 -0.107469 -4.656735 11.233409 0.000000 0.000000 0.000000 1.152076 -1.222861 21.886775 10.896460 -1.766809 -25.962347 -5.264025 -9.166567 30.271066 6.804576 -6.145303 -9.809208 0.000000 0.000000 0.000000 -35.673709 0.946881 0.681468 -36.756641 -5.295228 -6.022400 -15.879552 -51.873728 11.587533 0.000000 0.000000 0.000000 23.056214 6.704659 0.164061 41.516438 -1.122310 -5.926930 10.525259 55.822419 6.817754 0.000000 0.000000 0.000000
-0.190516 0.984312 -0.208843 1.335908 3.242724 0.222777 6.049259 -0.484945 -9.183592 -10.242679 2.193873 23.889676 13.611469 25.697382 12.834371 0.000000 0.000000 0.000000 0.812362 1.644885 -16.028322 2.692005 -0.143152 23.556236 -0.323881 -5.043721 11.474387 0.000000 0.000000 0.000000 1.403190 -1.260138 21.147299 11.045099 -1.833005 -25.717339 -5.040564 -8.715635 30.386123 6.986177 -6.295781 -9.178058 0.000000 0.000000 0.000000 -36.095221 0.830826 0.292311 -37.049808 -5.047556 -6.017935 -17.724938 -52.114056 12.487176 0.000000 0.000000 0.000000 23.306526 6.685219 0.477574 41.818310 -1.457733 -6.198496 8.210943 54.934821 5.742324 0.000000 0.000000 0.000000
-0.194253 0.985692 -0.216877 0.971579 4.434547 0.132098 5.634794 -0.435048 -7.252792 -9.381186 1.741733 21.907281 12.889016 24.704758 12.514233 0.000000 0.000000 0.000000 0.980072 1.658376 -16.155379 2.911773 -0.307512 23.199967 -0.805152 -5.941033 11.935556 0.000000 0.000000 0.000000 1.755421 -1.331223 20.497362 11.063590 -1.833556 -25.633738 -5.073566 -8.782180 30.443287 7.012387 -6.305546 -8.755535 0.000000 0.000000 0.000000 -36.090675 1.124452 -0.248340 -37.898611 -5.046615 -6.047660 -19.462144 -52.680636 13.572817 0.000000 0.000000 0.000000 23.120505 6.205890 0.446060 42.542764 -1.431630 -6.381241 7.046201 53.329166 5.127936 0.000000 0.000000 0.000000
-0.198017 0.986346 -0.226359 0.694826 5.704070 0.065339 5.089518 -0.378457 -5.456940 -8.252500 1.268854 19.413273 12.578344 24.287149 11.753927 0.000000 0.000000 0.000000 1.063299 1.624860 -15.925404 2.828052 -0.375247 22.812470 -1.081411 -6.280947 11.867763 0.000000 0.000000 0.000000 1.904681 -1.374345 20.047967 11.094105 -1.810512 -25.811365 -5.247693 -8.932240 30.641592 7.139292 -6.293036 -9.270276 0.000000 0.000000 0.000000 -35.910915 1.554310 -0.896621 -38.506515 -5.175816 -5.994866 -21.094989 -53.059887 14.523564 0.000000 0.000000 0.000000 22.607631 5.860435 0.523377 43.300508 -1.095635 -6.492400 6.000618 52.602452 4.701929 0.000000 0.000000 0.000000
-0.202434 0.986854 -0.237266 0.535352 7.110445 0.059862 4.628297 -0.343379 -4.388233 -7.363006 0.933865 17.409268 11.882068 23.296976 10.878698 0.000000 0.000000 0.000000 0.905160 1.577180 -15.899543 3.089851 -0.560719 22.433562 -1.748564 -7.387501 11.940826 0.000000 0.000000 0.000000 1.762200 -1.370791 19.718230 11.461022 -1.876926 -25.839231 -5.636763 -8.953907 30.423096 7.177822 -6.118727 -9.846319 0.000000 0.000000 0.000000 -36.003348 2.061174 -1.724562 -38.578218 -4.759911 -5.969257 -22.482944 -53.877099 15.430917 0.000000 0.000000 0.000000 22.468198 5.619721 0.662502 43.959911 -0.887972 -6.577715 5.539651 51.876289 4.576828 0.000000 0.000000 0.000000
-0.207823 0.987658 -0.249355 0.303736 8.333084 -0.082948 4.385607 -0.309280 -3.565037 -6.590846 0.691913 15.650542 11.456902 22.648005 9.774636 0.000000 0.000000 0.000000 0.902524 1.545175 -15.788884 2.856763 -0.564002 21.953935 -2.032669 -7.642878 11.282219 0.000000 0.000000 0.000000 1.474031 -1.346450 19.544234 11.636503 -1.891611 -26.011144 -5.842571 -8.870743 30.453674 7.856466 -6.583943 -9.816550 0.000000 0.000000 0.000000 -35.698638 2.332931 -2.345847 -38.802523 -4.330269 -5.972030 -23.257325 -54.356924 15.887657 0.000000 0.000000 0.000000 22.361400 5.205664 0.706927 44.544646 -0.535193 -6.626910 5.793018 51.263237 4.807709 0.000000 0.000000 0.000000
-0.213972 0.989729 -0.262504 -0.003793 9.038598 -0.151444 4.528660 -0.296471 -3.201191 -6.261756 0.602440 13.954385 11.413076 22.547950 9.087111 0.000000 0.000000 0.000000 0.961555 1.505973 -15.368823 2.914872 -0.620252 21.447678 -2.458406 -8.321065 10.944879 0.000000 0.000000 0.000000 1.202390 -1.302171 19.288481 11.763758 -1.941760 -25.843797 -6.007830 -8.678299 30.400560 8.201234 -6.767690 -9.913514 0.000000 0.000000 0.000000 -35.637861 2.379862 -2.694977 -38.778114 -3.838401 -6.003815 -22.950468 -54.364989 15.617427 0.000000 0.000000 0.000000 22.315339 5.176095 0.900313 44.810844 0.210187 -6.466469 5.433706 51.447423 4.795360 0.000000 0.000000 0.000000
-0.220556 0.992677 -0.276749 -0.146138 9.585253 0.005513 4.578100 -0.304912 -3.237129 -5.994187 0.544286 12.240007 11.242636 22.259986 8.402922 0.000000 0.000000 0.000000 1.221947 1.503847 -15.058544 2.572304 -0.528160 20.805839 -2.741887 -8.675480 10.083187 0.000000 0.000000 0.000000 0.929926 -1.260146 19.125978 11.875366 -1.985885 -25.656736 -6.039256 -8.423213 29.779155 8.465187 -6.856877 -9.927234 0.000000 0.000000 0.000000 -35.212079 2.465129 -3.044444 -38.772460 -3.060207 -6.071106 -23.146574 -54.431071 15.626022 0.000000 0.000000 0.000000 21.889121 4.897518 0.931992 45.143414 0.542872 -6.389009 5.908196 52.010203 5.186941 0.000000 0.000000 0.000000
-0.227322 0.996811 -0.292248 -0.221578 10.150031 0.381774 4.487253 -0.325425 -3.497558 -5.656069 0.481010 10.591239 11.175200 22.171563 8.688473 0.000000 0.000000 0.000000 1.269154 1.488693 -14.924164 2.150259 -0.418046 20.345217 -2.877839 -8.819374 9.665259 0.000000 0.000000 0.000000 0.651239 -1.224405 19.044635 11.991629 -2.001626 -25.671197 -6.150783 -8.356359 29.484320 8.589746 -6.843417 -10.179647 0.000000 0.000000 0.000000 -35.135651 2.790775 -3.507918 -38.530756 -1.730694 -6.312499 -23.378988 -54.791470 15.769877 0.000000 0.000000 0.000000 21.834198 4.777007 0.989883 44.856519 1.280137 -6.104472 5.940057 52.939432 5.387575 0.000000 0.000000 0.000000
-0.234259 1.000430 -0.309147 -0.144842 10.572090 0.855950 4.340659 -0.361423 -4.060406 -5.281796 0.423317 9.132610 10.868801 21.709838 8.383684 0.000000 0.000000 0.000000 1.286829 1.492487 -15.035992 1.731014 -0.304837 20.085301 -3.171324 -9.281986 9.030436 0.000000 0.000000 0.000000 0.235692 -1.170901 19.099704 11.925761 -1.966334 -25.770820 -5.901165 -7.939919 28.937130 8.534508 -6.518709 -10.971107 0.000000 0.000000 0.000000 -34.523213 3.307189 -4.174384 -38.399852 -0.397943 -6.510309 -24.955750 -55.066596 16.586134 0.000000 0.000000 0.000000 21.181354 4.628107 1.129450 44.794905 1.732130 -5.948000 6.148805 53.786723 5.714893 0.000000 0.000000 0.000000
-0.241535 1.003129 -0.327429 0.015501 11.189562 1.365630 4.123521 -0.421112 -4.982276 -5.061113 0.390010 7.814332 10.999226 21.942112 8.704736 0.000000 0.000000 0.000000 0.925345 1.453639 -15.265504 1.395476 -0.235686 20.053493 -3.371261 -9.569210 8.534790 0.000000 0.000000 0.000000 -0.074736 -1.159494 19.388107 12.039426 -1.932444 -26.202148 -5.716306 -7.335469 28.786284 8.441219 -6.233182 -11.393192 0.000000 0.000000 0.000000 -34.497632 3.715812 -4.948737 -37.684735 0.746990 -6.554575 -26.584102 -55.742663 17.512076 0.000000 0.000000 0.000000 21.098293 4.535111 1.379449 44.315123 2.567233 -5.684685 5.488993 54.834569 5.718314 0.000000 0.000000 0.000000
-0.249168 1.005279 -0.346733 -0.016331 11.502859 1.680871 4.340431 -0.527191 -6.694219 -5.015433 0.381190 7.359770 10.690631 21.552357 8.862138 0.000000 0.000000 0.000000 0.804955 1.465771 -15.712039 1.088840 -0.176009 20.735861 -3.616760 -10.024070 8.346358 0.000000 0.000000 0.000000 -0.399080 -1.151115 19.851406 11.864282 -1.906173 -25.984325 -5.113451 -6.391255 28.281700 8.650775 -6.280382 -11.059990 0.000000 0.000000 0.000000 -34.295570 4.112498 -5.770239 -36.756142 2.082160 -6.556977 -28.309547 -56.490667 18.487385 0.000000 0.000000 0.000000 20.723675 4.960071 1.955274 43.704595 3.251130 -5.437186 4.066776 56.260327 5.360217 0.000000 0.000000 0.000000
-0.257212 1.006786 -0.366476 0.177995 11.382481 2.064266 4.553970 -0.653357 -8.737306 -5.404382 0.433310 7.783557 11.013098 22.097169 8.935875 0.000000 0.000000 0.000000 0.481743 1.464195 -16.268860 1.231036 -0.265276 22.553525 -3.649926 -10.059280 7.741030 0.000000 0.000000 0.000000 -0.911212 -1.081229 20.255545 11.514279 -1.768854 -26.418632 -4.338406 -5.107380 28.611819 8.810083 -6.371235 -10.530553 0.000000 0.000000 0.000000 -34.326916 4.298924 -6.468707 -35.923456 3.072466 -6.531712 -30.013852 -57.088607 19.440435 0.000000 0.000000 0.000000 20.396973 5.215237 2.472282 42.644906 4.355699 -5.112242 2.899327 57.520334 5.124133 0.000000 0.000000 0.000000
-0.265546 1.008406 -0.385785 0.036234 11.315064 2.311968 5.097248 -0.778291 -10.956929 -6.053513 0.523911 8.380508 10.998763 22.166156 9.190949 0.000000 0.000000 0.000000 0.603391 1.508678 -16.633934 1.525457 -0.421218 24.279093 -3.647893 -10.035972 7.370823 0.000000 0.000000 0.000000 -1.261915 -1.034593 20.525298 11.869570 -1.902136 -25.969438 -3.998521 -3.401369 28.107762 8.906590 -6.264667 -10.206118 0.000000 0.000000 0.000000 -34.221372 4.684885 -7.546743 -34.746701 4.254365 -6.348902 -31.000386 -56.930933 19.561208 0.000000 0.000000 0.000000 20.225699 5.695803 3.192084 41.459864 5.667280 -4.667941 0.388336 58.615487 4.144339 0.000000 0.000000 0.000000
-0.274124 1.010028 -0.404226 0.216934 11.278521 2.310473 5.203765 -0.893874 -12.772675 -6.445810 0.581949 9.050205 11.029787 22.299186 9.666152 0.000000 0.000000 0.000000 0.672253 1.476249 -16.048447 1.417056 -0.429403 25.562314 -3.197698 -9.029225 6.739094 0.000000 0.000000 0.000000 -1.683190 -0.958559 20.635329 11.309474 -1.788009 -25.767988 -3.278697 -2.555234 28.253744 9.114844 -6.654013 -8.763525 0.000000 0.000000 0.000000 -34.053723 5.295755 -8.338291 -34.427047 5.124867 -6.410794 -30.962927 -56.198169 19.086961 0.000000 0.000000 0.000000 19.499364 5.810995 3.460811 40.835889 7.114898 -4.255467 -1.262071 59.957360 3.548970 0.000000 0.000000 0.000000
-0.282752 1.012671 -0.422047 0.161287 11.121000 1.945093 5.801719 -0.957205 -14.420383 -7.066404 0.683960 9.425448 10.591332 21.748206 10.308171 0.000000 0.000000 0.000000 1.249433 1.501761 -15.351815 1.507300 -0.484734 26.456431 -3.038461 -8.619134 6.039405 0.000000 0.000000 0.000000 -2.035900 -0.879701 20.551416 11.338478 -1.871104 -25.114207 -2.855602 -1.798494 28.211577 8.417021 -6.256505 -7.573000 0.000000 0.000000 0.000000 -34.337388 6.105898 -9.303533 -33.862091 6.683344 -6.589214 -31.317528 -54.860262 18.622847 0.000000 0.000000 0.000000 19.271901 5.842232 3.628408 39.755342 8.606871 -3.791783 -1.278016 61.597820 3.779194 0.000000 0.000000 0.000000
-0.291632 1.016279 -0.440431 0.179277 10.932819 1.566995 5.848294 -1.032480 -15.698866 -6.867207 0.659982 9.026370 10.240978 21.363335 11.616580 0.000000 0.000000 0.000000 1.887615 1.450969 -13.818215 1.074816 -0.273716 25.451809 -2.714659 -7.813615 5.292344 0.000000 0.000000 0.000000 -2.422354 -0.795478 20.465288 11.096202 -1.858574 -24.760754 -2.251103 -1.224226 28.450581 8.449089 -6.361166 -7.063650 0.000000 0.000000 0.000000 -34.094215 6.811427 -9.951370 -33.932988 8.141335 -6.928361 -31.108431 -53.693981 17.984219 0.000000 0.000000 0.000000 18.856366 5.976925 3.799002 39.555752 9.883226 -3.457798 -1.108999 63.230434 4.174038 0.000000 0.000000 0.000000
-0.300761 1.020824 -0.460277 -0.029073 10.288187 0.928377 6.502591 -1.040930 -17.153703 -6.725525 0.660224 8.939826 9.250767 20.127655 13.695509 0.000000 0.000000 0.000000 2.651301 1.422987 -12.581491 0.721587 -0.058847 24.256192 -2.742435 -7.837633 4.778107 0.000000 0.000000 0.000000 -2.135888 -0.864625 21.006814 10.353596 -1.692222 -24.720706 -1.429513 -0.425242 28.800871 8.114930 -6.112997 -6.702022 0.000000 0.000000 0.000000 -34.065222 7.441757 -10.558441 -34.446557 10.056826 -7.511378 -31.807963 -53.248097 18.153251 0.000000 0.000000 0.000000 19.169299 5.352767 3.578183 38.591017 11.058193 -3.163422 -0.074244 65.467697 5.127430 0.000000 0.000000 0.000000
-0.310178 1.027089 -0.482138 -0.114185 10.020896 0.892748 6.871841 -1.106904 -18.951668 -6.198865 0.588387 8.688173 8.288097 18.995846 15.575598 0.000000 0.000000 0.000000 3.298200 1.357619 -11.370267 -0.017460 0.258810 21.209674 -2.823849 -8.024684 4.724163 0.000000 0.000000 0.000000 -1.977419 -0.893792 21.160291 9.971619 -1.587571 -24.789399 -0.791786 0.959770 28.658254 8.472643 -6.210763 -6.965082 0.000000 0.000000 0.000000 -33.914063 7.350123 -11.014601 -34.337054 11.649709 -7.744086 -32.586537 -51.765087 17.785285 0.000000 0.000000 0.000000 19.884334 4.447662 3.422648 37.678510 11.407887 -3.117220 1.644425 67.525910 6.720140 0.000000 0.000000 0.000000
-0.319108 1.034549 -0.505162 0.254593 9.841936 1.455602 6.662690 -1.282355 -21.109577 -6.212314 0.597011 8.921576 8.476436 19.554279 18.694350 0.000000 0.000000 0.000000 3.032359 1.399961 -12.017305 0.628627 0.084804 19.746844 -3.063976 -8.807239 6.382488 0.000000 0.000000 0.000000 -2.448420 -0.792205 21.211687 10.433732 -1.811419 -23.700741 -0.841901 1.883382 27.676142 8.111644 -5.636488 -7.391547 0.000000 0.000000 0.000000 -33.305212 7.913621 -11.612489 -35.965280 12.728837 -8.306070 -32.493695 -51.962212 17.702646 0.000000 0.000000 0.000000 20.316948 3.964122 3.341339 37.607145 12.448113 -2.788343 2.225378 67.751952 7.298763 0.000000 0.000000 0.000000
-0.327027 1.040067 -0.528078 0.519729 9.844947 2.458613 6.712559 -1.382921 -22.438275 -5.963234 0.556565 9.321750 8.292575 19.518584 20.937626 0.000000 0.000000 0.000000 3.073203 1.515380 -13.136344 0.499226 0.138218 18.383842 -3.122294 -9.107559 7.784238 0.000000 0.000000 0.000000 -2.156570 -0.824200 20.852485 10.032214 -1.522064 -25.532157 -0.770708 0.717202 29.477744 6.489738 -4.478508 -7.078482 0.000000 0.000000 0.000000 -33.705730 10.302412 -12.968874 -35.793381 13.688003 -8.700149 -36.073193 -50.725693 19.218103 0.000000 0.000000 0.000000 19.596945 5.529056 3.967701 37.672632 13.088943 -2.663902 0.396237 67.538829 5.867722 0.000000 0.000000 0.000000
-0.333641 1.045008 -0.549307 1.210676 10.834874 3.562838 5.965675 -1.645529 -23.525486 -6.855220 0.667787 13.410058 8.707067 19.857938 17.191861 0.000000 0.000000 0.000000 2.307402 1.569117 -14.693962 0.819483 0.010533 17.519348 -3.378002 -9.725832 9.439142 0.000000 0.000000 0.000000 -2.497598 -0.722917 19.915352 10.166425 -1.553630 -25.117551 -0.174764 1.117765 28.490369 5.055547 -2.783244 -8.809384 0.000000 0.000000 0.000000 -34.392934 8.250762 -12.196069 -35.446800 14.167748 -8.554468 -36.351205 -50.910788 19.279110 0.000000 0.000000 0.000000 19.998309 4.267324 3.512373 37.491447 11.411733 -3.121534 2.583055 69.034637 7.733287 0.000000 0.000000 0.000000
-0.339444 1.048343 -0.569197 1.772266 12.418383 3.008429 5.131183 -1.832029 -23.252581 -8.389874 0.848100 21.504088 10.007249 21.550745 15.219920 0.000000 0.000000 0.000000 1.957514 1.596802 -15.820305 1.257733 -0.212270 18.354495 -3.762040 -10.488147 11.542881 0.000000 0.000000 0.000000 -1.903897 -0.969931 20.994237 10.004062 -1.363918 -26.685792 -0.992777 -0.023211 29.387043 6.164131 -3.946327 -8.007836 0.000000 0.000000 0.000000 -34.871983 9.377853 -13.078599 -34.853801 13.818066 -8.352436 -41.943977 -51.109201 22.324097 0.000000 0.000000 0.000000 20.019731 4.367952 3.580909 38.185367 10.969607 -3.356735 6.237795 68.285169 10.166499 0.000000 0.000000 0.000000
-0.344888 1.049858 -0.587994 2.099106 13.325230 3.016862 4.072492 -1.794227 -21.050445 -10.341296 1.213458 28.565612 11.824688 23.833041 11.896212 0.000000 0.000000 0.000000 1.226089 1.520887 -16.345216 1.806395 -0.399411 17.674754 -4.284491 -11.399185 11.947411 0.000000 0.000000 0.000000 -1.467977 -1.062880 20.683547 9.246129 -1.188394 -26.531003 -0.459391 -0.009415 29.739040 6.508275 -4.055746 -8.656536 0.000000 0.000000 0.000000 -35.455140 7.988649 -12.528349 -34.736881 13.004938 -8.070246 -42.328540 -52.160186 23.002680 0.000000 0.000000 0.000000 20.687628 4.165667 3.717443 38.650790 9.725237 -3.845520 2.670331 66.999279 7.732309 0.000000 0.000000 0.000000
-0.350514 1.049574 -0.606305 2.239763 14.567452 3.497685 3.399750 -1.652026 -18.605335 -11.851753 1.466624 32.987664 12.618599 24.863514 12.086465 0.000000 0.000000 0.000000 0.921068 1.559377 -18.161266 2.192391 -0.599308 18.233287 -4.633574 -11.953431 13.813650 0.000000 0.000000 0.000000 -1.167717 -1.114028 20.085077 9.515791 -1.194273 -26.950019 -1.085768 -0.898953 29.849555 5.824479 -3.491637 -8.766582 0.000000 0.000000 0.000000 -35.865573 8.454601 -12.979619 -33.937100 12.198021 -7.660318 -45.126017 -53.223717 25.094277 0.000000 0.000000 0.000000 20.950223 3.913543 3.582756 39.591230 7.988388 -4.397302 4.540844 65.549874 8.684527 0.000000 0.000000 0.000000
-0.356522 1.047940 -0.624126 1.930446 16.254278 3.565216 2.877347 -1.256878 -14.202056 -12.072393 1.208230 34.581816 11.860513 23.611842 10.451183 0.000000 0.000000 0.000000 1.109175 1.593472 -19.236562 2.092571 -0.656682 18.165786 -4.599009 -11.649853 14.475180 0.000000 0.000000 0.000000 -0.737026 -1.157871 19.049492 9.744712 -1.229821 -26.905444 -1.828812 -1.470075 29.824026 5.969201 -3.772735 -7.787500 0.000000 0.000000 0.000000 -36.095652 7.793430 -12.840307 -33.671331 10.468525 -7.097865 -46.026152 -54.604050 26.272832 0.000000 0.000000 0.000000 21.924244 3.190544 3.397458 40.072500 5.971294 -5.067972 5.156899 63.378817 8.715499 0.000000 0.000000 0.000000
-0.362907 1.045232 -0.641951 1.334645 17.828327 3.552890 3.207695 -0.776707 -9.146514 -11.778172 0.895017 33.220049 10.207331 21.198482 11.724607 0.000000 0.000000 0.000000 1.082033 1.608589 -20.987067 2.952403 -1.012348 18.285518 -5.490144 -13.015309 15.526324 0.000000 0.000000 0.000000 -0.342145 -1.188617 18.118533 10.408373 -1.380044 -26.810587 -2.624229 -2.811800 29.760200 5.500600 -3.494264 -7.520661 0.000000 0.000000 0.000000 -36.029766 8.066748 -12.860334 -33.773660 8.998249 -6.796093 -48.552391 -57.060767 29.235009 0.000000 0.000000 0.000000 21.935922 2.727139 3.016658 41.112280 4.386560 -5.572182 7.044530 61.323929 9.387559 0.000000 0.000000 0.000000
-0.369523 1.040438 -0.660755 0.651119 19.448434 3.430035 2.082993 -0.321581 -3.296366 -9.244097 -0.011316 30.406457 7.457313 17.081613 10.984929 0.000000 0.000000 0.000000 0.870455 1.531400 -22.216087 3.551239 -1.293499 18.254967 -5.979518 -13.604510 16.143703 0.000000 0.000000 0.000000 0.358292 -1.255362 17.156519 9.636682 -1.153678 -27.074240 -3.015648 -4.157011 30.073556 5.890179 -3.773995 -8.110149 0.000000 0.000000 0.000000 -35.133728 6.274687 -11.132334 -34.792866 7.768200 -6.795658 -49.574225 -60.204780 31.832503 0.000000 0.000000 0.000000 22.989437 1.407932 2.235054 41.609187 1.780410 -6.425942 8.261306 61.186682 10.025635 0.000000 0.000000 0.000000
-0.376255 1.036525 -0.681812 -0.001759 22.107279 2.920042 1.790012 0.001525 2.257235 -6.639777 -0.537781 24.525994 4.570952 12.584670 9.858374 0.000000 0.000000 0.000000 0.492500 1.324200 -23.198410 4.326704 -1.699250 18.138635 -6.987502 -14.797487 18.020700 0.000000 0.000000 0.000000 0.979476 -1.380996 16.743340 9.542076 -1.113344 -26.898490 -4.395486 -6.236975 29.819862 6.543741 -4.482726 -7.783660 0.000000 0.000000 0.000000 -34.701012 5.980329 -10.623740 -35.357559 5.282121 -6.312197 -46.196205 -60.772380 30.016275 0.000000 0.000000 0.000000 23.263968 0.299432 1.430790 42.840200 0.248550 -6.967714 9.292706 59.768629 10.296037 0.000000 0.000000 0.000000
-0.383245 1.031263 -0.706034 -0.816764 23.810056 3.214490 1.385510 0.138529 5.667042 -4.176295 -0.486876 16.491276 4.205031 10.844907 6.670740 0.000000 0.000000 0.000000 0.174979 1.111694 -25.942293 4.990763 -2.068196 18.661275 -6.730854 -13.963846 19.962994 0.000000 0.000000 0.000000 1.518593 -1.466229 16.318616 8.735908 -0.868609 -27.261234 -4.733920 -7.520862 30.089962 6.147165 -4.059143 -8.358322 0.000000 0.000000 0.000000 -33.619979 3.825586 -8.723465 -36.871746 3.325586 -6.153563 -38.585270 -62.144053 25.848618 0.000000 0.000000 0.000000 23.605594 -1.873484 0.072640 42.829770 -1.697836 -7.576079 10.676650 59.508512 11.065219 0.000000 0.000000 0.000000
-0.390337 1.024015 -0.733003 -1.362143 24.701376 2.885599 1.435277 0.156362 8.043540 -3.068931 -0.185280 9.560825 4.619834 10.442827 4.386101 0.000000 0.000000 0.000000 -0.353085 0.831695 -28.153820 5.727891 -2.507734 19.815116 -7.732380 -15.372279 20.878177 0.000000 0.000000 0.000000 1.127491 -1.473761 16.694566 9.050499 -0.910149 -27.827737 -5.671886 -8.233110 30.525465 6.293433 -4.019259 -9.439929 0.000000 0.000000 0.000000 -33.116091 3.262806 -8.095900 -37.229681 1.145680 -5.691810 -35.538610 -61.155528 23.482634 0.000000 0.000000 0.000000 24.186311 -2.497487 -0.368599 42.114235 -2.619854 -7.756172 10.820052 59.253499 10.960425 0.000000 0.000000 0.000000
-0.397451 1.017299 -0.761519 -1.337633 24.510527 2.405622 0.858445 0.245989 8.621629 -3.420800 0.040500 5.749446 5.540740 11.357763 3.163264 0.000000 0.000000 0.000000 -1.015647 0.554718 -30.150566 6.313689 -2.799205 20.717736 -8.074010 -15.852201 22.337089 0.000000 0.000000 0.000000 0.487976 -1.456402 17.454902 8.748676 -0.838370 -27.819723 -5.843563 -8.110582 30.438770 5.739163 -3.455851 -9.978355 0.000000 0.000000 0.000000 -32.367050 2.159156 -7.099636 -38.589855 -1.335478 -5.251493 -30.166474 -59.758814 19.654294 0.000000 0.000000 0.000000 24.278675 -2.952546 -0.661286 41.480127 -3.641210 -7.955670 10.669615 58.713000 10.670369 0.000000 0.000000 0.000000
-0.404665 1.013689 -0.789109 -1.165263 24.123049 1.821175 0.319150 0.315731 8.016430 -4.107634 0.145767 4.343490 6.224923 12.004071 1.986314 0.000000 0.000000 0.000000 -1.233006 0.455160 -31.379648 6.225340 -2.772875 21.176124 -8.477093 -16.392249 24.378241 0.000000 0.000000 0.000000 -0.525419 -1.353490 18.112774 8.328520 -0.743690 -28.044610 -5.947747 -8.033101 30.792148 5.227899 -2.971903 -10.593551 0.000000 0.000000 0.000000 -32.309498 1.858240 -6.744626 -38.973210 -3.103109 -4.868299 -28.602285 -58.861306 18.474541 0.000000 0.000000 0.000000 23.879483 -2.838118 -0.641411 41.324416 -4.489827 -8.181527 12.396566 56.695858 11.012612 0.000000 0.000000 0.000000
-0.412303 1.012666 -0.814436 -1.067841 23.926958 1.573786 -0.048766 0.342295 7.154453 -4.054018 0.169647 3.021147 6.607948 12.797574 2.286461 0.000000 0.000000 0.000000 -1.416036 0.382738 -32.041388 6.160400 -2.701511 21.053013 -7.024812 -14.319372 24.695338 0.000000 0.000000 0.000000 -1.964082 -1.107438 18.081855 8.908971 -0.890429 -28.147703 -6.128634 -7.222466 31.462093 5.171464 -2.606321 -11.918913 0.000000 0.000000 0.000000 -31.429885 1.721866 -6.688758 -40.692150 -4.699890 -4.619552 -27.483260 -56.996642 17.119587 0.000000 0.000000 0.000000 23.513056 -3.315956 -0.716835 42.151999 -4.881705 -8.529740 12.848111 55.739035 11.191365 0.000000 0.000000 0.000000
-0.420821 1.014392 -0.837230 -1.588663 24.079879 0.411234 0.725098 0.226995 6.443843 -4.853936 0.221546 2.910343 6.858342 14.414588 5.483704 0.000000 0.000000 0.000000 -1.675063 0.332958 -31.274848 6.498355 -2.772039 20.434287 -7.082865 -14.350867 25.286135 0.000000 0.000000 0.000000 -2.758320 -1.042151 18.512357 9.017298 -0.976125 -27.218087 -5.648195 -7.558127 31.151684 4.355775 -1.817459 -12.966029 0.000000 0.000000 0.000000 -32.029658 2.264617 -7.085683 -40.894075 -5.934575 -4.244728 -26.159961 -56.566252 16.298515 0.000000 0.000000 0.000000 22.424772 -3.285051 -0.786071 42.973044 -4.696916 -8.558857 13.821701 53.662242 11.157419 0.000000 0.000000 0.000000
-0.430266 1.018047 -0.857586 -2.453489 24.169177 -0.420722 1.954922 0.060095 5.342856 -5.282511 0.249164 2.199775 6.173836 14.613739 8.900386 0.000000 0.000000 0.000000 -2.422176 0.192039 -29.934244 7.585562 -3.360391 21.453580 -8.281633 -16.207227 23.481162 0.000000 0.000000 0.000000 -3.461336 -0.984610 18.835635 9.471927 -1.062533 -28.209213 -5.295487 -7.132913 32.271364 3.783753 -1.147795 -13.983611 0.000000 0.000000 0.000000 -32.049768 3.260406 -7.940813 -40.962692 -6.239510 -4.176487 -29.636188 -55.980226 17.983715 0.000000 0.000000 0.000000 21.627169 -3.817303 -0.951772 44.618121 -5.182819 -9.078367 15.794840 51.394841 11.716533 0.000000 0.000000 0.000000
-0.440244 1.023825 -0.876250 -3.284190 24.137353 -0.971222 3.085895 -0.079617 4.535737 -5.865930 0.274337 1.624609 6.463913 15.359680 9.955730 0.000000 0.000000 0.000000 -2.592120 0.184103 -29.405594 7.801313 -4.327306 26.661031 -8.407017 -16.856192 19.972727 0.000000 0.000000 0.000000 -3.819662 -0.898697 18.371823 9.865185 -1.171357 -28.442352 -4.793377 -7.519638 32.951921 2.200069 -0.032287 -13.603502 0.000000 0.000000 0.000000 -32.771838 3.936447 -8.422967 -40.998417 -5.956402 -4.344589 -31.372071 -56.338586 19.227867 0.000000 0.000000 0.000000 20.226236 -3.412854 -0.767657 45.756845 -6.326908 -9.659414 16.847547 50.377112 11.945716 0.000000 0.000000 0.000000
-0.450648 1.027972 -0.893596 -3.850872 24.055951 -0.861306 3.682731 -0.171232 2.900465 -6.102204 0.278897 1.536219 6.748191 16.213162 11.442902 0.000000 0.000000 0.000000 -2.543773 0.351736 -26.865098 7.943801 -5.386540 31.336961 -8.124328 -17.016707 15.664977 0.000000 0.000000 0.000000 -4.321027 -0.750029 17.495943 9.849578 -1.177455 -28.465839 -4.361254 -7.647019 33.177785 1.241706 0.887532 -15.096345 0.000000 0.000000 0.000000 -33.222716 4.524608 -8.957947 -40.989292 -6.002096 -4.330735 -31.012868 -55.618015 18.768109 0.000000 0.000000 0.000000 19.584981 -2.804715 -0.401873 46.994764 -6.413906 -9.920881 15.490055 48.922596 10.927083 0.000000 0.000000 0.000000
-0.461341 1.029885 -0.909663 -4.109174 24.651522 -0.614571 4.098715 -0.256467 1.139498 -6.321087 0.269943 1.358103 6.572913 16.092775 11.555745 0.000000 0.000000 0.000000 -2.373816 0.527684 -22.950291 7.323920 -6.322188 35.891101 -7.579468 -16.563448 12.645033 0.000000 0.000000 0.000000 -4.668163 -0.651943 16.700181 9.682854 -1.175952 -27.571605 -4.048599 -7.768014 32.372779 1.764162 0.383109 -13.730364 0.000000 0.000000 0.000000 -33.046932 4.216335 -8.899168 -40.983540 -5.620468 -4.326071 -30.441206 -54.750153 17.998622 0.000000 0.000000 0.000000 20.377095 -2.716877 -0.253319 47.719225 -6.140734 -9.946604 14.194932 48.076240 10.179968 0.000000 0.000000 0.000000
-0.471970 1.027612 -0.924444 -3.756480 23.569355 0.314010 4.272818 -0.305468 -0.414767 -6.868723 0.299506 0.760790 7.001282 16.956366 12.581935 0.000000 0.000000 0.000000 -1.974810 0.768235 -17.961370 6.015802 -6.052241 38.236812 -7.396780 -16.712528 11.229405 0.000000 0.000000 0.000000 -5.504165 -0.409431 15.273963 9.323214 -1.118795 -27.344059 -3.426246 -7.343323 32.440017 2.117739 0.227187 -14.790082 0.000000 0.000000 0.000000 -33.342116 4.797598 -9.325904 -40.835646 -4.726476 -4.608492 -29.361678 -53.456578 16.969701 0.000000 0.000000 0.000000 20.803003 -2.205644 0.015928 48.040813 -4.836747 -9.568428 14.276744 48.136415 10.219990 0.000000 0.000000 0.000000
-0.482182 1.022467 -0.938610 -3.313450 22.210063 0.861388 3.873503 -0.306175 -1.416655 -7.082358 0.319053 0.123592 7.842295 18.147218 13.011619 0.000000 0.000000 0.000000 -1.867816 0.742424 -12.502570 4.413824 -5.101056 38.877723 -6.571439 -15.439350 10.498302 0.000000 0.000000 0.000000 -6.407195 -0.231608 14.565213 8.700507 -0.998158 -27.063577 -2.482274 -6.219118 31.920192 1.854528 0.453850 -14.282180 0.000000 0.000000 0.000000 -33.384018 5.709210 -10.168060 -40.706611 -3.072580 -5.006816 -28.903034 -51.337610 15.885301 0.000000 0.000000 0.000000 20.853617 -1.826766 0.338000 48.735206 -3.526624 -9.217749 14.141755 48.903817 10.499715 0.000000 0.000000 0.000000
-0.492020 1.016045 -0.952985 -2.714060 20.203984 1.688150 3.652976 -0.370249 -3.186715 -7.863266 0.378328 -0.248674 8.530474 19.074518 13.058156 0.000000 0.000000 0.000000 -2.818314 0.361839 -5.687248 3.708588 -3.631728 35.006709 -5.336411 -13.197767 11.097090 0.000000 0.000000 0.000000 -6.854591 -0.083650 13.596280 8.426751 -0.896254 -27.873913 -2.141158 -4.306989 32.238666 2.108347 0.451497 -14.624171 0.000000 0.000000 0.000000 -33.082832 6.696142 -11.097964 -40.647818 -1.465773 -5.430094 -28.610709 -48.400811 14.597036 0.000000 0.000000 0.000000 22.168269 -0.703187 1.281386 48.317133 -1.601177 -8.610939 13.385762 50.780693 10.753683 0.000000 0.000000 0.000000
-0.502155 1.009404 -0.968774 -1.477530 17.928798 2.974619 2.936111 -0.483995 -5.385585 -8.398181 0.482602 0.531243 9.401560 20.252289 13.078697 0.000000 0.000000 0.000000 -4.141245 -0.005596 -0.635639 2.276059 -1.811661 29.249375 -3.257583 -9.282491 12.411305 0.000000 0.000000 0.000000 -7.341552 0.077648 11.905506 7.603245 -0.784000 -26.435238 -1.420897 -2.600619 30.734625 1.793179 0.637286 -13.505665 0.000000 0.000000 0.000000 -32.644647 7.909520 -11.985201 -41.445684 0.529221 -6.036824 -27.636969 -45.907945 13.245308 0.000000 0.000000 0.000000 22.324399 0.053619 1.763012 48.421444 0.478419 -7.749775 12.444644 53.610470 11.102379 0.000000 0.000000 0.000000
-0.513344 1.002869 -0.987750 -0.217798 15.693480 4.025493 1.784601 -0.689236 -7.931077 -8.226723 0.562294 1.577896 10.486638 21.849213 14.369173 0.000000 0.000000 0.000000 -5.320879 -0.224095 2.798162 1.783449 -0.793180 22.382093 -1.253219 -5.936879 15.164904 0.000000 0.000000 0.000000 -7.611346 0.171659 11.341121 7.393760 -0.782446 -25.903331 -1.347920 -0.296100 29.494700 2.333926 0.345734 -13.159317 0.000000 0.000000 0.000000 -32.254934 7.367859 -11.887041 -41.901409 2.493657 -6.544907 -25.041610 -44.978612 11.676742 0.000000 0.000000 0.000000 22.958034 0.221834 2.098162 48.636099 2.859048 -6.862243 11.799117 57.114236 11.947552 0.000000 0.000000 0.000000
-0.526511 0.995971 -1.010031 0.627507 13.501947 4.838811 1.558795 -0.974549 -10.900649 -8.389344 0.678110 3.351349 12.237743 24.171229 15.074053 0.000000 0.000000 0.000000 -5.974730 -0.214642 3.487804 0.813631 -0.105753 16.716884 0.403503 -3.868185 18.671885 0.000000 0.000000 0.000000 -7.660785 0.232769 11.172587 7.261513 -0.769213 -26.029373 -1.096665 1.520564 29.710604 1.800331 0.971274 -14.055169 0.000000 0.000000 0.000000 -32.230715 7.925671 -12.463194 -42.587178 3.129261 -6.831082 -23.396169 -45.203311 10.992474 0.000000 0.000000 0.000000 22.419893 1.502059 2.952305 49.317614 5.827721 -5.790154 10.268065 61.829757 12.625888 0.000000 0.000000 0.000000
-0.541725 0.987338 -1.035376 1.184540 11.845254 5.361895 1.824854 -1.330592 -14.647419 -8.315035 0.767825 5.461174 12.969167 25.197928 15.445220 0.000000 0.000000 0.000000 -6.229665 -0.143322 3.051679 0.762468 0.023615 13.318672 1.032906 -3.516815 20.688722 0.000000 0.000000 0.000000 -7.188583 0.223638 12.071489 7.273924 -0.799647 -25.839539 -1.004220 3.043836 28.935005 1.190186 1.496784 -13.935176 0.000000 0.000000 0.000000 -32.269168 8.092910 -12.819669 -43.035868 4.021871 -7.066916 -23.320003 -46.605403 11.242541 0.000000 0.000000 0.000000 21.512898 2.507324 3.548243 49.006039 8.270915 -4.713890 12.006593 65.845127 15.060536 0.000000 0.000000 0.000000
-0.558741 0.979942 -1.062004 1.754992 11.857899 5.854387 2.507425 -1.600948 -17.738212 -8.670945 0.831148 6.393035 13.335207 25.776263 16.367117 0.000000 0.000000 0.000000 -5.714109 -0.069980 1.795024 0.105774 0.184023 12.012273 1.101788 -3.469754 21.163787 0.000000 0.000000 0.000000 -6.622370 0.164915 12.778807 7.333404 -0.823256 -25.563151 -0.905527 3.886703 28.368369 1.134647 1.688057 -14.123829 0.000000 0.000000 0.000000 -32.114942 8.148162 -13.198585 -43.491267 4.655908 -7.219469 -24.514599 -48.527463 12.144533 0.000000 0.000000 0.000000 21.065023 2.773129 3.857566 48.274265 10.339591 -3.846236 13.325775 68.917768 17.177425 0.000000 0.000000 0.000000
-0.577268 0.972227 -1.088455 1.846348 12.396919 5.361409 3.386699 -1.759738 -20.024646 -8.642249 0.834962 7.309816 12.961492 25.416667 16.780856 0.000000 0.000000 0.000000 -4.511884 -0.069307 1.373428 -0.110366 0.218200 10.801116 0.192001 -4.787463 20.925489 0.000000 0.000000 0.000000 -5.440163 -0.029062 14.307156 7.485345 -0.868847 -25.235808 -0.877206 4.644364 28.297529 0.947879 1.823881 -12.925617 0.000000 0.000000 0.000000 -32.948291 7.343883 -13.428120 -43.172879 5.204499 -7.155315 -25.761223 -50.612794 13.185697 0.000000 0.000000 0.000000 21.226699 3.151402 4.386010 45.956814 11.667064 -3.436141 13.570570 70.635737 18.049811 0.000000 0.000000 0.000000
-0.596179 0.965877 -1.113337 2.052433 12.869220 5.108416 4.539849 -1.873325 -22.364600 -9.070096 0.901234 8.335202 12.492890 24.943482 16.744863 0.000000 0.000000 0.000000 -3.914242 -0.046567 0.891484 0.574973 0.054334 9.554341 -1.262042 -6.543684 17.527596 0.000000 0.000000 0.000000 -4.583429 -0.206152 15.720659 7.370349 -0.835618 -25.084290 -0.624532 5.624178 28.042160 1.413169 1.660364 -13.031506 0.000000 0.000000 0.000000 -33.155915 6.442288 -13.432087 -42.622472 5.344936 -6.914036 -26.224719 -51.875624 13.589440 0.000000 0.000000 0.000000 20.852679 3.457163 4.787908 44.435496 12.447909 -3.142082 12.804954 71.047182 17.685812 0.000000 0.000000 0.000000
-0.614359 0.960807 -1.135996 2.080333 14.386499 4.226444 5.562115 -2.045162 -24.731518 -9.301228 0.913320 9.883532 11.535486 23.918282 16.892242 0.000000 0.000000 0.000000 -2.695819 -0.020929 0.285530 1.266933 -0.130150 9.759330 -3.586299 -10.242879 15.457086 0.000000 0.000000 0.000000 -3.313474 -0.518037 17.194229 7.360006 -0.817268 -24.911047 -0.473080 6.297649 27.986841 1.916216 1.371971 -12.258156 0.000000 0.000000 0.000000 -33.529114 5.575165 -13.693143 -42.017010 6.072296 -6.802372 -27.913728 -53.239122 14.613978 0.000000 0.000000 0.000000 21.602036 2.638877 4.834912 42.127219 12.647513 -3.253737 15.643651 70.643395 19.738110 0.000000 0.000000 0.000000
-0.630736 0.958798 -1.155853 2.110225 15.622095 3.451969 6.471803 -2.171559 -26.590800 -9.726576 0.950621 10.940402 10.993544 23.414877 17.691184 0.000000 0.000000 0.000000 -1.928712 -0.001567 -0.041124 1.982421 -0.320267 9.718673 -4.739801 -12.173087 13.730810 0.000000 0.000000 0.000000 -2.335682 -0.788352 18.251923 7.178592 -0.732416 -25.222363 -0.251862 7.025859 28.162040 2.327499 1.243449 -12.143302 0.000000 0.000000 0.000000 -33.513911 4.824340 -13.835700 -41.660666 6.284272 -6.632163 -28.257773 -52.949060 14.472415 0.000000 0.000000 0.000000 21.761935 2.306957 5.037739 41.197505 12.055749 -3.535667 16.133091 69.330663 19.699254 0.000000 0.000000 0.000000
-0.644436 0.958652 -1.172421 2.054184 16.270175 2.096430 7.092343 -2.115803 -26.757736 -10.078757 0.993432 11.917422 10.262754 22.521022 17.690411 0.000000 0.000000 0.000000 -0.984741 -0.031980 0.235772 2.283103 -0.397061 9.369451 -6.125319 -14.736101 13.895485 0.000000 0.000000 0.000000 -1.583091 -0.982156 18.787431 6.968173 -0.695932 -24.824706 0.150215 7.826330 28.267892 2.607929 1.115797 -11.720264 0.000000 0.000000 0.000000 -33.596976 4.696517 -14.308365 -41.767899 6.357068 -6.536963 -27.213329 -51.761478 13.408448 0.000000 0.000000 0.000000 22.354762 1.380717 4.882025 40.853447 11.110942 -3.963815 17.343213 66.768257 19.656195 0.000000 0.000000 0.000000
-0.655468 0.960073 -1.186355 2.300186 16.935964 1.416445 6.915559 -2.160080 -26.548711 -10.112496 0.984487 13.354359 9.689814 21.775562 16.934445 0.000000 0.000000 0.000000 -0.824988 -0.103211 0.885784 2.558001 -0.433871 7.723857 -6.501093 -15.351852 14.359211 0.000000 0.000000 0.000000 -1.389088 -1.037440 18.844814 6.614351 -0.566560 -25.295116 0.567825 8.058186 28.605454 2.356276 1.447633 -11.967361 0.000000 0.000000 0.000000 -33.381026 4.674236 -14.481756 -41.627329 6.289527 -6.460771 -25.431067 -48.412640 11.541951 0.000000 0.000000 0.000000 22.989673 0.494733 4.638347 41.017827 9.736954 -4.521266 17.642777 64.413910 18.969425 0.000000 0.000000 0.000000
-0.664209 0.961949 -1.198522 2.561139 17.541133 1.056027 6.575579 -2.161876 -25.753595 -10.069910 0.948506 14.647330 9.118773 20.916561 15.496142 0.000000 0.000000 0.000000 -0.594402 -0.186146 1.625763 2.577132 -0.418866 6.233180 -6.589758 -15.526270 13.532021 0.000000 0.000000 0.000000 -1.177737 -1.045589 18.389870 6.275445 -0.479265 -25.111487 0.578389 8.496167 28.606731 2.450850 1.634220 -12.836247 0.000000 0.000000 0.000000 -33.217244 4.847969 -14.923778 -42.197797 5.983287 -6.387998 -22.936406 -44.431482 9.361706 0.000000 0.000000 0.000000 23.450834 0.165206 4.763400 41.365706 8.271831 -5.070396 16.228735 61.788835 17.089608 0.000000 0.000000 0.000000
-0.671313 0.963138 -1.209677 2.506492 17.770243 1.336602 6.339873 -2.098740 -24.805823 -9.379244 0.807723 15.062652 9.374590 21.223478 15.356034 0.000000 0.000000 0.000000 -0.605120 -0.099067 0.824191 2.709316 -0.454491 6.430372 -5.581300 -13.605559 12.187051 0.000000 0.000000 0.000000 -1.254850 -0.931102 17.189233 6.530565 -0.490534 -26.097224 0.608102 7.104750 29.567415 0.352521 3.060406 -12.893964 0.000000 0.000000 0.000000 -34.394516 6.784910 -16.241015 -41.501740 6.534204 -6.570106 -22.495349 -40.687750 8.560304 0.000000 0.000000 0.000000 22.923832 0.586317 4.665267 41.413924 6.919375 -5.464157 16.998768 59.845424 16.591375 0.000000 0.000000 0.000000
-0.676869 0.963600 -1.219806 2.850349 18.347561 2.349415 5.834188 -2.146699 -24.266878 -9.919327 0.855399 16.920824 9.748579 21.609196 14.228041 0.000000 0.000000 0.000000 -1.044947 0.087194 -1.059690 2.858514 -0.512748 7.097291 -5.170549 -12.697171 11.775943 0.000000 0.000000 0.000000 -1.652216 -0.712979 15.216473 7.150337 -0.623955 -25.891447 0.122440 7.485613 29.371374 0.145828 3.445936 -14.032885 0.000000 0.000000 0.000000 -34.250927 5.921151 -15.991398 -40.970951 7.315646 -6.591725 -21.244123 -38.945998 7.655216 0.000000 0.000000 0.000000 22.578913 -0.682537 4.027001 42.477257 5.096718 -6.061428 17.724347 59.748071 17.290806 0.000000 0.000000 0.000000
-0.680976 0.964150 -1.228660 3.169802 18.567648 2.058669 4.915366 -2.059968 -22.452256 -10.567642 0.884352 21.935479 9.175103 20.614333 13.098179 0.000000 0.000000 0.000000 -0.654473 0.158427 -1.736838 2.283261 -0.421797 8.277162 -5.821306 -14.006341 11.115303 0.000000 0.000000 0.000000 -1.857298 -0.676882 15.028875 7.053610 -0.565299 -27.036685 -0.177403 6.410099 30.108436 -0.026244 3.461746 -13.909329 0.000000 0.000000 0.000000 -34.142391 6.837327 -16.139811 -40.784039 8.114825 -6.995895 -21.590680 -38.117697 7.701454 0.000000 0.000000 0.000000 22.288576 -0.923490 3.618486 42.803725 3.601422 -6.542903 21.474198 59.081295 19.171812 0.000000 0.000000 0.000000
-0.683530 0.965043 -1.236059 3.101967 18.139876 1.846723 4.081295 -1.821381 -19.815255 -10.066377 0.673408 25.404264 9.340180 20.627916 12.607825 0.000000 0.000000 0.000000 -0.386297 0.188238 -1.967535 2.464370 -0.453368 8.248417 -6.296756 -15.032929 10.815053 0.000000 0.000000 0.000000 -2.095412 -0.572516 14.122537 6.912990 -0.548189 -26.828657 -0.334048 6.074860 30.423127 0.041042 3.394753 -14.274976 0.000000 0.000000 0.000000 -34.193458 6.754932 -15.817067 -41.020533 7.920475 -7.087993 -19.579127 -37.026708 6.879331 0.000000 0.000000 0.000000 22.933666 -1.348254 3.313356 42.726244 3.488940 -6.637477 20.114977 58.962604 18.219757 0.000000 0.000000 0.000000
-0.684530 0.966322 -1.242252 2.928927 18.298672 1.510411 3.627224 -1.551335 -17.107239 -9.934723 0.549180 26.693948 8.659790 19.674418 13.373501 0.000000 0.000000 0.000000 0.059016 0.193197 -1.903590 2.611554 -0.465328 7.319954 -7.582894 -17.359325 12.583376 0.000000 0.000000 0.000000 -2.334058 -0.546570 14.135455 7.062350 -0.569479 -26.901587 -0.816322 5.581177 30.568214 0.571883 3.102780 -15.408077 0.000000 0.000000 0.000000 -34.559337 5.996074 -15.242997 -40.888061 7.363222 -6.924258 -18.157433 -37.763897 6.608283 0.000000 0.000000 0.000000 23.742534 -1.448419 3.275740 43.283380 2.075457 -7.200847 20.981797 59.442604 18.869856 0.000000 0.000000 0.000000
-0.684116 0.966254 -1.247226 2.302151 18.264764 1.209011 3.301241 -1.207427 -13.764442 -8.531490 0.205624 25.350482 8.330218 19.109688 13.386001 0.000000 0.000000 0.000000 0.682751 0.153523 -1.381197 2.733206 -0.462888 6.087446 -7.850256 -17.873403 12.692373 0.000000 0.000000 0.000000 -2.420932 -0.499488 13.500767 6.672400 -0.526144 -25.998003 -0.813594 5.040495 29.851959 1.593052 2.250747 -15.211182 0.000000 0.000000 0.000000 -34.248823 5.620777 -14.600781 -41.056230 6.708686 -6.791056 -16.403192 -36.672847 5.862719 0.000000 0.000000 0.000000 24.895365 -0.927776 3.599348 43.847139 1.665040 -7.385647 14.905615 57.516703 14.373587 0.000000 0.000000 0.000000
-0.682160 0.965576 -1.251390 1.067821 19.027310 1.016162 3.800451 -0.894218 -10.701829 -6.826867 -0.035466 20.848973 7.480966 17.763435 12.476859 0.000000 0.000000 0.000000 1.463579 0.233795 -1.928797 3.056821 -0.531003 5.511187 -8.349169 -18.339753 15.126638 0.000000 0.000000 0.000000 -2.018159 -0.504739 12.655083 7.026340 -0.588968 -25.971891 -1.031227 3.941520 30.145275 1.648650 2.173338 -15.622385 0.000000 0.000000 0.000000 -34.403549 4.831918 -13.839554 -41.217584 5.613336 -6.571217 -15.103963 -36.975303 5.558442 0.000000 0.000000 0.000000 25.901307 -1.355631 3.321793 43.767431 0.534549 -7.823939 11.676536 54.557499 11.529977 0.000000 0.000000 0.000000
-0.678749 0.965013 -1.254821 0.099273 18.884256 0.996790 4.117331 -0.622870 -7.356529 -5.589044 0.033282 15.060799 6.974563 16.827763 11.704176 0.000000 0.000000 0.000000 2.042494 0.335785 -2.684765 2.907526 -0.492320 5.252449 -8.383342 -18.082049 17.203265 0.000000 0.000000 0.000000 -1.847536 -0.466531 11.737620 7.446760 -0.700966 -26.077565 -1.120696 3.596634 30.050438 2.068759 1.876468 -16.118031 0.000000 0.000000 0.000000 -34.188088 4.343828 -13.239391 -41.424273 5.262692 -6.548955 -15.077127 -37.074957 5.594175 0.000000 0.000000 0.000000 25.698770 -1.410548 3.125862 45.179689 -0.721980 -8.328085 9.132010 51.289474 9.346832 0.000000 0.000000 0.000000
-0.673979 0.965375 -1.257381 -0.348006 18.889277 1.025574 4.225723 -0.491295 -5.314493 -5.048834 0.152460 10.213236 6.591041 16.711866 13.706156 0.000000 0.000000 0.000000 2.040660 0.373834 -3.009308 2.669575 -0.434860 4.699991 -8.280523 -17.600640 19.370123 0.000000 0.000000 0.000000 -1.681254 -0.429584 10.858292 7.258672 -0.648561 -26.397127 -1.095293 2.933623 29.926931 2.399181 1.558453 -16.225729 0.000000 0.000000 0.000000 -33.287403 4.272335 -12.572160 -42.184861 4.852381 -6.690142 -16.069594 -37.451506 6.010365 0.000000 0.000000 0.000000 25.812789 -1.900522 2.632537 45.827425 -1.943854 -8.758230 8.021360 48.437055 8.086187 0.000000 0.000000 0.000000
-0.668293 0.966230 -1.259021 -0.727451 18.632599 1.030870 4.229174 -0.395021 -3.622977 -4.671516 0.229448 6.077613 6.527750 17.055191 16.005242 0.000000 0.000000 0.000000 1.989384 0.378625 -3.064426 2.643626 -0.422083 4.430141 -8.064638 -17.188836 20.102628 0.000000 0.000000 0.000000 -1.641866 -0.372375 9.861745 7.136700 -0.627412 -26.467745 -1.030556 2.027708 29.438829 2.310178 1.576800 -17.178157 0.000000 0.000000 0.000000 -32.860172 4.159102 -11.852230 -42.628042 4.995487 -6.956776 -16.382960 -37.734951 6.253264 0.000000 0.000000 0.000000 25.485367 -1.994281 2.171313 46.781420 -3.005493 -9.093513 7.650238 45.947503 7.258727 0.000000 0.000000 0.000000
-0.662071 0.966854 -1.259647 -0.896194 18.243792 0.800302 3.972726 -0.279285 -1.563731 -4.323915 0.257898 2.704382 6.223159 16.797432 17.017357 0.000000 0.000000 0.000000 1.739298 0.280439 -2.267813 2.491007 -0.378742 3.603080 -7.473565 -16.276964 20.072665 0.000000 0.000000 0.000000 -1.636999 -0.323293 9.019894 6.834966 -0.542223 -26.940659 -1.056237 1.224663 29.756529 2.207847 1.567668 -17.790028 0.000000 0.000000 0.000000 -32.902422 4.261274 -11.461266 -42.678943 4.710061 -7.031597 -16.707626 -37.564870 6.450137 0.000000 0.000000 0.000000 25.505427 -2.266622 1.699790 47.250701 -3.367494 -9.268016 7.579317 44.122498 6.785297 0.000000 0.000000 0.000000
-0.656045 0.967206 -1.260002 -1.002887 17.809657 0.468374 3.712292 -0.182328 0.208270 -4.195934 0.270245 0.132860 6.164147 16.831043 17.981020 0.000000 0.000000 0.000000 1.448162 0.190113 -1.541488 2.427593 -0.359344 3.111872 -7.074693 -15.700167 19.989688 0.000000 0.000000 0.000000 -1.773079 -0.267638 8.161097 6.625171 -0.502896 -27.024473 -1.147292 0.549209 29.884811 1.857152 1.712836 -18.207735 0.000000 0.000000 0.000000 -32.669155 4.111379 -10.834600 -43.003510 4.403162 -7.148494 -16.317687 -37.022210 6.324471 0.000000 0.000000 0.000000 25.318669 -2.122460 1.485277 48.038903 -3.693021 -9.446946 6.944009 42.968214 6.242001 0.000000 0.000000 0.000000
-0.650748 0.966811 -1.260628 -1.181984 17.615822 0.073268 3.590298 -0.123347 1.406284 -4.184412 0.271465 -0.969586 5.991538 16.477363 17.459535 0.000000 0.000000 0.000000 1.354463 0.090129 -0.699741 2.327995 -0.338573 2.734270 -6.745133 -15.247530 19.116330 0.000000 0.000000 0.000000 -1.657376 -0.257583 7.774452 6.557259 -0.485624 -27.229278 -1.293470 0.128569 29.860787 1.696436 1.801167 -18.781940 0.000000 0.000000 0.000000 -32.756640 3.722652 -10.353438 -43.362930 3.813950 -7.077620 -15.514356 -36.065447 5.952667 0.000000 0.000000 0.000000 25.535259 -2.197156 1.278708 48.376373 -3.593296 -9.441171 5.993071 41.765273 5.620951 0.000000 0.000000 0.000000
-0.646317 0.966356 -1.261698 -1.334230 17.285480 -0.290776 3.628940 -0.094117 2.150114 -4.393862 0.281205 -1.743222 6.034796 16.555487 17.841186 0.000000 0.000000 0.000000 0.947812 0.017445 -0.120079 2.393896 -0.346438 2.446586 -5.933675 -13.934737 18.866405 0.000000 0.000000 0.000000 -1.545741 -0.253241 7.518944 6.268948 -0.419830 -27.486234 -1.366847 -0.196992 29.818449 1.516122 1.940021 -19.763238 0.000000 0.000000 0.000000 -32.914869 3.347382 -9.901471 -43.542360 3.408192 -7.028578 -14.313005 -34.835895 5.421218 0.000000 0.000000 0.000000 25.320710 -1.734110 1.401097 49.154473 -3.555779 -9.508689 5.590187 40.515838 5.217732 0.000000 0.000000 0.000000
-0.642560 0.966279 -1.262829 -1.430772 16.808392 -0.449444 3.742300 -0.083911 2.516144 -4.780068 0.304540 -1.720993 5.837455 16.137049 17.173602 0.000000 0.000000 0.000000 0.565929 -0.016343 0.143784 2.679061 -0.391622 2.627379 -5.344241 -13.023846 17.800356 0.000000 0.000000 0.000000 -1.404111 -0.252580 7.326842 5.897994 -0.337333 -27.796339 -1.257014 -0.163626 29.950847 1.498804 1.955713 -20.193522 0.000000 0.000000 0.000000 -32.990525 3.211130 -9.706762 -43.977455 3.250755 -7.094542 -13.546556 -33.957379 5.079765 0.000000 0.000000 0.000000 25.464116 -1.544660 1.451501 49.497205 -3.094927 -9.397536 4.958588 39.168283 4.750037 0.000000 0.000000 0.000000
-0.639316 0.966299 -1.263698 -1.551281 16.665198 -0.548281 3.746979 -0.069816 2.905794 -4.872546 0.306044 -2.100825 5.650466 15.824791 16.877512 0.000000 0.000000 0.000000 0.277212 -0.056270 0.478074 2.679902 -0.389662 2.407772 -4.635478 -11.800528 17.430502 0.000000 0.000000 0.000000 -1.350544 -0.249929 7.193464 5.704370 -0.283963 -28.339749 -1.203994 -0.179886 30.033880 1.388608 2.091371 -20.951513 0.000000 0.000000 0.000000 -33.077448 2.973863 -9.534949 -44.063787 3.022031 -7.038874 -12.500837 -32.669941 4.587518 0.000000 0.000000 0.000000 25.034793 -1.381655 1.514191 50.445797 -2.722538 -9.374471 4.669533 38.101209 4.504684 0.000000 0.000000 0.000000
-0.636449 0.966187 -1.264271 -1.571761 16.522811 -0.635980 3.696287 -0.059248 3.042911 -5.034369 0.315712 -2.017780 5.566888 15.644668 16.583210 0.000000 0.000000 0.000000 0.188762 -0.081459 0.695892 2.581533 -0.372252 2.672646 -4.429036 -11.441041 16.337881 0.000000 0.000000 0.000000 -1.240671 -0.251557 7.090685 5.480467 -0.233116 -28.512300 -1.118610 0.044982 30.060860 1.351050 2.139269 -20.901205 0.000000 0.000000 0.000000 -33.156849 2.768138 -9.486362 -44.164261 2.892771 -6.987935 -12.112855 -31.556218 4.310009 0.000000 0.000000 0.000000 24.950082 -0.979102 1.823149 50.684927 -2.044036 -9.167226 4.726399 37.431311 4.422980 0.000000 0.000000 0.000000
-0.633852 0.966151 -1.264676 -1.588950 16.351796 -0.762778 3.788650 -0.055179 3.314973 -5.191001 0.323169 -2.134966 5.097591 15.014796 16.538457 0.000000 0.000000 0.000000 -0.069954 -0.107088 0.915812 2.693255 -0.390841 2.900395 -4.103738 -10.864391 15.568006 0.000000 0.000000 0.000000 -1.206876 -0.252117 7.059984 5.338345 -0.198370 -28.830470 -1.033610 0.323925 30.063650 1.346840 2.244748 -21.658349 0.000000 0.000000 0.000000 -33.094529 2.759101 -9.545982 -44.324928 3.122613 -7.071432 -11.685925 -30.545808 4.040233 0.000000 0.000000 0.000000 24.667519 -0.956106 1.873275 51.202975 -1.651519 -9.074302 4.696724 36.895967 4.357175 0.000000 0.000000 0.000000
-0.631498 0.966239 -1.265173 -1.656357 16.145784 -0.834921 3.856780 -0.050675 3.552063 -5.415177 0.331879 -2.320922 5.020711 14.875681 16.459724 0.000000 0.000000 0.000000 -0.120570 -0.129623 1.117357 2.708225 -0.391446 2.891923 -4.033417 -10.754678 15.068805 0.000000 0.000000 0.000000 -1.059550 -0.246183 6.761451 5.026149 -0.137032 -28.796489 -0.867123 0.367617 30.013251 1.437645 2.210090 -22.033308 0.000000 0.000000 0.000000 -33.068920 2.691463 -9.458141 -44.299599 3.512050 -7.207118 -11.393542 -29.791479 3.866329 0.000000 0.000000 0.000000 24.564742 -0.502302 2.126905 51.285230 -1.251932 -8.915847 4.543230 36.839906 4.280705 0.000000 0.000000 0.000000
-0.629305 0.966445 -1.265707 -1.743205 15.967015 -0.855667 3.878896 -0.044515 3.748882 -5.572636 0.339974 -2.361114 4.953788 14.652942 15.925307 0.000000 0.000000 0.000000 -0.369439 -0.140575 1.218293 2.864745 -0.417338 2.976106 -3.602196 -9.962663 14.627248 0.000000 0.000000 0.000000 -1.012612 -0.242649 6.636416 4.898367 -0.109306 -28.892069 -0.736773 0.693085 29.799716 1.455434 2.295485 -22.689220 0.000000 0.000000 0.000000 -33.093226 2.629649 -9.532716 -44.190296 4.089818 -7.331290 -11.338623 -29.271518 3.764733 0.000000 0.000000 0.000000 24.486391 -0.430443 2.227977 51.310900 -0.769705 -8.722871 4.660994 36.617975 4.298984 0.000000 0.000000 0.000000
-0.627205 0.966685 -1.266161 -1.740744 15.896156 -0.943496 3.925679 -0.039897 4.002155 -5.813929 0.345759 -2.571098 4.765410 14.401589 15.960050 0.000000 0.000000 0.000000 -0.476821 -0.154775 1.346109 2.852110 -0.414571 2.997755 -3.609263 -9.985988 14.565147 0.000000 0.000000 0.000000 -1.050731 -0.231588 6.457760 4.918876 -0.115540 -28.758250 -0.687124 0.674908 29.678831 1.367384 2.343864 -22.728940 0.000000 0.000000 0.000000 -33.300430 2.694811 -9.613731 -43.926372 4.344761 -7.353546 -11.333058 -29.147805 3.750611 0.000000 0.000000 0.000000 24.384345 -0.137983 2.380835 51.063418 -0.434795 -8.549627 4.593942 36.960307 4.316238 0.000000 0.000000 0.000000
-0.625283 0.966762 -1.266559 -1.726030 15.967175 -1.061762 3.887062 -0.030648 4.220251 -5.936391 0.345930 -2.719281 4.633644 14.232349 15.977179 0.000000 0.000000 0.000000 -0.610692 -0.174597 1.521912 2.829302 -0.410840 2.901904 -3.622028 -10.013827 14.757091 0.000000 0.000000 0.000000 -1.094024 -0.223760 6.335041 4.822758 -0.098353 -28.631232 -0.657998 0.710121 29.508662 1.044221 2.602859 -23.258304 0.000000 0.000000 0.000000 -33.208490 2.609971 -9.569191 -43.852835 4.687354 -7.433519 -11.577817 -29.208115 3.810833 0.000000 0.000000 0.000000 24.265849 0.004118 2.480817 50.853924 -0.134064 -8.394281 5.137951 37.072431 4.503392 0.000000 0.000000 0.000000
-0.623816 0.966809 -1.266966 -1.742464 16.025173 -1.105627 3.949526 -0.028813 4.532873 -6.067444 0.340881 -3.051963 4.311181 13.745366 15.723891 0.000000 0.000000 0.000000 -0.677398 -0.200632 1.757173 2.942350 -0.429817 2.646833 -3.765388 -10.275334 14.671506 0.000000 0.000000 0.000000 -1.175182 -0.210785 6.146720 4.917403 -0.120927 -28.471413 -0.715402 0.785956 29.264110 0.985607 2.663151 -23.331762 0.000000 0.000000 0.000000 -33.362409 2.733017 -9.767149 -43.663754 4.782358 -7.378641 -11.421808 -29.433639 3.787172 0.000000 0.000000 0.000000 24.372170 0.139730 2.600751 50.467584 -0.008379 -8.290872 5.495911 37.169453 4.618073 0.000000 0.000000 0.000000
-0.622912 0.966777 -1.267472 -1.810189 16.011933 -1.098481 3.999023 -0.032103 4.585692 -6.070398 0.338164 -3.161613 4.160739 13.514314 15.606873 0.000000 0.000000 0.000000 -0.687510 -0.209433 1.838410 2.998800 -0.438315 2.442704 -3.775345 -10.299011 14.692889 0.000000 0.000000 0.000000 -1.286482 -0.198044 5.984824 4.967426 -0.137185 -28.314187 -0.723708 0.846278 29.002030 1.046761 2.657479 -23.664616 0.000000 0.000000 0.000000 -33.259586 2.715831 -9.753823 -43.529377 4.985971 -7.395120 -11.751404 -29.718548 3.899354 0.000000 0.000000 0.000000 24.383949 0.213836 2.649352 50.392489 -0.046129 -8.268238 5.679607 37.465699 4.719450 0.000000 0.000000 0.000000
-0.622522 0.966734 -1.267987 -1.954557 15.965903 -1.022539 4.082858 -0.037579 4.694143 -5.959655 0.325051 -3.551004 4.047719 13.339295 15.527099 0.000000 0.000000 0.000000 -0.557435 -0.213237 1.872468 3.034939 -0.442427 2.093597 -3.823696 -10.397839 14.794239 0.000000 0.000000 0.000000 -1.363125 -0.181964 5.702213 5.024588 -0.154501 -28.124182 -0.790261 0.962532 28.675393 1.321599 2.502046 -23.671518 0.000000 0.000000 0.000000 -33.191749 2.485257 -9.625325 -43.473161 4.955634 -7.335307 -11.363204 -30.059888 3.828707 0.000000 0.000000 0.000000 24.680413 0.340131 2.770351 50.277197 0.064878 -8.203684 5.700314 37.330508 4.689851 0.000000 0.000000 0.000000
-0.622386 0.966388 -1.268345 -2.117040 15.826500 -0.810730 4.145883 -0.043349 4.690265 -5.859684 0.313945 -3.926922 4.144496 13.387175 15.247784 0.000000 0.000000 0.000000 -0.401877 -0.205434 1.806648 3.009998 -0.435205 1.586796 -3.772312 -10.323367 14.962131 0.000000 0.000000 0.000000 -1.548338 -0.162539 5.445948 4.946487 -0.142625 -28.149555 -0.662723 1.052486 28.521761 1.482193 2.434548 -24.033121 0.000000 0.000000 0.000000 -32.937547 2.720957 -9.720705 -43.474869 4.705507 -7.249297 -11.494866 -30.222423 3.875416 0.000000 0.000000 0.000000 24.777371 0.194413 2.686230 50.599243 0.059455 -8.228296 5.661441 37.089938 4.649556 0.000000 0.000000 0.000000
-0.622303 0.965938 -1.268380 -2.286736 15.795523 -0.773423 4.199043 -0.046261 4.811218 -5.580704 0.295456 -4.376738 4.089032 13.339009 15.366246 0.000000 0.000000 0.000000 -0.163504 -0.217548 1.901801 2.989703 -0.431240 1.065731 -3.956473 -10.681738 15.314561 0.000000 0.000000 0.000000 -1.651528 -0.149747 5.231697 4.893079 -0.134054 -28.132048 -0.567760 1.078773 28.323134 1.631736 2.347845 -24.080212 0.000000 0.000000 0.000000 -32.670193 2.819745 -9.717798 -43.481333 4.621884 -7.218177 -11.590872 -30.465868 3.922944 0.000000 0.000000 0.000000 24.651639 -0.074398 2.500298 51.180475 -0.152271 -8.338958 5.673852 36.874624 4.642004 0.000000 0.000000 0.000000
-0.622074 0.965221 -1.268146 -2.452644 15.688833 -0.772678 4.127908 -0.035269 4.952400 -5.206240 0.282114 -4.651499 4.229409 13.470859 15.176912 0.000000 0.000000 0.000000 0.037805 -0.241694 2.096333 2.996988 -0.432018 0.573442 -4.053675 -10.881616 15.364895 0.000000 0.000000 0.000000 -1.816648 -0.135288 5.024208 4.898042 -0.140658 -28.071378 -0.484082 1.102966 28.053828 1.915689 2.184736 -24.296786 0.000000 0.000000 0.000000 -32.531867 3.046721 -9.814242 -43.330147 4.703307 -7.208450 -11.788535 -30.640902 3.993534 0.000000 0.000000 0.000000 24.579470 -0.268720 2.341183 51.639547 -0.536899 -8.497271 5.457807 36.465184 4.509153 0.000000 0.000000 0.000000
-0.621639 0.964717 -1.267856 -2.602551 15.559681 -0.821824 4.034191 -0.021580 5.076602 -4.921663 0.276550 -4.716789 4.483540 13.726354 14.868131 0.000000 0.000000 0.000000 0.179824 -0.252219 2.173517 2.972306 -0.427984 0.300605 -4.083513 -10.966526 15.666322 0.000000 0.000000 0.000000 -1.930605 -0.122147 4.769761 4.912872 -0.146596 -28.135251 -0.419168 1.173230 28.096352 2.038167 2.105787 -24.243410 0.000000 0.000000 0.000000 -32.241766 3.279136 -9.875142 -43.424602 4.739021 -7.261790 -11.907970 -30.714553 4.032084 0.000000 0.000000 0.000000 24.445484 -0.495476 2.185583 52.013518 -0.864951 -8.657699 5.153067 36.051633 4.358866 0.000000 0.000000 0.000000
-0.621029 0.964123 -1.267698 -2.693522 15.417161 -0.899288 3.969946 -0.010558 5.174443 -4.764203 0.271830 -4.880113 4.739766 14.102938 15.060076 0.000000 0.000000 0.000000 0.212899 -0.268511 2.307326 2.939654 -0.422918 0.057401 -3.999983 -10.843634 15.836007 0.000000 0.000000 0.000000 -1.922090 -0.116201 4.573400 4.886910 -0.149718 -27.903787 -0.406533 1.124405 27.796792 2.206056 1.982081 -24.291146 0.000000 0.000000 0.000000 -32.167954 3.716646 -10.085680 -43.379812 4.825665 -7.283674 -12.026734 -30.706353 4.065970 0.000000 0.000000 0.000000 24.164659 -0.561190 2.056957 52.334125 -1.226839 -8.773176 4.825344 35.551295 4.164610 0.000000 0.000000 0.000000
-0.620247 0.963701 -1.267659 -2.774510 15.492402 -1.030503 3.900280 -0.000959 5.332173 -4.578951 0.265915 -4.938956 4.768817 14.108314 14.900850 0.000000 0.000000 0.000000 0.308725 -0.287669 2.452262 2.954111 -0.426864 -0.178662 -4.282505 -11.364313 16.253949 0.000000 0.000000 0.000000 -1.945463 -0.111710 4.443502 4.872840 -0.147198 -27.869264 -0.466136 1.058721 27.826088 2.312712 1.924935 -24.397146 0.000000 0.000000 0.000000 -32.028167 3.761777 -10.065354 -43.502401 4.951186 -7.363152 -12.041158 -30.732487 4.073196 0.000000 0.000000 0.000000 24.136143 -0.652046 1.994949 52.399639 -1.358106 -8.830936 4.283447 34.667572 3.857681 0.000000 0.000000 0.000000
-0.619349 0.963415 -1.267566 -2.800615 15.304111 -1.149303 3.746960 0.024838 5.615412 -4.313015 0.257786 -5.242133 4.792146 14.174322 15.120503 0.000000 0.000000 0.000000 0.287991 -0.322053 2.738876 3.010552 -0.434900 -0.395861 -4.291553 -11.409827 16.052450 0.000000 0.000000 0.000000 -1.879131 -0.107043 4.221146 4.788210 -0.135272 -27.720735 -0.460775 1.141764 27.758951 2.277478 1.948843 -24.465440 0.000000 0.000000 0.000000 -31.994404 3.958607 -10.172498 -43.552677 5.026631 -7.400019 -12.007761 -30.611064 4.048422 0.000000 0.000000 0.000000 23.973355 -0.675509 1.951367 52.688335 -1.543947 -8.915778 3.703431 33.918106 3.574649 0.000000 0.000000 0.000000
-0.618323 0.963028 -1.267317 -2.805303 15.249198 -1.235497 3.585006 0.049001 5.885783 -4.103967 0.248173 -5.612712 4.840521 14.285135 15.359831 0.000000 0.000000 0.000000 0.276922 -0.358424 3.037154 2.919192 -0.423571 -0.701288 -4.254466 -11.353699 15.996191 0.000000 0.000000 0.000000 -1.741055 -0.106114 4.048434 4.616404 -0.101834 -27.566394 -0.456049 1.071779 27.650658 2.099606 2.032997 -24.390466 0.000000 0.000000 0.000000 -32.183531 4.122054 -10.308122 -43.522854 5.058198 -7.391664 -11.975906 -30.192717 3.989699 0.000000 0.000000 0.000000 23.728369 -0.699989 1.884684 52.818886 -1.799793 -8.999486 3.404277 33.233731 3.383727 0.000000 0.000000 0.000000
-0.617337 0.962790 -1.267028 -2.806930 15.140594 -1.471223 3.442932 0.076403 6.278702 -3.892067 0.240930 -5.935109 4.853542 14.373738 15.738869 0.000000 0.000000 0.000000 0.235489 -0.409727 3.458777 2.869336 -0.419143 -1.051267 -4.232651 -11.346238 16.206362 0.000000 0.000000 0.000000 -1.659584 -0.108145 4.009669 4.631975 -0.107808 -27.501756 -0.509356 1.165615 27.670908 2.056248 2.086956 -24.632301 0.000000 0.000000 0.000000 -32.399018 4.226109 -10.462474 -43.495362 5.283283 -7.445325 -11.643868 -29.928071 3.867067 0.000000 0.000000 0.000000 23.669861 -0.610220 1.947064 52.848799 -1.885594 -9.040747 3.101275 32.566020 3.202153 0.000000 0.000000 0.000000
-0.616549 0.962473 -1.266770 -2.722618 15.046496 -1.536691 3.376702 0.092461 6.540769 -3.888573 0.235835 -6.320686 4.727839 14.289885 16.163323 0.000000 0.000000 0.000000 0.086692 -0.437608 3.714343 2.896575 -0.424894 -1.324096 -4.221190 -11.346810 16.198552 0.000000 0.000000 0.000000 -1.581942 -0.107453 3.913942 4.598528 -0.104485 -27.414490 -0.623221 1.191797 27.579708 2.076935 2.079477 -24.743378 0.000000 0.000000 0.000000 -32.568040 4.343413 -10.590375 -43.690329 5.418542 -7.509528 -11.107629 -29.268571 3.644544 0.000000 0.000000 0.000000 23.677454 -0.523635 1.987233 52.791794 -1.803781 -8.987498 3.286516 32.174530 3.188157 0.000000 0.000000 0.000000
-0.615990 0.962236 -1.266613 -2.754968 15.006130 -1.572325 3.433175 0.090361 6.668402 -3.872253 0.231316 -6.584250 4.606131 14.194241 16.476156 0.000000 0.000000 0.000000 0.042527 -0.463937 3.936740 2.961791 -0.435720 -1.556829 -4.139810 -11.203187 16.035104 0.000000 0.000000 0.000000 -1.452400 -0.107767 3.808193 4.548452 -0.095444 -27.322725 -0.697815 1.167830 27.445642 1.979595 2.140215 -24.857354 0.000000 0.000000 0.000000 -32.666980 4.522524 -10.735899 -43.827938 5.471723 -7.538406 -10.740538 -28.575172 3.465989 0.000000 0.000000 0.000000 23.702751 -0.535808 1.964053 52.724911 -1.914090 -9.006770 3.522570 31.629322 3.165277 0.000000 0.000000 0.000000
-0.615663 0.962055 -1.266499 -2.712419 14.944220 -1.522037 3.463793 0.089846 6.729679 -4.049416 0.231051 -6.729558 4.628085 14.217059 16.488686 0.000000 0.000000 0.000000 -0.045198 -0.450906 3.852735 2.993666 -0.440014 -1.606016 -4.177307 -11.288432 16.259862 0.000000 0.000000 0.000000 -1.370107 -0.106600 3.711199 4.517568 -0.086171 -27.444247 -0.672026 1.170257 27.561412 1.917767 2.178913 -24.936367 0.000000 0.000000 0.000000 -32.645756 4.429906 -10.647575 -44.105115 5.647801 -7.670949 -10.456797 -28.024720 3.335811 0.000000 0.000000 0.000000 23.849038 -0.429681 2.038819 52.482545 -1.805311 -8.958695 3.579144 31.207660 3.110482 0.000000 0.000000 0.000000
-0.615467 0.961996 -1.266396 -2.800355 15.017615 -1.260623 3.599164 0.067420 6.528802 -4.137859 0.225856 -6.924260 4.594889 14.182807 16.493438 0.000000 0.000000 0.000000 -0.040179 -0.416499 3.572682 3.005502 -0.442439 -1.659184 -4.027634 -11.001695 16.405654 0.000000 0.000000 0.000000 -1.284881 -0.099426 3.457263 4.567504 -0.095238 -27.474256 -0.726273 1.138415 27.415192 1.946143 2.168492 -24.965315 0.000000 0.000000 0.000000 -32.642219 4.478212 -10.705938 -44.278831 5.916829 -7.777569 -10.261202 -27.672180 3.241246 0.000000 0.000000 0.000000 24.050070 -0.473542 2.033284 52.370492 -1.840608 -8.954244 3.673799 30.706695 3.059217 0.000000 0.000000 0.000000
-0.615347 0.962045 -1.266337 -2.768953 15.091594 -1.124286 3.616702 0.057904 6.295367 -4.371776 0.232507 -6.633699 4.753883 14.314244 16.114117 0.000000 0.000000 0.000000 -0.062238 -0.378624 3.264886 2.951306 -0.434354 -1.536912 -4.117032 -11.160503 16.819478 0.000000 0.000000 0.000000 -1.258075 -0.094080 3.294517 4.570540 -0.093758 -27.531710 -0.737533 0.950545 27.499677 1.944892 2.145770 -24.970781 0.000000 0.000000 0.000000 -32.816083 4.564237 -10.759933 -44.271877 6.105025 -7.856819 -10.117653 -27.583316 3.208631 0.000000 0.000000 0.000000 24.096540 -0.482506 1.993536 52.415510 -2.003128 -9.028322 3.599834 30.644067 3.026321 0.000000 0.000000 0.000000
-0.615234 0.962158 -1.266349 -2.754764 15.082765 -1.005061 3.556638 0.059293 6.116707 -4.459552 0.235913 -6.516481 5.015945 14.643010 16.038039 0.000000 0.000000 0.000000 -0.093858 -0.353179 3.060978 2.980488 -0.437044 -1.432058 -4.150958 -11.220029 16.899823 0.000000 0.000000 0.000000 -1.307643 -0.085308 3.089545 4.662158 -0.116247 -27.405595 -0.758566 0.957852 27.431156 2.116224 2.031768 -24.816840 0.000000 0.000000 0.000000 -32.866256 4.494231 -10.735085 -44.482487 6.161373 -7.909982 -9.594343 -27.363103 3.058193 0.000000 0.000000 0.000000 24.363854 -0.523210 1.993697 52.365686 -1.836575 -8.973933 3.496186 30.234224 2.945923 0.000000 0.000000 0.000000
-0.615164 0.962314 -1.266426 -2.741587 14.986577 -0.974630 3.467823 0.066793 5.997320 -4.523603 0.243361 -6.283267 5.336874 15.022995 15.874042 0.000000 0.000000 0.000000 -0.100242 -0.322682 2.808792 3.011908 -0.437316 -1.053329 -4.219551 -11.350673 16.827202 0.000000 0.000000 0.000000 -1.297598 -0.083335 3.027667 4.728154 -0.131784 -27.392404 -0.735787 1.012963 27.432244 2.233079 1.952673 -24.725069 0.000000 0.000000 0.000000 -33.002807 4.561101 -10.820560 -44.464967 6.235140 -7.927046 -9.302412 -27.473973 3.002845 0.000000 0.000000 0.000000 24.699992 -0.582212 1.977831 52.258075 -1.762278 -8.956374 3.355082 30.233169 2.910968 0.000000 0.000000 0.000000
-0.615135 0.962359 -1.266614 -2.754447 14.969071 -0.865468 3.478131 0.059617 5.783972 -4.695620 0.249191 -6.110398 5.625931 15.375961 15.749147 0.000000 0.000000 0.000000 -0.120968 -0.286586 2.508043 3.027709 -0.437688 -0.841103 -4.213514 -11.342190 16.992365 0.000000 0.000000 0.000000 -1.264146 -0.075381 2.773879 4.750679 -0.138390 -27.323140 -0.774470 0.850575 27.555481 2.137121 1.973190 -24.631157 0.000000 0.000000 0.000000 -33.349797 4.468376 -10.792129 -44.367297 6.059050 -7.857294 -8.533865 -27.143635 2.801134 0.000000 0.000000 0.000000 25.016498 -0.406093 2.071873 52.115389 -1.457273 -8.852129 3.208683 30.211004 2.862818 0.000000 0.000000 0.000000
-0.615159 0.962303 -1.266914 -2.690491 14.962747 -0.789773 3.492409 0.054683 5.657421 -4.871057 0.255191 -5.945555 5.621028 15.325858 15.530618 0.000000 0.000000 0.000000 -0.209227 -0.255986 2.256950 3.040830 -0.437321 -0.535648 -4.205410 -11.321011 16.897251 0.000000 0.000000 0.000000 -1.251744 -0.071437 2.652314 4.725692 -0.135981 -27.171262 -0.826019 0.733177 27.388752 2.067474 1.972852 -24.425109 0.000000 0.000000 0.000000 -33.601992 4.441536 -10.800061 -44.162831 5.891758 -7.746537 -8.132467 -26.775430 2.676756 0.000000 0.000000 0.000000 25.298887 -0.400183 2.048524 52.051983 -1.188271 -8.736808 3.411454 30.115067 2.894376 0.000000 0.000000 0.000000
-0.615217 0.962428 -1.267358 -2.607106 14.799207 -0.745803 3.482175 0.053973 5.491033 -5.006699 0.265544 -5.705623 5.633274 15.340589 15.569823 0.000000 0.000000 0.000000 -0.291929 -0.230371 2.046298 3.028340 -0.432575 -0.261232 -4.176825 -11.289561 16.789720 0.000000 0.000000 0.000000 -1.203843 -0.064152 2.399550 4.676779 -0.130427 -27.009794 -0.820770 0.637783 27.359388 2.150279 1.881439 -24.371798 0.000000 0.000000 0.000000 -34.005611 4.449229 -10.836001 -43.812710 5.723726 -7.622475 -7.539495 -26.514473 2.529026 0.000000 0.000000 0.000000 25.573797 -0.153901 2.152817 52.109370 -0.749374 -8.575122 3.263159 30.057804 2.837773 0.000000 0.000000 0.000000
-0.615342 0.962676 -1.268019 -2.566877 14.707760 -0.660687 3.511712 0.045976 5.269288 -5.127586 0.277105 -5.377287 5.550340 15.177238 15.311667 0.000000 0.000000 0.000000 -0.420415 -0.205859 1.844172 3.198190 -0.455160 0.062769 -4.093160 -11.135509 16.360363 0.000000 0.000000 0.000000 -1.223351 -0.063308 2.391808 4.802673 -0.159164 -27.059354 -0.849150 0.611498 27.323407 2.172927 1.852722 -24.378459 0.000000 0.000000 0.000000 -34.062819 4.353716 -10.742103 -43.843923 5.416740 -7.532266 -7.279978 -26.195335 2.445816 0.000000 0.000000 0.000000 25.511921 0.020816 2.225600 52.350966 -0.335046 -8.422761 3.328497 30.071839 2.853775 0.000000 0.000000 0.000000
-0.615577 0.962691 -1.268825 -2.412232 14.637807 -0.550438 3.458863 0.049294 5.160803 -5.464325 0.287967 -5.251022 5.702019 15.313584 15.012758 0.000000 0.000000 0.000000 -0.429000 -0.201987 1.814159 3.254151 -0.462528 0.149891 -4.403345 -11.685836 15.626489 0.000000 0.000000 0.000000 -1.390775 -0.056538 2.295565 5.093356 -0.244464 -26.492736 -1.169086 0.735554 26.798801 2.464594 1.653099 -24.023783 0.000000 0.000000 0.000000 -33.751772 4.366672 -10.684129 -43.861439 5.265595 -7.449431 -7.298817 -26.496925 2.463886 0.000000 0.000000 0.000000 25.875705 0.215257 2.381056 52.266132 0.248339 -8.162656 3.363789 30.379110 2.902864 0.000000 0.000000 0.000000
-0.615963 0.962419 -1.269857 -2.359723 14.745619 -0.492772 3.580664 0.038893 5.259573 -5.917403 0.288816 -5.413177 5.782217 15.309771 14.457885 0.000000 0.000000 0.000000 -0.579578 -0.199303 1.800356 3.595838 -0.514358 0.302180 -4.489905 -11.813301 14.856712 0.000000 0.000000 0.000000 -1.508507 -0.049774 2.152253 4.955743 -0.204051 -26.701721 -1.092517 0.288302 27.170714 2.176401 1.789427 -24.319690 0.000000 0.000000 0.000000 -33.963144 4.244007 -10.472177 -43.148214 4.840077 -7.248915 -7.524129 -26.357210 2.532172 0.000000 0.000000 0.000000 25.682828 0.453245 2.406318 52.648204 0.278652 -8.197335 3.474865 30.437425 2.926970 0.000000 0.000000 0.000000
-0.616518 0.961653 -1.271289 -2.101573 15.172081 -0.524357 3.353204 0.055277 5.262166 -5.808261 0.291978 -5.028231 5.218217 14.303203 13.249049 0.000000 0.000000 0.000000 -0.924904 -0.212938 1.932564 3.616975 -0.521530 0.071191 -4.479997 -11.743030 14.913970 0.000000 0.000000 0.000000 -1.465414 -0.062214 2.544301 4.600100 -0.114044 -26.675348 -1.187702 0.501804 27.450064 2.322493 1.736758 -23.818709 0.000000 0.000000 0.000000 -33.387204 3.741691 -10.165864 -43.328899 4.308926 -7.088622 -7.353839 -26.694955 2.494823 0.000000 0.000000 0.000000 26.221521 0.118241 2.415001 52.399447 1.439016 -7.800900 3.030511 30.955925 2.925983 0.000000 0.000000 0.000000
-0.617209 0.961304 -1.273291 -2.353336 14.988635 -0.281697 3.531287 0.016673 4.501400 -5.712157 0.304863 -4.623883 5.518135 14.735906 13.316290 0.000000 0.000000 0.000000 -0.914102 -0.103669 0.920109 4.411786 -0.644944 0.669818 -5.034977 -12.791210 15.384107 0.000000 0.000000 0.000000 -1.882882 -0.052178 2.536934 5.173960 -0.255707 -26.354836 -0.876565 0.930712 27.001689 2.354014 1.774956 -23.992627 0.000000 0.000000 0.000000 -32.718051 3.841543 -10.142593 -43.765797 3.890177 -7.006775 -8.561914 -26.410048 2.721839 0.000000 0.000000 0.000000 25.800975 -0.159433 2.269980 52.886494 2.068808 -7.532293 2.453805 30.113982 2.697540 0.000000 0.000000 0.000000
-0.618044 0.962354 -1.275655 -2.038794 16.146974 -0.868077 3.459363 0.021885 4.905487 -5.515498 0.292421 -4.216724 4.020789 12.583909 12.773424 0.000000 0.000000 0.000000 -1.030478 -0.226630 2.012654 4.666961 -0.689603 -0.370387 -6.221996 -14.794289 16.423437 0.000000 0.000000 0.000000 -1.924872 -0.068886 3.084127 4.843579 -0.168064 -26.019024 -1.150791 0.466249 27.592352 2.275425 1.890982 -24.213299 0.000000 0.000000 0.000000 -32.167948 3.379628 -9.783196 -43.694267 2.601997 -6.596370 -7.370655 -26.891576 2.474677 0.000000 0.000000 0.000000 26.638680 0.323438 2.863450 51.997240 3.545705 -7.083731 1.643441 29.743360 2.475484 0.000000 0.000000 0.000000
