HIERARCHY
ROOT Hips
{
	OFFSET -0.001795 -0.223333 0.028219
	CHANNELS 6 Xposition Yposition Zposition Zrotation Yrotation Xrotation 
	JOINT LeftUpLeg
	{
		OFFSET 0.069520 -0.091406 -0.006815
		CHANNELS 3 Zrotation Yrotation Xrotation
		JOINT LeftLeg
		{
			OFFSET 0.034277 -0.375199 -0.004496
			CHANNELS 3 Zrotation Yrotation Xrotation
			JOINT LeftFoot
			{
				OFFSET -0.013596 -0.397961 -0.043693
				CHANNELS 3 Zrotation Yrotation Xrotation
				JOINT LeftToe
				{
					OFFSET 0.026358 -0.055791 0.119288
					CHANNELS 3 Zrotation Yrotation Xrotation
					End Site
					{
						OFFSET 0.000000 0.000000 0.000000
					}
				}
			}
		}
	}
	JOINT RightUpLeg
	{
		OFFSET -0.067670 -0.090522 -0.004320
		CHANNELS 3 Zrotation Yrotation Xrotation
		JOINT RightLeg
		{
			OFFSET -0.038290 -0.382569 -0.008850
			CHANNELS 3 Zrotation Yrotation Xrotation
			JOINT RightFoot
			{
				OFFSET 0.015774 -0.398415 -0.042312
				CHANNELS 3 Zrotation Yrotation Xrotation
				JOINT RightToe
				{
					OFFSET -0.025372 -0.048144 0.123348
					CHANNELS 3 Zrotation Yrotation Xrotation
					End Site
					{
						OFFSET 0.000000 0.000000 0.000000
					}
				}
			}
		}
	}
	JOINT Spine
	{
		OFFSET -0.002533 0.108963 -0.026696
		CHANNELS 3 Zrotation Yrotation Xrotation
		JOINT Spine1
		{
			OFFSET 0.005487 0.135180 0.001092
			CHANNELS 3 Zrotation Yrotation Xrotation
			JOINT Spine2
			{
				OFFSET 0.001457 0.052922 0.025425
				CHANNELS 3 Zrotation Yrotation Xrotation
				JOINT Neck
				{
					OFFSET -0.002778 0.213870 -0.042857
					CHANNELS 3 Zrotation Yrotation Xrotation
					JOINT Head
					{
						OFFSET 0.005152 0.064970 0.051349
						CHANNELS 3 Zrotation Yrotation Xrotation
						End Site
						{
							OFFSET 0.000000 0.000000 0.000000
						}
					}
				}
				JOINT LeftShoulder
				{
					OFFSET 0.078845 0.121749 -0.034090
					CHANNELS 3 Zrotation Yrotation Xrotation
					JOINT LeftArm
					{
						OFFSET 0.090977 0.030469 -0.008868
						CHANNELS 3 Zrotation Yrotation Xrotation
						JOINT LeftForeArm
						{
							OFFSET 0.259612 -0.012772 -0.027456
							CHANNELS 3 Zrotation Yrotation Xrotation
							JOINT LeftHand
							{
								OFFSET 0.249234 0.008986 -0.001171
								CHANNELS 3 Zrotation Yrotation Xrotation
								End Site
								{
									OFFSET 0.000000 0.000000 0.000000
								}
							}
						}
					}
				}
				JOINT RightShoulder
				{
					OFFSET -0.081759 0.118833 -0.038615
					CHANNELS 3 Zrotation Yrotation Xrotation
					JOINT RightArm
					{
						OFFSET -0.096012 0.032551 -0.009143
						CHANNELS 3 Zrotation Yrotation Xrotation
						JOINT RightForeArm
						{
							OFFSET -0.253742 -0.013329 -0.021401
							CHANNELS 3 Zrotation Yrotation Xrotation
							JOINT RightHand
							{
								OFFSET -0.255298 0.007772 -0.005559
								CHANNELS 3 Zrotation Yrotation Xrotation
								End Site
								{
									OFFSET 0.000000 0.000000 0.000000
								}
							}
						}
					}
				}
			}
		}
	}
}
MOTION
Frames: 64
Frame Time: 0.050000
0.000000 0.930983 0.000000 -4.416872 16.822345 -2.915445 6.111900 -0.241343 7.917015 -1.386101 0.097681 0.134707 3.011822 6.180053 0.648602 0.000000 0.000000 0.000000 -10.085370 -0.314280 -8.907780 -1.800633 0.436254 5.245590 2.029115 -1.336611 22.418824 0.000000 0.000000 0.000000 0.143814 0.042558 -1.132635 5.299659 -2.371570 -1.719446 -3.248696 -8.013401 5.056579 4.565087 -3.097334 -4.500365 0.000000 0.000000 0.000000 -17.353352 -12.478208 4.334973 -61.085472 -36.406207 12.664273 -156.461276 -62.970172 148.355164 0.000000 0.000000 0.000000 14.313440 0.256460 -0.822187 46.242185 17.516495 1.877742 -99.610874 44.254150 -44.942304 0.000000 0.000000 0.000000 
0.001209 0.931841 -0.002793 -4.567647 16.790903 -2.183661 5.752691 -0.200968 7.379729 -0.730880 0.072316 -0.703437 2.984880 6.296685 0.972442 0.000000 0.000000 0.000000 -10.842234 -0.411386 -9.818365 -0.982223 0.270721 4.509523 3.083358 -0.293629 24.606017 0.000000 0.000000 0.000000 -0.841300 0.029728 -1.156096 6.280315 -2.924691 -1.244145 -2.511280 -7.975669 3.998204 5.474527 -4.640514 0.646698 0.000000 0.000000 0.000000 -21.112433 -12.689594 4.519745 -58.590347 -35.369783 11.537498 -154.460762 -63.801468 145.704894 0.000000 0.000000 0.000000 14.405368 0.356088 -0.849009 46.967200 17.891885 2.191237 -94.725144 45.718539 -43.348020 0.000000 0.000000 0.000000 
0.002388 0.929724 -0.006704 -4.211736 14.332193 -2.879116 5.611179 -0.107422 8.349782 -2.050963 0.168135 -0.422193 4.042457 8.147928 0.570860 0.000000 0.000000 0.000000 -11.435470 -0.410030 -9.917586 -0.230751 0.145609 4.187624 4.016283 0.422508 25.097406 0.000000 0.000000 0.000000 -1.150366 -0.007590 0.151216 6.531423 -2.954244 -1.938691 -2.949423 -5.884921 5.495213 6.302804 -5.258777 -0.001558 0.000000 0.000000 0.000000 -21.189745 -14.133703 5.106163 -56.403389 -35.363740 10.858069 -154.556661 -68.895635 148.496562 0.000000 0.000000 0.000000 16.722082 2.812595 0.500926 45.536663 19.791497 2.576815 -90.009996 43.617197 -37.558026 0.000000 0.000000 0.000000 
0.003126 0.926574 -0.011096 -4.269933 11.177516 -3.779969 4.963360 0.076935 8.962853 -1.836107 0.140835 0.820427 5.644148 10.951065 -0.356931 0.000000 0.000000 0.000000 -11.886943 -0.385731 -11.225649 0.661425 0.020105 4.653329 6.616522 2.406006 28.323101 0.000000 0.000000 0.000000 -0.515655 -0.019830 0.555717 5.359643 -2.684902 0.337323 -1.561058 -5.050443 4.766458 5.235693 -4.636980 1.674936 0.000000 0.000000 0.000000 -22.361125 -14.048118 5.476201 -55.846886 -34.339235 10.184434 -146.241906 -75.641299 142.271703 0.000000 0.000000 0.000000 17.469727 4.466351 1.027935 45.001390 21.217669 3.166633 -78.338196 43.081530 -31.073301 0.000000 0.000000 0.000000 
0.003322 0.924621 -0.014982 -4.254311 8.633915 -5.006175 5.126700 0.156872 9.509988 -2.925735 0.233264 2.623766 6.749514 13.105827 -0.819554 0.000000 0.000000 0.000000 -11.809764 -0.300309 -11.457636 1.444799 -0.101040 4.280109 6.821147 1.871877 29.046874 0.000000 0.000000 0.000000 -0.851366 -0.072427 1.982422 5.250204 -2.679707 0.756731 -1.028981 -4.515097 5.599903 4.937110 -4.278652 0.862691 0.000000 0.000000 0.000000 -22.350912 -14.815563 6.263837 -54.716276 -33.803916 9.484606 -129.692281 -82.452877 128.631385 0.000000 0.000000 0.000000 18.804888 6.127030 1.655276 44.370108 22.347354 3.485151 -69.727997 44.614867 -28.107662 0.000000 0.000000 0.000000 
0.003467 0.923039 -0.017119 -4.441314 3.912217 -4.969242 4.862680 0.338250 9.854011 -3.513832 0.339141 3.018033 8.641711 17.260518 -0.291966 0.000000 0.000000 0.000000 -10.835057 0.014672 -13.519232 1.806941 -0.141689 3.353918 8.044106 2.278058 29.880617 0.000000 0.000000 0.000000 -0.158563 -0.064273 1.627553 4.758330 -2.427013 0.953877 0.278735 -5.158873 6.986819 2.811672 -2.542838 1.037614 0.000000 0.000000 0.000000 -22.845639 -14.562662 7.341942 -52.581876 -33.718294 8.563930 -80.351782 -86.907695 83.660237 0.000000 0.000000 0.000000 20.287319 7.841872 1.646138 45.221786 20.707206 3.087933 -68.330396 50.996912 -33.155385 0.000000 0.000000 0.000000 
0.004398 0.921528 -0.016680 -4.699082 0.462366 -5.317052 4.572819 0.498911 10.446888 -3.637193 0.387211 3.642694 10.081237 20.398863 0.102087 0.000000 0.000000 0.000000 -9.372774 0.339057 -14.758066 1.593784 -0.107709 2.677050 8.520198 2.941074 28.208524 0.000000 0.000000 0.000000 0.288728 -0.109880 2.576722 5.161688 -2.608559 0.880802 1.156892 -8.022703 7.138717 1.577108 -1.533083 1.204512 0.000000 0.000000 0.000000 -23.038981 -13.393278 8.283768 -50.682456 -33.891570 7.826052 26.658609 -87.197405 -17.198363 0.000000 0.000000 0.000000 21.049229 8.414810 0.430750 46.772278 17.207734 2.323136 -68.885692 59.100421 -41.712267 0.000000 0.000000 0.000000 
0.007192 0.919702 -0.013307 -4.611985 -4.317779 -5.435371 3.883807 0.777808 11.514315 -4.448826 0.564577 3.547427 11.966007 24.504480 1.237697 0.000000 0.000000 0.000000 -8.326406 0.684824 -16.142288 2.077155 -0.151062 2.393651 9.584107 4.572715 25.969032 0.000000 0.000000 0.000000 1.150089 -0.125982 2.657265 5.471618 -2.695144 0.349992 1.928855 -11.426749 7.764833 -0.204598 0.053112 3.171572 0.000000 0.000000 0.000000 -22.904662 -11.781809 9.268447 -48.687349 -34.615632 7.225291 64.377997 -84.891069 -49.134731 0.000000 0.000000 0.000000 23.129608 7.107664 -2.612624 44.400823 11.676336 0.898085 -71.253526 69.450278 -54.619978 0.000000 0.000000 0.000000 
0.011897 0.918154 -0.007382 -4.283076 -7.945166 -5.742926 2.670090 1.127260 12.913453 -4.759273 0.656812 2.968880 13.421755 27.562964 2.431726 0.000000 0.000000 0.000000 -7.399054 0.960443 -16.979478 1.634043 -0.075948 2.553884 10.861066 6.426532 24.821313 0.000000 0.000000 0.000000 2.109210 -0.125334 2.466282 5.982792 -2.877883 -0.382222 2.382336 -15.923066 7.492986 -2.669220 2.647374 4.810863 0.000000 0.000000 0.000000 -23.048370 -10.301389 10.514078 -48.119123 -36.034371 7.278696 89.612511 -83.253176 -68.932397 0.000000 0.000000 0.000000 22.262753 5.443516 -5.419621 40.789402 5.297532 -0.565412 -73.918437 74.848833 -64.279419 0.000000 0.000000 0.000000 
0.017705 0.916224 0.000782 -3.565261 -12.085306 -5.992344 0.320905 1.668083 14.368078 -4.288710 0.622121 2.019938 15.272364 31.168411 4.279072 0.000000 0.000000 0.000000 -6.783120 1.282167 -18.504349 1.238793 0.028642 3.653708 12.183335 7.699013 24.815177 0.000000 0.000000 0.000000 3.109473 -0.098281 1.983467 6.738167 -3.158190 -1.196435 1.624418 -19.820379 8.296893 -4.236102 4.748736 6.315835 0.000000 0.000000 0.000000 -21.697970 -9.518932 11.532136 -48.475953 -37.840723 8.080795 108.285984 -79.119363 -80.049515 0.000000 0.000000 0.000000 20.531189 3.232223 -7.704222 34.918825 0.810770 -1.243837 -80.883190 75.807316 -73.292524 0.000000 0.000000 0.000000 
0.022502 0.914386 0.010531 -2.756879 -15.011138 -6.396073 -1.480742 2.133635 15.478704 -4.460937 0.681720 1.642576 16.611148 33.553517 5.897102 0.000000 0.000000 0.000000 -6.082287 1.537627 -19.316787 0.374799 0.210245 5.024283 12.966435 9.300586 23.496328 0.000000 0.000000 0.000000 4.198752 -0.107544 2.214579 7.429313 -3.373663 -2.620213 1.019214 -23.457983 8.345429 -4.573268 6.194757 8.605574 0.000000 0.000000 0.000000 -21.019319 -9.933933 13.149161 -47.859495 -41.599942 9.679844 106.888947 -72.546052 -69.494846 0.000000 0.000000 0.000000 16.420677 0.361809 -8.385770 31.347156 -0.961604 -1.557393 -73.626371 72.920484 -65.599740 0.000000 0.000000 0.000000 
0.024164 0.912430 0.021978 -1.885498 -17.321043 -6.806451 -2.633100 2.525202 16.436779 -5.345511 0.865002 1.541320 17.619286 35.164031 7.414169 0.000000 0.000000 0.000000 -5.690235 1.794548 -20.550026 0.418023 0.351047 7.228666 15.095247 14.601960 21.187222 0.000000 0.000000 0.000000 5.475331 -0.110718 2.481477 7.570274 -3.394606 -3.273586 0.153857 -25.874940 8.566337 -4.599243 6.244794 7.699091 0.000000 0.000000 0.000000 -18.475707 -10.732699 13.486430 -47.860900 -45.814072 12.568416 103.350734 -64.825246 -56.752616 0.000000 0.000000 0.000000 13.547636 -2.953378 -8.891491 27.140942 -1.300590 -1.474628 -68.479998 68.684345 -58.200052 0.000000 0.000000 0.000000 
0.021650 0.909884 0.035546 -1.682502 -18.416098 -6.764619 -2.889399 2.794048 17.433949 -5.741681 0.940074 1.206724 18.043065 35.907662 7.977731 0.000000 0.000000 0.000000 -4.665815 2.009414 -20.942026 -0.212349 0.516966 8.189482 18.848781 22.270350 20.668490 0.000000 0.000000 0.000000 6.956726 -0.054050 2.142022 7.279718 -3.247584 -3.761320 -0.389981 -28.533793 8.121009 -4.295700 6.771992 8.918086 0.000000 0.000000 0.000000 -16.921553 -11.449878 13.968126 -45.589977 -48.853243 13.768567 98.820817 -56.851594 -44.178112 0.000000 0.000000 0.000000 9.220771 -5.463777 -7.759341 26.170265 0.739328 -1.375616 -60.893337 63.085392 -49.068223 0.000000 0.000000 0.000000 
0.014872 0.908651 0.051633 -1.484251 -18.281843 -7.317412 -2.557092 3.028200 18.861355 -6.068570 1.012372 1.703421 17.909520 35.347726 8.876177 0.000000 0.000000 0.000000 -3.890539 2.073652 -20.732758 0.447796 0.591106 10.460333 20.053246 26.370406 19.219975 0.000000 0.000000 0.000000 7.472934 -0.086556 2.704040 7.428123 -3.293932 -4.290957 -0.204212 -30.210770 7.226973 -3.331801 6.388757 9.840700 0.000000 0.000000 0.000000 -16.436093 -12.127962 14.407368 -41.056118 -50.362999 12.802768 95.802782 -51.167214 -36.887818 0.000000 0.000000 0.000000 6.334452 -7.695052 -6.864235 24.539883 1.854639 -1.364457 -57.581511 58.553969 -43.793708 0.000000 0.000000 0.000000 
0.004507 0.908385 0.070592 -1.801970 -17.670076 -6.519668 -2.361583 3.143900 19.715615 -4.853702 0.769242 1.240746 17.818457 34.603343 10.152090 0.000000 0.000000 0.000000 -2.965671 2.281588 -21.420389 1.051721 0.620609 12.256538 20.642056 28.564931 18.504525 0.000000 0.000000 0.000000 8.363770 0.077670 1.190247 7.313032 -3.220394 -4.516324 -0.119630 -32.072569 6.788031 -2.897184 6.041958 9.560478 0.000000 0.000000 0.000000 -15.613302 -11.759483 14.054075 -37.445645 -49.105003 10.982312 93.110491 -46.396268 -30.805792 0.000000 0.000000 0.000000 3.402471 -9.600841 -5.794871 23.552371 3.607286 -1.296328 -59.229259 56.158360 -44.193228 0.000000 0.000000 0.000000 
-0.008584 0.910508 0.091953 -2.135737 -15.423363 -6.487542 -0.993730 3.125444 21.403698 -4.222074 0.629815 1.010546 16.635569 31.828705 11.761884 0.000000 0.000000 0.000000 -2.279441 2.213996 -20.731314 1.224674 0.646534 13.559894 20.053672 29.718401 16.662662 0.000000 0.000000 0.000000 7.892808 0.167496 0.146712 7.912059 -3.447102 -4.656496 0.826485 -34.319984 5.692118 -2.277837 5.762748 9.919956 0.000000 0.000000 0.000000 -14.542586 -10.533114 13.123200 -35.906778 -46.869639 9.574349 95.137591 -42.981501 -27.488780 0.000000 0.000000 0.000000 1.893765 -9.525591 -4.906498 22.628197 4.619171 -1.158395 -65.500970 51.983524 -46.307831 0.000000 0.000000 0.000000 
-0.022887 0.912289 0.115682 -2.621263 -12.418455 -5.827401 0.894432 2.737882 22.207500 -3.901431 0.549613 1.394592 15.087342 28.825876 12.488968 0.000000 0.000000 0.000000 -2.109926 2.127007 -20.562897 2.216004 0.416909 14.236359 18.271157 27.547990 15.486973 0.000000 0.000000 0.000000 7.641083 0.387240 -2.119877 7.691154 -3.400007 -3.783873 2.888877 -35.251388 4.034757 -3.237862 5.959097 8.186518 0.000000 0.000000 0.000000 -15.786173 -8.937626 12.776552 -33.771765 -44.974946 7.622312 97.980219 -41.722620 -27.492590 0.000000 0.000000 0.000000 1.052047 -9.537298 -4.325781 24.254799 5.435625 -1.239040 -79.955130 47.699060 -53.846836 0.000000 0.000000 0.000000 
-0.036553 0.915406 0.141389 -3.155379 -9.534092 -5.348435 3.109695 2.228304 22.978330 -4.025672 0.541151 1.811450 13.775729 26.191292 14.489818 0.000000 0.000000 0.000000 -1.055338 2.026012 -19.170766 2.012009 0.369316 14.020946 15.983435 25.480455 13.151442 0.000000 0.000000 0.000000 7.472793 0.778570 -5.777853 7.533681 -3.432846 -2.269700 4.110857 -35.042870 2.931683 -3.091630 5.085443 6.704691 0.000000 0.000000 0.000000 -17.892366 -7.256654 12.496231 -31.408340 -42.257701 5.214370 98.048584 -41.681212 -27.842443 0.000000 0.000000 0.000000 -0.495761 -8.022444 -2.844276 29.864547 9.067185 -1.199349 -96.979404 40.086858 -60.599443 0.000000 0.000000 0.000000 
-0.048666 0.918640 0.168715 -3.462424 -5.392272 -5.841431 5.439999 1.475486 23.393360 -3.353169 0.403263 3.657680 11.359771 22.298795 17.455327 0.000000 0.000000 0.000000 -1.295570 1.655752 -17.091978 3.448194 -0.059600 14.325333 13.304950 22.192502 11.015622 0.000000 0.000000 0.000000 6.132566 0.906634 -8.183746 7.208365 -3.412983 -0.889760 4.408872 -31.095512 1.643258 -1.695928 3.516260 7.505745 0.000000 0.000000 0.000000 -18.500276 -7.451325 11.244396 -31.110175 -38.657441 4.023825 102.761640 -44.821823 -35.966829 0.000000 0.000000 0.000000 -0.476104 -6.197631 -2.043361 37.823122 12.835810 -0.759021 -114.267737 34.080217 -65.963700 0.000000 0.000000 0.000000 
-0.057665 0.923646 0.195461 -3.542799 -0.800964 -7.518055 8.125661 0.534069 24.029134 -4.204113 0.486106 5.082012 10.864490 21.576376 24.366011 0.000000 0.000000 0.000000 -0.801929 1.221541 -12.925801 2.521873 -0.009081 14.088708 10.612910 19.811896 7.578395 0.000000 0.000000 0.000000 5.492989 0.992260 -10.063845 5.314449 -2.649354 0.525421 4.145976 -25.211530 0.904877 1.194873 0.256857 8.053118 0.000000 0.000000 0.000000 -18.566717 -8.028470 9.392863 -33.282259 -36.125644 4.132958 105.839714 -50.112655 -46.981076 0.000000 0.000000 0.000000 -2.265772 -0.884190 0.419919 47.304947 19.562655 1.201818 -128.917098 28.751996 -69.055733 0.000000 0.000000 0.000000 
-0.062984 0.928151 0.218767 -3.523565 5.910441 -8.859873 10.676231 -0.728363 23.389181 -3.629874 0.295448 7.329083 7.240480 17.913942 27.308589 0.000000 0.000000 0.000000 -1.519705 0.691018 -8.319629 3.585464 -0.489409 12.523254 6.761567 14.013127 4.324665 0.000000 0.000000 0.000000 3.936735 0.837977 -11.672627 4.391276 -2.290031 1.294112 1.443773 -16.297064 0.486510 5.022089 -4.236073 6.737371 0.000000 0.000000 0.000000 -13.880716 -10.426560 6.433479 -39.813601 -35.425679 6.610519 109.512344 -53.603634 -59.140953 0.000000 0.000000 0.000000 -2.216108 4.524389 1.825125 51.433399 28.218428 6.068444 -133.502432 31.063417 -69.733725 0.000000 0.000000 0.000000 
-0.064796 0.930493 0.236524 -3.963361 12.871727 -10.555310 12.924198 -2.085191 23.278489 -3.586063 0.175299 8.420051 6.509413 17.616553 27.337184 0.000000 0.000000 0.000000 -1.632392 0.235908 -3.421975 3.425043 -0.633654 10.677827 4.197605 9.832626 1.642108 0.000000 0.000000 0.000000 3.386365 0.669005 -12.162262 2.995324 -1.684966 2.003697 -1.226075 -6.876800 -0.275561 9.971231 -9.250853 5.310648 0.000000 0.000000 0.000000 -8.995688 -12.651553 4.456611 -45.029543 -36.494846 8.813864 113.180151 -56.711206 -74.243680 0.000000 0.000000 0.000000 -2.529334 11.118798 3.778274 46.913470 41.353994 12.349283 -113.791343 34.341210 -44.680677 0.000000 0.000000 0.000000 
-0.063427 0.931745 0.249789 -4.202459 21.210388 -11.890572 14.857253 -3.380122 21.194247 -3.500359 -0.077908 11.392132 5.227466 16.412718 24.174745 0.000000 0.000000 0.000000 -2.377846 -0.234212 0.620425 4.264020 -1.019668 8.936593 1.337587 3.257412 0.303472 0.000000 0.000000 0.000000 2.617767 0.407116 -11.940771 1.468819 -0.817812 1.015375 -4.333058 1.933118 1.078227 14.358574 -11.975734 -0.067530 0.000000 0.000000 0.000000 -2.671916 -16.427563 4.570802 -50.233123 -40.223450 10.335948 118.957574 -56.952234 -89.737551 0.000000 0.000000 0.000000 -6.897454 15.221806 4.506022 34.664178 46.686339 11.940584 -82.536899 24.177855 -11.971574 0.000000 0.000000 0.000000 
-0.059287 0.932253 0.261196 -5.543065 29.211771 -12.151798 17.174950 -4.468287 17.638599 -3.326959 -0.389837 13.485352 -0.921538 3.510855 7.746367 0.000000 0.000000 0.000000 -1.671820 -0.539704 3.096387 4.839015 -1.339814 7.563003 -1.183544 -3.483100 -1.321987 0.000000 0.000000 0.000000 2.192756 0.143392 -12.887956 0.555697 -0.574226 2.027595 -6.122134 7.725986 0.411800 17.028676 -12.846866 -3.331423 0.000000 0.000000 0.000000 1.257076 -15.614733 4.430929 -56.044732 -43.959280 10.965704 129.965370 -57.324718 -109.954078 0.000000 0.000000 0.000000 -8.778344 17.981546 5.046083 20.310757 45.299472 7.287260 -58.080304 14.110431 -1.526742 0.000000 0.000000 0.000000 
-0.052930 0.932460 0.271464 -6.472485 36.391447 -13.210110 18.006187 -5.075337 15.246351 -2.743816 -0.782513 15.083739 -2.804502 -6.622086 -1.136113 0.000000 0.000000 0.000000 -1.814162 -0.857162 4.787979 6.002640 -1.904433 7.224749 -3.431473 -9.979328 -0.392838 0.000000 0.000000 0.000000 1.602883 -0.081921 -12.459950 -0.112356 0.005766 -0.011013 -7.027477 11.866911 2.967692 18.383679 -12.885291 -5.461392 0.000000 0.000000 0.000000 3.651088 -14.713104 4.671902 -56.498929 -45.444689 8.775004 142.035280 -56.373853 -129.633619 0.000000 0.000000 0.000000 -8.156648 18.059590 5.443081 13.785297 43.069019 5.099509 -44.210430 10.391246 0.199412 0.000000 0.000000 0.000000 
-0.044724 0.930956 0.280362 -8.602600 43.520979 -14.868206 19.570651 -6.000358 13.075698 -2.236918 -1.022721 15.278617 -2.933117 -11.650696 -4.995199 0.000000 0.000000 0.000000 -0.965077 -1.132286 6.177283 6.333775 -2.207892 6.258793 -5.807435 -16.006212 2.017702 0.000000 0.000000 0.000000 0.087055 -0.430849 -12.142537 0.708399 -0.480330 0.136785 -8.312655 14.532357 3.189076 20.730854 -13.790536 -7.371525 0.000000 0.000000 0.000000 4.775188 -12.897417 4.558804 -58.962537 -47.314718 7.791249 155.424570 -55.407222 -152.420893 0.000000 0.000000 0.000000 -5.745785 17.681896 6.745703 9.156796 39.197423 2.991751 -40.245292 8.013667 1.081152 0.000000 0.000000 0.000000 
-0.035873 0.930362 0.286889 -10.488774 48.372744 -16.282885 20.013562 -6.542948 12.145187 -1.862067 -1.028190 14.286305 -2.229871 -10.501439 -5.071555 0.000000 0.000000 0.000000 -0.427967 -1.292602 6.823682 6.400299 -2.429275 6.072147 -7.536780 -19.486199 4.436871 0.000000 0.000000 0.000000 -0.691172 -0.591126 -11.558501 0.693955 -0.288456 -1.059817 -7.994742 16.715823 4.553239 21.480017 -12.807223 -9.661553 0.000000 0.000000 0.000000 6.945088 -11.878225 5.240241 -59.093825 -49.998562 6.324277 160.311765 -51.728343 -158.757964 0.000000 0.000000 0.000000 -4.202621 17.711028 7.961310 7.107231 35.020175 1.822451 -39.874708 6.606309 1.796359 0.000000 0.000000 0.000000 
-0.027385 0.930751 0.290114 -12.246546 53.459003 -16.867394 20.902702 -7.137175 10.555634 -2.340546 -0.739626 11.839987 -2.948250 -11.144150 -4.078227 0.000000 0.000000 0.000000 -0.035513 -1.428382 7.277225 5.874234 -2.280627 4.708905 -9.273337 -22.122132 7.343957 0.000000 0.000000 0.000000 -1.641807 -0.821998 -11.303859 0.819156 -0.309189 -1.576196 -7.830735 17.884154 4.882488 21.214630 -12.099299 -10.147270 0.000000 0.000000 0.000000 6.464159 -10.657495 4.655390 -58.875634 -49.585847 5.295472 165.072269 -48.996958 -165.524887 0.000000 0.000000 0.000000 -2.527502 17.195672 9.079455 4.575689 32.617623 0.944307 -40.082615 5.312445 2.342504 0.000000 0.000000 0.000000 
-0.019709 0.933239 0.290166 -13.122482 56.533533 -16.615265 20.493853 -6.947557 9.125063 -2.437450 -0.586221 9.964681 -3.186803 -9.543575 -2.273254 0.000000 0.000000 0.000000 -0.017178 -1.315185 6.544297 5.783702 -2.306646 4.094115 -11.812892 -25.071750 11.487127 0.000000 0.000000 0.000000 -1.543656 -0.767751 -10.417152 0.162640 -0.144496 -1.414749 -7.824044 19.581123 3.800163 22.257131 -12.109898 -11.333289 0.000000 0.000000 0.000000 5.758810 -10.991545 4.239231 -57.115146 -48.148609 4.331254 167.887098 -47.620376 -171.194096 0.000000 0.000000 0.000000 -2.250093 17.366825 9.857102 3.292919 30.316582 0.548692 -39.959529 3.618023 3.026515 0.000000 0.000000 0.000000 
-0.012684 0.935880 0.288294 -13.697546 59.055699 -16.283822 20.026556 -6.842693 8.314648 -3.166775 -0.334397 6.641532 -3.931251 -6.740147 1.256696 0.000000 0.000000 0.000000 -0.352448 -1.361122 6.497763 5.521008 -2.147298 2.873990 -13.493751 -26.004845 15.058675 0.000000 0.000000 0.000000 -1.459682 -0.697857 -9.564043 -0.056183 0.006728 -1.987674 -7.814514 20.715961 3.517357 22.074881 -10.939817 -12.542214 0.000000 0.000000 0.000000 5.153778 -10.368968 3.608937 -56.411490 -45.638702 3.386061 170.187466 -46.034298 -175.132957 0.000000 0.000000 0.000000 -2.429424 17.685152 10.387190 1.810852 29.137773 0.350822 -38.995620 2.906764 3.186747 0.000000 0.000000 0.000000 
-0.006127 0.937565 0.285839 -14.028040 61.236419 -15.956565 19.894723 -6.780109 7.429249 -3.885352 -0.294217 5.086921 -4.821346 -6.328586 3.020617 0.000000 0.000000 0.000000 -1.096941 -1.265475 5.431214 5.693682 -2.343217 3.211109 -15.870841 -27.264642 19.719046 0.000000 0.000000 0.000000 -0.822920 -0.488213 -8.138778 -0.862802 0.005433 -1.011757 -8.708168 21.738285 1.629000 22.787198 -12.516122 -11.276712 0.000000 0.000000 0.000000 3.394964 -10.860196 2.565512 -54.041193 -42.998132 3.284889 169.704993 -45.494287 -173.656406 0.000000 0.000000 0.000000 -2.662643 18.297825 11.011350 0.019907 27.478503 0.070539 -39.420490 1.652969 3.733098 0.000000 0.000000 0.000000 
0.000396 0.937731 0.283605 -13.382069 62.080253 -14.997446 18.667441 -6.349304 7.497473 -3.524351 -0.258749 3.066628 -5.166223 -4.570625 5.101689 0.000000 0.000000 0.000000 -2.124517 -1.366312 5.253944 5.165913 -2.076755 2.486042 -16.744890 -26.186312 23.493031 0.000000 0.000000 0.000000 -0.533289 -0.382446 -7.308766 -1.295387 0.163741 -1.137196 -8.717770 22.383357 1.019922 22.597525 -12.345221 -11.203707 0.000000 0.000000 0.000000 2.297831 -11.804233 1.962442 -52.697336 -40.683659 3.135931 169.543828 -45.499657 -174.167926 0.000000 0.000000 0.000000 -3.763240 18.805153 10.876107 0.129057 26.843752 0.181600 -40.228101 2.580023 3.676597 0.000000 0.000000 0.000000 
0.006796 0.937161 0.281725 -12.959265 62.888259 -14.501876 18.169969 -6.242416 7.608925 -3.641837 -0.267562 1.864736 -6.029654 -4.500523 6.435164 0.000000 0.000000 0.000000 -3.063791 -1.435711 4.760255 5.187055 -2.214214 3.248377 -17.430963 -25.845041 25.761385 0.000000 0.000000 0.000000 -0.735752 -0.297202 -6.107454 -1.371368 0.076274 -0.806985 -9.131106 22.397406 0.239818 23.034213 -13.611721 -10.216564 0.000000 0.000000 0.000000 0.990620 -12.221349 1.217773 -50.546608 -39.410499 3.404110 167.501209 -45.891585 -169.568828 0.000000 0.000000 0.000000 -3.410347 18.369362 10.912230 0.202894 26.695846 0.163341 -42.666274 4.195576 3.544632 0.000000 0.000000 0.000000 
0.013367 0.936136 0.279888 -12.310029 62.871789 -13.624336 17.083158 -5.912264 8.076349 -3.389168 -0.270162 0.495145 -5.264048 -2.498871 7.236286 0.000000 0.000000 0.000000 -4.009940 -1.551243 4.586499 4.972198 -2.117888 3.153081 -17.090700 -24.269658 27.264821 0.000000 0.000000 0.000000 -0.546920 -0.241211 -5.632195 -1.367130 0.162585 -1.168618 -9.137145 22.071005 0.207502 22.639357 -13.003570 -10.457496 0.000000 0.000000 0.000000 -0.420791 -13.341608 0.541435 -49.753170 -37.871499 3.734083 166.020551 -45.930631 -166.589751 0.000000 0.000000 0.000000 -3.327523 18.403943 10.959103 0.931044 27.184462 0.274427 -46.004249 6.265357 3.279880 0.000000 0.000000 0.000000 
0.020214 0.934979 0.277934 -11.559461 62.237665 -12.784046 16.321143 -5.656638 8.535586 -2.883832 -0.241340 0.254263 -5.561628 -2.998688 7.158740 0.000000 0.000000 0.000000 -5.072148 -1.667540 4.290417 5.094847 -2.137691 3.248970 -16.741237 -22.896748 28.769294 0.000000 0.000000 0.000000 -0.706663 -0.243072 -5.532406 -1.401796 0.281497 -1.533267 -8.633425 21.419898 0.761939 22.253104 -13.519554 -9.362670 0.000000 0.000000 0.000000 -1.548628 -14.166210 0.071212 -49.634743 -37.157490 4.157505 164.080938 -45.476324 -161.823426 0.000000 0.000000 0.000000 -3.125825 18.214652 10.764119 2.150028 28.262927 0.472750 -50.008800 7.496896 3.363103 0.000000 0.000000 0.000000 
0.027509 0.934062 0.275826 -10.626063 60.833795 -11.617696 15.403800 -5.356245 9.237521 -2.694697 -0.224149 -0.535961 -5.136167 -1.810605 7.739607 0.000000 0.000000 0.000000 -5.944547 -1.724067 3.959703 4.750791 -1.929487 3.101578 -15.614990 -20.811246 29.427436 0.000000 0.000000 0.000000 -0.721869 -0.274607 -6.120438 -1.105188 0.379951 -2.241773 -8.553106 20.750405 1.490267 21.561677 -12.695949 -9.519483 0.000000 0.000000 0.000000 -1.404937 -15.405696 0.533642 -50.626113 -37.826960 4.407494 162.027540 -45.655174 -158.878209 0.000000 0.000000 0.000000 -2.763889 18.371280 10.890107 3.878364 30.086989 0.823297 -55.321115 8.459777 3.606820 0.000000 0.000000 0.000000 
0.035005 0.933820 0.273887 -9.497078 58.868802 -10.355573 14.263753 -5.011281 10.234218 -2.359841 -0.194088 -1.130314 -4.616722 -0.774941 8.061852 0.000000 0.000000 0.000000 -7.082955 -1.816127 3.609360 5.326160 -2.022678 2.934535 -15.021944 -20.096499 29.501298 0.000000 0.000000 0.000000 -0.948969 -0.341813 -6.900986 -1.130286 0.457426 -2.361377 -7.946376 19.137144 1.983972 20.563164 -12.666832 -8.339154 0.000000 0.000000 0.000000 -2.396900 -16.589733 0.523904 -51.835662 -37.485452 5.084934 160.244165 -45.027472 -154.863135 0.000000 0.000000 0.000000 -2.396391 18.372173 10.612956 4.687678 33.720328 1.266487 -59.745890 8.618484 3.852610 0.000000 0.000000 0.000000 
0.042218 0.933478 0.272477 -8.781591 56.819521 -9.690869 12.943347 -4.642344 11.436289 -1.700876 -0.145673 -1.409048 -3.304210 0.813394 7.779879 0.000000 0.000000 0.000000 -7.580663 -1.766735 2.969601 5.073778 -1.907843 3.401651 -14.688253 -19.499798 30.357934 0.000000 0.000000 0.000000 -0.874202 -0.348006 -7.323624 -0.748278 0.499460 -3.021965 -8.005743 17.646982 2.702371 19.829119 -12.897822 -7.129161 0.000000 0.000000 0.000000 -2.226309 -17.318832 1.094704 -52.625815 -38.899897 5.652648 158.630683 -45.108558 -152.174711 0.000000 0.000000 0.000000 -2.080939 18.360726 10.404284 5.616545 36.792522 1.735189 -64.111845 8.868925 4.060145 0.000000 0.000000 0.000000 
0.048695 0.933376 0.271481 -8.051296 54.069721 -8.884441 11.636840 -4.275165 12.768642 -1.315892 -0.119759 -2.469435 -1.849064 3.610607 8.934582 0.000000 0.000000 0.000000 -8.258131 -1.730966 2.295363 5.594329 -2.021766 3.762069 -14.045613 -19.232789 29.366827 0.000000 0.000000 0.000000 -0.534420 -0.370634 -8.295365 -0.527368 0.512785 -3.301647 -8.039224 16.125723 3.088561 18.602712 -12.425220 -6.172556 0.000000 0.000000 0.000000 -2.136136 -18.278776 1.750069 -52.996388 -40.484837 6.404436 154.598919 -45.853405 -145.570364 0.000000 0.000000 0.000000 -2.257285 18.624062 10.012461 7.299056 40.421193 2.632334 -67.330226 9.265801 3.919472 0.000000 0.000000 0.000000 
0.053869 0.933291 0.270528 -7.453313 51.772642 -8.500657 10.258426 -3.828853 13.760221 -0.698207 -0.076328 -2.174544 -0.198640 5.527315 8.676553 0.000000 0.000000 0.000000 -8.627292 -1.669596 1.666172 5.003222 -1.817411 4.407875 -12.843755 -17.623328 29.453172 0.000000 0.000000 0.000000 0.355695 -0.270619 -8.398140 -0.790617 0.757075 -3.937400 -8.228450 14.654379 3.186525 16.900468 -12.137097 -4.275561 0.000000 0.000000 0.000000 -1.497703 -19.049310 2.607696 -52.466874 -42.591210 6.998691 149.128990 -46.519282 -136.460671 0.000000 0.000000 0.000000 -2.258240 18.902967 9.808448 8.261866 42.596129 3.147759 -68.586100 9.769385 3.442776 0.000000 0.000000 0.000000 
0.057786 0.933179 0.269241 -6.936522 48.998282 -8.125970 9.397172 -3.540418 14.845808 -0.720331 -0.054192 -2.696086 0.706184 7.293414 9.749790 0.000000 0.000000 0.000000 -8.990346 -1.566597 0.423478 4.792839 -1.802706 5.732744 -11.714608 -16.418747 28.958735 0.000000 0.000000 0.000000 0.915775 -0.205738 -8.702082 -0.879501 0.903291 -4.473501 -7.884391 13.369489 3.781104 15.417671 -10.821435 -4.118597 0.000000 0.000000 0.000000 -1.708889 -19.608021 2.968300 -51.177587 -44.329301 7.712392 144.562872 -47.160338 -128.881880 0.000000 0.000000 0.000000 -3.280381 19.795751 9.318903 8.932996 44.017183 3.623881 -67.345809 9.943612 2.829650 0.000000 0.000000 0.000000 
0.060468 0.932737 0.267677 -6.551337 46.316477 -7.898528 8.464845 -3.092282 15.226324 -0.265845 -0.028571 -2.415974 1.446899 8.932590 11.176295 0.000000 0.000000 0.000000 -8.989372 -1.417372 -0.714296 3.964068 -1.568022 6.833076 -10.309849 -14.755086 28.455501 0.000000 0.000000 0.000000 2.034039 -0.052064 -8.182072 -1.147847 1.092449 -4.975316 -8.069959 12.569625 3.656062 14.085764 -10.369154 -2.878005 0.000000 0.000000 0.000000 -1.523596 -20.466454 3.555301 -48.802379 -45.551836 7.882375 139.503096 -47.155220 -120.410681 0.000000 0.000000 0.000000 -3.761093 20.231362 9.026003 8.972967 45.157755 3.797850 -66.681064 10.852737 1.899331 0.000000 0.000000 0.000000 
0.061978 0.932897 0.266209 -6.419156 43.951097 -7.982117 8.052472 -2.920923 16.040631 -0.419472 -0.010544 -2.659771 2.087517 10.143195 12.199840 0.000000 0.000000 0.000000 -8.955890 -1.297715 -1.673250 3.760088 -1.495073 7.516309 -9.705530 -14.138481 29.134734 0.000000 0.000000 0.000000 2.645476 0.034253 -7.897015 -1.025537 1.022384 -4.720562 -7.659260 11.272544 3.518609 13.635832 -10.165673 -2.514553 0.000000 0.000000 0.000000 -1.777408 -20.413010 3.779179 -45.969045 -45.558320 7.816295 134.634481 -45.757820 -109.972209 0.000000 0.000000 0.000000 -4.202925 20.606087 8.661205 9.171750 45.363665 3.772142 -67.522592 12.962780 0.393888 0.000000 0.000000 0.000000 
0.062478 0.931871 0.265439 -6.473156 42.008611 -8.233935 7.858059 -2.730336 16.286369 -0.448511 0.001894 -2.130811 2.823584 11.253680 12.890020 0.000000 0.000000 0.000000 -8.734532 -1.167623 -2.644253 3.615273 -1.476623 8.427870 -9.411221 -13.987280 29.673267 0.000000 0.000000 0.000000 2.920024 0.100087 -7.310486 -0.488740 0.842351 -4.864443 -7.523735 10.062542 3.490366 12.915396 -9.917128 -1.821097 0.000000 0.000000 0.000000 -1.864057 -21.064785 4.214097 -43.619780 -45.408915 7.620439 131.769857 -44.822891 -103.497066 0.000000 0.000000 0.000000 -3.577380 20.192140 8.498459 9.228543 45.113161 3.513225 -69.442469 15.299896 -1.289423 0.000000 0.000000 0.000000 
0.062010 0.931290 0.265286 -6.386427 39.618935 -8.275104 7.714844 -2.590828 16.953489 -1.014231 0.024294 -2.167751 4.008834 12.762853 13.419081 0.000000 0.000000 0.000000 -8.517508 -1.025698 -3.393236 3.431505 -1.384540 8.990342 -8.357672 -13.004285 28.779125 0.000000 0.000000 0.000000 2.939464 0.140081 -7.068190 0.002705 0.581174 -4.391596 -7.025823 8.466102 3.145033 12.257006 -9.723687 -1.097489 0.000000 0.000000 0.000000 -2.484597 -20.587754 4.265196 -41.066521 -44.871130 7.449203 128.960150 -43.379559 -95.349088 0.000000 0.000000 0.000000 -2.593220 19.576086 8.324077 9.753675 44.921569 3.316715 -73.615744 18.886880 -4.209639 0.000000 0.000000 0.000000 
0.060539 0.929917 0.265503 -6.500031 37.810566 -8.401740 7.679053 -2.390596 16.772308 -1.133037 0.027633 -1.051367 5.084632 13.947454 13.371263 0.000000 0.000000 0.000000 -7.972702 -0.854314 -4.694206 3.488768 -1.438160 9.967266 -9.082043 -14.272744 29.786377 0.000000 0.000000 0.000000 2.890460 0.168714 -6.320094 0.435104 0.370017 -4.165955 -6.629383 7.017603 2.972439 11.895756 -10.057472 0.155394 0.000000 0.000000 0.000000 -3.750229 -21.182534 4.405715 -38.459644 -44.229525 7.235488 126.788849 -42.406604 -89.356594 0.000000 0.000000 0.000000 -1.302346 19.024015 8.344819 10.410126 44.134891 3.060316 -78.481495 21.368795 -6.811948 0.000000 0.000000 0.000000 
0.058577 0.928449 0.265589 -6.725846 35.816802 -8.493439 7.929255 -2.333905 17.017989 -1.672785 0.050113 -0.857581 6.239981 15.270595 13.500029 0.000000 0.000000 0.000000 -7.447563 -0.688672 -5.909780 3.492234 -1.432150 10.638729 -8.929239 -14.327981 30.582725 0.000000 0.000000 0.000000 2.894893 0.190599 -6.186918 0.857451 0.125208 -3.744649 -6.207745 5.734487 2.789183 11.424356 -9.701921 0.364379 0.000000 0.000000 0.000000 -4.159646 -21.743977 4.818391 -37.479343 -44.707184 7.381197 126.257845 -42.481786 -87.000368 0.000000 0.000000 0.000000 -0.825201 18.357658 7.989166 11.726583 42.981170 3.075212 -83.328202 23.455579 -9.467304 0.000000 0.000000 0.000000 
0.056732 0.926458 0.265398 -7.084768 34.361779 -8.628158 8.260432 -2.324941 17.149844 -2.004200 0.067372 -0.717405 7.234626 16.303615 13.236300 0.000000 0.000000 0.000000 -6.930297 -0.547308 -7.403265 3.546408 -1.523004 11.883585 -8.958436 -14.530237 31.814972 0.000000 0.000000 0.000000 2.923809 0.205049 -5.760281 1.619084 -0.280437 -3.268808 -6.235136 4.497148 2.249912 11.490792 -10.012091 0.941520 0.000000 0.000000 0.000000 -4.673871 -22.006719 5.075443 -37.258979 -45.653511 7.840389 125.922471 -43.505691 -86.460871 0.000000 0.000000 0.000000 -0.159201 18.376116 8.055842 11.811768 40.508610 2.502371 -86.372993 24.624937 -11.460296 0.000000 0.000000 0.000000 
0.055440 0.924317 0.264802 -7.036766 32.389063 -8.694245 7.999792 -2.132962 17.487216 -2.158763 0.082592 -0.396326 8.460843 17.691062 13.204888 0.000000 0.000000 0.000000 -6.638333 -0.436722 -8.621886 3.565625 -1.487187 12.359959 -9.410933 -15.350873 34.220282 0.000000 0.000000 0.000000 3.256121 0.227231 -5.072043 1.392848 -0.169844 -3.400574 -5.820182 3.671434 2.355986 10.859462 -9.480085 1.097635 0.000000 0.000000 0.000000 -5.474640 -22.118947 5.254969 -38.311855 -47.199617 8.795271 127.516137 -45.095976 -88.982048 0.000000 0.000000 0.000000 0.148893 17.901117 7.762830 11.847745 38.633866 2.091430 -88.642736 25.549105 -13.224445 0.000000 0.000000 0.000000 
0.054598 0.921891 0.263957 -7.049068 30.602225 -8.940328 7.859169 -2.044870 18.218976 -2.485004 0.109040 -0.570125 9.612715 18.973128 13.081598 0.000000 0.000000 0.000000 -6.337518 -0.333312 -9.614312 3.384674 -1.424251 13.101708 -9.228042 -15.386400 35.888632 0.000000 0.000000 0.000000 3.519854 0.233647 -4.322405 1.663112 -0.351282 -3.021568 -5.784263 2.491643 1.955136 10.722164 -9.836262 2.276228 0.000000 0.000000 0.000000 -6.499532 -22.223362 5.455010 -38.871522 -48.466188 9.715974 128.396934 -46.707710 -90.704978 0.000000 0.000000 0.000000 0.303129 18.080897 7.696898 11.981076 36.242170 1.695500 -90.644303 26.928626 -15.671939 0.000000 0.000000 0.000000 
0.054099 0.920039 0.263251 -6.936598 28.620990 -9.005788 7.315737 -1.796705 18.741535 -2.373996 0.118295 -0.520672 10.816473 20.419540 13.297406 0.000000 0.000000 0.000000 -6.136332 -0.237357 -10.100731 3.163196 -1.246884 12.931332 -8.455717 -14.797880 36.826732 0.000000 0.000000 0.000000 3.521338 0.229935 -3.823289 1.983749 -0.580080 -2.499693 -5.904016 1.764452 1.652744 10.877494 -10.036486 2.525982 0.000000 0.000000 0.000000 -7.305168 -22.277804 5.664439 -40.862082 -49.622172 11.074351 130.484597 -48.525644 -94.524471 0.000000 0.000000 0.000000 1.099462 17.475014 7.516301 12.515677 34.468306 1.469839 -92.191414 28.474618 -18.202920 0.000000 0.000000 0.000000 
0.053545 0.918631 0.263009 -6.532868 25.707928 -9.058164 6.548551 -1.404137 19.247074 -2.664851 0.144777 0.081273 12.358313 22.415737 14.313980 0.000000 0.000000 0.000000 -6.064220 -0.137720 -10.791568 3.050645 -1.108567 13.222649 -7.172061 -13.850082 37.105677 0.000000 0.000000 0.000000 3.453728 0.220135 -3.231249 1.773059 -0.542970 -2.162374 -5.281707 0.772990 1.533440 9.852911 -9.556726 3.865082 0.000000 0.000000 0.000000 -8.856939 -21.834023 5.799014 -41.142007 -50.457132 11.931319 130.136700 -49.524998 -93.532700 0.000000 0.000000 0.000000 1.854623 17.424609 7.446350 13.180717 32.846011 1.301745 -92.759233 30.139252 -21.102038 0.000000 0.000000 0.000000 
0.052824 0.917849 0.263487 -6.367616 22.991915 -8.998300 6.362514 -1.213333 20.197034 -3.557895 0.215864 -0.661115 13.649300 24.084964 15.590440 0.000000 0.000000 0.000000 -5.739916 -0.000698 -10.728466 2.722965 -0.832385 12.191514 -5.105598 -11.885957 36.549622 0.000000 0.000000 0.000000 3.556141 0.237336 -3.287063 1.887083 -0.725753 -1.279153 -5.234903 -0.392382 1.473368 9.160918 -9.239918 5.035146 0.000000 0.000000 0.000000 -10.079954 -21.408943 6.040775 -41.400032 -51.220985 12.681901 130.036147 -50.272363 -92.606477 0.000000 0.000000 0.000000 2.341781 16.717794 7.023284 15.113071 31.378216 1.432628 -95.921788 32.499243 -25.731458 0.000000 0.000000 0.000000 
0.051797 0.916822 0.264650 -6.221893 20.259016 -9.099708 6.333092 -1.044028 21.236941 -4.667973 0.294587 -1.261545 14.933975 25.693972 16.946924 0.000000 0.000000 0.000000 -5.514508 0.113747 -11.009959 2.729128 -0.713398 11.776871 -3.334369 -10.433621 37.338635 0.000000 0.000000 0.000000 3.335926 0.221716 -2.854005 2.021219 -0.796189 -1.319140 -4.745062 -2.265137 1.884708 7.676633 -7.847155 5.432388 0.000000 0.000000 0.000000 -10.945138 -20.275469 6.183313 -41.051003 -52.787941 13.428107 127.518187 -50.515380 -87.604831 0.000000 0.000000 0.000000 2.552284 16.610775 6.716189 17.213382 31.034757 1.726644 -98.867478 33.328121 -29.433139 0.000000 0.000000 0.000000 
0.050891 0.915911 0.266171 -6.115710 17.246848 -8.981600 6.450826 -0.838800 21.885541 -6.097180 0.395649 -1.564791 16.339855 27.391932 18.592660 0.000000 0.000000 0.000000 -5.000496 0.283267 -11.559941 2.289633 -0.501384 11.782697 -0.763227 -7.950572 36.800446 0.000000 0.000000 0.000000 3.304940 0.217769 -2.637503 2.291604 -0.938258 -1.361145 -4.750388 -3.407563 2.322739 6.945553 -7.135791 5.721546 0.000000 0.000000 0.000000 -11.194679 -20.209002 6.695727 -40.506533 -54.295300 13.979553 126.197191 -49.866472 -83.552292 0.000000 0.000000 0.000000 2.744378 16.328073 6.403696 19.845807 30.182111 2.045083 -103.968511 32.756328 -32.634927 0.000000 0.000000 0.000000 
0.050224 0.914328 0.267668 -5.845711 13.888596 -8.989862 6.162469 -0.484723 22.590022 -7.301298 0.512101 -1.588858 18.024280 29.318467 20.423882 0.000000 0.000000 0.000000 -4.401028 0.457365 -11.805871 2.038882 -0.338435 11.816711 0.514682 -6.729866 34.691408 0.000000 0.000000 0.000000 3.338366 0.202322 -2.179594 1.976133 -0.796763 -1.462837 -4.090482 -4.940768 3.010671 5.858707 -6.081890 6.104250 0.000000 0.000000 0.000000 -11.539691 -19.467688 7.055296 -39.980102 -56.262743 14.762693 125.450548 -48.752076 -79.253672 0.000000 0.000000 0.000000 2.524314 15.661142 5.835238 22.019024 30.770262 2.491900 -108.250409 31.145395 -34.880639 0.000000 0.000000 0.000000 
0.050041 0.912815 0.268901 -5.678027 10.997651 -8.735713 6.016637 -0.177286 22.656306 -8.222693 0.672129 -0.233049 17.053529 28.726625 18.461013 0.000000 0.000000 0.000000 -3.930630 0.618384 -12.547456 1.996931 -0.254852 12.507374 1.620882 -5.447654 32.226981 0.000000 0.000000 0.000000 3.340776 0.190980 -1.939137 1.984895 -0.826442 -1.403703 -3.717482 -6.019127 3.091690 4.998122 -5.382891 7.371224 0.000000 0.000000 0.000000 -12.764984 -19.966501 7.943361 -38.244520 -57.220501 14.550432 124.482437 -47.168771 -74.614869 0.000000 0.000000 0.000000 2.415534 15.066034 5.397134 23.344825 30.888000 2.742865 -110.622481 28.165142 -34.001083 0.000000 0.000000 0.000000 
0.050041 0.911985 0.269908 -5.486891 8.222003 -8.441138 5.561533 0.182766 22.495382 -8.593525 0.825728 1.516620 15.624402 27.505352 16.124284 0.000000 0.000000 0.000000 -3.679007 0.740171 -13.098408 1.932370 -0.162638 13.452543 3.519914 -2.481651 28.204411 0.000000 0.000000 0.000000 3.289245 0.181920 -1.806584 1.928894 -0.795745 -1.713749 -3.121985 -7.141599 3.559182 4.069936 -4.445232 7.990625 0.000000 0.000000 0.000000 -13.598801 -19.703477 8.513221 -38.408812 -58.473665 15.302431 123.202699 -46.996128 -71.508296 0.000000 0.000000 0.000000 1.822963 15.076420 5.186854 23.709199 31.359580 2.836933 -110.594822 25.754285 -32.457497 0.000000 0.000000 0.000000 
0.049934 0.911741 0.270953 -5.376026 6.235705 -8.437402 5.157503 0.450428 22.567943 -8.125693 0.868892 2.918853 13.519518 25.114926 14.430942 0.000000 0.000000 0.000000 -3.362588 0.814785 -12.965834 1.954984 -0.104954 14.111750 4.122477 -0.749298 24.076856 0.000000 0.000000 0.000000 3.304813 0.167407 -1.526204 1.587082 -0.661236 -1.521096 -2.814665 -7.749081 3.283528 3.114016 -3.631009 10.037974 0.000000 0.000000 0.000000 -14.931636 -20.249141 9.384724 -38.174139 -59.184614 15.584722 122.405588 -47.861457 -70.949814 0.000000 0.000000 0.000000 1.902101 15.299856 5.154953 22.821440 30.756529 2.572834 -108.317202 23.652671 -29.649399 0.000000 0.000000 0.000000 
0.049402 0.911339 0.272054 -5.016546 4.253878 -8.811862 4.773968 0.712512 22.765770 -8.109867 0.975641 4.925303 11.452368 22.484068 12.784846 0.000000 0.000000 0.000000 -3.199660 0.818827 -12.177825 1.839842 -0.010566 14.173340 4.577901 0.788677 20.673507 0.000000 0.000000 0.000000 2.945553 0.115964 -0.803153 1.611024 -0.648096 -2.192896 -2.691745 -8.161180 3.926227 3.174299 -3.554469 9.823549 0.000000 0.000000 0.000000 -15.781605 -19.856508 9.708343 -39.104894 -59.366949 16.145987 123.944732 -49.869469 -74.394173 0.000000 0.000000 0.000000 2.579872 15.841671 5.254513 20.931475 30.842106 2.203612 -104.515762 22.238386 -27.022444 0.000000 0.000000 0.000000 
0.048237 0.911383 0.273109 -5.080472 2.700483 -8.909986 5.350813 0.723722 22.473329 -8.799882 1.179227 6.705135 9.807418 20.184526 12.090688 0.000000 0.000000 0.000000 -2.892120 0.872983 -12.099941 2.214016 -0.049886 14.448430 4.854449 1.487473 19.338236 0.000000 0.000000 0.000000 3.297241 0.136209 -0.941508 0.899975 -0.342481 -1.891216 -2.166563 -8.438406 4.374109 2.732378 -3.150973 11.523799 0.000000 0.000000 0.000000 -16.204275 -19.884691 10.119666 -39.479188 -59.651381 16.471965 124.329136 -51.572237 -76.361963 0.000000 0.000000 0.000000 1.854858 15.973475 5.218759 18.937321 31.685898 1.857161 -99.188551 22.528228 -25.712733 0.000000 0.000000 0.000000 
0.046674 0.910627 0.274095 -4.898066 2.506085 -9.562787 6.219367 0.549959 21.184702 -9.254841 1.375369 9.580143 8.239320 18.131902 15.381899 0.000000 0.000000 0.000000 -2.429567 0.861085 -11.261552 1.328809 0.173204 14.350406 4.838819 1.728354 18.623719 0.000000 0.000000 0.000000 3.173530 0.098852 -0.326590 1.042321 -0.430487 -1.512419 -2.570101 -8.174731 5.108134 2.882770 -3.279304 10.517701 0.000000 0.000000 0.000000 -15.197860 -20.109690 9.984495 -38.335844 -59.164781 15.625764 125.122563 -51.925962 -77.807583 0.000000 0.000000 0.000000 2.564310 14.281378 4.631683 17.006586 32.513348 1.515341 -96.932823 24.244307 -26.485907 0.000000 0.000000 0.000000 
0.045084 0.911356 0.274909 -4.645790 3.570022 -8.701433 6.917428 0.320405 20.019908 -10.236251 1.536892 10.037227 7.403803 16.912064 14.781373 0.000000 0.000000 0.000000 -2.683681 0.811025 -11.053331 1.141698 0.158931 12.674572 4.310820 1.120053 18.364576 0.000000 0.000000 0.000000 1.878938 0.121786 -1.430915 1.407879 -0.697068 0.216598 -1.827799 -9.251192 3.336810 1.406834 -1.753636 12.249587 0.000000 0.000000 0.000000 -14.820825 -20.419694 10.262903 -38.527861 -59.710019 16.184085 126.815016 -52.272455 -79.852488 0.000000 0.000000 0.000000 -0.217627 17.020502 5.535847 18.263483 30.301308 1.633897 -92.052371 23.617607 -24.425499 0.000000 0.000000 0.000000 
0.043636 0.912726 0.275616 -4.457188 5.001697 -8.969746 6.818806 0.223562 18.553317 -8.137992 1.175469 13.466855 3.632930 11.366780 13.798715 0.000000 0.000000 0.000000 -3.180038 0.684460 -10.236202 1.431071 0.048798 12.204365 3.718772 0.321938 18.479591 0.000000 0.000000 0.000000 1.665690 0.076114 -0.684194 2.507821 -1.027362 -2.762172 -3.827447 -9.235052 7.459925 3.673965 -4.010675 8.461687 0.000000 0.000000 0.000000 -12.212966 -21.021336 9.838881 -40.793318 -59.377467 16.992741 131.079355 -55.940153 -89.545715 0.000000 0.000000 0.000000 0.579500 15.854690 5.220337 19.206524 30.993075 1.676651 -93.941544 23.650520 -24.460526 0.000000 0.000000 0.000000 
