HIERARCHY
ROOT Hips
{
	OFFSET -0.001795 -0.223333 0.028219
	CHANNELS 6 Xposition Yposition Zposition Zrotation Yrotation Xrotation 
	JOINT LeftUpLeg
	{
		OFFSET 0.069520 -0.091406 -0.006815
		CHANNELS 3 Zrotation Yrotation Xrotation
		JOINT LeftLeg
		{
			OFFSET 0.034277 -0.375199 -0.004496
			CHANNELS 3 Zrotation Yrotation Xrotation
			JOINT LeftFoot
			{
				OFFSET -0.013596 -0.397961 -0.043693
				CHANNELS 3 Zrotation Yrotation Xrotation
				JOINT LeftToe
				{
					OFFSET 0.026358 -0.055791 0.119288
					CHANNELS 3 Zrotation Yrotation Xrotation
					End Site
					{
						OFFSET 0.000000 0.000000 0.000000
					}
				}
			}
		}
	}
	JOINT RightUpLeg
	{
		OFFSET -0.067670 -0.090522 -0.004320
		CHANNELS 3 Zrotation Yrotation Xrotation
		JOINT RightLeg
		{
			OFFSET -0.038290 -0.382569 -0.008850
			CHANNELS 3 Zrotation Yrotation Xrotation
			JOINT RightFoot
			{
				OFFSET 0.015774 -0.398415 -0.042312
				CHANNELS 3 Zrotation Yrotation Xrotation
				JOINT RightToe
				{
					OFFSET -0.025372 -0.048144 0.123348
					CHANNELS 3 Zrotation Yrotation Xrotation
					End Site
					{
						OFFSET 0.000000 0.000000 0.000000
					}
				}
			}
		}
	}
	JOINT Spine
	{
		OFFSET -0.002533 0.108963 -0.026696
		CHANNELS 3 Zrotation Yrotation Xrotation
		JOINT Spine1
		{
			OFFSET 0.005487 0.135180 0.001092
			CHANNELS 3 Zrotation Yrotation Xrotation
			JOINT Spine2
			{
				OFFSET 0.001457 0.052922 0.025425
				CHANNELS 3 Zrotation Yrotation Xrotation
				JOINT Neck
				{
					OFFSET -0.002778 0.213870 -0.042857
					CHANNELS 3 Zrotation Yrotation Xrotation
					JOINT Head
					{
						OFFSET 0.005152 0.064970 0.051349
						CHANNELS 3 Zrotation Yrotation Xrotation
						End Site
						{
							OFFSET 0.000000 0.000000 0.000000
						}
					}
				}
				JOINT LeftShoulder
				{
					OFFSET 0.078845 0.121749 -0.034090
					CHANNELS 3 Zrotation Yrotation Xrotation
					JOINT LeftArm
					{
						OFFSET 0.090977 0.030469 -0.008868
						CHANNELS 3 Zrotation Yrotation Xrotation
						JOINT LeftForeArm
						{
							OFFSET 0.259612 -0.012772 -0.027456
							CHANNELS 3 Zrotation Yrotation Xrotation
							JOINT LeftHand
							{
								OFFSET 0.249234 0.008986 -0.001171
								CHANNELS 3 Zrotation Yrotation Xrotation
								End Site
								{
									OFFSET 0.000000 0.000000 0.000000
								}
							}
						}
					}
				}
				JOINT RightShoulder
				{
					OFFSET -0.081759 0.118833 -0.038615
					CHANNELS 3 Zrotation Yrotation Xrotation
					JOINT RightArm
					{
						OFFSET -0.096012 0.032551 -0.009143
						CHANNELS 3 Zrotation Yrotation Xrotation
						JOINT RightForeArm
						{
							OFFSET -0.253742 -0.013329 -0.021401
							CHANNELS 3 Zrotation Yrotation Xrotation
							JOINT RightHand
							{
								OFFSET -0.255298 0.007772 -0.005559
								CHANNELS 3 Zrotation Yrotation Xrotation
								End Site
								{
									OFFSET 0.000000 0.000000 0.000000
								}
							}
						}
					}
				}
			}
		}
	}
}
MOTION
Frames: 64
Frame Time: 0.050000
0.000000 0.927961 0.000000 -1.324987 -25.919710 3.456453 8.272491 0.470498 -10.746570 -10.229723 2.525702 6.239721 5.363152 10.762120 8.861327 0.000000 0.000000 0.000000 -7.413406 1.294495 -12.782736 4.748070 0.309901 13.421947 -4.776618 -10.806605 -0.281567 0.000000 0.000000 0.000000 4.798889 -0.785215 17.308055 -7.455735 2.234802 -14.001322 -0.416498 8.152037 16.694089 7.412648 -5.104820 -11.359715 0.000000 0.000000 0.000000 -17.448551 -20.732520 11.594664 -61.889983 -42.856031 15.965364 13.514068 -9.010114 -0.455537 0.000000 0.000000 0.000000 17.448572 17.502994 6.067593 73.034169 34.758698 14.799387 -6.933928 20.910814 -0.478514 0.000000 0.000000 0.000000 
-0.001452 0.925812 -0.002054 -1.636738 -25.766705 3.009000 9.944566 0.796062 -11.424781 -12.188690 3.340506 8.398170 5.016653 10.220369 8.495918 0.000000 0.000000 0.000000 -7.109307 1.328278 -13.378967 5.146273 0.391247 15.513226 -5.080096 -11.206185 -0.868970 0.000000 0.000000 0.000000 4.751780 -0.767049 18.657992 -5.648458 1.593568 -14.298824 -1.798450 8.483365 16.613089 8.887250 -6.751027 -7.203796 0.000000 0.000000 0.000000 -21.679047 -20.369726 12.205513 -58.264789 -43.837907 14.764957 14.394672 -9.274252 -0.522369 0.000000 0.000000 0.000000 15.585960 18.510331 6.744574 75.218782 35.988306 16.304866 -6.600197 23.646930 -0.444076 0.000000 0.000000 0.000000 
-0.002675 0.924437 -0.003827 -1.671114 -23.476441 3.173258 9.863509 0.775504 -13.189718 -11.659084 3.343730 10.448301 4.093664 8.706525 7.889894 0.000000 0.000000 0.000000 -7.271122 1.422270 -14.996645 5.944695 0.409679 18.870337 -5.973570 -13.381014 -1.083171 0.000000 0.000000 0.000000 5.087762 -0.899712 20.124923 -6.336210 1.833657 -15.794904 -1.198646 6.702245 17.293288 7.388342 -5.725345 -6.817963 0.000000 0.000000 0.000000 -23.165798 -19.924057 12.543847 -57.453446 -46.277364 15.762658 15.511020 -7.602946 -0.410339 0.000000 0.000000 0.000000 14.775719 19.259722 6.971479 74.454810 38.217733 17.584649 -6.764528 21.396698 -0.425227 0.000000 0.000000 0.000000 
-0.003906 0.923104 -0.005061 -1.315366 -23.850027 3.254980 9.472687 0.756542 -14.100416 -11.356511 3.436800 11.640691 4.318303 9.070319 7.731016 0.000000 0.000000 0.000000 -7.890449 1.482089 -15.757770 6.642015 0.358320 19.871934 -6.045793 -13.207442 -1.855419 0.000000 0.000000 0.000000 5.448856 -0.943654 19.898864 -6.414647 1.861808 -15.758205 -1.485850 6.802427 17.933588 7.696874 -6.071747 -6.360131 0.000000 0.000000 0.000000 -24.120125 -21.412591 13.769564 -56.285979 -48.499223 16.523327 18.528572 -8.574982 -0.633652 0.000000 0.000000 0.000000 13.586985 19.700991 7.109882 75.718001 40.376555 19.561122 -7.272676 21.699818 -0.506056 0.000000 0.000000 0.000000 
-0.005425 0.923319 -0.005836 -0.987130 -23.348178 3.254851 9.264206 0.741127 -15.101491 -11.274780 3.572382 12.962821 4.058110 8.646156 8.157324 0.000000 0.000000 0.000000 -8.489847 1.536848 -16.779401 6.950213 0.406536 21.827930 -5.838988 -12.760484 -2.053015 0.000000 0.000000 0.000000 5.944463 -1.051157 20.352166 -6.750199 1.986331 -15.703030 -2.006348 7.067613 18.243149 8.541324 -6.637514 -6.982469 0.000000 0.000000 0.000000 -24.719451 -22.333098 14.271362 -55.327342 -49.707441 16.796650 22.280727 -9.075382 -0.872168 0.000000 0.000000 0.000000 12.901017 19.846402 7.296718 75.399256 42.575153 21.205469 -7.632506 22.925037 -0.581871 0.000000 0.000000 0.000000 
-0.007119 0.924175 -0.006214 -0.769974 -21.757380 3.956998 8.459519 0.551964 -16.539899 -10.088041 3.158926 13.566964 3.504451 7.765838 8.383531 0.000000 0.000000 0.000000 -9.241493 1.484200 -17.000159 7.799106 0.102245 21.878369 -5.963184 -13.006267 -2.519640 0.000000 0.000000 0.000000 6.005230 -1.135467 19.610584 -6.279194 1.871083 -15.547475 -1.526806 7.297221 18.294171 8.739396 -6.869336 -5.990903 0.000000 0.000000 0.000000 -25.615288 -23.012203 14.586336 -54.121964 -50.426724 16.696115 26.302607 -12.274168 -1.663111 0.000000 0.000000 0.000000 11.271044 21.088771 7.975360 73.549631 45.016283 22.486264 -9.185452 24.794768 -0.921162 0.000000 0.000000 0.000000 
-0.008989 0.925078 -0.006185 -0.213233 -20.070032 3.473672 7.473862 0.293265 -17.049563 -9.162346 2.895444 14.633199 2.785694 6.661162 8.717485 0.000000 0.000000 0.000000 -9.405768 1.389190 -16.727435 7.443723 0.135714 22.930888 -6.373214 -14.065568 -2.652802 0.000000 0.000000 0.000000 6.234585 -1.231175 19.579409 -5.871852 1.784917 -15.200318 -1.876074 8.421955 18.234440 9.235017 -7.246153 -5.397963 0.000000 0.000000 0.000000 -24.157323 -22.885744 13.355821 -57.282928 -51.072563 18.689455 31.878355 -16.355131 -3.092756 0.000000 0.000000 0.000000 10.939848 21.385890 8.473223 73.002112 47.109777 24.288056 -11.886747 26.123568 -1.473143 0.000000 0.000000 0.000000 
-0.010879 0.925698 -0.005483 0.227846 -17.824045 3.425220 5.933556 -0.102490 -17.333728 -7.241197 2.161091 14.593898 1.989558 5.392793 8.490919 0.000000 0.000000 0.000000 -9.225237 1.275522 -16.067801 6.547034 0.208793 22.974615 -6.830818 -15.222717 -2.899427 0.000000 0.000000 0.000000 7.064627 -1.439925 19.160728 -5.479458 1.700751 -15.636039 -1.320631 10.006333 18.492803 10.251269 -8.386917 -3.274442 0.000000 0.000000 0.000000 -22.204205 -22.607710 11.830900 -60.337924 -50.659238 19.919759 37.545267 -21.900030 -5.543665 0.000000 0.000000 0.000000 9.160957 23.157042 9.456281 69.943843 49.931291 25.510770 -13.785305 27.064687 -1.900078 0.000000 0.000000 0.000000 
-0.012748 0.925877 -0.003763 1.365399 -16.076436 3.065293 4.124437 -0.508285 -17.348658 -6.121302 1.732405 14.556437 1.325654 4.370610 8.574928 0.000000 0.000000 0.000000 -10.017237 1.135176 -15.431231 5.052197 0.494603 23.238831 -6.434550 -14.233965 -3.306561 0.000000 0.000000 0.000000 7.799449 -1.577495 18.435227 -6.094610 1.964797 -15.364843 -0.388773 12.726045 18.199393 12.108327 -9.853220 -3.122196 0.000000 0.000000 0.000000 -20.736072 -21.432641 9.692138 -61.668216 -49.085154 19.439436 42.691179 -30.637734 -10.056151 0.000000 0.000000 0.000000 7.548570 24.033456 10.052396 69.896306 53.941305 29.507681 -15.643725 29.154821 -2.438400 0.000000 0.000000 0.000000 
-0.014550 0.926701 -0.000991 2.345096 -12.793937 3.299819 1.706033 -1.026388 -17.360911 -3.834290 0.884039 13.488749 0.033888 2.329758 8.524571 0.000000 0.000000 0.000000 -10.997233 0.918486 -13.901450 4.600650 0.271704 21.104687 -6.775090 -15.554065 -2.541965 0.000000 0.000000 0.000000 9.230722 -1.853251 17.484963 -5.857019 1.936698 -16.471486 0.902026 16.620517 18.852727 14.490786 -11.962107 -2.601253 0.000000 0.000000 0.000000 -18.147667 -20.907074 7.497479 -60.821779 -47.818940 17.878449 48.215367 -38.418172 -16.204947 0.000000 0.000000 0.000000 3.531228 25.787580 10.410551 72.898457 59.101217 37.460306 -21.481739 29.163428 -3.776243 0.000000 0.000000 0.000000 
-0.015853 0.927138 0.002790 3.143816 -8.968971 3.879810 -0.331832 -1.495594 -18.148546 -1.930568 0.254016 13.406665 -1.603985 -0.213389 8.630870 0.000000 0.000000 0.000000 -12.093185 0.711227 -12.741673 5.011364 -0.103575 20.162920 -7.345953 -17.302478 -2.332123 0.000000 0.000000 0.000000 11.162579 -2.159116 16.116926 -6.057153 2.100461 -16.101510 2.158948 19.938996 18.011709 17.354405 -14.535780 -2.301520 0.000000 0.000000 0.000000 -15.537993 -20.331828 5.590979 -59.188258 -46.055274 15.789222 56.816417 -44.527554 -25.109797 0.000000 0.000000 0.000000 -2.050812 27.508369 9.798230 86.010532 65.322431 56.456118 -28.057431 24.837315 -4.602761 0.000000 0.000000 0.000000 
-0.016313 0.927823 0.007461 4.294505 -5.327843 4.313039 -3.337139 -2.001548 -17.884965 0.898337 -0.504712 12.079821 -3.232118 -2.714286 8.852427 0.000000 0.000000 0.000000 -14.127179 0.482962 -10.936504 5.738266 -0.540977 17.393665 -7.625204 -18.483638 -0.486093 0.000000 0.000000 0.000000 12.736184 -2.463222 15.591035 -6.359770 2.251385 -16.881464 3.761007 24.661338 17.476137 21.210062 -17.208955 -3.997288 0.000000 0.000000 0.000000 -11.430160 -20.397756 4.290117 -56.841875 -45.206884 13.533130 68.163874 -45.811872 -35.240701 0.000000 0.000000 0.000000 -8.094913 30.642142 9.057115 102.356888 70.666055 81.887664 -33.564606 17.415320 -4.314448 0.000000 0.000000 0.000000 
-0.015407 0.928237 0.012610 4.873217 -0.198405 5.742768 -4.794996 -2.458639 -19.146426 2.005254 -0.829504 11.728423 -5.675537 -6.298628 9.494563 0.000000 0.000000 0.000000 -15.464361 0.235466 -9.294046 6.771754 -1.022000 14.881790 -8.260046 -20.283017 1.113156 0.000000 0.000000 0.000000 14.230513 -2.767319 14.438203 -5.879822 2.193657 -16.995261 5.482604 29.036912 15.954433 25.468084 -20.611011 -5.125391 0.000000 0.000000 0.000000 -8.807062 -20.764255 3.337810 -51.765030 -42.694778 10.178044 79.265231 -44.574128 -45.422405 0.000000 0.000000 0.000000 -11.964321 32.425633 8.614131 128.211248 72.506156 117.297873 -34.644437 8.735544 -2.797800 0.000000 0.000000 0.000000 
-0.013345 0.928903 0.018004 5.399610 4.634470 7.516974 -6.166009 -2.880544 -19.994802 3.086145 -1.020129 10.288876 -8.144698 -9.704027 10.484256 0.000000 0.000000 0.000000 -17.145308 -0.030466 -7.862134 8.677449 -1.513815 10.678925 -9.745147 -23.240514 5.702717 0.000000 0.000000 0.000000 14.760252 -3.001451 13.778797 -3.998063 1.694269 -18.559167 6.500173 34.026618 15.698551 30.734869 -22.588403 -9.798572 0.000000 0.000000 0.000000 -4.559425 -19.608012 2.869144 -47.509828 -43.087228 7.548686 85.337733 -39.476861 -48.906491 0.000000 0.000000 0.000000 -13.124616 33.308014 9.139802 150.115236 71.521703 148.732168 -37.151019 3.911444 -2.374600 0.000000 0.000000 0.000000 
-0.010386 0.929382 0.023159 5.967298 10.947014 8.612193 -7.558539 -3.257777 -20.141080 4.019685 -1.142974 9.161866 -11.478734 -14.063497 12.018659 0.000000 0.000000 0.000000 -17.566595 -0.341493 -5.646030 8.614553 -1.616858 8.279630 -11.310395 -25.411912 10.035949 0.000000 0.000000 0.000000 15.669137 -3.285636 12.951308 -4.364367 1.882278 -19.531267 8.422568 35.937233 14.985642 33.475150 -23.686288 -11.856542 0.000000 0.000000 0.000000 -0.936462 -17.900000 3.093341 -40.151168 -42.892400 4.574040 83.948385 -33.258219 -44.911061 0.000000 0.000000 0.000000 -14.609838 33.604622 9.230152 166.068631 70.154062 174.127769 -39.418815 -2.124297 -1.311687 0.000000 0.000000 0.000000 
-0.007227 0.929882 0.028100 6.131344 15.711527 9.792438 -8.044674 -3.606974 -20.927396 4.322413 -1.202475 9.028596 -14.045011 -17.172847 13.471109 0.000000 0.000000 0.000000 -18.243735 -0.622321 -4.229941 9.566725 -1.865204 6.249442 -12.306364 -25.875324 14.526976 0.000000 0.000000 0.000000 15.139844 -3.184654 11.908067 -2.171296 1.391679 -20.235812 9.103517 39.422610 15.728404 33.444522 -21.519036 -14.059737 0.000000 0.000000 0.000000 1.110131 -16.532592 3.032653 -31.013941 -42.945209 1.578333 80.299273 -27.186271 -39.624656 0.000000 0.000000 0.000000 -14.031246 33.250656 10.221557 176.697166 68.147326 -167.048754 -43.809219 -6.872542 -0.544790 0.000000 0.000000 0.000000 
-0.004594 0.930121 0.032984 6.050798 21.402586 9.635712 -8.792727 -3.831053 -20.725251 5.519358 -1.512298 9.687953 -17.078747 -20.973110 14.984866 0.000000 0.000000 0.000000 -17.653375 -0.865196 -1.811296 8.717971 -1.848987 5.832355 -12.189583 -24.162177 18.625601 0.000000 0.000000 0.000000 15.594413 -3.328228 11.340186 -2.184256 1.498823 -20.964264 10.998502 39.284924 16.630612 33.581821 -20.800995 -14.830296 0.000000 0.000000 0.000000 3.484521 -15.632790 3.771254 -23.013787 -42.094507 -0.998263 75.728396 -20.435955 -32.886058 0.000000 0.000000 0.000000 -13.068381 31.812878 10.489163 -176.710145 68.043839 -155.092314 -44.676777 -6.899777 -0.982880 0.000000 0.000000 0.000000 
-0.002920 0.930592 0.037703 5.800272 25.872926 10.046166 -9.352007 -4.090071 -20.946620 6.989261 -1.803502 9.774852 -19.613480 -23.920784 16.523282 0.000000 0.000000 0.000000 -17.406948 -1.079638 -0.091461 9.385899 -2.165122 5.612102 -11.033082 -21.533075 19.560814 0.000000 0.000000 0.000000 15.692398 -3.291927 10.371330 -0.683753 1.231896 -20.635482 10.715045 40.889815 17.296598 33.339290 -18.781392 -16.456772 0.000000 0.000000 0.000000 4.689974 -14.989758 3.947046 -16.206871 -42.907761 -3.590597 69.627839 -16.617279 -27.561490 0.000000 0.000000 0.000000 -14.036142 29.396258 9.397375 -173.790407 66.820760 -146.406171 -45.372566 -9.014294 -1.004635 0.000000 0.000000 0.000000 
-0.002793 0.929690 0.042027 5.510534 30.470158 9.457249 -9.756604 -4.249312 -20.809136 8.288318 -2.264173 10.906884 -22.050458 -27.074398 17.761251 0.000000 0.000000 0.000000 -16.652708 -1.305305 1.590714 9.516957 -2.421673 5.857426 -11.152935 -20.337013 23.499100 0.000000 0.000000 0.000000 15.611580 -3.371759 10.311256 -0.812682 1.360728 -20.711982 11.198079 40.024254 17.942946 32.276757 -17.343215 -16.518388 0.000000 0.000000 0.000000 5.205612 -14.423554 3.962020 -11.218601 -42.568704 -5.300993 65.395486 -11.015049 -21.881539 0.000000 0.000000 0.000000 -14.652741 27.428770 8.229302 -168.899127 66.235026 -135.962867 -44.107315 -11.639330 -0.683840 0.000000 0.000000 0.000000 
-0.004289 0.929404 0.045570 5.310195 35.230183 9.267155 -9.624814 -4.332651 -20.793988 8.708150 -2.426654 11.232404 -25.012701 -30.037095 19.979387 0.000000 0.000000 0.000000 -15.698840 -1.522667 3.110955 9.994637 -2.783188 5.832515 -11.371523 -19.467517 26.432784 0.000000 0.000000 0.000000 15.853498 -3.476769 9.940831 -0.774518 1.441644 -21.537245 11.754233 38.861973 19.470649 30.329607 -15.568222 -15.860257 0.000000 0.000000 0.000000 4.823055 -15.105720 3.686828 -7.124267 -41.990090 -6.688291 62.387982 -7.495757 -18.204403 0.000000 0.000000 0.000000 -14.932712 26.965778 7.978306 -163.816071 67.571603 -127.846761 -41.396518 -13.293452 -0.543140 0.000000 0.000000 0.000000 
-0.007013 0.928641 0.048197 4.873540 39.105386 8.680020 -8.662623 -4.408494 -21.271501 8.010540 -2.592453 12.603131 -27.318918 -32.191582 21.865600 0.000000 0.000000 0.000000 -15.025161 -1.741285 4.302761 10.690677 -3.221987 5.892709 -10.742526 -17.429016 29.717688 0.000000 0.000000 0.000000 15.161826 -3.554139 10.594595 -0.780002 1.502834 -22.647648 12.015659 37.995976 20.923404 28.503837 -13.384579 -15.864106 0.000000 0.000000 0.000000 5.097177 -15.050394 3.620396 -2.850612 -42.875500 -8.854993 59.142400 -3.828745 -14.743202 0.000000 0.000000 0.000000 -16.126273 26.827263 7.359491 -153.297650 69.530575 -113.250651 -37.964725 -14.394922 -0.393333 0.000000 0.000000 0.000000 
-0.010327 0.929067 0.049510 4.955870 42.786641 8.136997 -8.122147 -4.180655 -20.642905 7.199900 -2.368115 12.297267 -30.293462 -33.903054 24.770981 0.000000 0.000000 0.000000 -14.424266 -1.968627 5.242649 10.972140 -3.656691 6.578472 -10.464699 -16.098485 32.822027 0.000000 0.000000 0.000000 14.657771 -3.610535 11.038137 -0.749045 1.573665 -22.684012 11.434043 36.706877 21.863302 25.330107 -10.491290 -15.244615 0.000000 0.000000 0.000000 5.987598 -14.708424 3.992467 1.040881 -43.878684 -11.137866 53.837634 -1.113938 -11.565596 0.000000 0.000000 0.000000 -19.288197 26.458704 5.400421 -144.313519 71.265589 -100.960803 -34.833060 -16.073079 -0.047629 0.000000 0.000000 0.000000 
-0.013129 0.929247 0.049889 5.156893 47.412341 8.084445 -7.826481 -4.069538 -20.224928 6.605992 -2.092916 11.497124 -34.224967 -35.791351 28.769760 0.000000 0.000000 0.000000 -13.727179 -2.228428 5.780064 10.546399 -3.936504 7.267794 -8.112966 -11.866570 37.701085 0.000000 0.000000 0.000000 13.730165 -3.525508 11.237245 -0.534091 1.577518 -23.515155 10.820617 35.016135 22.776421 23.587430 -8.895629 -14.850443 0.000000 0.000000 0.000000 7.946984 -14.399716 5.063974 6.536228 -45.703699 -15.143946 49.848327 1.704218 -9.305768 0.000000 0.000000 0.000000 -20.330042 26.535337 5.034728 -129.315102 72.290537 -83.518174 -36.404701 -16.065485 0.333080 0.000000 0.000000 0.000000 
-0.014739 0.930034 0.049072 5.845888 49.950061 8.452484 -7.366359 -3.634608 -19.057539 4.947898 -1.397142 9.331995 -37.083636 -36.082360 32.102174 0.000000 0.000000 0.000000 -14.037314 -2.506769 6.164361 10.513221 -4.301152 8.183205 -5.264183 -7.905832 37.992597 0.000000 0.000000 0.000000 13.007765 -3.435683 11.445935 0.637939 1.420040 -23.759383 8.855892 34.330530 23.165046 21.215708 -7.080993 -14.242043 0.000000 0.000000 0.000000 10.100650 -14.168177 6.370908 10.900024 -44.867360 -17.268468 47.048430 3.962953 -8.135926 0.000000 0.000000 0.000000 -22.958878 25.869254 3.506966 -115.102592 71.882140 -65.863545 -37.533767 -20.109454 1.876621 0.000000 0.000000 0.000000 
-0.015195 0.930346 0.046782 5.953139 53.387700 8.581654 -7.225034 -3.510677 -18.615841 4.382823 -1.122857 8.136023 -40.301043 -36.744494 35.720879 0.000000 0.000000 0.000000 -13.964881 -2.798429 6.287522 11.380354 -5.073183 8.563649 -4.196700 -6.547652 41.902670 0.000000 0.000000 0.000000 13.056240 -3.229775 10.329332 0.181234 1.570992 -23.783418 8.311625 31.928915 23.417185 18.039664 -4.990899 -13.102924 0.000000 0.000000 0.000000 12.042416 -15.189300 7.811375 15.190259 -44.628699 -20.020016 46.626443 5.513425 -7.662908 0.000000 0.000000 0.000000 -22.695419 25.338658 3.380589 -110.697475 70.932929 -59.993387 -40.028706 -24.844607 3.783360 0.000000 0.000000 0.000000 
-0.014919 0.931030 0.042686 6.476985 55.331042 8.565527 -7.695257 -3.152097 -17.234926 4.118365 -0.806862 6.247526 -42.607654 -36.609897 38.467298 0.000000 0.000000 0.000000 -12.683570 -2.712849 5.738406 10.662802 -5.721128 11.177363 -8.456406 -10.848711 39.914482 0.000000 0.000000 0.000000 12.087549 -3.167297 11.012955 1.427854 1.373041 -25.122736 7.855873 32.282464 24.659305 15.865930 -4.463563 -11.079041 0.000000 0.000000 0.000000 13.194336 -16.808078 8.711645 17.820319 -43.033123 -21.083240 50.576005 6.290550 -9.047059 0.000000 0.000000 0.000000 -22.375093 25.046880 3.743083 -105.110011 68.686050 -51.295517 -40.834107 -32.155373 6.023484 0.000000 0.000000 0.000000 
-0.014641 0.930719 0.037241 7.787755 57.471286 9.673565 -9.208398 -3.188042 -16.583238 4.883070 -0.667008 4.810866 -44.842032 -36.685696 41.120186 0.000000 0.000000 0.000000 -13.924206 -3.212739 6.379310 12.077119 -6.557323 10.773101 -8.582693 -10.794407 40.143343 0.000000 0.000000 0.000000 12.270804 -2.915562 9.641851 0.206232 1.719205 -23.383359 7.101075 30.450081 23.096975 13.638048 -2.384616 -11.611630 0.000000 0.000000 0.000000 13.363903 -17.223231 8.915841 18.961825 -44.254901 -22.958201 58.638575 5.081248 -11.717314 0.000000 0.000000 0.000000 -22.579572 25.215196 3.828339 -103.494252 67.857009 -48.651318 -40.196322 -39.728810 8.000015 0.000000 0.000000 0.000000 
-0.015757 0.930452 0.031135 8.578725 56.988539 10.119659 -10.871738 -3.349865 -16.169775 6.477315 -0.701921 4.072071 -44.681069 -36.449501 41.013739 0.000000 0.000000 0.000000 -12.790049 -2.920961 5.504821 9.914996 -6.317450 13.301405 -10.978342 -14.031615 33.660537 0.000000 0.000000 0.000000 11.673124 -2.873829 10.157022 1.171151 1.627020 -22.979940 5.837215 34.096774 21.652192 13.577206 -3.872678 -9.584302 0.000000 0.000000 0.000000 15.374989 -20.102858 10.489884 17.714881 -46.313223 -25.724866 69.922625 2.208512 -18.564491 0.000000 0.000000 0.000000 -22.919150 25.732514 4.946088 -104.310018 67.610816 -48.090105 -38.294145 -49.613164 9.402253 0.000000 0.000000 0.000000 
-0.019089 0.929858 0.025351 8.847426 54.975775 10.681505 -13.068380 -3.935707 -16.554174 9.828069 -0.999235 3.455451 -43.017011 -36.339865 39.080057 0.000000 0.000000 0.000000 -13.240125 -2.879589 5.116364 9.889047 -5.972140 12.788019 -11.674902 -16.262074 28.407587 0.000000 0.000000 0.000000 12.678637 -2.900557 9.228611 -1.638988 2.102547 -21.995072 7.709248 33.784384 22.549256 13.806321 -1.363201 -13.428941 0.000000 0.000000 0.000000 17.827913 -19.536855 11.943507 14.260444 -50.005972 -28.505522 80.097395 -1.585879 -26.670522 0.000000 0.000000 0.000000 -29.598076 27.379577 1.742750 -108.506186 69.559162 -50.924894 -36.125632 -60.454647 10.026249 0.000000 0.000000 0.000000 
-0.024889 0.926655 0.020343 8.905969 51.168772 10.492082 -15.586891 -4.457142 -16.415704 14.156865 -1.597777 2.694721 -39.622699 -36.190822 34.878350 0.000000 0.000000 0.000000 -11.746235 -2.300494 3.827734 7.529776 -4.782996 13.439608 -14.800646 -23.897388 22.389751 0.000000 0.000000 0.000000 11.888289 -2.674513 9.404530 -0.771249 1.977127 -20.249174 7.303980 35.723510 22.354203 13.920817 0.237726 -16.432545 0.000000 0.000000 0.000000 23.272176 -22.450382 15.823321 3.442349 -52.214738 -27.155004 95.369305 -5.143149 -44.406510 0.000000 0.000000 0.000000 -39.030700 33.687321 -0.155780 -105.626602 72.316473 -50.218081 -49.012788 -74.175338 22.657254 0.000000 0.000000 0.000000 
-0.032372 0.925522 0.015425 7.501332 43.370138 9.261052 -16.483963 -5.397959 -18.451389 17.997899 -3.132517 5.431644 -32.237109 -33.031572 27.548046 0.000000 0.000000 0.000000 -11.186379 -1.647396 1.065222 4.886113 -3.628135 16.354635 -11.244903 -22.806659 11.887247 0.000000 0.000000 0.000000 12.810847 -3.106916 10.910094 -2.998398 2.297967 -18.692574 8.232493 34.538772 21.925469 9.858271 3.372642 -19.338938 0.000000 0.000000 0.000000 31.525125 -21.486831 21.624794 -26.973812 -63.566006 -23.612951 111.905472 -13.405384 -71.061220 0.000000 0.000000 0.000000 -59.648955 40.907580 -9.297697 -130.944668 74.540970 -76.899063 166.102902 -78.414013 168.372410 0.000000 0.000000 0.000000 
-0.039110 0.922625 0.009856 6.580567 30.551308 8.279103 -15.946378 -5.946232 -21.074577 19.428338 -4.705425 9.732547 -22.311599 -25.970273 18.810968 0.000000 0.000000 0.000000 -11.790378 -1.076899 -2.879343 0.922610 -1.312570 17.502426 -7.309420 -17.482211 4.804782 0.000000 0.000000 0.000000 12.393659 -3.163225 12.957999 -4.200984 2.360091 -18.366996 7.998628 27.762944 23.897107 3.073313 6.721739 -25.052505 0.000000 0.000000 0.000000 40.322024 -17.466257 27.315302 -100.881591 -61.612632 -1.674801 141.317976 -31.072374 -126.147256 0.000000 0.000000 0.000000 -98.773605 40.606594 -26.455544 -144.832470 68.501067 -91.756638 150.838803 -53.028356 -179.099164 0.000000 0.000000 0.000000 
-0.045016 0.923494 0.002460 5.542257 14.811210 7.795632 -13.470738 -6.004193 -25.186499 18.285911 -5.972030 16.438388 -13.242495 -14.999909 14.264335 0.000000 0.000000 0.000000 -12.749958 -0.462908 -8.542645 -1.201763 0.293117 19.082823 -3.292232 -8.376819 -1.231966 0.000000 0.000000 0.000000 10.132742 -2.834439 15.993048 -6.897988 2.689016 -19.493925 8.034619 13.740788 25.352112 -5.606695 7.668807 -33.526184 0.000000 0.000000 0.000000 49.897502 -8.238029 25.088343 -138.711049 -38.820241 -20.667671 167.855851 -41.266770 -163.072501 0.000000 0.000000 0.000000 -111.781360 25.169319 -22.155214 -158.597185 39.438930 -109.688197 155.944148 -45.322793 177.659956 0.000000 0.000000 0.000000 
-0.051485 0.923551 -0.006723 3.607447 -1.557910 8.033931 -8.978149 -4.771549 -29.566959 14.078624 -5.099665 22.179422 -2.311887 2.324233 16.643012 0.000000 0.000000 0.000000 -12.996515 0.347521 -16.132727 -1.032836 1.139332 19.600153 0.956464 2.867411 -0.629821 0.000000 0.000000 0.000000 7.034047 -2.110470 19.227643 -8.211053 2.624209 -21.690108 6.321865 2.533180 28.214254 -7.189188 5.135921 -43.494620 0.000000 0.000000 0.000000 52.397479 2.634742 -1.128686 -156.958935 -21.353065 65.137708 145.137528 -26.329890 -60.548285 0.000000 0.000000 0.000000 -97.022590 8.326818 -3.813608 -176.506654 17.244517 156.610998 -116.980939 -13.950909 18.487208 0.000000 0.000000 0.000000 
-0.061206 0.924484 -0.014189 2.929384 -9.602485 9.000584 -6.141696 -3.594768 -32.344908 11.694017 -3.961876 23.418714 3.369365 10.632831 24.869343 0.000000 0.000000 0.000000 -11.003916 1.152003 -20.197876 -4.420891 2.341276 18.843505 4.502247 11.168628 0.905661 0.000000 0.000000 0.000000 3.982948 -1.234763 19.667205 -7.163346 2.172563 -22.491001 5.061516 1.955735 30.187818 -5.159902 3.745870 -47.265024 0.000000 0.000000 0.000000 60.049766 12.611652 -10.185785 -170.928287 -9.113363 116.194546 47.398162 -39.859399 -19.698392 0.000000 0.000000 0.000000 -100.918113 1.590752 2.960321 179.964123 19.400754 117.493284 -109.927303 19.606010 -20.410586 0.000000 0.000000 0.000000 
-0.073498 0.928361 -0.017779 0.883134 -16.983107 9.816595 -2.647623 -1.699908 -33.471349 10.167285 -2.865920 22.199252 12.785836 19.998598 40.450166 0.000000 0.000000 0.000000 -5.160618 2.331260 -22.077599 -9.832151 3.197363 14.394803 9.493510 15.422825 8.526535 0.000000 0.000000 0.000000 0.809989 -0.270017 20.743687 -5.856669 1.710492 -26.166835 4.561505 2.307953 36.156230 -5.205007 3.604636 -54.465920 0.000000 0.000000 0.000000 104.094370 23.545245 -1.776253 163.722941 -3.666990 -33.913818 -104.283070 27.199266 -74.722541 0.000000 0.000000 0.000000 -107.178636 -7.229867 10.499649 177.370250 16.128961 49.110872 -176.235617 46.574801 -151.266538 0.000000 0.000000 0.000000 
-0.085134 0.932651 -0.018909 -2.617883 -38.568332 11.805998 4.777497 2.950578 -27.078300 7.825747 -1.081369 14.111871 22.450126 23.592470 70.933399 0.000000 0.000000 0.000000 3.912331 4.922096 -24.565346 -15.796235 2.947534 6.877158 22.394307 18.949852 26.235632 0.000000 0.000000 0.000000 -6.962898 2.154060 17.390378 -2.512603 0.587912 -25.913118 -13.444728 -25.080553 42.797988 3.500468 3.509165 -62.077931 0.000000 0.000000 0.000000 138.710868 20.530703 23.702751 107.733387 -0.709080 63.179082 109.059460 -83.041927 -167.302715 0.000000 0.000000 0.000000 -114.177335 -29.247079 25.836370 176.968076 -4.511350 -158.963619 -178.810347 -3.650516 -34.631782 0.000000 0.000000 0.000000 
-0.095018 0.935791 -0.020499 -22.651106 -73.099824 29.818637 13.611768 7.500325 -10.200138 7.237904 -0.253347 6.294930 -9.046252 24.398384 87.052615 0.000000 0.000000 0.000000 18.146877 8.737680 -22.004783 -21.118553 2.710042 -0.041866 38.578610 18.797779 45.935464 0.000000 0.000000 0.000000 -12.744111 3.569600 7.795653 -2.813339 0.237976 -26.867830 -58.799623 -55.535381 70.889863 10.808976 7.800264 -53.553336 0.000000 0.000000 0.000000 125.831791 -8.707971 44.953320 108.721847 -27.945247 54.089017 24.893628 -68.992326 -55.356823 0.000000 0.000000 0.000000 -72.736903 -10.183208 9.922155 167.883616 42.256129 -103.707104 150.584028 -29.451307 62.523684 0.000000 0.000000 0.000000 
-0.102177 0.939307 -0.024638 -166.750994 -55.054425 169.541641 8.684114 10.005636 14.235533 7.242775 0.647951 0.371032 -45.253628 29.326909 56.659606 0.000000 0.000000 0.000000 27.404547 7.066541 -8.394394 -14.780579 1.474891 -6.658227 45.607399 3.635199 70.922604 0.000000 0.000000 0.000000 -9.316863 3.611794 -5.497816 -5.654865 -0.245045 -25.655167 -22.647698 -28.204194 33.609029 9.131813 5.075992 -42.431202 0.000000 0.000000 0.000000 90.027162 -22.052309 65.771288 95.497500 -34.071363 38.798854 -59.897788 -30.895620 9.061114 0.000000 0.000000 0.000000 -39.824245 12.243289 -15.227570 92.948628 55.951168 -77.349328 103.678894 26.662096 51.302463 0.000000 0.000000 0.000000 
-0.107796 0.942628 -0.031192 -173.830477 -34.854407 174.057226 -0.956939 12.430032 20.677065 8.007701 1.323871 0.561609 -25.015795 10.161945 48.136700 0.000000 0.000000 0.000000 25.591929 4.541799 -1.262879 -10.652683 2.271673 -7.069949 43.648237 -3.148685 72.984148 0.000000 0.000000 0.000000 -4.657354 4.039379 -8.789075 -6.685552 -0.223180 -25.607986 -14.392642 -12.571188 23.417924 10.245748 7.018680 -37.182051 0.000000 0.000000 0.000000 61.497485 -17.890961 72.803612 87.951231 -38.998087 28.231790 -67.105071 13.019732 -10.070815 0.000000 0.000000 0.000000 -29.467946 19.948059 -24.542156 57.159218 52.363492 -57.673743 72.352786 59.764011 33.580126 0.000000 0.000000 0.000000 
-0.113616 0.945943 -0.038773 -175.730385 -32.336878 175.198365 -2.022386 12.855800 21.269186 6.574092 3.290035 3.673193 -15.372041 4.634552 49.878270 0.000000 0.000000 0.000000 22.690455 3.217258 0.328427 -6.489720 3.157282 -6.384880 37.573665 -8.674555 66.188245 0.000000 0.000000 0.000000 -3.984880 3.945140 -8.854226 -6.749396 -0.180475 -25.068546 -12.507123 -11.056771 19.075647 9.657900 6.921013 -32.683265 0.000000 0.000000 0.000000 47.195427 -14.793264 72.023083 79.778488 -39.562265 20.796152 -60.649291 40.338612 -20.357395 0.000000 0.000000 0.000000 -21.873470 22.916360 -30.964925 44.894598 46.719676 -37.737242 48.121493 70.814283 18.358154 0.000000 0.000000 0.000000 
-0.119943 0.950956 -0.045802 -176.028819 -35.883077 175.872617 -1.140593 12.700907 21.626018 5.205534 4.141049 5.028673 -2.648527 0.284427 55.182584 0.000000 0.000000 0.000000 21.806538 2.715805 -0.611884 -5.593370 2.657642 -4.338424 29.221321 -7.680963 78.332915 0.000000 0.000000 0.000000 -4.970537 3.193748 -7.130364 -6.867208 -0.208850 -25.122693 -11.478237 -12.585855 16.135424 7.251650 4.457154 -30.967114 0.000000 0.000000 0.000000 40.165244 -12.978488 55.516397 74.714444 -51.980314 12.812266 -55.192952 63.973597 -27.675044 0.000000 0.000000 0.000000 -16.347893 23.341126 -30.800072 36.458711 44.390964 -25.316581 10.995444 78.491488 -9.002005 0.000000 0.000000 0.000000 
-0.128515 0.953256 -0.051647 -176.939683 -38.517391 177.285144 -1.931421 11.435077 20.562901 4.513345 5.852609 7.773840 2.451247 0.902556 59.867551 0.000000 0.000000 0.000000 20.829173 2.261527 -1.847974 -6.030896 1.996375 -2.438832 20.804204 -4.513939 83.582307 0.000000 0.000000 0.000000 -5.516473 3.433414 -7.726761 -6.311463 -0.249019 -24.443748 -11.473804 -14.730057 13.717823 7.115184 3.816274 -30.320715 0.000000 0.000000 0.000000 38.486751 -13.698042 50.266872 66.519257 -52.861428 11.902925 -49.808724 78.793605 -26.162160 0.000000 0.000000 0.000000 -14.637336 22.771757 -29.706025 35.478450 44.522693 -22.440440 -11.266194 84.043437 -26.929563 0.000000 0.000000 0.000000 
-0.138905 0.955594 -0.056168 -176.262863 -41.429399 177.484864 -2.525275 10.747022 20.162235 4.077723 6.358261 8.725995 7.988946 3.374057 63.009207 0.000000 0.000000 0.000000 20.762865 2.227587 -3.762856 -5.672618 1.753743 -0.455609 15.588488 1.186211 88.266146 0.000000 0.000000 0.000000 -5.282330 3.009251 -7.081658 -5.523729 -0.253969 -26.290115 -11.149732 -16.041040 13.161614 4.318004 2.405184 -29.249121 0.000000 0.000000 0.000000 36.315833 -12.582573 43.466237 62.028275 -54.880473 11.406013 -4.510078 87.611990 16.399315 0.000000 0.000000 0.000000 -13.685728 22.110535 -28.824875 35.260392 43.843682 -20.353378 -66.293246 84.452598 -77.999985 0.000000 0.000000 0.000000 
-0.150426 0.955191 -0.059592 -175.994948 -42.676895 177.761653 -3.670189 10.697346 20.368184 4.770053 5.953687 8.938721 6.378766 2.775091 63.468374 0.000000 0.000000 0.000000 20.170803 2.058617 -4.722354 -6.153738 1.505770 2.093989 19.114628 -4.573179 82.154923 0.000000 0.000000 0.000000 -3.795913 2.958967 -7.771100 -5.334887 -0.242008 -26.916615 -10.592097 -16.291524 11.510332 4.908266 2.793854 -28.088523 0.000000 0.000000 0.000000 35.220477 -12.953820 40.852340 56.074732 -53.959641 11.011564 104.664022 83.952625 124.911418 0.000000 0.000000 0.000000 -13.140259 20.786234 -28.932414 38.584640 43.714471 -19.028713 -114.016148 85.961620 -125.092117 0.000000 0.000000 0.000000 
-0.161297 0.953300 -0.062179 -174.322676 -43.654312 176.717204 -4.209011 10.499315 20.242399 5.145144 5.554028 8.864028 8.140557 3.687536 64.430768 0.000000 0.000000 0.000000 19.933520 1.982633 -5.086816 -5.118340 1.745959 3.400825 23.955338 -5.858797 80.377032 0.000000 0.000000 0.000000 -2.505106 2.811234 -7.909968 -3.869876 -0.099337 -27.789652 -9.943194 -17.222685 10.810858 3.142753 3.088534 -26.237159 0.000000 0.000000 0.000000 32.794339 -11.674790 39.641307 53.726448 -51.958007 9.649610 115.467633 78.008856 134.977669 0.000000 0.000000 0.000000 -14.008777 19.635832 -29.285301 41.164492 43.158932 -19.639925 -151.628139 85.514131 -163.695143 0.000000 0.000000 0.000000 
-0.170233 0.949738 -0.064413 -173.800924 -44.208337 176.859382 -4.815050 10.713494 20.567594 5.632104 4.599977 7.924036 5.348013 2.933037 65.451722 0.000000 0.000000 0.000000 20.484361 2.164059 -5.006010 -6.630291 1.485999 4.145584 27.544122 -7.967450 75.057788 0.000000 0.000000 0.000000 -2.065045 3.190199 -8.899070 -2.716519 0.103652 -28.545708 -9.538913 -18.173901 10.210875 2.620507 2.981205 -26.428617 0.000000 0.000000 0.000000 33.393378 -11.133597 38.357475 51.578123 -50.245357 9.608953 126.950964 75.068646 150.238825 0.000000 0.000000 0.000000 -15.547146 17.940644 -28.095251 44.257724 44.874768 -21.943817 175.652212 84.552822 161.995141 0.000000 0.000000 0.000000 
-0.176949 0.947021 -0.066049 -172.287803 -43.459040 175.911087 -3.984683 11.374820 21.237647 5.484007 4.230415 7.173338 5.039058 2.759383 65.274305 0.000000 0.000000 0.000000 21.152281 2.344151 -4.608205 -7.020207 1.514015 4.711564 32.543821 -7.430634 72.567033 0.000000 0.000000 0.000000 -0.765757 3.107632 -8.871114 -1.718897 0.458682 -29.748544 -8.216130 -18.845465 9.709479 2.119263 3.358145 -27.037476 0.000000 0.000000 0.000000 32.336816 -9.040844 38.059732 52.452317 -47.809348 8.823809 134.338557 71.367202 161.123794 0.000000 0.000000 0.000000 -16.715318 16.966355 -30.136942 48.495999 43.737653 -23.493004 149.947782 81.290960 134.134857 0.000000 0.000000 0.000000 
-0.181734 0.944425 -0.067255 -172.478987 -42.427636 176.223271 -4.419878 11.315651 21.017826 4.960295 4.939026 7.714191 2.307591 1.676644 64.395063 0.000000 0.000000 0.000000 21.663882 2.571313 -4.981284 -8.667462 1.628456 6.551026 34.701391 -7.316661 70.109977 0.000000 0.000000 0.000000 -0.541656 3.255630 -9.111806 -0.286203 1.039106 -31.127214 -8.685699 -19.482508 10.408519 3.726906 4.668037 -27.112948 0.000000 0.000000 0.000000 32.837790 -7.120251 39.409827 54.235911 -43.640215 9.050999 142.814942 70.330605 176.530245 0.000000 0.000000 0.000000 -19.875042 14.958482 -31.455990 52.814145 42.784781 -28.542572 145.065210 75.149208 126.479366 0.000000 0.000000 0.000000 
-0.185068 0.941534 -0.068137 -172.284772 -42.024262 175.580895 -4.155209 11.682403 21.376013 3.970585 6.098093 8.676435 2.460640 1.118912 62.631300 0.000000 0.000000 0.000000 21.388216 2.401117 -4.779778 -8.616263 1.880532 7.639245 38.214572 -5.310870 70.199030 0.000000 0.000000 0.000000 -0.074047 2.767305 -8.127553 -0.291701 1.352321 -32.305708 -7.280965 -20.012120 10.470387 2.766739 3.879843 -29.292440 0.000000 0.000000 0.000000 30.431713 -6.094971 41.404103 59.427786 -41.562683 7.959061 146.447280 67.677244 179.088369 0.000000 0.000000 0.000000 -21.312166 12.823559 -31.865489 55.840323 42.097375 -30.556687 146.401625 70.520447 126.140603 0.000000 0.000000 0.000000 
-0.187430 0.940391 -0.068749 -172.280881 -43.310427 174.968103 -3.311225 11.631298 21.471263 3.707670 7.036999 9.958498 1.516260 0.659604 61.443107 0.000000 0.000000 0.000000 21.901609 2.641580 -5.102007 -9.655859 2.256166 9.436217 38.840314 -4.762539 68.723286 0.000000 0.000000 0.000000 -0.494605 2.476425 -7.547846 0.251147 1.704973 -32.933876 -8.453773 -21.313556 11.530587 3.852513 4.400188 -29.480612 0.000000 0.000000 0.000000 29.263006 -4.845548 40.382038 63.381311 -41.863152 7.482033 147.138927 65.780822 178.355535 0.000000 0.000000 0.000000 -21.781023 11.899675 -32.665903 55.019529 39.775754 -30.256709 159.256222 69.014101 140.186577 0.000000 0.000000 0.000000 
-0.188923 0.939577 -0.069426 -172.596662 -45.324529 174.930732 -3.367717 11.113818 21.095755 4.007899 7.385495 11.019149 1.069042 0.411029 60.826862 0.000000 0.000000 0.000000 21.712954 2.582917 -5.398701 -10.490645 2.354463 9.915049 41.514466 -2.335629 68.698143 0.000000 0.000000 0.000000 -0.783349 2.273014 -7.149943 -0.892853 1.428807 -33.073829 -7.895908 -22.289602 11.618332 1.985763 2.591642 -30.874266 0.000000 0.000000 0.000000 26.612770 -4.971664 38.216264 66.149808 -44.232709 4.585916 145.101159 60.925233 170.202460 0.000000 0.000000 0.000000 -21.463272 10.187807 -30.143249 51.202538 40.539589 -26.963959 -179.399105 67.791435 165.580223 0.000000 0.000000 0.000000 
-0.189802 0.940348 -0.069987 -172.475021 -47.494994 174.596928 -3.050007 10.746789 20.918045 4.067557 7.182454 11.184567 2.447466 0.711725 60.481465 0.000000 0.000000 0.000000 22.525417 2.943177 -5.256580 -12.066695 2.164918 9.280304 41.786367 -1.556819 69.865990 0.000000 0.000000 0.000000 -1.547531 2.506677 -7.726406 -1.544135 1.183712 -32.713442 -8.361209 -23.411482 12.562533 1.921574 2.159852 -30.889207 0.000000 0.000000 0.000000 24.476992 -5.028925 36.252534 69.871427 -48.947627 0.951208 145.037091 56.401086 164.777377 0.000000 0.000000 0.000000 -20.577582 9.960601 -28.461611 47.433450 40.607991 -23.916080 -163.994876 64.971276 -174.578140 0.000000 0.000000 0.000000 
-0.190438 0.940897 -0.070310 -172.165119 -49.396348 174.011611 -2.723251 10.632619 21.018278 5.108121 6.517866 11.477020 2.154903 0.754439 60.657082 0.000000 0.000000 0.000000 22.862025 3.122847 -5.377240 -12.404525 2.143759 9.209893 41.492116 -1.108449 71.305924 0.000000 0.000000 0.000000 -1.593317 2.812629 -8.542661 -2.258589 0.783341 -31.855492 -8.275416 -23.944928 12.843709 1.183147 1.469055 -30.655237 0.000000 0.000000 0.000000 22.047815 -6.271718 36.075700 69.456706 -51.933316 -2.882718 141.932198 48.998053 154.200661 0.000000 0.000000 0.000000 -19.893860 9.138966 -25.468021 43.278272 42.620152 -21.559230 -153.261244 63.444538 -161.212245 0.000000 0.000000 0.000000 
-0.190954 0.940328 -0.070343 -171.797921 -50.575612 173.770297 -3.174587 10.320490 20.797825 5.597886 5.865232 11.055880 3.585921 1.242482 60.894640 0.000000 0.000000 0.000000 22.953272 3.198715 -5.559616 -11.985207 1.972709 8.814776 40.236928 -1.559809 72.358907 0.000000 0.000000 0.000000 -1.598544 2.856707 -8.694137 -1.940081 0.711426 -31.325543 -8.486011 -23.409916 13.155925 0.905354 0.863409 -31.085778 0.000000 0.000000 0.000000 20.537240 -6.798750 34.499617 66.359599 -56.527892 -5.588571 140.284571 40.789098 146.164796 0.000000 0.000000 0.000000 -19.711163 8.830131 -22.652381 35.941409 43.699640 -19.566182 -138.210507 58.138893 -140.800405 0.000000 0.000000 0.000000 
-0.191133 0.938735 -0.070083 -171.722860 -51.952469 173.253381 -3.526038 10.451243 21.165579 7.220361 5.123289 11.273929 2.440251 0.816975 60.723749 0.000000 0.000000 0.000000 23.251217 3.297380 -5.208216 -11.623892 2.060044 9.250062 36.721192 -4.383700 68.598318 0.000000 0.000000 0.000000 -0.995174 2.582960 -8.196517 -2.626940 0.589058 -31.227383 -8.272592 -22.363209 14.407573 0.051360 -0.094353 -31.690564 0.000000 0.000000 0.000000 20.334521 -7.785257 32.242839 59.012544 -56.761592 -3.888836 139.128126 36.892023 142.506390 0.000000 0.000000 0.000000 -18.946399 8.827040 -19.731616 27.692180 45.344985 -18.478520 -125.683517 54.371879 -124.141190 0.000000 0.000000 0.000000 
-0.191032 0.937140 -0.069712 -170.810593 -52.573184 172.167357 -3.091839 10.939592 21.878972 7.735872 4.473535 10.739641 1.820976 0.652952 60.665792 0.000000 0.000000 0.000000 22.670525 2.970896 -5.096729 -9.358709 2.114405 9.781564 36.129698 -5.005214 65.999380 0.000000 0.000000 0.000000 -0.101530 2.466530 -8.037908 -2.343508 0.501114 -30.691088 -8.486100 -20.828495 15.041454 0.736853 -0.418055 -32.114314 0.000000 0.000000 0.000000 20.968154 -8.987486 30.356484 51.695907 -56.509637 -1.504216 137.249836 34.302441 137.708753 0.000000 0.000000 0.000000 -18.879770 8.479868 -16.984461 19.221071 46.785968 -19.279810 -114.355018 50.850762 -109.359419 0.000000 0.000000 0.000000 
-0.190453 0.935789 -0.069114 -169.748401 -53.858904 170.685356 -1.659040 11.303272 22.608468 8.493094 3.850444 10.425255 0.583798 0.073302 59.555871 0.000000 0.000000 0.000000 22.639453 2.812183 -3.836975 -7.696833 2.045002 9.630030 34.753765 -6.186482 57.677638 0.000000 0.000000 0.000000 0.826344 2.264634 -7.604258 -2.761735 0.201230 -29.514918 -8.075252 -20.303998 15.474400 2.419691 -0.076357 -31.493926 0.000000 0.000000 0.000000 21.704708 -10.690029 29.061948 46.561680 -54.818242 0.409805 135.388886 34.703859 134.102690 0.000000 0.000000 0.000000 -18.734204 8.508116 -14.029946 9.123058 48.600171 -22.169454 -103.540221 46.905305 -93.996452 0.000000 0.000000 0.000000 
-0.189371 0.935018 -0.068596 -168.562395 -54.651657 169.726167 -0.905723 10.997740 22.351783 8.682318 3.516576 10.150922 -1.365712 -0.156251 59.804100 0.000000 0.000000 0.000000 21.540541 2.336349 -3.497611 -4.950140 2.328375 10.093834 36.459406 -2.733947 50.112004 0.000000 0.000000 0.000000 1.631167 2.260674 -7.583919 -2.731235 0.172502 -29.224348 -8.156197 -20.694015 16.477017 3.220737 -0.135008 -33.027252 0.000000 0.000000 0.000000 23.102890 -11.217758 28.818086 45.800254 -51.872840 1.945838 132.046756 38.956201 133.160541 0.000000 0.000000 0.000000 -19.202098 8.492799 -12.494088 0.789824 49.667207 -26.141527 -93.686508 43.980668 -81.591988 0.000000 0.000000 0.000000 
-0.187799 0.934138 -0.068368 -167.797063 -55.317440 168.772381 -0.212346 10.975554 22.449273 8.781404 3.545177 10.421913 -1.067018 -1.174106 56.488331 0.000000 0.000000 0.000000 20.778261 2.026251 -3.079012 -2.439574 2.549281 9.904660 35.047292 -2.809326 47.479119 0.000000 0.000000 0.000000 1.385314 2.263994 -7.683449 -1.791350 0.141169 -28.337847 -7.920113 -19.953564 17.443661 6.577215 0.913027 -32.544971 0.000000 0.000000 0.000000 25.701220 -12.578745 27.250414 44.255588 -53.106233 3.689779 130.839603 40.419143 132.522935 0.000000 0.000000 0.000000 -20.544254 7.607300 -9.056012 -5.770210 49.373585 -29.258701 -88.123288 39.153047 -73.906631 0.000000 0.000000 0.000000 
-0.185555 0.932465 -0.068578 -167.399216 -55.835765 168.039990 0.014024 10.371798 21.665749 9.067971 4.728269 12.772254 -1.541803 -1.824367 54.331730 0.000000 0.000000 0.000000 20.615409 1.932115 -2.447710 -1.949116 2.531223 9.764643 35.824452 -0.329902 44.871965 0.000000 0.000000 0.000000 1.702351 1.918653 -6.931859 -1.437130 0.283030 -28.714809 -7.398524 -21.263793 18.031092 7.106571 1.423488 -32.859155 0.000000 0.000000 0.000000 24.830599 -11.574843 27.692470 46.304805 -52.152855 3.386792 129.075932 42.584350 130.841881 0.000000 0.000000 0.000000 -21.992840 7.830270 -6.950147 -10.625018 50.026277 -33.334052 -83.270279 35.446108 -67.710534 0.000000 0.000000 0.000000 
-0.182832 0.929144 -0.069074 -168.368982 -55.391426 169.087322 -0.693111 8.216093 18.439624 10.027522 7.227109 16.785187 -2.034292 -2.909467 46.222517 0.000000 0.000000 0.000000 19.798044 1.658279 -2.222402 -2.216227 2.798510 11.132715 37.012498 8.680677 37.802014 0.000000 0.000000 0.000000 1.278538 1.627493 -6.255730 -0.817431 0.165865 -27.583367 -5.847768 -19.111247 17.233661 7.037729 0.974208 -30.373892 0.000000 0.000000 0.000000 25.957611 -12.117402 23.601036 42.747438 -56.583534 4.682943 128.314283 38.139489 123.591127 0.000000 0.000000 0.000000 -21.159391 5.961665 -6.615157 -10.473300 49.029622 -30.441141 -84.270362 32.954909 -66.798784 0.000000 0.000000 0.000000 
-0.179623 0.925046 -0.069704 -168.689130 -54.773591 170.078647 -1.167967 7.223359 16.766344 10.510769 9.865483 20.296112 0.851614 -1.931418 44.388035 0.000000 0.000000 0.000000 19.527863 1.683575 -3.741627 0.106564 4.085805 14.241634 30.695540 8.829982 29.913116 0.000000 0.000000 0.000000 2.196561 1.290390 -5.299885 2.119598 1.109357 -29.059345 -7.796077 -18.021083 17.492063 4.849038 -0.516058 -33.606474 0.000000 0.000000 0.000000 27.097716 -11.183372 23.786445 42.674115 -58.030848 5.817020 129.611246 39.857595 128.163800 0.000000 0.000000 0.000000 -23.728065 7.430248 -4.564499 -8.870052 46.819123 -28.896930 -88.010014 30.369854 -74.107427 0.000000 0.000000 0.000000 
-0.176192 0.922946 -0.070239 -170.543257 -52.383816 171.642403 -3.853216 5.866290 14.704639 13.970204 13.265688 25.060452 -2.863098 -2.470635 34.922497 0.000000 0.000000 0.000000 17.707032 1.179141 -3.989428 1.515366 5.660329 17.581138 28.076072 16.240362 23.805005 0.000000 0.000000 0.000000 3.195816 1.842137 -6.457054 2.843748 0.556035 -24.954772 -7.152360 -15.196648 16.117076 5.035571 1.593435 -24.241502 0.000000 0.000000 0.000000 26.828658 -11.229039 22.599343 42.933737 -59.507321 5.697927 128.117367 34.002017 118.376793 0.000000 0.000000 0.000000 -19.880928 12.276002 -6.374148 -3.694665 40.428618 -18.885005 -99.707127 32.463558 -88.065382 0.000000 0.000000 0.000000 
