HIERARCHY
ROOT Hips
{
	OFFSET -0.001795 -0.223333 0.028219
	CHANNELS 6 Xposition Yposition Zposition Zrotation Yrotation Xrotation 
	JOINT LeftUpLeg
	{
		OFFSET 0.069520 -0.091406 -0.006815
		CHANNELS 3 Zrotation Yrotation Xrotation
		JOINT LeftLeg
		{
			OFFSET 0.034277 -0.375199 -0.004496
			CHANNELS 3 Zrotation Yrotation Xrotation
			JOINT LeftFoot
			{
				OFFSET -0.013596 -0.397961 -0.043693
				CHANNELS 3 Zrotation Yrotation Xrotation
				JOINT LeftToe
				{
					OFFSET 0.026358 -0.055791 0.119288
					CHANNELS 3 Zrotation Yrotation Xrotation
					End Site
					{
						OFFSET 0.000000 0.000000 0.000000
					}
				}
			}
		}
	}
	JOINT RightUpLeg
	{
		OFFSET -0.067670 -0.090522 -0.004320
		CHANNELS 3 Zrotation Yrotation Xrotation
		JOINT RightLeg
		{
			OFFSET -0.038290 -0.382569 -0.008850
			CHANNELS 3 Zrotation Yrotation Xrotation
			JOINT RightFoot
			{
				OFFSET 0.015774 -0.398415 -0.042312
				CHANNELS 3 Zrotation Yrotation Xrotation
				JOINT RightToe
				{
					OFFSET -0.025372 -0.048144 0.123348
					CHANNELS 3 Zrotation Yrotation Xrotation
					End Site
					{
						OFFSET 0.000000 0.000000 0.000000
					}
				}
			}
		}
	}
	JOINT Spine
	{
		OFFSET -0.002533 0.108963 -0.026696
		CHANNELS 3 Zrotation Yrotation Xrotation
		JOINT Spine1
		{
			OFFSET 0.005487 0.135180 0.001092
			CHANNELS 3 Zrotation Yrotation Xrotation
			JOINT Spine2
			{
				OFFSET 0.001457 0.052922 0.025425
				CHANNELS 3 Zrotation Yrotation Xrotation
				JOINT Neck
				{
					OFFSET -0.002778 0.213870 -0.042857
					CHANNELS 3 Zrotation Yrotation Xrotation
					JOINT Head
					{
						OFFSET 0.005152 0.064970 0.051349
						CHANNELS 3 Zrotation Yrotation Xrotation
						End Site
						{
							OFFSET 0.000000 0.000000 0.000000
						}
					}
				}
				JOINT LeftShoulder
				{
					OFFSET 0.078845 0.121749 -0.034090
					CHANNELS 3 Zrotation Yrotation Xrotation
					JOINT LeftArm
					{
						OFFSET 0.090977 0.030469 -0.008868
						CHANNELS 3 Zrotation Yrotation Xrotation
						JOINT LeftForeArm
						{
							OFFSET 0.259612 -0.012772 -0.027456
							CHANNELS 3 Zrotation Yrotation Xrotation
							JOINT LeftHand
							{
								OFFSET 0.249234 0.008986 -0.001171
								CHANNELS 3 Zrotation Yrotation Xrotation
								End Site
								{
									OFFSET 0.000000 0.000000 0.000000
								}
							}
						}
					}
				}
				JOINT RightShoulder
				{
					OFFSET -0.081759 0.118833 -0.038615
					CHANNELS 3 Zrotation Yrotation Xrotation
					JOINT RightArm
					{
						OFFSET -0.096012 0.032551 -0.009143
						CHANNELS 3 Zrotation Yrotation Xrotation
						JOINT RightForeArm
						{
							OFFSET -0.253742 -0.013329 -0.021401
							CHANNELS 3 Zrotation Yrotation Xrotation
							JOINT RightHand
							{
								OFFSET -0.255298 0.007772 -0.005559
								CHANNELS 3 Zrotation Yrotation Xrotation
								End Site
								{
									OFFSET 0.000000 0.000000 0.000000
								}
							}
						}
					}
				}
			}
		}
	}
}
MOTION
Frames: 64
Frame Time: 0.050000
0.000000 0.806013 0.000000 0.271198 17.868366 -2.362638 16.803154 -0.546045 -17.094653 -8.848522 -1.145824 46.262637 13.581421 26.181261 -7.378421 0.000000 0.000000 0.000000 -21.670092 -5.446133 -28.900620 7.609817 -5.302864 40.574949 -7.469030 -17.666901 0.639751 0.000000 0.000000 0.000000 0.081380 -1.197394 17.664046 7.752314 -0.759545 -26.520511 -0.356893 -6.424035 20.387761 -0.078840 1.524552 -15.520218 0.000000 0.000000 0.000000 -16.404087 -13.264326 4.667859 -52.780982 -45.655051 13.287600 143.585728 -48.605061 -99.819385 0.000000 0.000000 0.000000 2.323591 16.654405 6.291602 48.879901 46.440578 13.930983 -134.530065 40.024898 -66.593340 0.000000 0.000000 0.000000 
0.000364 0.799775 0.000723 0.415987 14.093221 -1.274977 18.999219 -0.106350 -18.540569 -12.896853 1.851976 48.485215 14.623717 28.835436 -4.355665 0.000000 0.000000 0.000000 -21.903880 -5.736719 -34.053112 8.619271 -5.591900 44.689918 -6.345067 -15.180484 2.057197 0.000000 0.000000 0.000000 0.495931 -1.158756 17.608405 8.504411 -0.863558 -28.608486 1.720435 -6.693707 22.823777 -1.673061 2.213850 -14.019659 0.000000 0.000000 0.000000 -18.340195 -14.079654 5.951614 -51.963137 -46.923780 13.489579 148.201296 -45.595228 -100.484138 0.000000 0.000000 0.000000 -0.200697 17.424391 6.028897 50.075153 41.947927 11.594892 -136.239468 39.970980 -69.905678 0.000000 0.000000 0.000000 
0.002975 0.794397 0.002054 0.567949 8.066009 -1.707626 17.547078 0.209482 -16.384127 -11.773372 2.795951 49.616395 16.866034 33.026875 -2.144496 0.000000 0.000000 0.000000 -21.511680 -4.412951 -34.852673 9.759239 -4.766603 42.987408 -5.354177 -12.798733 -1.636359 0.000000 0.000000 0.000000 1.184189 -1.156478 18.212647 14.767638 -2.748145 -25.639629 -3.088230 -4.730383 22.083660 -2.786658 2.949061 -16.792840 0.000000 0.000000 0.000000 -18.753305 -11.733689 5.164139 -46.546547 -48.440113 12.264115 150.860856 -41.742963 -99.092604 0.000000 0.000000 0.000000 2.071221 17.039609 6.121184 51.177353 40.098469 10.813467 -141.937382 42.972391 -83.815758 0.000000 0.000000 0.000000 
0.006327 0.792260 0.004696 0.971455 2.311145 -0.603573 16.855207 0.488135 -14.995310 -12.383850 4.864577 49.715773 17.547152 34.710576 -2.270168 0.000000 0.000000 0.000000 -19.979359 -3.089614 -39.022155 8.425022 -3.015558 44.452004 -4.182132 -10.060554 -1.399598 0.000000 0.000000 0.000000 2.582586 -1.329535 19.535947 15.980170 -3.150761 -25.008125 -4.443235 -7.853813 21.778834 -3.511064 2.546968 -18.338614 0.000000 0.000000 0.000000 -15.991432 -8.839020 4.983597 -51.023649 -53.235843 17.128079 152.553598 -40.129899 -94.862764 0.000000 0.000000 0.000000 -0.225946 15.232251 5.052659 55.241596 39.740727 10.896064 -146.349152 43.245646 -96.075627 0.000000 0.000000 0.000000 
0.010191 0.791101 0.009734 1.728365 -6.141092 0.455618 14.016928 0.608514 -13.447695 -11.522482 7.151199 50.334080 19.792918 37.894804 1.413600 0.000000 0.000000 0.000000 -17.791965 -0.618063 -42.323710 6.278181 -0.319895 43.295067 -2.822683 -5.937727 -3.225502 0.000000 0.000000 0.000000 3.309162 -1.233122 20.699915 17.487554 -3.204830 -26.178144 -7.848843 -10.938797 24.590140 -3.836707 1.546376 -21.708109 0.000000 0.000000 0.000000 -9.925765 -8.470561 5.286106 -50.069337 -58.282554 20.953561 148.246947 -40.015678 -81.450913 0.000000 0.000000 0.000000 2.212990 12.972285 3.879400 56.167254 37.453820 8.574423 -157.020607 45.925302 -125.992590 0.000000 0.000000 0.000000 
0.014542 0.790528 0.018770 0.964410 -15.032300 1.501068 14.324875 0.995634 -10.261239 -12.596603 10.538337 48.440849 20.408868 38.662435 3.284430 0.000000 0.000000 0.000000 -14.619464 2.495753 -45.471371 4.930456 1.782441 42.730164 -1.393587 -1.625836 -3.349903 0.000000 0.000000 0.000000 4.310926 -1.116793 22.111919 19.030256 -3.299253 -26.239691 -9.780245 -14.222727 26.211197 -4.583931 0.719070 -23.319894 0.000000 0.000000 0.000000 -5.743885 -11.264298 6.376298 -40.116142 -62.797190 19.722541 137.250615 -34.848132 -53.622320 0.000000 0.000000 0.000000 5.822038 8.605922 0.921197 53.335631 33.262258 5.521142 -162.449733 44.625939 -143.024056 0.000000 0.000000 0.000000 
0.018264 0.791028 0.031138 0.257918 -21.780568 3.757365 13.692835 1.115936 -8.387802 -12.477695 12.308735 46.417474 18.678632 36.490010 2.597404 0.000000 0.000000 0.000000 -12.323419 5.068220 -47.982889 3.177339 3.407550 41.243697 -0.505983 1.866034 -3.894698 0.000000 0.000000 0.000000 5.696986 -1.102472 24.536608 21.966940 -2.546443 -29.623717 -14.880651 -17.727988 28.078059 -5.193262 0.062954 -23.121203 0.000000 0.000000 0.000000 -0.050154 -14.011931 5.921418 -27.036914 -61.831439 14.064425 126.866433 -27.270106 -29.914252 0.000000 0.000000 0.000000 11.338432 6.848484 -2.740486 46.269159 27.450784 3.301278 -161.795477 43.779773 -144.388176 0.000000 0.000000 0.000000 
0.021133 0.789533 0.044952 -0.108810 -27.254650 4.618247 13.118288 1.140404 -5.388574 -13.880389 14.019690 42.953447 19.183524 36.963511 4.431003 0.000000 0.000000 0.000000 -11.631470 6.840361 -49.620547 3.478716 4.053869 41.524540 0.064106 4.595053 -4.302548 0.000000 0.000000 0.000000 6.510411 -0.933388 25.256526 22.617301 -2.607045 -28.422802 -15.995554 -20.699929 27.790458 -5.471601 -0.488889 -23.000442 0.000000 0.000000 0.000000 3.177110 -17.927906 6.467398 -12.199279 -59.052987 6.941349 119.615355 -15.384132 -7.809684 0.000000 0.000000 0.000000 15.223782 6.818024 -5.757070 39.109793 20.216114 1.882417 -157.656813 46.590661 -140.306078 0.000000 0.000000 0.000000 
0.023515 0.786483 0.057631 -0.721442 -29.999741 5.723210 12.374144 1.052803 -3.013744 -14.457541 14.374975 40.352721 17.650308 36.543713 0.565868 0.000000 0.000000 0.000000 -10.072558 8.137791 -50.186701 1.453376 5.367168 41.423703 -0.273484 6.431618 -6.417636 0.000000 0.000000 0.000000 6.944637 -0.841485 25.973967 24.147738 -1.586132 -31.317376 -19.418889 -22.948107 30.586668 -6.265902 -0.529925 -21.865237 0.000000 0.000000 0.000000 4.766871 -20.037499 6.687019 -2.581128 -56.967349 2.811120 114.263955 -6.768270 5.096786 0.000000 0.000000 0.000000 17.195734 6.618306 -7.903134 35.296992 15.224990 0.893622 -155.253427 48.149991 -136.903781 0.000000 0.000000 0.000000 
0.025416 0.781658 0.068039 -0.607834 -31.153141 5.968935 12.022295 1.017835 -1.615800 -14.645301 14.664191 39.782479 15.232000 33.528979 -2.538943 0.000000 0.000000 0.000000 -10.180134 8.610969 -51.157610 1.194098 5.995913 43.181102 -0.741467 6.822331 -7.933674 0.000000 0.000000 0.000000 7.946946 -0.973068 26.045102 23.545129 -1.596670 -30.935292 -19.506438 -24.503041 30.668909 -5.892636 -1.124627 -23.195139 0.000000 0.000000 0.000000 4.995536 -21.453433 7.317386 2.014100 -56.362703 0.965602 111.622122 -2.057222 11.175193 0.000000 0.000000 0.000000 17.670229 6.209906 -8.909686 33.322530 12.106804 0.350726 -151.389328 49.466176 -130.975155 0.000000 0.000000 0.000000 
0.027099 0.774787 0.076902 -0.565497 -31.129495 6.498207 11.805122 0.980569 -1.708199 -14.312288 15.155794 41.349448 13.212977 30.829104 -6.329022 0.000000 0.000000 0.000000 -12.063621 8.499765 -53.165387 3.670490 5.214373 46.062912 -1.187680 5.490132 -8.569424 0.000000 0.000000 0.000000 8.463435 -1.064235 26.670588 23.434455 -1.596276 -30.910144 -18.411766 -24.154898 30.296326 -5.942981 -1.082479 -24.454254 0.000000 0.000000 0.000000 5.158706 -22.056450 7.495647 1.940390 -57.519919 1.065981 110.589365 -0.373313 13.085080 0.000000 0.000000 0.000000 17.875696 5.735707 -9.171068 34.091343 9.927605 -0.108845 -150.570336 47.181599 -126.298928 0.000000 0.000000 0.000000 
0.028164 0.767984 0.085431 -0.629614 -30.742854 6.736234 11.238831 0.877659 -1.473813 -11.832211 14.194258 43.560275 9.754335 24.237850 -11.026001 0.000000 0.000000 0.000000 -13.599379 8.126078 -54.261361 5.821268 4.319370 48.240919 -1.761851 4.319718 -9.792467 0.000000 0.000000 0.000000 9.960831 -1.400101 26.600313 21.700622 -1.272181 -31.765550 -17.481316 -23.677048 32.028885 -5.029250 -1.854178 -26.721385 0.000000 0.000000 0.000000 5.480560 -21.230394 6.899214 -3.988898 -58.662530 4.086827 113.612370 -3.621196 9.939019 0.000000 0.000000 0.000000 15.934421 5.847931 -8.133552 37.831606 9.800417 -0.730878 -149.088745 43.899905 -120.459152 0.000000 0.000000 0.000000 
0.028379 0.761407 0.094535 -0.075340 -29.549626 6.261824 10.145058 0.701448 -0.572209 -9.892468 12.829775 44.647622 7.785195 19.957208 -15.116847 0.000000 0.000000 0.000000 -14.649605 7.302958 -53.824312 6.310817 4.082033 49.637292 -2.790756 3.569469 -12.890658 0.000000 0.000000 0.000000 10.148493 -1.516638 26.105793 21.870092 -1.305134 -31.864106 -17.076536 -22.637043 32.578903 -4.010538 -2.344736 -28.965391 0.000000 0.000000 0.000000 4.573251 -20.054914 6.721921 -11.840223 -58.104981 7.362893 116.674597 -9.660029 2.016304 0.000000 0.000000 0.000000 15.109599 5.996171 -7.181881 39.915615 11.494506 -0.736619 -149.226005 43.407536 -120.112286 0.000000 0.000000 0.000000 
0.027731 0.759356 0.103765 0.327673 -30.413400 5.204042 8.834123 0.664228 1.310334 -7.351346 11.645560 45.402947 6.558873 16.601000 -14.791065 0.000000 0.000000 0.000000 -13.541303 7.696427 -52.840874 4.590583 5.593813 50.795041 -3.310388 4.448906 -14.927903 0.000000 0.000000 0.000000 10.469783 -1.432622 27.604068 20.790675 -1.344853 -31.616857 -15.175135 -21.322662 31.186579 -4.945201 -1.519344 -29.700620 0.000000 0.000000 0.000000 5.605017 -18.649838 5.643438 -19.181874 -55.411699 10.222667 120.312362 -15.278888 -6.151109 0.000000 0.000000 0.000000 14.470510 7.039209 -6.090980 41.834714 13.872354 -0.214765 -151.978735 42.447930 -124.061181 0.000000 0.000000 0.000000 
0.026424 0.759032 0.111512 0.482909 -30.299524 3.578578 8.733654 0.738771 2.682481 -6.007813 10.799674 45.885228 7.335671 18.447048 -11.841823 0.000000 0.000000 0.000000 -13.454386 7.109316 -50.429973 5.023312 5.560804 50.779487 -3.960553 4.829482 -17.114525 0.000000 0.000000 0.000000 10.718122 -1.451911 27.329814 21.060565 -1.872573 -30.164895 -14.380708 -21.727967 29.982068 -6.681991 -0.488524 -30.089843 0.000000 0.000000 0.000000 4.524616 -16.896352 5.463620 -21.118341 -52.640104 10.006133 122.338697 -19.543921 -13.598204 0.000000 0.000000 0.000000 14.288819 8.554977 -5.219427 41.005466 17.897872 0.998075 -153.435616 44.347730 -130.030882 0.000000 0.000000 0.000000 
0.025014 0.761644 0.117373 0.420668 -26.121370 2.540808 10.671935 0.762896 2.365745 -5.640527 9.662715 47.740984 8.234429 20.201455 -12.309768 0.000000 0.000000 0.000000 -13.259672 5.757289 -48.078247 4.217464 5.610687 52.011825 -4.101699 2.842531 -17.120341 0.000000 0.000000 0.000000 10.875973 -1.803501 26.658948 20.829321 -2.648882 -28.452990 -12.266113 -24.010501 27.045835 -10.395355 2.034098 -27.760631 0.000000 0.000000 0.000000 3.010788 -15.421205 5.651030 -23.448056 -50.702422 9.982865 122.989326 -23.338756 -19.721733 0.000000 0.000000 0.000000 15.188279 11.394613 -4.238205 40.603283 22.335377 2.652278 -158.757816 45.052171 -141.800912 0.000000 0.000000 0.000000 
0.022711 0.762958 0.120955 0.541966 -20.824547 1.451596 13.488286 0.765250 1.325096 -5.763024 8.112032 49.054320 8.852564 20.716141 -11.946542 0.000000 0.000000 0.000000 -15.724756 3.478411 -46.020092 7.054602 2.974850 53.473049 -4.030897 0.015263 -16.046629 0.000000 0.000000 0.000000 10.534654 -2.028680 23.919116 21.833037 -3.886300 -25.140002 -11.025715 -22.679052 24.431382 -11.623662 3.710648 -25.330719 0.000000 0.000000 0.000000 -0.267799 -14.842290 6.616429 -29.398517 -55.259908 13.305542 125.709099 -30.657913 -34.439772 0.000000 0.000000 0.000000 13.557958 12.030976 -2.084694 43.854123 25.790283 3.508769 -164.056211 45.060779 -152.710200 0.000000 0.000000 0.000000 
0.019436 0.761493 0.122379 1.147554 -9.204413 0.821996 17.290707 0.575259 -3.439286 -5.633770 4.506760 51.632080 9.003743 19.478109 -19.353873 0.000000 0.000000 0.000000 -17.996801 0.016606 -41.883498 6.271377 0.813097 55.156309 -5.008856 -5.769425 -17.006460 0.000000 0.000000 0.000000 10.405743 -2.318849 19.778133 20.426206 -4.215938 -24.091081 -8.925452 -25.373129 22.444623 -12.813279 5.358155 -21.628504 0.000000 0.000000 0.000000 -6.936967 -11.123897 7.398478 -42.064664 -57.813397 19.359880 134.898834 -41.439813 -59.985990 0.000000 0.000000 0.000000 9.850702 12.659012 0.114670 50.785754 29.820140 4.860271 -169.868036 42.863362 -164.701172 0.000000 0.000000 0.000000 
0.014953 0.761123 0.121810 1.601212 6.776480 0.288458 22.092613 0.316772 -12.366958 -7.147992 0.458490 55.558461 7.754553 11.777451 -19.012370 0.000000 0.000000 0.000000 -21.374554 -4.061814 -35.114638 6.107218 -3.531192 56.083664 -6.345307 -13.397533 -16.505156 0.000000 0.000000 0.000000 9.311262 -2.329017 16.559980 19.090697 -3.951687 -24.838468 -7.147651 -23.787572 21.771369 -9.247859 4.809511 -15.585845 0.000000 0.000000 0.000000 -17.229490 -8.517573 8.008227 -55.312214 -54.534484 20.995552 162.161042 -49.271438 -114.780079 0.000000 0.000000 0.000000 5.439239 12.702244 2.804074 56.611236 34.288950 7.353183 -166.155910 42.580095 -147.788208 0.000000 0.000000 0.000000 
0.010170 0.762280 0.120029 1.952544 24.240070 -1.101108 23.633648 -0.794002 -22.185603 -9.389001 -3.669376 58.736055 6.321748 5.031200 -17.646636 0.000000 0.000000 0.000000 -24.818821 -7.223594 -25.872049 6.093012 -9.122378 56.313494 -8.232614 -20.903697 -13.186728 0.000000 0.000000 0.000000 8.127607 -2.296105 14.958680 14.301825 -2.408324 -25.564309 -2.619100 -17.102878 19.145956 -3.729394 2.931262 -6.106195 0.000000 0.000000 0.000000 -24.157022 -11.933475 6.456062 -56.487393 -41.597171 12.448106 -179.121285 -44.673321 -164.105573 0.000000 0.000000 0.000000 1.572100 11.486705 3.989462 55.028428 33.252081 8.350903 -160.229502 40.550683 -115.384294 0.000000 0.000000 0.000000 
0.006550 0.765020 0.118783 3.582134 43.497037 -0.418685 23.498078 -3.449489 -31.912175 -15.656073 -4.709460 57.727502 5.524164 0.872118 -16.287445 0.000000 0.000000 0.000000 -28.055071 -10.199123 -17.276274 4.735603 -15.222854 57.266524 -11.491359 -27.586820 -4.268241 0.000000 0.000000 0.000000 5.543999 -1.634040 12.083351 9.582607 -0.746687 -22.144625 0.694822 -5.486184 12.305040 2.680342 -3.336396 4.925958 0.000000 0.000000 0.000000 -23.052590 -19.942037 2.718405 -53.762367 -29.069935 7.333184 -179.305773 -44.019554 175.770573 0.000000 0.000000 0.000000 8.039091 9.425528 5.902292 38.566649 24.007955 2.470570 -144.246875 43.115946 -75.039677 0.000000 0.000000 0.000000 
0.005377 0.774474 0.119435 4.073893 57.109879 -1.914049 23.412780 -5.769123 -36.399149 -19.831506 -5.449532 56.614485 3.577377 -2.796586 -12.111014 0.000000 0.000000 0.000000 -27.585333 -10.079002 -8.965216 2.097868 -18.685378 56.818439 -13.203888 -28.745540 3.973049 0.000000 0.000000 0.000000 2.781893 -1.554358 13.258678 3.444916 1.397204 -19.072360 4.883367 2.765213 6.433892 1.186081 -7.478863 15.406912 0.000000 0.000000 0.000000 -20.838070 -15.869532 -3.446282 -51.785674 -27.971778 6.893840 -175.865978 -49.746381 161.717195 0.000000 0.000000 0.000000 11.387526 11.396451 9.802879 27.949941 14.470516 -0.885593 -120.781099 39.990160 -43.736799 0.000000 0.000000 0.000000 
0.007501 0.788138 0.122976 3.870475 66.388868 -2.731547 23.838660 -6.847796 -36.099176 -23.853026 -4.768796 51.132914 2.867393 -4.174271 -9.901016 0.000000 0.000000 0.000000 -26.929672 -9.903272 -3.066721 1.561268 -21.389922 54.848529 -12.703114 -25.255978 11.308228 0.000000 0.000000 0.000000 1.429355 -1.849180 14.920022 -1.538544 2.640894 -15.729071 6.212243 6.812518 2.339357 1.232000 -10.121418 17.663842 0.000000 0.000000 0.000000 -17.233843 -12.927853 -4.877426 -48.847668 -30.244474 6.364678 -178.260832 -49.710970 167.589445 0.000000 0.000000 0.000000 11.702334 13.456847 12.003129 25.322589 9.680977 -1.316858 -109.545992 34.746837 -30.264157 0.000000 0.000000 0.000000 
0.011510 0.808118 0.127267 -1.334379 72.209342 -7.003340 24.443968 -7.558944 -35.976209 -23.953219 -5.159634 46.990425 2.981394 -1.759032 -6.885542 0.000000 0.000000 0.000000 -23.900540 -8.651745 0.700269 1.642515 -22.245914 50.661737 -10.774726 -20.774754 13.566739 0.000000 0.000000 0.000000 -0.151226 -2.075761 16.095606 -1.478966 2.677237 -16.033016 5.426711 7.516318 1.250392 -1.987117 -7.664393 17.976127 0.000000 0.000000 0.000000 -13.570482 -11.980194 -4.306560 -48.669975 -34.308173 6.333639 177.997889 -48.778795 175.896390 0.000000 0.000000 0.000000 12.080999 13.243300 12.707808 29.937431 11.128010 -0.712231 -107.701436 31.776580 -24.906085 0.000000 0.000000 0.000000 
0.015181 0.830091 0.129567 -4.921655 70.188450 -9.262972 24.056849 -6.907963 -33.730831 -19.901746 -5.552646 44.280602 0.924597 -3.088382 -3.111966 0.000000 0.000000 0.000000 -21.556189 -7.312661 0.105551 -0.421066 -19.230099 49.130839 -5.743382 -11.367003 13.346169 0.000000 0.000000 0.000000 -1.290186 -2.161724 16.931931 -1.802056 2.694755 -19.398012 5.835909 5.707598 4.728264 -1.874459 -5.841011 15.417095 0.000000 0.000000 0.000000 -10.481229 -12.477746 -2.477984 -56.233072 -43.856251 9.522805 172.459304 -49.073664 -172.419258 0.000000 0.000000 0.000000 11.003576 12.139058 11.346053 37.274594 11.797858 -0.218974 -119.558618 39.946473 -41.982362 0.000000 0.000000 0.000000 
0.016578 0.845219 0.128579 -5.345040 63.687441 -7.973384 24.272890 -5.786676 -31.343177 -16.866939 -4.793579 41.694088 -1.139187 -0.815904 2.822137 0.000000 0.000000 0.000000 -19.524497 -5.928353 -3.074826 -2.430150 -15.272834 48.816163 -2.119599 -4.827335 10.897839 0.000000 0.000000 0.000000 -3.831461 -1.763497 16.820022 2.118037 1.648756 -20.970405 3.934340 3.085096 8.177041 -2.210579 -1.342887 8.464867 0.000000 0.000000 0.000000 -8.241127 -14.213041 -0.358612 -61.866388 -58.210167 17.717202 161.366460 -51.640057 -150.625436 0.000000 0.000000 0.000000 7.337406 11.695810 8.876571 50.698264 13.096556 1.804662 -133.235247 47.444549 -63.266454 0.000000 0.000000 0.000000 
0.014058 0.848981 0.125186 -5.750821 57.142165 -7.712106 24.746136 -4.851808 -29.831461 -13.759849 -5.053304 42.979657 -3.474098 -2.926594 5.468754 0.000000 0.000000 0.000000 -17.755508 -5.028883 -7.002672 -3.898115 -12.600200 50.015082 0.699046 -0.204344 15.129339 0.000000 0.000000 0.000000 -5.915902 -1.630305 17.822897 3.345978 1.084362 -23.809128 4.529385 -3.542341 11.127273 -6.463526 5.406624 1.562411 0.000000 0.000000 0.000000 -6.025846 -16.493572 2.523082 -64.970574 -69.717911 27.995367 132.777870 -58.789578 -108.495742 0.000000 0.000000 0.000000 5.475595 11.265535 6.817023 54.566207 13.064282 1.517888 -142.972831 51.716290 -83.626237 0.000000 0.000000 0.000000 
0.010252 0.835316 0.120431 -5.447020 53.094778 -8.004751 25.973919 -4.368748 -29.518719 -15.068171 -4.689045 46.580804 -5.315664 -6.217506 6.232957 0.000000 0.000000 0.000000 -16.708750 -4.632893 -9.406213 -5.142369 -11.298483 52.207260 1.408816 -0.342716 21.041154 0.000000 0.000000 0.000000 -8.203754 -1.556430 18.940557 5.558030 0.344725 -25.037533 2.929967 -6.734249 14.291604 -5.748423 6.048877 -4.207764 0.000000 0.000000 0.000000 -3.839533 -18.200983 4.049749 -57.688998 -74.270842 27.259687 95.463889 -55.574398 -62.441640 0.000000 0.000000 0.000000 5.612144 11.786663 6.643700 55.081510 14.568191 1.466074 -140.795869 51.969555 -82.763035 0.000000 0.000000 0.000000 
0.008193 0.813716 0.116748 -5.347827 51.081921 -9.459096 26.510246 -4.241076 -30.888072 -17.294710 -4.768132 53.106978 -7.175058 -9.383322 7.377499 0.000000 0.000000 0.000000 -17.473823 -4.935401 -10.012179 -5.760534 -11.440147 55.525412 1.598851 -2.106433 28.474101 0.000000 0.000000 0.000000 -8.498337 -1.645682 19.977257 6.746189 0.020420 -24.538954 1.944483 -7.702954 15.708883 -7.657235 7.842109 -7.359819 0.000000 0.000000 0.000000 -5.705965 -17.814158 3.797378 -63.554591 -67.921509 28.186901 98.301595 -58.389752 -68.048031 0.000000 0.000000 0.000000 5.434779 11.873186 6.465930 55.148113 16.790770 2.181755 -138.485444 51.561157 -79.334731 0.000000 0.000000 0.000000 
0.008394 0.794871 0.113626 -4.119549 48.323292 -10.775320 25.436918 -3.700760 -29.245150 -18.030245 -4.900194 57.116671 -4.637275 -7.993560 3.077371 0.000000 0.000000 0.000000 -18.731724 -5.415365 -10.923664 -7.902815 -9.981772 59.416936 0.657351 -3.876318 27.501612 0.000000 0.000000 0.000000 -7.911733 -1.794415 21.147000 5.415767 0.324339 -24.518435 1.978142 -6.162102 17.317068 -6.002865 6.752818 -7.017936 0.000000 0.000000 0.000000 -8.355301 -18.628044 3.705465 -61.790849 -59.075892 21.939400 113.832462 -62.147100 -88.763984 0.000000 0.000000 0.000000 5.042269 12.761137 6.681654 55.220274 20.220353 3.901707 -131.368776 46.358653 -62.973643 0.000000 0.000000 0.000000 
0.008329 0.783793 0.109118 -2.888785 47.839408 -11.010551 24.926653 -3.509631 -28.350983 -19.888879 -4.003018 57.801530 -1.985932 -4.916559 -0.179929 0.000000 0.000000 0.000000 -20.730673 -6.070927 -10.300527 -7.853583 -10.047642 61.286199 -0.227775 -4.471888 21.569572 0.000000 0.000000 0.000000 -6.543363 -1.954728 21.478491 4.018052 0.701551 -23.875407 2.239590 -4.749037 18.246713 -5.190404 6.404608 -7.762132 0.000000 0.000000 0.000000 -12.573256 -18.352669 2.768212 -64.566060 -52.177675 19.474729 137.318390 -62.109757 -117.851518 0.000000 0.000000 0.000000 4.390728 13.922912 7.009692 53.890667 24.772399 6.176725 -125.941477 39.011699 -46.096256 0.000000 0.000000 0.000000 
0.004934 0.789565 0.101955 -1.857941 46.291260 -10.666516 23.383771 -3.117578 -25.780662 -18.120078 -4.195609 54.662003 -0.640265 -3.059431 -1.535626 0.000000 0.000000 0.000000 -21.834114 -6.175980 -9.671326 -5.787541 -10.165665 59.192238 -1.828623 -6.424228 17.951597 0.000000 0.000000 0.000000 -4.815118 -2.054302 21.414747 3.469524 0.817571 -25.061702 2.120688 -3.344540 20.022449 -3.433021 5.515665 -9.096108 0.000000 0.000000 0.000000 -14.645229 -17.403532 1.900844 -66.968164 -49.445309 18.736442 150.978499 -61.173150 -136.222110 0.000000 0.000000 0.000000 1.998326 15.863669 7.004250 52.256620 30.081552 8.962733 -122.890491 31.460786 -31.616151 0.000000 0.000000 0.000000 
-0.002749 0.807215 0.093208 -0.887014 44.158726 -9.265146 22.303414 -2.688786 -22.309888 -15.404166 -3.670599 47.387415 -0.024800 -1.574121 -1.297509 0.000000 0.000000 0.000000 -22.142786 -6.023636 -10.089466 -2.668200 -10.570062 56.008999 -3.654871 -9.169542 14.152757 0.000000 0.000000 0.000000 -3.843861 -1.983663 21.007023 5.098412 0.399201 -25.685181 1.650142 -1.965672 20.078599 -2.600934 4.941799 -9.361531 0.000000 0.000000 0.000000 -14.969290 -18.382201 2.293606 -64.306405 -51.565574 19.229512 142.401163 -56.662172 -119.035722 0.000000 0.000000 0.000000 0.730696 18.076388 7.442771 49.437875 34.648143 10.762509 -124.903628 26.634985 -25.702454 0.000000 0.000000 0.000000 
-0.014630 0.827632 0.084083 -0.382203 42.500729 -7.608315 21.765342 -2.468837 -20.121101 -12.872845 -3.038940 40.598721 -1.170400 -1.944263 1.115341 0.000000 0.000000 0.000000 -21.958031 -5.578214 -9.786654 2.391731 -11.449750 49.604065 -7.187006 -15.460986 11.959264 0.000000 0.000000 0.000000 -3.132109 -1.721208 19.525112 7.069413 -0.103826 -24.682164 0.838627 -2.758728 19.115241 -2.028561 4.518176 -10.824342 0.000000 0.000000 0.000000 -13.748351 -18.327961 2.891559 -63.144765 -55.175969 21.113969 136.126762 -51.099592 -102.586462 0.000000 0.000000 0.000000 -0.340924 19.959106 7.753414 48.466999 38.421065 12.448567 -129.819520 24.837739 -26.606182 0.000000 0.000000 0.000000 
-0.028652 0.846555 0.075413 0.106031 39.916248 -6.169016 22.033487 -2.293871 -16.525983 -11.828929 -1.675997 32.667819 -1.434855 -1.231406 2.449057 0.000000 0.000000 0.000000 -21.067581 -4.922285 -10.069211 5.292140 -10.826585 44.249635 -8.431780 -18.205555 9.631996 0.000000 0.000000 0.000000 -2.466950 -1.655814 19.196733 9.060426 -0.714523 -24.677507 0.304479 -3.018794 19.399657 -1.793506 4.259188 -11.454711 0.000000 0.000000 0.000000 -12.455786 -18.521205 3.621393 -56.206816 -58.725049 19.977846 128.230458 -46.519512 -85.180304 0.000000 0.000000 0.000000 -0.787023 19.965244 7.522576 49.588108 42.603182 14.989486 -133.562504 24.750350 -29.574266 0.000000 0.000000 0.000000 
-0.042933 0.860316 0.066823 -0.037334 37.392108 -5.062570 22.095698 -2.173444 -14.450957 -10.911520 -0.816678 26.367099 -0.829501 2.801485 6.028703 0.000000 0.000000 0.000000 -19.932750 -4.241129 -10.383485 7.647437 -10.004060 39.235203 -8.802936 -19.586911 7.159353 0.000000 0.000000 0.000000 -2.217036 -1.370266 17.721611 11.836530 -1.830469 -21.731980 -0.495374 -2.374658 17.874157 -1.279585 3.417995 -9.603034 0.000000 0.000000 0.000000 -10.560588 -18.941994 4.279101 -49.409405 -59.374269 17.002282 122.197451 -41.830693 -71.715580 0.000000 0.000000 0.000000 0.580161 20.281175 8.132692 48.709480 42.312769 14.230323 -137.003549 25.285678 -34.192258 0.000000 0.000000 0.000000 
-0.055543 0.868595 0.057333 0.378486 36.269865 -4.560812 21.713607 -2.084073 -13.422505 -11.367227 -0.491419 24.955274 0.985811 4.988073 4.548628 0.000000 0.000000 0.000000 -19.280878 -3.876138 -10.248402 8.411422 -9.109055 35.900155 -9.256403 -20.845213 6.210917 0.000000 0.000000 0.000000 -1.325740 -1.488730 17.912192 11.672119 -1.868265 -21.137713 -0.053368 -3.061359 17.920283 -1.567585 3.569702 -10.040380 0.000000 0.000000 0.000000 -10.057329 -18.567811 4.460477 -47.344485 -58.257088 15.612091 121.774484 -41.948101 -70.851993 0.000000 0.000000 0.000000 0.181758 20.169774 7.866996 50.121215 42.241951 14.640402 -137.621620 26.841141 -38.408652 0.000000 0.000000 0.000000 
-0.065498 0.872493 0.046571 1.180430 35.704567 -3.576487 20.582150 -1.946625 -13.516067 -11.486477 -0.328697 23.606777 2.609645 7.747721 4.436501 0.000000 0.000000 0.000000 -19.478552 -3.856056 -10.235633 8.977653 -8.318107 32.823988 -9.339768 -21.413517 4.913544 0.000000 0.000000 0.000000 -0.429690 -1.588492 17.871196 12.155279 -2.228791 -19.472320 -0.373977 -1.992807 17.013670 -0.743668 2.854992 -9.134940 0.000000 0.000000 0.000000 -9.498784 -19.046507 4.623240 -46.914238 -58.141450 15.295296 122.210260 -42.181460 -71.990017 0.000000 0.000000 0.000000 0.255109 19.629147 7.755676 50.578359 41.624773 14.633619 -137.340772 29.344849 -42.449998 0.000000 0.000000 0.000000 
-0.073522 0.873761 0.035659 1.661546 35.642311 -3.589459 19.429175 -1.827307 -13.605162 -10.144931 -0.522643 22.865401 2.264788 7.516392 4.993272 0.000000 0.000000 0.000000 -19.731870 -3.991267 -10.656628 8.925075 -8.111732 32.435495 -9.315302 -21.335992 4.884196 0.000000 0.000000 0.000000 -0.175654 -1.664119 18.136651 12.423706 -2.463534 -18.420652 -0.334878 -2.251582 16.315786 -1.199556 3.003382 -8.288573 0.000000 0.000000 0.000000 -10.077734 -18.946804 4.589339 -46.379733 -57.080932 14.866928 123.055653 -42.483912 -73.315626 0.000000 0.000000 0.000000 -0.280670 20.815816 8.020623 50.867378 40.329362 14.065024 -135.774787 31.551574 -45.355021 0.000000 0.000000 0.000000 
-0.079659 0.874739 0.027094 2.127303 35.000979 -3.304658 19.229483 -1.760595 -13.451832 -10.405000 -0.320527 21.674152 2.212755 7.878172 5.759051 0.000000 0.000000 0.000000 -19.741986 -4.002504 -11.296245 8.614734 -7.601563 31.855944 -9.206503 -21.196336 4.531162 0.000000 0.000000 0.000000 -0.369802 -1.569015 17.857227 12.691845 -2.632744 -18.094156 -0.092399 -2.507001 16.674195 -0.953132 2.527276 -6.777736 0.000000 0.000000 0.000000 -10.010781 -18.247645 4.434400 -47.681319 -57.527247 15.694308 124.695850 -42.551038 -74.779714 0.000000 0.000000 0.000000 -0.886879 21.270994 7.946617 50.625762 40.057773 13.748873 -133.295984 33.605975 -46.815117 0.000000 0.000000 0.000000 
-0.084113 0.877743 0.022126 1.480620 34.056694 -3.703164 19.843925 -1.756689 -12.461492 -10.182586 -0.137512 19.784566 2.179619 8.243744 6.561052 0.000000 0.000000 0.000000 -18.844747 -3.666668 -11.585085 8.446359 -7.360145 31.820993 -8.298344 -19.597731 3.313930 0.000000 0.000000 0.000000 -0.604661 -1.401806 17.110997 13.604569 -3.196207 -16.922199 -0.559735 -2.519622 15.854976 -1.213587 2.356381 -5.017375 0.000000 0.000000 0.000000 -9.848003 -16.854982 3.981737 -48.491292 -56.896235 15.941715 126.396098 -43.546481 -77.920340 0.000000 0.000000 0.000000 -0.746536 21.946003 8.234318 50.097561 39.779535 13.319488 -132.766021 35.600439 -50.321297 0.000000 0.000000 0.000000 
-0.086571 0.883013 0.020076 1.071328 32.046748 -3.778637 19.953759 -1.680905 -10.809626 -9.450915 0.018423 17.543148 2.421257 9.249471 7.869743 0.000000 0.000000 0.000000 -18.133972 -3.238825 -11.589604 8.249001 -6.653469 30.824645 -6.932189 -16.832613 2.128457 0.000000 0.000000 0.000000 -1.499141 -1.062435 15.753232 14.394002 -3.767797 -15.805836 -0.613131 -2.361598 15.834872 0.081962 0.999480 -3.704209 0.000000 0.000000 0.000000 -9.345160 -16.342913 3.995129 -49.194127 -55.710325 15.806246 126.689692 -44.210548 -78.767167 0.000000 0.000000 0.000000 -0.741890 21.778564 8.113814 49.837500 40.335236 13.363997 -133.141056 38.023570 -55.464217 0.000000 0.000000 0.000000 
-0.087616 0.886966 0.018782 0.468691 30.938487 -3.813829 20.312285 -1.665103 -10.309742 -9.030572 0.067996 16.636018 2.537914 9.905504 8.929689 0.000000 0.000000 0.000000 -17.462662 -2.951879 -11.673695 7.689044 -6.140774 30.541932 -5.410376 -13.402909 1.277631 0.000000 0.000000 0.000000 -1.898085 -0.825631 14.188522 14.384673 -3.682001 -16.459403 -0.693831 -2.492408 17.481032 0.075729 1.208377 -4.773329 0.000000 0.000000 0.000000 -9.262609 -15.509632 3.755039 -52.095620 -55.686093 16.955150 127.326230 -45.827524 -81.183908 0.000000 0.000000 0.000000 -0.563125 20.914428 7.798634 49.440267 39.996445 12.828441 -132.790552 38.789716 -56.200652 0.000000 0.000000 0.000000 
-0.087659 0.888232 0.017080 0.290935 29.815163 -4.129891 20.027359 -1.586472 -9.646065 -8.311459 0.016974 16.504459 2.872494 10.477207 9.162187 0.000000 0.000000 0.000000 -17.281068 -2.807099 -11.638779 6.983175 -5.713204 30.964111 -4.066907 -10.268354 0.095726 0.000000 0.000000 0.000000 -2.522346 -0.665526 13.338111 14.458267 -3.932051 -15.407310 -0.896449 -2.047867 17.699550 0.987313 0.706265 -6.127445 0.000000 0.000000 0.000000 -8.491127 -14.925057 3.626824 -54.270917 -55.855720 17.933479 127.487803 -46.328318 -81.917679 0.000000 0.000000 0.000000 -0.789198 20.334850 7.492888 48.526264 40.755696 12.888744 -130.623604 38.528792 -53.720737 0.000000 0.000000 0.000000 
-0.087023 0.886213 0.014743 -0.000608 28.931522 -4.706932 20.044179 -1.517455 -9.436798 -8.013316 -0.042188 17.380811 3.412288 10.992017 8.558155 0.000000 0.000000 0.000000 -17.272705 -2.791194 -12.064587 6.729760 -5.520448 31.362664 -3.583353 -9.014990 0.862892 0.000000 0.000000 0.000000 -3.012797 -0.635777 13.588771 14.289035 -3.820220 -15.811093 -0.936549 -1.877568 18.908104 1.098291 0.804956 -7.194282 0.000000 0.000000 0.000000 -8.671657 -14.438970 3.476868 -55.574993 -55.862434 18.468163 129.565784 -46.757987 -84.639348 0.000000 0.000000 0.000000 0.223067 19.857254 7.574476 46.787882 40.774909 11.988774 -128.111788 37.786613 -50.189514 0.000000 0.000000 0.000000 
-0.086000 0.883350 0.012375 -0.436509 28.479204 -5.574238 20.141953 -1.487352 -9.172984 -7.640428 -0.150445 18.330827 3.843032 11.201201 7.565507 0.000000 0.000000 0.000000 -17.364307 -2.816975 -12.191200 7.086970 -5.655462 31.500999 -3.652387 -9.130494 2.327055 0.000000 0.000000 0.000000 -3.339845 -0.656320 14.150740 14.507215 -3.978503 -15.565078 -1.127729 -1.597720 19.133548 1.019555 1.244745 -9.386456 0.000000 0.000000 0.000000 -8.726880 -14.060080 3.328738 -55.685479 -55.539234 18.330375 131.563641 -47.372036 -88.001180 0.000000 0.000000 0.000000 1.115563 19.626897 7.734360 44.770315 40.735985 11.117070 -125.227166 36.104293 -45.188709 0.000000 0.000000 0.000000 
-0.084918 0.881476 0.010594 -0.598519 28.128581 -6.250963 20.223542 -1.469762 -8.816251 -7.688747 -0.170485 18.968124 4.137684 11.366401 6.933264 0.000000 0.000000 0.000000 -17.098044 -2.728791 -12.118271 6.930897 -5.520507 31.490402 -4.184632 -10.339175 3.284719 0.000000 0.000000 0.000000 -3.210699 -0.709463 14.628008 14.086849 -3.960546 -14.773226 -1.184763 -1.316192 18.914956 0.919830 1.404903 -9.921817 0.000000 0.000000 0.000000 -8.455281 -13.822925 3.269494 -55.169535 -55.111698 17.846082 132.690779 -47.681863 -89.981718 0.000000 0.000000 0.000000 1.098268 19.605746 7.708472 43.515595 40.933336 10.775406 -122.690790 34.172769 -40.285358 0.000000 0.000000 0.000000 
-0.083821 0.880832 0.009380 -0.676710 27.657437 -6.850605 20.168596 -1.475501 -7.778147 -7.566316 -0.133969 18.496905 4.381197 11.501388 6.438579 0.000000 0.000000 0.000000 -17.003326 -2.635710 -11.753465 6.862526 -5.323521 31.113898 -4.376579 -10.768084 4.000332 0.000000 0.000000 0.000000 -2.943313 -0.793439 15.279834 13.514312 -3.725074 -14.852256 -1.185640 -1.028215 19.248325 0.849945 1.469102 -9.909380 0.000000 0.000000 0.000000 -8.876434 -13.416765 3.075417 -54.019039 -53.370223 16.417107 134.065295 -48.881929 -93.487830 0.000000 0.000000 0.000000 0.768072 19.255655 7.455393 42.831298 41.457242 10.780976 -121.421795 32.171652 -36.255025 0.000000 0.000000 0.000000 
-0.082484 0.880937 0.008650 -0.426184 28.067103 -7.177817 19.666593 -1.498206 -6.885370 -7.269085 -0.142261 17.549657 4.226874 11.035990 5.975444 0.000000 0.000000 0.000000 -17.121778 -2.608979 -10.790575 6.756866 -5.103589 30.064393 -4.968139 -12.063898 4.541325 0.000000 0.000000 0.000000 -2.626401 -0.878983 15.725864 12.483394 -3.286060 -14.879500 -1.090742 -0.702444 19.174719 1.495537 1.025569 -9.823093 0.000000 0.000000 0.000000 -9.337900 -13.347006 2.906930 -52.414947 -50.754342 14.429976 136.081696 -50.116973 -98.401971 0.000000 0.000000 0.000000 0.221970 18.940319 7.195737 41.641647 41.493874 10.497541 -120.844223 28.395109 -29.789793 0.000000 0.000000 0.000000 
-0.080583 0.881113 0.007915 -0.255524 28.839227 -7.306645 19.125827 -1.512457 -6.578650 -6.867530 -0.209984 16.988544 3.972281 10.412090 5.511094 0.000000 0.000000 0.000000 -17.445725 -2.637742 -9.616708 6.875750 -5.022390 28.882236 -5.211921 -12.631997 4.329435 0.000000 0.000000 0.000000 -2.040864 -1.013219 16.262985 11.603555 -2.729965 -15.952252 -0.985956 -0.349747 19.981293 1.379151 1.234298 -9.827511 0.000000 0.000000 0.000000 -10.611430 -12.723625 2.354845 -51.566169 -48.385214 12.939131 139.228286 -51.781480 -105.410385 0.000000 0.000000 0.000000 -0.688201 18.574560 6.805486 41.027945 41.504300 10.414274 -121.529185 25.789683 -25.395485 0.000000 0.000000 0.000000 
-0.078280 0.880224 0.007214 -0.167491 29.369323 -7.276182 18.940664 -1.544625 -6.291524 -6.952353 -0.166633 16.269755 3.956660 10.020780 4.781024 0.000000 0.000000 0.000000 -17.883651 -2.754947 -9.265687 6.828514 -5.104713 29.074990 -4.792462 -11.750812 3.563616 0.000000 0.000000 0.000000 -1.586476 -1.151573 16.892447 10.970342 -2.392070 -16.446999 -0.662358 0.898203 20.157404 1.747596 1.083936 -9.542359 0.000000 0.000000 0.000000 -11.785780 -12.479221 1.800446 -50.485189 -46.062389 11.530280 141.411007 -53.237089 -111.276442 0.000000 0.000000 0.000000 -1.056060 18.254146 6.624824 39.666775 40.489529 9.695696 -121.305717 23.415347 -20.666818 0.000000 0.000000 0.000000 
-0.075766 0.879601 0.006822 -0.411097 29.389494 -7.255878 18.709004 -1.541538 -6.145217 -6.380198 -0.237480 15.913120 4.161640 9.994738 4.081405 0.000000 0.000000 0.000000 -17.851292 -2.740350 -9.151780 6.399089 -5.008427 29.488033 -3.905919 -9.788818 2.269330 0.000000 0.000000 0.000000 -1.136811 -1.202123 16.838981 10.546560 -2.181301 -16.701592 -0.396404 1.965156 20.189983 1.923968 0.872013 -8.445879 0.000000 0.000000 0.000000 -12.321120 -12.638923 1.559484 -49.565689 -44.067560 10.388100 141.195743 -53.545662 -112.025464 0.000000 0.000000 0.000000 -0.585270 18.492014 6.919249 39.075045 39.055300 8.954101 -121.471649 22.429166 -18.606301 0.000000 0.000000 0.000000 
-0.073159 0.878727 0.007140 -0.793913 28.837567 -7.444460 19.020416 -1.557167 -5.948241 -6.488406 -0.213256 16.133712 4.593865 10.435535 3.539432 0.000000 0.000000 0.000000 -17.945683 -2.717362 -9.160336 6.248636 -4.973701 30.031075 -2.772414 -7.117788 1.264799 0.000000 0.000000 0.000000 -1.473878 -1.150757 16.839232 11.106237 -2.435289 -16.536262 -0.265327 2.563493 20.329718 1.833271 0.873580 -7.931502 0.000000 0.000000 0.000000 -12.797636 -11.944803 1.123244 -49.373245 -43.419232 10.105695 138.324846 -54.214841 -108.824743 0.000000 0.000000 0.000000 -0.199194 18.832591 7.182557 40.144873 38.444846 9.046154 -123.836980 23.696750 -21.779006 0.000000 0.000000 0.000000 
-0.070427 0.878262 0.008060 -1.081280 28.096505 -7.627020 19.177932 -1.566431 -5.320381 -6.445107 -0.170773 15.886709 5.047723 10.951355 3.061846 0.000000 0.000000 0.000000 -17.657751 -2.601942 -9.331902 6.062296 -4.830146 30.278476 -2.611056 -6.731328 1.204683 0.000000 0.000000 0.000000 -1.940659 -1.078147 16.813038 11.397516 -2.538309 -16.838256 0.014790 2.572654 20.613357 1.136295 1.184070 -6.865095 0.000000 0.000000 0.000000 -12.942087 -11.476509 0.989311 -49.387331 -43.037549 9.941028 135.288057 -54.125637 -104.231050 0.000000 0.000000 0.000000 1.272276 18.905216 7.675638 41.508418 38.380603 9.218202 -126.612069 25.532677 -26.681751 0.000000 0.000000 0.000000 
-0.067489 0.877965 0.009149 -1.514795 27.480391 -7.697908 19.557271 -1.563451 -5.478614 -6.610651 -0.168766 16.609092 5.451230 11.519064 2.791377 0.000000 0.000000 0.000000 -17.258912 -2.441902 -9.194026 6.282666 -4.688361 29.393636 -2.885908 -7.408745 1.585401 0.000000 0.000000 0.000000 -2.288025 -0.937832 15.974001 11.849867 -2.809072 -16.320843 0.143613 2.416746 20.266191 0.435618 1.546200 -6.065283 0.000000 0.000000 0.000000 -12.804081 -11.307351 1.035863 -48.558625 -43.484586 9.938969 130.919818 -53.267074 -97.205157 0.000000 0.000000 0.000000 2.370728 19.507126 8.266208 42.532997 38.175649 9.299726 -129.375762 26.622889 -30.765168 0.000000 0.000000 0.000000 
-0.064300 0.877068 0.009775 -1.871515 26.495737 -7.939944 20.066811 -1.549590 -5.445606 -7.177336 -0.090677 17.597941 6.012238 12.359029 2.479137 0.000000 0.000000 0.000000 -17.040802 -2.291641 -8.930587 6.813998 -4.532877 28.004005 -3.399059 -8.646071 2.540495 0.000000 0.000000 0.000000 -2.349470 -0.845718 15.260692 11.648152 -2.772285 -16.269909 0.503270 2.200281 20.504580 -0.554953 2.057148 -4.608243 0.000000 0.000000 0.000000 -12.657359 -12.020436 1.510444 -47.349332 -44.362082 9.969237 127.365296 -51.840686 -90.645457 0.000000 0.000000 0.000000 2.584620 20.267150 8.583236 43.799294 38.887429 9.942880 -129.969368 27.371553 -32.837347 0.000000 0.000000 0.000000 
-0.061269 0.876008 0.009776 -1.858477 25.694802 -8.076260 20.138122 -1.470857 -5.739793 -7.673479 -0.059797 19.097674 6.468775 13.105226 2.304860 0.000000 0.000000 0.000000 -17.013138 -2.224152 -8.916079 6.881885 -4.334776 27.362003 -3.843871 -9.686953 3.254918 0.000000 0.000000 0.000000 -2.596775 -0.753398 14.677872 11.419583 -2.663615 -16.613213 0.785481 2.071401 21.251155 -1.142855 2.347144 -3.437523 0.000000 0.000000 0.000000 -11.975235 -13.327827 2.281475 -46.465644 -46.464895 10.438397 123.568440 -49.769350 -83.227031 0.000000 0.000000 0.000000 2.423151 21.470261 8.959631 44.294570 40.421073 10.747892 -129.251593 27.263875 -32.198129 0.000000 0.000000 0.000000 
-0.058828 0.875160 0.009454 -1.954956 24.513082 -7.943445 20.775619 -1.414473 -6.187170 -8.927871 0.184787 20.375208 7.016869 14.197265 2.526381 0.000000 0.000000 0.000000 -16.623067 -2.059027 -9.140905 6.355885 -3.868436 26.875556 -3.604283 -9.156174 2.753400 0.000000 0.000000 0.000000 -2.580086 -0.667934 13.875390 10.708346 -2.430454 -16.595487 1.581175 2.280741 21.385275 -2.020297 2.935063 -2.495525 0.000000 0.000000 0.000000 -11.640523 -14.129333 2.754086 -45.919075 -47.712771 10.733049 122.488308 -47.453555 -78.771345 0.000000 0.000000 0.000000 1.244807 22.549326 8.931151 45.342080 41.719125 11.875216 -128.077682 27.203662 -31.441957 0.000000 0.000000 0.000000 
-0.057166 0.874996 0.009240 -1.864616 23.689281 -7.858684 20.928890 -1.343827 -6.440370 -9.576917 0.326110 21.299917 7.339877 14.914781 2.876411 0.000000 0.000000 0.000000 -16.590129 -2.010269 -9.454363 6.046162 -3.632937 26.916706 -3.364551 -8.605666 2.700722 0.000000 0.000000 0.000000 -2.787670 -0.606077 13.499363 10.355304 -2.336392 -16.481214 1.882754 2.641604 21.246820 -2.608793 3.466185 -2.650134 0.000000 0.000000 0.000000 -11.040630 -14.982422 3.220252 -45.715308 -48.743326 11.026205 122.083715 -45.136355 -75.207846 0.000000 0.000000 0.000000 0.161529 23.417332 8.865925 45.431760 43.123336 12.771488 -127.444261 27.733431 -32.186806 0.000000 0.000000 0.000000 
-0.056085 0.876232 0.009044 -1.654296 23.184833 -7.686603 20.620739 -1.254367 -6.736722 -9.597401 0.329093 21.993544 7.431317 15.320631 3.551209 0.000000 0.000000 0.000000 -16.803262 -2.020236 -9.604149 6.012296 -3.512097 26.704118 -3.175719 -8.183237 3.074903 0.000000 0.000000 0.000000 -2.917743 -0.582741 13.459788 10.342592 -2.213573 -17.571004 1.395807 2.537016 21.578718 -2.675387 3.692178 -3.851277 0.000000 0.000000 0.000000 -11.196993 -15.674973 3.552776 -44.770177 -48.601148 10.687267 121.470166 -44.704228 -73.825149 0.000000 0.000000 0.000000 0.733873 24.396894 9.419565 45.626836 44.567724 13.458943 -127.820528 28.454182 -33.907844 0.000000 0.000000 0.000000 
-0.055504 0.878164 0.008875 -1.926351 22.158197 -6.826544 21.267953 -1.223483 -7.245698 -10.364136 0.594419 21.648624 7.769877 16.205452 4.483859 0.000000 0.000000 0.000000 -16.354991 -1.863147 -10.160668 6.096184 -3.227816 25.249913 -3.038752 -7.881352 3.344099 0.000000 0.000000 0.000000 -2.709650 -0.486138 12.085948 9.832101 -1.996742 -18.039712 1.443535 2.923417 22.179632 -1.883138 3.252940 -5.077638 0.000000 0.000000 0.000000 -11.752718 -15.769612 3.552662 -45.151893 -48.218186 10.664115 122.579239 -45.323964 -75.652606 0.000000 0.000000 0.000000 1.383198 24.376372 9.658616 45.633801 45.514130 13.838586 -128.169833 29.767840 -36.323903 0.000000 0.000000 0.000000 
-0.055302 0.882173 0.008673 -1.968075 22.287704 -6.612242 20.403329 -1.145470 -7.692752 -8.916600 0.239984 21.907191 7.462326 16.027870 5.551872 0.000000 0.000000 0.000000 -15.818411 -1.777571 -10.394868 5.386042 -2.946923 25.166855 -3.092656 -8.041456 4.716527 0.000000 0.000000 0.000000 -2.705297 -0.457236 11.651386 9.329265 -1.764090 -18.448856 1.320792 2.688405 21.804840 -0.391878 2.136995 -5.996916 0.000000 0.000000 0.000000 -11.503828 -16.611945 3.934503 -45.212288 -47.926763 10.624276 120.421440 -46.970475 -75.521872 0.000000 0.000000 0.000000 2.227882 23.831358 9.767929 45.685535 44.711097 13.348450 -130.043241 31.844175 -41.403932 0.000000 0.000000 0.000000 
-0.055234 0.886406 0.008623 -2.442086 20.874538 -4.922588 21.851743 -1.187650 -7.813014 -10.636100 0.822738 19.363935 7.929046 17.154871 7.012746 0.000000 0.000000 0.000000 -14.777100 -1.497038 -11.685189 5.129891 -2.520760 23.670423 -2.833728 -7.467222 4.447059 0.000000 0.000000 0.000000 -2.455625 -0.358470 10.049706 9.750194 -1.842691 -19.334286 1.144647 3.170237 21.236181 -0.593341 1.697151 -2.819402 0.000000 0.000000 0.000000 -12.467991 -15.166987 3.231308 -48.709530 -45.902334 11.107114 126.141824 -47.838342 -82.935240 0.000000 0.000000 0.000000 1.351506 23.019203 9.172524 48.446676 44.434097 14.482019 -131.652178 34.295017 -46.849447 0.000000 0.000000 0.000000 
-0.055215 0.891004 0.008532 -1.878966 20.670821 -5.228723 20.014508 -1.072921 -7.279594 -8.556942 0.380237 19.562195 7.621389 16.952801 8.194636 0.000000 0.000000 0.000000 -14.669349 -1.433022 -11.079795 4.427504 -2.217432 23.567084 -3.044549 -7.989676 5.046730 0.000000 0.000000 0.000000 -1.975974 -0.375376 9.786137 7.696932 -1.186711 -19.281507 0.602235 1.548054 22.176196 0.138487 1.669390 -6.745314 0.000000 0.000000 0.000000 -11.225996 -14.040063 3.198275 -50.852620 -43.954310 10.715917 129.751353 -50.568324 -89.936147 0.000000 0.000000 0.000000 2.720448 22.494667 9.309556 49.365699 43.072526 13.627145 -133.639849 38.531170 -56.372720 0.000000 0.000000 0.000000 
