HIERARCHY
ROOT Hips
{
	OFFSET -0.001795 -0.223333 0.028219
	CHANNELS 6 Xposition Yposition Zposition Zrotation Yrotation Xrotation 
	JOINT LeftUpLeg
	{
		OFFSET 0.069520 -0.091406 -0.006815
		CHANNELS 3 Zrotation Yrotation Xrotation
		JOINT LeftLeg
		{
			OFFSET 0.034277 -0.375199 -0.004496
			CHANNELS 3 Zrotation Yrotation Xrotation
			JOINT LeftFoot
			{
				OFFSET -0.013596 -0.397961 -0.043693
				CHANNELS 3 Zrotation Yrotation Xrotation
				JOINT LeftToe
				{
					OFFSET 0.026358 -0.055791 0.119288
					CHANNELS 3 Zrotation Yrotation Xrotation
					End Site
					{
						OFFSET 0.000000 0.000000 0.000000
					}
				}
			}
		}
	}
	JOINT RightUpLeg
	{
		OFFSET -0.067670 -0.090522 -0.004320
		CHANNELS 3 Zrotation Yrotation Xrotation
		JOINT RightLeg
		{
			OFFSET -0.038290 -0.382569 -0.008850
			CHANNELS 3 Zrotation Yrotation Xrotation
			JOINT RightFoot
			{
				OFFSET 0.015774 -0.398415 -0.042312
				CHANNELS 3 Zrotation Yrotation Xrotation
				JOINT RightToe
				{
					OFFSET -0.025372 -0.048144 0.123348
					CHANNELS 3 Zrotation Yrotation Xrotation
					End Site
					{
						OFFSET 0.000000 0.000000 0.000000
					}
				}
			}
		}
	}
	JOINT Spine
	{
		OFFSET -0.002533 0.108963 -0.026696
		CHANNELS 3 Zrotation Yrotation Xrotation
		JOINT Spine1
		{
			OFFSET 0.005487 0.135180 0.001092
			CHANNELS 3 Zrotation Yrotation Xrotation
			JOINT Spine2
			{
				OFFSET 0.001457 0.052922 0.025425
				CHANNELS 3 Zrotation Yrotation Xrotation
				JOINT Neck
				{
					OFFSET -0.002778 0.213870 -0.042857
					CHANNELS 3 Zrotation Yrotation Xrotation
					JOINT Head
					{
						OFFSET 0.005152 0.064970 0.051349
						CHANNELS 3 Zrotation Yrotation Xrotation
						End Site
						{
							OFFSET 0.000000 0.000000 0.000000
						}
					}
				}
				JOINT LeftShoulder
				{
					OFFSET 0.078845 0.121749 -0.034090
					CHANNELS 3 Zrotation Yrotation Xrotation
					JOINT LeftArm
					{
						OFFSET 0.090977 0.030469 -0.008868
						CHANNELS 3 Zrotation Yrotation Xrotation
						JOINT LeftForeArm
						{
							OFFSET 0.259612 -0.012772 -0.027456
							CHANNELS 3 Zrotation Yrotation Xrotation
							JOINT LeftHand
							{
								OFFSET 0.249234 0.008986 -0.001171
								CHANNELS 3 Zrotation Yrotation Xrotation
								End Site
								{
									OFFSET 0.000000 0.000000 0.000000
								}
							}
						}
					}
				}
				JOINT RightShoulder
				{
					OFFSET -0.081759 0.118833 -0.038615
					CHANNELS 3 Zrotation Yrotation Xrotation
					JOINT RightArm
					{
						OFFSET -0.096012 0.032551 -0.009143
						CHANNELS 3 Zrotation Yrotation Xrotation
						JOINT RightForeArm
						{
							OFFSET -0.253742 -0.013329 -0.021401
							CHANNELS 3 Zrotation Yrotation Xrotation
							JOINT RightHand
							{
								OFFSET -0.255298 0.007772 -0.005559
								CHANNELS 3 Zrotation Yrotation Xrotation
								End Site
								{
									OFFSET 0.000000 0.000000 0.000000
								}
							}
						}
					}
				}
			}
		}
	}
}
MOTION
Frames: 120
Frame Time: 0.050000
0.000000 0.628266 0.000000 -1.413989 -4.011310 -14.144582 23.518400 8.387558 -55.477134 -12.390685 10.697392 87.791917 8.294344 17.742032 13.032863 0.000000 0.000000 0.000000 -23.393172 -4.489668 -53.617276 21.702190 -18.257918 88.682150 -19.927454 -31.531087 41.462284 0.000000 0.000000 0.000000 5.086486 -3.796654 53.922091 -9.227587 2.404180 -35.561869 -1.886574 4.686529 22.724015 11.509996 -3.879229 -32.099210 0.000000 0.000000 0.000000 -26.381026 -32.499298 16.757376 -21.605200 -34.637257 1.796055 47.994639 -54.259177 -23.991645 0.000000 0.000000 0.000000 33.774881 20.215087 13.137076 24.537963 37.508891 2.502053 -42.931471 46.963218 -16.671627 0.000000 0.000000 0.000000 
0.000447 0.631277 0.003987 -1.908943 -5.500993 -13.774475 23.375730 8.852027 -55.251540 -10.406614 9.260787 90.034850 6.886574 15.298106 9.703820 0.000000 0.000000 0.000000 -23.449844 -4.006625 -53.774031 23.127893 -19.406190 88.784894 -17.066443 -29.561814 36.361293 0.000000 0.000000 0.000000 5.367205 -3.569954 53.797781 -9.444935 2.291566 -37.868172 -0.863841 5.618896 23.473072 12.521825 -4.495174 -31.819243 0.000000 0.000000 0.000000 -26.950380 -32.278864 16.722149 -20.862701 -34.647600 1.611219 52.856751 -56.379133 -28.024685 0.000000 0.000000 0.000000 34.822590 19.130864 12.786633 22.271790 37.643955 1.885869 -43.759189 48.133410 -17.614132 0.000000 0.000000 0.000000 
0.001227 0.632832 0.008057 -1.617208 -5.126471 -15.280311 23.332650 8.397524 -53.460994 -10.474889 9.101090 89.574340 6.234222 14.439152 11.222040 0.000000 0.000000 0.000000 -22.586666 -3.645039 -51.948916 20.829667 -16.897255 89.755615 -15.702267 -27.947616 37.691571 0.000000 0.000000 0.000000 5.902283 -3.623347 50.244047 -7.346206 2.207548 -32.452823 -3.683303 6.459291 20.819124 14.866558 -6.226859 -29.178142 0.000000 0.000000 0.000000 -27.179477 -31.968156 16.039789 -21.774203 -34.831742 2.050376 54.164377 -55.589787 -28.679295 0.000000 0.000000 0.000000 37.064351 20.095645 14.237880 18.801200 37.364957 1.178796 -42.786996 46.288622 -16.658741 0.000000 0.000000 0.000000 
0.002207 0.634921 0.012426 -1.538742 -6.420582 -16.486165 23.058328 8.509556 -51.984452 -9.322473 8.394562 91.122853 6.080582 14.227477 11.415590 0.000000 0.000000 0.000000 -22.005678 -2.948965 -51.005864 20.092810 -15.574045 90.971497 -12.074923 -24.293829 35.253531 0.000000 0.000000 0.000000 6.544312 -3.572544 50.042851 -8.433948 2.402002 -33.084059 -3.251990 6.496163 21.618412 14.222354 -5.675938 -30.381373 0.000000 0.000000 0.000000 -25.446368 -31.857473 15.695995 -22.498760 -36.377471 2.354822 55.727487 -54.262366 -28.840505 0.000000 0.000000 0.000000 36.572639 19.571692 13.472805 18.944442 37.423307 1.271825 -43.459656 48.271789 -17.888557 0.000000 0.000000 0.000000 
0.003166 0.634768 0.016969 -1.114258 -7.069112 -17.707509 23.106476 8.507497 -50.244617 -8.734272 8.054443 91.727265 4.977227 12.478414 11.268965 0.000000 0.000000 0.000000 -22.069015 -2.716465 -49.306011 19.933568 -14.837349 91.260848 -11.550701 -23.849720 32.914315 0.000000 0.000000 0.000000 6.084820 -3.065917 48.003107 -7.840421 2.379728 -30.900594 -3.346605 7.127123 20.765681 14.197663 -5.744394 -29.347970 0.000000 0.000000 0.000000 -25.575793 -32.387624 15.871735 -22.443960 -36.507554 2.486493 52.351168 -52.002009 -25.718016 0.000000 0.000000 0.000000 37.322534 19.645975 13.692519 19.227675 36.596845 1.289001 -42.157992 47.084517 -16.817453 0.000000 0.000000 0.000000 
0.003770 0.634982 0.020741 -1.085661 -7.345125 -18.062252 22.889838 8.432341 -49.849536 -8.397499 7.890677 92.583980 5.155392 12.729774 11.037930 0.000000 0.000000 0.000000 -22.147381 -2.649246 -48.722308 19.273742 -14.074352 92.385822 -8.416196 -20.171347 29.577238 0.000000 0.000000 0.000000 6.284438 -3.024779 47.097534 -7.814306 2.372057 -30.984918 -3.348524 6.946812 21.298695 13.858742 -5.508198 -29.761509 0.000000 0.000000 0.000000 -25.014926 -32.568807 15.957888 -22.697330 -37.326961 2.628252 50.558711 -49.453187 -23.318780 0.000000 0.000000 0.000000 37.363907 19.906537 13.740310 19.659086 36.085107 1.339451 -42.554571 46.957937 -16.950197 0.000000 0.000000 0.000000 
0.004053 0.634798 0.023842 -0.851355 -7.433422 -19.083786 22.432688 8.119223 -49.103795 -7.767827 7.116655 92.469532 4.832006 12.773166 14.496427 0.000000 0.000000 0.000000 -21.699014 -2.439226 -47.903154 18.959984 -13.343518 91.947281 -10.480831 -22.510360 34.621298 0.000000 0.000000 0.000000 6.397858 -2.961518 46.067640 -7.990010 2.465798 -30.254783 -3.398436 6.200947 20.840298 13.759101 -5.777590 -28.733958 0.000000 0.000000 0.000000 -25.398004 -32.786929 16.379947 -22.142903 -37.570157 2.567653 45.925936 -46.538066 -19.495931 0.000000 0.000000 0.000000 37.464211 19.475674 12.989744 21.590543 35.599591 1.794026 -39.532925 48.141137 -16.052074 0.000000 0.000000 0.000000 
0.004006 0.636681 0.026503 -1.015806 -7.550531 -18.959016 22.234107 7.997342 -48.836720 -7.127635 6.440427 92.887232 4.233332 11.634981 13.063629 0.000000 0.000000 0.000000 -21.692040 -2.393554 -47.543278 19.109247 -13.457460 91.938814 -9.770121 -21.745923 33.140281 0.000000 0.000000 0.000000 6.114397 -2.790579 45.126554 -7.443006 2.353160 -29.470552 -3.651856 6.212432 20.349899 14.071647 -6.012931 -28.273204 0.000000 0.000000 0.000000 -25.088959 -33.177118 16.543685 -21.282956 -38.433731 2.551899 42.382729 -42.832544 -16.274175 0.000000 0.000000 0.000000 37.443025 19.557945 13.014160 22.686904 35.947517 2.114173 -37.152290 47.290442 -14.587691 0.000000 0.000000 0.000000 
0.003747 0.639661 0.029079 -0.859684 -8.377400 -18.682391 22.533689 8.266141 -47.881104 -6.745615 6.424158 92.727242 3.666375 10.376412 11.153815 0.000000 0.000000 0.000000 -21.663403 -2.125178 -47.349942 19.721994 -13.617708 91.406775 -9.969294 -22.045845 31.275786 0.000000 0.000000 0.000000 6.170705 -2.627540 44.631975 -7.873728 2.455739 -28.895363 -3.925687 6.146593 20.032466 13.783646 -5.949830 -27.877119 0.000000 0.000000 0.000000 -25.112687 -33.812956 17.083080 -19.471073 -38.821682 2.191712 39.123731 -40.195906 -13.870810 0.000000 0.000000 0.000000 36.993283 19.732034 12.833439 23.546224 36.371214 2.442072 -35.380726 46.357353 -13.472404 0.000000 0.000000 0.000000 
0.003257 0.645239 0.031750 -0.905553 -9.270864 -18.317581 23.040518 8.549825 -46.516445 -6.296388 6.270975 91.589783 3.070464 9.159706 10.068583 0.000000 0.000000 0.000000 -21.100999 -1.649742 -47.370247 20.399401 -13.725308 90.365890 -11.278901 -23.550446 32.437236 0.000000 0.000000 0.000000 5.546347 -2.233788 44.312757 -7.265859 2.303033 -27.656599 -4.159962 6.413317 18.743327 14.079528 -6.087201 -27.591178 0.000000 0.000000 0.000000 -25.323850 -33.970827 17.252246 -18.403355 -39.279463 2.071070 35.709887 -37.331311 -11.567362 0.000000 0.000000 0.000000 36.691701 20.035927 12.904904 23.849318 37.146236 2.748756 -33.169251 44.559680 -11.959633 0.000000 0.000000 0.000000 
0.002530 0.652498 0.034215 -1.289960 -9.650855 -17.470740 23.407628 8.593610 -45.394191 -5.972245 6.099245 91.000303 2.800891 7.452884 5.324194 0.000000 0.000000 0.000000 -21.290381 -1.600514 -46.568234 20.973856 -13.935255 89.170392 -8.996287 -20.954391 27.939053 0.000000 0.000000 0.000000 5.220989 -2.069248 44.101810 -6.983844 2.201012 -27.727361 -4.235972 6.744542 19.055148 14.157508 -5.950748 -28.330402 0.000000 0.000000 0.000000 -25.267173 -34.578138 17.615256 -16.735159 -39.340579 1.661074 34.239419 -35.610266 -10.495579 0.000000 0.000000 0.000000 36.241126 20.566269 13.322139 23.330735 37.924217 2.725977 -32.071466 42.795836 -10.956858 0.000000 0.000000 0.000000 
0.001575 0.660711 0.036265 -1.532511 -10.157949 -16.550628 24.194768 8.856446 -44.187725 -6.074020 6.427416 89.777414 2.343040 5.597121 2.141739 0.000000 0.000000 0.000000 -21.085781 -1.367584 -45.537928 21.611295 -13.888152 87.097258 -8.681293 -20.649661 24.290958 0.000000 0.000000 0.000000 4.898856 -1.888669 44.124422 -7.422713 2.304813 -27.082273 -4.268423 6.940421 18.413144 14.338344 -5.790774 -29.224848 0.000000 0.000000 0.000000 -24.941945 -35.129156 17.889769 -15.116940 -39.999336 1.351286 32.857263 -33.932668 -9.519025 0.000000 0.000000 0.000000 35.565785 21.071768 13.556940 22.745406 39.159864 2.838383 -31.848422 40.366149 -10.165937 0.000000 0.000000 0.000000 
0.000841 0.669377 0.037995 -2.092587 -10.094130 -15.092423 24.534283 8.761342 -43.373713 -6.369587 6.696826 87.895756 3.095972 5.685430 -2.032130 0.000000 0.000000 0.000000 -21.156956 -1.379385 -44.790521 22.085280 -14.066458 85.142432 -7.128282 -18.413733 19.907315 0.000000 0.000000 0.000000 4.474558 -1.794640 44.540655 -7.215800 2.207640 -27.661366 -4.346686 7.119483 18.314703 14.525066 -5.592264 -30.345052 0.000000 0.000000 0.000000 -24.927385 -35.742258 18.248533 -13.281789 -40.625262 0.928722 32.935546 -32.802746 -9.209749 0.000000 0.000000 0.000000 35.063972 22.135030 14.387994 20.506719 40.242097 2.413327 -31.854571 38.539923 -9.660039 0.000000 0.000000 0.000000 
0.000581 0.679479 0.039653 -2.222324 -10.515852 -14.121916 25.257840 8.973267 -42.323768 -7.026633 7.529631 85.864875 3.026495 5.220543 -2.899156 0.000000 0.000000 0.000000 -21.404438 -1.327646 -44.100115 22.725821 -14.076461 83.143984 -6.046033 -16.639739 17.484097 0.000000 0.000000 0.000000 4.774219 -1.849867 44.903604 -8.094425 2.404861 -27.665104 -4.458730 7.213217 18.017759 14.747603 -5.525344 -31.155384 0.000000 0.000000 0.000000 -25.086905 -36.590075 18.867936 -10.975866 -41.189643 0.361472 33.345890 -31.342359 -8.910712 0.000000 0.000000 0.000000 34.291005 22.693743 14.618375 17.615038 41.689581 1.846603 -31.888261 35.649630 -8.906386 0.000000 0.000000 0.000000 
0.000709 0.689852 0.041570 -2.407429 -10.999409 -12.397716 25.661171 9.097075 -41.592433 -7.757340 8.472640 83.438596 3.725393 5.994329 -5.039688 0.000000 0.000000 0.000000 -22.067224 -1.367373 -43.632579 23.665844 -14.344188 80.840543 -4.497292 -13.550107 12.626389 0.000000 0.000000 0.000000 4.391284 -1.640932 45.560730 -8.287753 2.367470 -28.699812 -4.510701 7.805630 18.564245 14.839676 -5.205682 -32.611939 0.000000 0.000000 0.000000 -23.886609 -37.194244 18.853806 -8.978083 -42.772778 -0.198717 35.288929 -29.742208 -9.010365 0.000000 0.000000 0.000000 32.779433 23.768189 15.277212 14.374120 43.943579 1.075009 -33.535534 32.258783 -8.428531 0.000000 0.000000 0.000000 
0.000782 0.698028 0.043968 -2.572749 -11.314245 -11.125332 26.240763 9.350355 -41.277380 -8.393809 9.088953 81.377289 3.532274 5.711364 -4.619975 0.000000 0.000000 0.000000 -22.356305 -1.344607 -43.472555 24.251547 -14.363565 78.777331 -3.845852 -12.268531 11.828531 0.000000 0.000000 0.000000 4.459494 -1.625603 45.778256 -8.506704 2.399880 -28.512685 -4.857454 8.182994 17.826603 14.892854 -4.955938 -33.303282 0.000000 0.000000 0.000000 -23.529723 -37.784935 19.051957 -7.879031 -43.499961 -0.491069 36.900883 -28.758620 -9.158609 0.000000 0.000000 0.000000 31.636905 24.211343 15.472739 11.264215 45.709581 0.242241 -34.804806 28.897649 -7.780249 0.000000 0.000000 0.000000 
0.000431 0.704657 0.046995 -2.687457 -11.214763 -10.024466 26.577448 9.392405 -41.068044 -8.805875 9.297886 79.546528 3.068997 4.712711 -4.527935 0.000000 0.000000 0.000000 -22.771888 -1.450589 -42.871906 24.087875 -13.932477 77.251834 -2.122111 -8.481016 9.572602 0.000000 0.000000 0.000000 4.621865 -1.717492 45.600592 -8.718128 2.416337 -28.959266 -4.963504 8.289687 18.360767 15.197061 -4.953483 -34.054499 0.000000 0.000000 0.000000 -22.542952 -38.305919 19.090789 -7.067308 -44.556827 -0.793364 38.962314 -26.823187 -9.069640 0.000000 0.000000 0.000000 30.320022 24.926678 15.733476 8.096421 47.445180 -0.783263 -36.204113 25.435744 -7.063285 0.000000 0.000000 0.000000 
-0.000551 0.708901 0.050654 -2.785717 -10.944423 -8.761408 27.097485 9.579796 -41.338955 -9.524770 9.834535 78.610658 2.741548 3.729900 -5.159420 0.000000 0.000000 0.000000 -23.118859 -1.559938 -42.179216 23.695930 -13.417426 75.849476 -0.741876 -4.373994 5.737532 0.000000 0.000000 0.000000 4.547006 -1.750422 45.301986 -8.818070 2.436148 -28.700562 -5.177910 8.373031 17.947277 14.814436 -4.614763 -34.218837 0.000000 0.000000 0.000000 -21.884667 -38.574846 19.048080 -6.292988 -45.294508 -1.053980 40.026558 -26.400769 -9.183449 0.000000 0.000000 0.000000 29.329437 25.102742 15.730491 5.719599 48.347085 -1.602454 -37.031375 23.273127 -6.549355 0.000000 0.000000 0.000000 
-0.001877 0.710740 0.054423 -2.657373 -10.424821 -8.387517 27.312414 9.549951 -41.513017 -10.005414 10.055113 78.161189 2.203266 2.839952 -4.359891 0.000000 0.000000 0.000000 -23.059150 -1.639036 -41.893411 22.701847 -12.758370 75.982594 0.119815 -2.189615 5.136125 0.000000 0.000000 0.000000 4.554596 -1.852716 45.330072 -8.926038 2.464909 -28.695481 -5.168063 8.347794 18.040018 14.583822 -4.384021 -34.596045 0.000000 0.000000 0.000000 -21.497990 -38.599300 18.907952 -6.406168 -45.846807 -1.041941 41.169286 -26.568422 -9.546410 0.000000 0.000000 0.000000 29.121616 25.074178 15.760855 4.290064 48.539690 -2.127728 -37.320563 21.630469 -6.084675 0.000000 0.000000 0.000000 
-0.002996 0.712606 0.057648 -2.679118 -9.616844 -7.941513 27.418134 9.436321 -41.971891 -10.282660 9.954822 77.794757 1.500533 1.563799 -3.673473 0.000000 0.000000 0.000000 -23.021297 -1.781899 -41.382715 21.766335 -12.229106 75.851152 0.928932 0.162854 4.111838 0.000000 0.000000 0.000000 4.331740 -1.929104 45.667992 -8.682918 2.398141 -29.094174 -4.981925 8.307155 18.479833 14.352059 -4.270161 -34.449908 0.000000 0.000000 0.000000 -21.193708 -38.795340 18.877463 -5.842601 -46.158607 -1.255597 42.694856 -27.331397 -10.256969 0.000000 0.000000 0.000000 28.342692 25.337213 15.874256 2.579428 47.814329 -2.708910 -37.653802 20.966572 -5.948469 0.000000 0.000000 0.000000 
-0.003581 0.713253 0.059803 -2.492820 -9.184203 -7.554195 27.748524 9.567015 -42.494709 -10.757399 10.262513 77.879634 0.552901 -0.120597 -2.762635 0.000000 0.000000 0.000000 -23.275235 -1.945211 -41.417114 21.117110 -11.968820 76.470301 1.495470 2.200395 2.845579 0.000000 0.000000 0.000000 4.260620 -1.991507 46.059215 -8.917898 2.466830 -28.743709 -4.832021 8.380629 18.358113 14.411156 -4.165335 -34.824422 0.000000 0.000000 0.000000 -20.711563 -39.158455 18.877393 -4.943852 -46.632143 -1.564232 44.289885 -27.982228 -10.979338 0.000000 0.000000 0.000000 27.693025 25.104288 15.665537 0.976858 47.259307 -3.212836 -37.623402 20.174428 -5.702522 0.000000 0.000000 0.000000 
-0.003717 0.713158 0.060891 -2.579335 -8.407929 -7.153376 27.382510 9.391164 -43.614440 -10.780723 10.018576 78.151527 0.519041 0.269441 -1.789351 0.000000 0.000000 0.000000 -23.594841 -2.207263 -41.248140 20.779531 -12.029160 76.401314 2.057717 3.889149 2.323839 0.000000 0.000000 0.000000 4.148635 -2.115106 46.488799 -8.538128 2.393225 -28.689103 -4.658068 8.521107 18.895924 14.517936 -4.180751 -34.755935 0.000000 0.000000 0.000000 -19.848172 -39.758908 18.847173 -3.449310 -47.360030 -2.129976 46.509095 -27.702363 -11.546953 0.000000 0.000000 0.000000 26.685503 25.484480 15.824262 -0.893678 45.963237 -3.725721 -38.327289 19.346989 -5.577636 0.000000 0.000000 0.000000 
-0.003628 0.711672 0.061322 -2.602998 -7.884947 -6.899819 27.338307 9.361746 -44.359416 -10.880839 9.930608 78.330143 0.202309 -0.192309 -1.320735 0.000000 0.000000 0.000000 -23.945220 -2.428089 -41.190102 20.574891 -12.112409 76.441288 2.466075 5.302204 1.703293 0.000000 0.000000 0.000000 4.232383 -2.274765 47.119959 -8.544776 2.403072 -28.678467 -4.520284 8.834023 19.161164 15.108411 -4.323563 -35.178908 0.000000 0.000000 0.000000 -18.790770 -40.507608 18.799258 -1.924520 -47.948717 -2.719054 48.557541 -27.334720 -12.042471 0.000000 0.000000 0.000000 25.775122 25.253212 15.628079 -1.781767 44.970813 -3.905627 -38.954727 19.037263 -5.581753 0.000000 0.000000 0.000000 
-0.003548 0.711550 0.061519 -2.787260 -7.389524 -6.282471 27.488886 9.332051 -44.738864 -11.162782 10.081358 78.515863 0.509474 -0.718459 -3.762515 0.000000 0.000000 0.000000 -23.917607 -2.512438 -41.130513 20.213699 -11.998105 76.197522 2.545116 6.714750 -0.065365 0.000000 0.000000 0.000000 4.227837 -2.407146 47.756143 -8.435981 2.362246 -29.018510 -4.257202 8.981060 20.126732 15.481129 -4.450221 -35.408210 0.000000 0.000000 0.000000 -17.017069 -40.993863 18.449499 0.948693 -48.700058 -3.890677 51.228399 -25.969366 -12.250923 0.000000 0.000000 0.000000 24.128562 25.324769 15.347424 -2.657659 44.291816 -4.103406 -41.209487 18.628742 -5.807975 0.000000 0.000000 0.000000 
-0.003415 0.712101 0.061819 -2.971631 -7.246694 -5.848669 27.528614 9.316798 -44.867171 -11.207231 10.040506 78.170490 0.763302 -0.607398 -4.691973 0.000000 0.000000 0.000000 -23.658259 -2.439763 -40.961204 20.065672 -11.797977 75.425827 2.374947 7.040550 -1.137214 0.000000 0.000000 0.000000 4.030706 -2.390369 48.614285 -8.143808 2.299812 -28.802533 -4.179957 9.166690 19.992046 15.590246 -4.431567 -35.459563 0.000000 0.000000 0.000000 -15.240163 -41.289802 17.985527 3.249291 -48.778886 -4.772261 53.449835 -25.009021 -12.487045 0.000000 0.000000 0.000000 23.358302 25.334600 15.240029 -3.219641 43.805843 -4.196754 -43.755801 18.962889 -6.341628 0.000000 0.000000 0.000000 
-0.003280 0.713886 0.062557 -3.100326 -7.211484 -5.632674 27.446997 9.185194 -44.549258 -11.003808 9.759529 77.544629 0.818874 -0.885098 -5.486882 0.000000 0.000000 0.000000 -23.314571 -2.309676 -40.595878 19.884779 -11.532508 74.862847 2.057803 6.977995 -2.220568 0.000000 0.000000 0.000000 3.970877 -2.403067 49.376745 -8.228420 2.310200 -28.748263 -3.929017 9.094501 20.280965 16.240712 -4.870940 -35.103965 0.000000 0.000000 0.000000 -14.576600 -41.645108 17.970001 6.227793 -48.202755 -5.771265 56.000397 -23.846265 -12.670552 0.000000 0.000000 0.000000 22.756018 25.360012 15.078737 -4.038796 43.381247 -4.382775 -46.747723 19.082172 -6.924741 0.000000 0.000000 0.000000 
-0.003143 0.715889 0.063854 -3.212478 -7.455359 -5.052284 27.130078 8.996641 -44.084401 -10.633212 9.469026 76.848036 1.513995 -0.420135 -7.827720 0.000000 0.000000 0.000000 -23.170126 -2.173699 -40.389573 20.264420 -11.567896 73.645083 1.416604 6.209556 -3.602196 0.000000 0.000000 0.000000 3.939552 -2.358734 49.975021 -8.350056 2.310349 -28.977069 -4.022431 9.159165 20.522456 16.762816 -5.143058 -35.149701 0.000000 0.000000 0.000000 -13.645815 -41.785178 17.767026 8.924604 -47.649905 -6.661948 58.532576 -22.496602 -12.695625 0.000000 0.000000 0.000000 22.011612 25.279766 14.846319 -5.215332 43.448410 -4.739349 -49.745612 19.331870 -7.571262 0.000000 0.000000 0.000000 
-0.003187 0.718639 0.065680 -3.227203 -7.519657 -4.398036 26.470094 8.661577 -43.925338 -10.306403 9.186666 76.194112 2.421991 1.058468 -9.461394 0.000000 0.000000 0.000000 -23.083692 -2.100941 -40.351679 20.307004 -11.446394 72.785509 1.169040 6.119454 -4.421131 0.000000 0.000000 0.000000 4.101166 -2.433041 50.410172 -8.592560 2.350128 -28.946807 -4.332225 8.895427 20.413194 17.138756 -5.426525 -34.886881 0.000000 0.000000 0.000000 -13.272783 -41.921938 17.797528 11.766790 -47.125598 -7.557007 60.738113 -20.811578 -12.347005 0.000000 0.000000 0.000000 21.935664 25.604238 14.968749 -7.491981 43.313959 -5.404575 -52.601453 18.835369 -7.924766 0.000000 0.000000 0.000000 
-0.003412 0.721222 0.067929 -3.255885 -7.874842 -3.611324 26.137642 8.507958 -43.486119 -9.998149 9.027356 75.423612 3.069941 1.710290 -11.618997 0.000000 0.000000 0.000000 -23.094211 -1.984432 -40.269463 20.928010 -11.640607 71.536686 0.386089 4.936754 -5.954113 0.000000 0.000000 0.000000 3.826058 -2.234522 50.934320 -8.371456 2.264424 -29.380611 -4.434049 9.085280 20.782575 17.110508 -5.316033 -35.268715 0.000000 0.000000 0.000000 -11.870815 -42.053584 17.427808 14.150475 -46.813755 -8.375287 63.027257 -18.816901 -11.807303 0.000000 0.000000 0.000000 20.470807 25.686913 14.652446 -9.285582 44.034981 -6.061832 -55.109661 17.242590 -7.573428 0.000000 0.000000 0.000000 
-0.004027 0.724514 0.070253 -3.185613 -7.824658 -2.678950 25.714271 8.276725 -43.487234 -9.886008 8.925251 74.810763 3.520152 2.158288 -13.256957 0.000000 0.000000 0.000000 -23.037621 -1.931778 -40.130026 21.311904 -11.833839 70.509228 -0.673611 3.122976 -8.015812 0.000000 0.000000 0.000000 3.942794 -2.311417 51.363664 -8.632319 2.296004 -29.574646 -4.744156 8.696669 20.529489 17.005696 -5.179177 -35.697531 0.000000 0.000000 0.000000 -11.374463 -41.992557 17.350110 16.335362 -46.388996 -9.032319 64.550327 -17.441765 -11.301827 0.000000 0.000000 0.000000 20.153690 25.577604 14.455829 -11.114143 44.340077 -6.712582 -57.406126 16.898433 -7.801062 0.000000 0.000000 0.000000 
-0.005049 0.728103 0.072531 -3.241452 -7.924294 -1.617598 25.436000 8.165324 -43.543061 -9.589156 8.632818 73.798822 3.737357 2.336959 -14.215405 0.000000 0.000000 0.000000 -22.869709 -1.831789 -40.405462 21.731234 -11.984093 69.347925 -1.253755 1.664044 -8.629277 0.000000 0.000000 0.000000 3.644692 -2.155711 51.738433 -8.433945 2.200631 -30.452561 -4.656259 8.838851 21.074567 17.254494 -5.093145 -36.563138 0.000000 0.000000 0.000000 -9.978801 -41.926135 16.898468 17.770156 -46.603731 -9.681255 65.718405 -15.999147 -10.673228 0.000000 0.000000 0.000000 19.443498 25.501970 14.292706 -12.280535 44.722757 -7.192690 -59.697097 16.494341 -7.934157 0.000000 0.000000 0.000000 
-0.006389 0.732381 0.074500 -3.219342 -7.663160 -0.443204 25.135733 8.029112 -44.077589 -9.504323 8.397532 72.805159 3.744486 2.371762 -14.263424 0.000000 0.000000 0.000000 -22.585122 -1.777179 -40.700091 21.526408 -11.768597 68.225815 -1.538665 1.108640 -9.179979 0.000000 0.000000 0.000000 3.335510 -2.074506 51.830169 -7.774887 2.043903 -30.926376 -4.891315 8.960312 21.041926 17.254331 -4.941278 -36.905357 0.000000 0.000000 0.000000 -9.786343 -41.620364 16.729337 18.319945 -47.119860 -10.108370 66.660356 -15.778772 -10.659256 0.000000 0.000000 0.000000 19.662832 24.904697 14.153955 -12.700249 45.088081 -7.458740 -62.202414 16.899175 -8.496331 0.000000 0.000000 0.000000 
-0.007914 0.736556 0.076084 -3.100436 -7.373615 0.556409 24.998795 7.937645 -44.514858 -9.628731 8.272628 71.425130 3.524377 2.139748 -13.537212 0.000000 0.000000 0.000000 -22.397529 -1.766178 -40.986115 21.390991 -11.676941 67.411028 -1.871159 0.222561 -9.529874 0.000000 0.000000 0.000000 3.411845 -2.184270 51.823710 -7.935697 2.054350 -31.308423 -4.882513 8.636128 21.149509 17.116892 -4.848150 -37.005836 0.000000 0.000000 0.000000 -9.576151 -41.520413 16.715340 18.356257 -47.672562 -10.318485 66.947340 -15.782352 -10.605044 0.000000 0.000000 0.000000 19.119359 24.253637 13.631585 -11.727803 45.285657 -7.224943 -64.770224 17.741966 -9.336437 0.000000 0.000000 0.000000 
-0.009540 0.740559 0.077126 -2.882405 -6.916956 1.620767 24.644728 7.725129 -45.109424 -9.417387 7.767160 69.832152 2.997466 1.081409 -12.746283 0.000000 0.000000 0.000000 -22.127491 -1.762927 -41.270034 21.055492 -11.443691 66.390769 -2.374314 -1.131584 -10.091556 0.000000 0.000000 0.000000 3.273900 -2.226013 51.735343 -7.417033 1.945067 -31.610336 -5.177663 8.532625 21.171169 16.780044 -4.664292 -36.877318 0.000000 0.000000 0.000000 -9.325143 -41.415416 16.640274 17.940719 -48.147913 -10.363368 68.235519 -15.748062 -10.749299 0.000000 0.000000 0.000000 19.428014 23.691904 13.476055 -10.571895 44.908895 -6.824770 -68.452826 19.036534 -10.734811 0.000000 0.000000 0.000000 
-0.011134 0.744395 0.077664 -2.762514 -6.581153 2.440549 24.116257 7.441807 -45.552649 -8.760976 6.869281 67.819952 2.400999 0.330758 -11.107907 0.000000 0.000000 0.000000 -22.091101 -1.805271 -41.363609 20.791491 -11.226289 65.415937 -2.276557 -0.575065 -10.417526 0.000000 0.000000 0.000000 3.639836 -2.488551 51.612724 -7.706516 1.980807 -32.038397 -5.299081 7.843700 21.395640 16.446839 -4.476054 -37.301206 0.000000 0.000000 0.000000 -10.345134 -41.286714 17.068675 17.503351 -48.876871 -10.391844 68.624591 -16.482484 -11.122311 0.000000 0.000000 0.000000 19.288578 23.270441 13.085384 -8.646737 44.973179 -6.280708 -71.442512 20.547365 -12.273470 0.000000 0.000000 0.000000 
-0.012843 0.749079 0.077540 -2.454858 -6.331804 3.183882 23.572658 7.129179 -45.730498 -8.489535 6.345436 65.542639 2.028620 0.275701 -9.372060 0.000000 0.000000 0.000000 -22.023214 -1.841105 -41.835842 20.817660 -11.177499 64.304636 -2.576706 -2.538019 -8.926974 0.000000 0.000000 0.000000 3.720804 -2.577313 51.380569 -7.546933 1.959741 -31.858899 -5.498073 7.599551 21.320814 16.296347 -4.394172 -37.207292 0.000000 0.000000 0.000000 -10.496784 -41.397864 17.251043 16.956685 -49.594091 -10.403966 69.502894 -16.117040 -10.936607 0.000000 0.000000 0.000000 18.588431 22.274925 12.355010 -6.494096 45.518755 -5.698538 -74.746126 21.367085 -13.407261 0.000000 0.000000 0.000000 
-0.014751 0.755047 0.076748 -2.349803 -6.346775 3.959173 23.116438 6.906016 -45.722642 -7.976029 5.738561 63.319846 1.721564 0.348230 -7.726533 0.000000 0.000000 0.000000 -21.927444 -1.801404 -42.245412 20.980011 -11.034336 62.655109 -2.488583 -3.369537 -6.923968 0.000000 0.000000 0.000000 3.776562 -2.592432 51.122192 -7.185001 1.895330 -31.804702 -5.969431 7.500041 21.393720 16.303224 -4.151134 -38.256301 0.000000 0.000000 0.000000 -10.875943 -41.230901 17.366738 16.681019 -50.218868 -10.497223 70.219679 -15.829971 -10.778671 0.000000 0.000000 0.000000 18.427313 22.071093 12.212006 -4.968657 45.940940 -5.296985 -76.800018 21.850310 -14.095702 0.000000 0.000000 0.000000 
-0.016992 0.764635 0.075412 -2.283302 -6.380731 5.061259 22.878545 6.680965 -45.196113 -8.080192 5.527243 59.828863 1.929246 1.513355 -6.420354 0.000000 0.000000 0.000000 -21.281921 -1.567767 -42.622662 20.406576 -10.302995 60.766777 -2.352220 -3.738174 -5.414839 0.000000 0.000000 0.000000 3.903227 -2.629915 50.480894 -7.161585 1.883224 -31.757775 -5.941721 7.312133 21.462805 16.395975 -4.191453 -38.182589 0.000000 0.000000 0.000000 -11.329569 -41.252433 17.651500 16.641214 -50.355488 -10.524740 70.626935 -15.376303 -10.408542 0.000000 0.000000 0.000000 18.054250 21.823056 11.972616 -3.082915 46.818501 -4.825115 -78.729539 22.443834 -14.804691 0.000000 0.000000 0.000000 
-0.019270 0.777911 0.074052 -2.385281 -6.741346 5.769001 22.789969 6.536495 -44.149657 -7.950671 5.269032 56.841208 1.701015 1.910860 -4.309092 0.000000 0.000000 0.000000 -20.174956 -1.102951 -42.529303 19.438761 -9.093648 58.284514 -1.771207 -3.660402 -2.190794 0.000000 0.000000 0.000000 3.660214 -2.414550 50.055144 -6.561133 1.780458 -31.493697 -6.288552 7.619946 21.382814 16.516921 -3.961565 -39.229564 0.000000 0.000000 0.000000 -10.412851 -41.179851 17.319589 15.750777 -50.468589 -10.247205 70.462421 -14.700758 -9.887478 0.000000 0.000000 0.000000 18.170929 21.519125 11.902673 -1.077960 48.245847 -4.311098 -79.718418 23.527679 -15.648569 0.000000 0.000000 0.000000 
-0.021153 0.794092 0.073571 -2.609433 -6.978428 6.687724 22.971174 6.444186 -43.010616 -8.212210 5.181014 53.289896 1.333922 2.276615 -1.367394 0.000000 0.000000 0.000000 -18.906098 -0.596144 -41.531129 18.396535 -7.796449 54.656407 -1.454828 -3.584234 -0.597704 0.000000 0.000000 0.000000 3.580402 -2.288406 48.487845 -6.120336 1.713385 -30.962611 -6.064883 7.694186 21.418225 16.594356 -3.939319 -39.427067 0.000000 0.000000 0.000000 -10.759845 -40.673697 17.275112 14.121661 -50.206965 -9.546532 69.899547 -14.729811 -9.705200 0.000000 0.000000 0.000000 18.560593 21.294315 11.864661 1.372745 49.572623 -3.589910 -80.162075 25.563692 -17.154808 0.000000 0.000000 0.000000 
-0.022164 0.812590 0.075348 -2.862075 -7.464002 7.278366 22.745904 6.144951 -41.268518 -7.555272 4.611064 50.271961 0.479627 1.325950 0.859294 0.000000 0.000000 0.000000 -17.405525 -0.010788 -40.049584 16.810240 -6.215345 51.028946 -0.683632 -2.852182 1.957336 0.000000 0.000000 0.000000 3.655478 -2.188363 46.994288 -6.174865 1.707797 -31.193952 -5.693624 7.689095 22.071706 17.274647 -4.296464 -39.500311 0.000000 0.000000 0.000000 -10.615368 -39.690433 16.850135 10.939880 -49.638245 -8.209460 69.858602 -14.611024 -9.564711 0.000000 0.000000 0.000000 19.754662 20.728069 11.736894 4.402094 50.467969 -2.609544 -80.781506 28.412357 -19.507874 0.000000 0.000000 0.000000 
-0.022388 0.830757 0.079854 -2.843986 -7.724951 7.507695 22.412689 5.636992 -38.931989 -7.140130 4.170076 47.291497 -0.494396 -0.235700 1.967458 0.000000 0.000000 0.000000 -16.421942 0.315936 -37.582663 15.266482 -4.881018 47.192886 0.165923 -1.448312 3.291270 0.000000 0.000000 0.000000 3.682829 -2.101531 44.733534 -5.968260 1.680424 -30.641238 -5.622391 7.813121 22.496092 17.299293 -4.359403 -39.485645 0.000000 0.000000 0.000000 -11.852540 -38.315269 16.608549 7.246024 -49.034536 -6.730167 69.469274 -16.355972 -10.583538 0.000000 0.000000 0.000000 20.793484 20.122798 11.578544 7.241321 51.227753 -1.615775 -81.845954 31.273711 -22.101952 0.000000 0.000000 0.000000 
-0.022182 0.846005 0.086478 -2.948123 -7.951334 7.321198 22.146705 5.062831 -35.968344 -7.161168 3.929059 43.831548 -0.360563 0.280780 2.640317 0.000000 0.000000 0.000000 -15.769008 0.491433 -34.705566 14.311084 -4.043247 43.712279 1.030433 0.071761 4.295129 0.000000 0.000000 0.000000 4.374080 -2.297583 42.341139 -6.354300 1.753640 -30.346793 -5.464990 7.863290 22.867405 17.237321 -4.715961 -38.170591 0.000000 0.000000 0.000000 -13.538362 -36.739775 16.367425 2.270238 -48.009357 -4.808453 69.772323 -19.422027 -12.606886 0.000000 0.000000 0.000000 22.683586 19.304202 11.407074 9.722489 51.229072 -0.756240 -81.544401 34.414268 -24.576611 0.000000 0.000000 0.000000 
-0.022121 0.855589 0.093630 -2.841222 -8.516527 6.692964 21.694199 4.562506 -33.146747 -7.203669 3.821904 41.172893 0.220706 1.691438 3.443461 0.000000 0.000000 0.000000 -15.222003 0.641932 -31.863943 13.475217 -3.330655 41.059297 1.085134 0.460102 3.766672 0.000000 0.000000 0.000000 4.383145 -2.129755 39.579452 -5.922219 1.685118 -29.681017 -5.263144 8.542217 23.610851 17.015753 -4.616096 -38.497009 0.000000 0.000000 0.000000 -14.726524 -35.231421 15.865372 -2.366967 -46.978857 -3.183183 71.508425 -23.604876 -15.911210 0.000000 0.000000 0.000000 24.232948 18.776830 11.450781 11.180321 50.875729 -0.304435 -82.086175 36.372873 -26.442456 0.000000 0.000000 0.000000 
-0.022679 0.859518 0.100038 -2.806478 -8.846963 5.492735 21.680393 4.258581 -30.712301 -7.684139 3.982058 39.693825 0.948603 3.356683 4.303848 0.000000 0.000000 0.000000 -14.959097 0.669562 -29.707204 12.995859 -2.966872 40.216475 1.602185 1.415766 4.212621 0.000000 0.000000 0.000000 4.713708 -2.136650 37.596670 -6.277661 1.770997 -29.147039 -4.948563 8.941182 24.249003 16.883351 -4.600799 -38.610772 0.000000 0.000000 0.000000 -15.096595 -34.079184 15.315296 -5.804458 -46.178839 -2.050834 73.145622 -27.012950 -18.863390 0.000000 0.000000 0.000000 24.669515 17.981896 11.041512 13.187983 50.091637 0.375908 -81.821345 37.576387 -27.340442 0.000000 0.000000 0.000000 
-0.023891 0.859613 0.105109 -2.864665 -9.344798 4.286799 21.639098 4.042678 -28.647883 -7.876241 4.086586 38.959453 2.086713 5.501007 4.320616 0.000000 0.000000 0.000000 -14.648110 0.718084 -27.906443 12.797010 -2.731145 39.921648 1.620882 1.925190 3.426764 0.000000 0.000000 0.000000 4.782764 -2.036276 35.967918 -5.858589 1.706207 -28.320301 -4.895751 9.668180 24.589119 17.116994 -4.547556 -39.377920 0.000000 0.000000 0.000000 -14.577522 -32.600837 14.312831 -8.970333 -45.526897 -1.082683 75.153928 -30.127211 -21.984230 0.000000 0.000000 0.000000 25.267262 17.148018 10.735766 14.885535 49.842306 0.957686 -82.431779 39.229707 -28.966393 0.000000 0.000000 0.000000 
-0.025422 0.857869 0.109002 -2.915128 -9.820622 3.235942 21.648384 3.951336 -27.333042 -7.704133 4.086363 39.071633 2.647863 6.603472 4.587288 0.000000 0.000000 0.000000 -14.368925 0.760108 -26.690285 12.705489 -2.576481 40.298801 1.438881 2.192485 2.303194 0.000000 0.000000 0.000000 4.967140 -1.991050 34.585364 -6.131612 1.773851 -27.560066 -4.631568 10.204136 24.344290 17.404996 -4.777564 -38.853412 0.000000 0.000000 0.000000 -15.006957 -31.903956 13.973950 -10.532894 -44.662062 -0.590275 76.821760 -32.945719 -24.913282 0.000000 0.000000 0.000000 25.941692 16.415873 10.442209 16.422105 49.109118 1.451780 -82.779804 39.955479 -29.724391 0.000000 0.000000 0.000000 
-0.026780 0.857383 0.112126 -2.818515 -10.092247 1.950560 21.478834 3.700761 -25.515221 -7.359546 3.929393 38.903534 2.737386 6.613770 3.904442 0.000000 0.000000 0.000000 -14.174537 0.736883 -24.724073 12.352795 -2.329098 40.200107 1.197539 3.057561 0.146153 0.000000 0.000000 0.000000 5.441756 -2.061876 33.474061 -6.375459 1.836969 -27.155890 -4.755841 10.291220 24.160467 17.651045 -4.915812 -39.066980 0.000000 0.000000 0.000000 -15.722586 -30.734755 13.516477 -12.418045 -43.643290 -0.050849 77.882244 -35.829529 -27.698279 0.000000 0.000000 0.000000 27.624821 15.824115 10.298331 17.587658 48.016021 1.708446 -83.841961 41.899661 -32.073236 0.000000 0.000000 0.000000 
-0.027784 0.858910 0.115000 -2.605501 -10.215655 0.927827 20.995960 3.369628 -23.860401 -6.883549 3.641657 38.300071 2.787391 6.660022 3.691636 0.000000 0.000000 0.000000 -13.717870 0.754394 -23.474330 11.676199 -1.974937 40.518567 0.773263 2.272308 -0.339504 0.000000 0.000000 0.000000 5.815342 -2.091648 31.956072 -6.905177 1.976184 -26.603319 -4.595115 10.191548 23.555403 17.979164 -5.330299 -38.088355 0.000000 0.000000 0.000000 -16.272893 -29.891349 13.207655 -14.402775 -42.469998 0.490534 79.394094 -38.423367 -30.531024 0.000000 0.000000 0.000000 29.199406 15.109077 9.957379 19.513684 46.357646 2.159344 -85.920683 44.714906 -35.873305 0.000000 0.000000 0.000000 
-0.028207 0.862321 0.117984 -2.266027 -10.278558 -0.044640 20.267319 2.916967 -21.674273 -6.178239 3.301036 38.227295 2.288094 4.844941 0.227231 0.000000 0.000000 0.000000 -13.327479 0.736946 -21.479247 10.636991 -1.468555 39.583736 0.405286 2.061907 -1.427893 0.000000 0.000000 0.000000 6.369859 -2.119562 29.523349 -7.358879 2.104722 -26.124449 -4.425435 9.902159 23.313264 17.623608 -5.402937 -37.370142 0.000000 0.000000 0.000000 -16.681868 -28.688159 12.747142 -16.509378 -41.227804 0.970054 80.825333 -41.104645 -33.437414 0.000000 0.000000 0.000000 30.217492 14.372803 9.412724 22.151989 44.643320 2.759860 -89.059797 47.708759 -40.674641 0.000000 0.000000 0.000000 
-0.028317 0.865868 0.121611 -1.865092 -10.327330 -1.001228 19.705109 2.545145 -19.530634 -6.418996 3.415976 37.994162 2.608293 4.855962 -2.333754 0.000000 0.000000 0.000000 -13.154095 0.698113 -19.813888 9.536332 -0.955152 39.121047 0.552294 2.683595 -1.721684 0.000000 0.000000 0.000000 6.855599 -2.120097 27.570813 -7.626960 2.186833 -25.927114 -4.380505 9.728650 23.096680 17.128845 -5.583487 -35.703414 0.000000 0.000000 0.000000 -17.179815 -27.494208 12.267450 -18.622622 -39.982442 1.390396 83.167639 -43.478513 -36.755176 0.000000 0.000000 0.000000 30.863446 13.585987 8.832284 24.045175 42.995807 3.060528 -92.919619 50.491894 -46.105686 0.000000 0.000000 0.000000 
-0.028189 0.869385 0.126249 -1.338568 -10.390525 -2.392743 19.070201 2.119866 -16.584541 -7.115911 3.629501 36.600919 3.330520 6.095584 -3.876179 0.000000 0.000000 0.000000 -13.349285 0.604649 -17.460384 9.069804 -0.736732 38.227738 0.273246 2.129746 -2.000684 0.000000 0.000000 0.000000 7.368434 -2.051069 24.980440 -7.845415 2.277960 -25.337036 -4.312237 9.634882 22.292659 16.568899 -5.591909 -34.351043 0.000000 0.000000 0.000000 -17.253416 -25.958318 11.483130 -21.753596 -38.225828 1.949108 86.054139 -46.260950 -40.994335 0.000000 0.000000 0.000000 31.067724 12.403569 7.913828 26.670178 40.904487 3.464819 -97.308172 54.016592 -53.118431 0.000000 0.000000 0.000000 
-0.027832 0.871668 0.132208 -1.048648 -10.418240 -3.800800 18.698657 1.786948 -13.559628 -7.880192 3.762855 34.493362 4.155921 7.904523 -4.354840 0.000000 0.000000 0.000000 -13.427945 0.533656 -14.862561 7.974757 -0.271616 37.266322 0.824224 4.231340 -2.733849 0.000000 0.000000 0.000000 7.931848 -1.927672 21.975212 -7.980058 2.361908 -24.482231 -4.008725 9.752599 21.407551 15.823120 -5.580660 -32.265087 0.000000 0.000000 0.000000 -17.349408 -24.313616 10.587911 -24.909529 -36.258700 2.388301 89.298273 -48.614836 -45.391000 0.000000 0.000000 0.000000 30.409145 11.171800 6.965696 29.274374 39.100355 3.841872 -101.571907 56.393837 -59.135123 0.000000 0.000000 0.000000 
-0.027183 0.872276 0.138944 -0.594162 -9.882940 -5.401410 17.929411 1.431166 -10.893943 -7.607401 3.410811 33.268937 4.072437 7.513729 -5.288438 0.000000 0.000000 0.000000 -13.717955 0.437656 -12.088306 8.253892 -0.456050 37.135998 -0.661854 1.380179 -4.525131 0.000000 0.000000 0.000000 8.121694 -1.736343 19.267229 -7.751729 2.344060 -24.423668 -3.645577 9.828653 21.916997 14.819706 -5.105274 -31.932440 0.000000 0.000000 0.000000 -17.093383 -22.787320 9.704779 -27.410205 -34.511482 2.511524 93.150488 -50.052287 -49.619951 0.000000 0.000000 0.000000 29.280222 9.698594 6.009707 31.807493 37.807851 4.093820 -106.695366 58.044615 -65.194884 0.000000 0.000000 0.000000 
-0.026354 0.871134 0.146057 -0.559293 -9.894756 -6.454063 17.775984 1.278081 -8.804350 -7.539959 3.295611 32.558806 4.158964 7.470530 -6.483268 0.000000 0.000000 0.000000 -13.664862 0.418162 -9.953307 9.802960 -1.079916 37.792714 -3.194556 -4.022301 -7.538675 0.000000 0.000000 0.000000 8.850539 -1.623705 17.061351 -8.345645 2.526151 -24.128362 -2.927811 10.008968 21.510999 14.261288 -5.229600 -29.750372 0.000000 0.000000 0.000000 -17.991597 -21.381117 9.032548 -28.158445 -32.732318 2.321976 96.954375 -50.974135 -53.599312 0.000000 0.000000 0.000000 29.086802 8.385115 5.137858 32.592656 36.600145 3.988131 -109.508914 59.145586 -69.142291 0.000000 0.000000 0.000000 
-0.025300 0.868747 0.153002 -0.196745 -10.255880 -7.895830 17.289792 1.142372 -6.754156 -7.429251 3.309316 32.707906 4.303201 7.644269 -7.484433 0.000000 0.000000 0.000000 -13.758336 0.414064 -7.799978 11.502075 -1.705522 38.693605 -5.680570 -10.195705 -10.171332 0.000000 0.000000 0.000000 9.031354 -1.370178 14.600277 -7.906873 2.410346 -24.196867 -2.532639 10.926598 22.206401 13.991337 -5.267404 -28.742418 0.000000 0.000000 0.000000 -19.781906 -20.104749 8.400861 -28.403606 -30.827705 1.957339 101.064310 -51.355781 -57.569402 0.000000 0.000000 0.000000 29.656213 7.480776 4.828007 32.809070 35.675472 3.642377 -111.933741 59.998731 -72.243730 0.000000 0.000000 0.000000 
-0.023916 0.866199 0.159734 -0.089000 -10.224178 -9.082124 16.920806 1.023869 -4.978281 -7.107123 3.145917 32.722557 4.407945 7.618803 -8.794479 0.000000 0.000000 0.000000 -13.654242 0.406804 -5.763151 13.029432 -2.358633 39.327895 -7.490908 -15.202207 -12.177793 0.000000 0.000000 0.000000 9.764629 -1.134966 11.959635 -8.651938 2.666750 -23.233545 -2.086025 10.960221 21.560184 13.930623 -5.706124 -26.340425 0.000000 0.000000 0.000000 -20.747098 -19.211470 7.936286 -28.801163 -29.583030 1.830468 104.696410 -50.697735 -60.040729 0.000000 0.000000 0.000000 29.745426 6.431942 4.105121 33.452962 34.452438 3.506363 -112.449326 60.020041 -72.837719 0.000000 0.000000 0.000000 
-0.022142 0.864636 0.165876 0.328370 -10.500740 -10.445705 16.333863 0.918881 -3.028642 -7.034472 3.149396 32.704184 4.508731 7.768776 -9.524452 0.000000 0.000000 0.000000 -13.949885 0.421004 -4.012968 14.374346 -2.873847 39.998381 -8.829459 -19.225833 -13.183795 0.000000 0.000000 0.000000 9.766597 -0.790229 9.165507 -8.177385 2.550945 -22.977441 -1.773536 11.964176 22.394797 13.603180 -5.478941 -26.095643 0.000000 0.000000 0.000000 -20.646101 -18.486587 7.358214 -30.471997 -29.191127 1.935222 108.166692 -49.742029 -62.185507 0.000000 0.000000 0.000000 29.232063 5.730295 3.916251 33.981230 34.183219 3.414602 -112.028791 58.713933 -70.416291 0.000000 0.000000 0.000000 
-0.020250 0.864038 0.171330 0.456845 -10.260246 -11.199757 15.817830 0.842985 -2.156996 -6.607270 2.953919 33.088282 4.505882 7.655529 -9.879474 0.000000 0.000000 0.000000 -13.779360 0.421544 -2.503436 13.440744 -2.498425 39.619715 -8.894936 -19.330062 -13.553334 0.000000 0.000000 0.000000 10.074033 -0.455934 6.351421 -8.577267 2.704966 -22.256774 -1.391777 11.957417 22.116681 13.403778 -5.725676 -24.164891 0.000000 0.000000 0.000000 -20.363798 -18.016257 7.033500 -31.916472 -29.109106 2.128605 112.403354 -47.826771 -63.818764 0.000000 0.000000 0.000000 28.738866 5.271331 3.605003 33.888209 34.034397 3.407115 -112.600150 56.210821 -67.996083 0.000000 0.000000 0.000000 
-0.018427 0.864260 0.176178 0.711509 -10.276246 -12.202727 14.934836 0.749863 -0.653799 -5.893777 2.616598 32.879344 4.587559 7.849207 -10.174830 0.000000 0.000000 0.000000 -13.795099 0.437126 -1.027029 12.528798 -2.079708 39.454659 -8.872537 -19.145103 -13.562091 0.000000 0.000000 0.000000 10.236444 -0.091610 3.627619 -8.669357 2.755374 -21.853307 -1.164275 12.353896 22.811551 13.031139 -5.338389 -24.695850 0.000000 0.000000 0.000000 -19.563818 -17.484226 6.644973 -33.794263 -29.918077 2.513709 116.441977 -45.552693 -64.840818 0.000000 0.000000 0.000000 27.831289 5.414599 3.797573 33.721958 34.175554 3.366027 -113.056894 52.668367 -63.889198 0.000000 0.000000 0.000000 
-0.016966 0.865075 0.180838 0.831440 -10.340101 -12.884476 14.402608 0.705787 0.473991 -5.469611 2.417072 32.713176 4.622654 7.986808 -10.131139 0.000000 0.000000 0.000000 -13.716623 0.470550 0.750379 11.732267 -1.730393 38.233161 -8.840802 -18.812300 -13.971820 0.000000 0.000000 0.000000 10.676795 0.262855 1.199567 -9.139601 2.921943 -21.380712 -0.976618 12.786708 22.513089 12.929021 -5.379349 -23.681551 0.000000 0.000000 0.000000 -18.144896 -17.319646 6.375594 -35.181875 -31.327583 3.108624 120.451385 -42.782788 -65.387984 0.000000 0.000000 0.000000 26.987032 4.993761 3.613889 33.471469 34.948039 3.573567 -113.937622 49.340098 -60.391311 0.000000 0.000000 0.000000 
-0.015945 0.866208 0.185254 1.062940 -10.690960 -13.539676 13.626435 0.674646 1.636176 -4.880793 2.191233 32.501118 4.735729 8.448823 -9.834271 0.000000 0.000000 0.000000 -13.768988 0.520611 2.089463 10.970303 -1.355488 37.448760 -8.755324 -18.293547 -14.088279 0.000000 0.000000 0.000000 10.909516 0.639016 -1.226013 -9.017193 2.880371 -21.332373 -0.672310 13.098469 22.547604 12.317476 -4.926404 -23.817705 0.000000 0.000000 0.000000 -16.427306 -17.203494 6.258592 -36.649649 -32.785231 3.692826 123.208911 -39.569735 -63.703279 0.000000 0.000000 0.000000 25.136356 5.009309 3.529926 33.243072 35.619424 3.782581 -115.284622 46.206515 -57.535763 0.000000 0.000000 0.000000 
-0.015587 0.866423 0.189026 0.781440 -10.383286 -14.019687 13.257345 0.645414 2.382176 -3.844110 1.667554 32.497730 4.755115 8.421690 -10.050615 0.000000 0.000000 0.000000 -13.195571 0.504025 3.802138 10.346833 -1.189317 36.171825 -8.813908 -18.410425 -14.441156 0.000000 0.000000 0.000000 11.067329 0.966619 -3.251505 -9.147167 2.932917 -21.284265 -0.412796 13.022398 22.727438 12.283292 -5.012821 -23.118499 0.000000 0.000000 0.000000 -13.989674 -17.178165 6.139767 -38.579019 -35.965363 4.924712 124.655086 -37.264287 -61.788478 0.000000 0.000000 0.000000 23.527503 4.913142 3.433119 32.267075 37.082429 4.019343 -116.099827 42.320076 -53.084060 0.000000 0.000000 0.000000 
-0.015782 0.865496 0.191718 0.614089 -10.696755 -14.425269 12.846712 0.647191 2.999733 -2.922564 1.311336 32.754629 4.932168 8.924987 -10.261804 0.000000 0.000000 0.000000 -12.789739 0.510858 4.868784 9.794996 -0.942955 35.489178 -8.826527 -18.141871 -15.085371 0.000000 0.000000 0.000000 11.292344 1.198937 -4.500917 -9.067594 2.897421 -21.309147 -0.217477 12.964038 22.748037 12.495615 -5.277163 -22.666406 0.000000 0.000000 0.000000 -12.592450 -17.352576 6.227691 -38.597311 -38.271367 5.604475 126.114068 -34.498615 -58.974769 0.000000 0.000000 0.000000 22.401881 5.609140 3.699523 30.227382 38.154219 3.871869 -116.457654 38.892961 -49.096769 0.000000 0.000000 0.000000 
-0.016390 0.862687 0.192945 0.555377 -10.769936 -14.787673 12.399790 0.645578 2.770482 -1.976573 0.967140 34.104037 5.071106 9.261515 -10.469788 0.000000 0.000000 0.000000 -12.484060 0.508271 5.832789 9.352986 -0.780133 34.920931 -8.945625 -18.180791 -16.302321 0.000000 0.000000 0.000000 11.249569 1.302721 -5.087175 -9.103570 2.894332 -21.600294 0.197939 12.953300 23.038434 12.868361 -5.561448 -22.575413 0.000000 0.000000 0.000000 -11.618250 -17.934072 6.474545 -37.756033 -40.111280 5.927439 127.186970 -32.335535 -56.654169 0.000000 0.000000 0.000000 21.269311 5.964153 3.810832 28.350212 38.978624 3.636344 -116.865222 35.701223 -45.247692 0.000000 0.000000 0.000000 
-0.017404 0.859933 0.192776 0.490909 -11.126649 -15.282658 12.097402 0.662068 3.038081 -1.209146 0.693456 34.855437 5.252875 9.743908 -10.845719 0.000000 0.000000 0.000000 -11.856625 0.485683 6.942322 8.420818 -0.403006 34.158618 -9.081640 -18.081705 -17.740564 0.000000 0.000000 0.000000 11.570794 1.353301 -5.015497 -9.102554 2.867897 -22.061797 0.213564 13.283360 23.138348 13.276599 -5.714185 -23.055220 0.000000 0.000000 0.000000 -11.158762 -18.210373 6.558581 -36.588430 -40.636441 5.750211 127.945754 -31.038219 -55.501891 0.000000 0.000000 0.000000 21.306533 6.462082 4.146589 26.553133 39.067681 3.179613 -117.677053 33.903870 -43.524422 0.000000 0.000000 0.000000 
-0.019068 0.858295 0.191494 0.385731 -11.418543 -15.507466 11.748962 0.665280 3.003011 -0.009535 0.227896 36.133221 4.981839 8.855520 -11.784830 0.000000 0.000000 0.000000 -11.128152 0.432256 7.465098 7.586699 -0.067702 33.739500 -9.206874 -18.118969 -18.677689 0.000000 0.000000 0.000000 11.827691 1.317616 -4.530450 -9.394115 2.926345 -22.587606 0.442087 12.992970 23.626487 13.622838 -5.962631 -23.403325 0.000000 0.000000 0.000000 -11.117867 -18.004619 6.556841 -35.047182 -40.792540 5.360749 128.028691 -29.981301 -53.719804 0.000000 0.000000 0.000000 21.407713 6.945482 4.315779 24.330971 39.581229 2.710615 -116.907072 32.047531 -40.842900 0.000000 0.000000 0.000000 
-0.021417 0.857341 0.189945 0.329975 -11.937845 -15.326512 11.670022 0.677143 2.596021 0.792802 -0.014856 37.511330 4.598440 7.654080 -12.601700 0.000000 0.000000 0.000000 -10.667009 0.420200 7.830455 7.125347 0.106395 32.682471 -9.288191 -17.780879 -19.772860 0.000000 0.000000 0.000000 11.949189 1.201778 -3.728826 -9.319403 2.866580 -23.127876 0.640083 13.196161 23.806241 13.940019 -6.130263 -23.743821 0.000000 0.000000 0.000000 -12.181182 -18.078231 6.678586 -33.996761 -39.550234 4.773875 129.119324 -29.393514 -53.839031 0.000000 0.000000 0.000000 21.687787 7.068720 4.364993 24.033226 39.931752 2.689556 -118.107311 30.686183 -39.893683 0.000000 0.000000 0.000000 
-0.024441 0.857717 0.188782 0.253354 -12.491608 -15.176743 11.680921 0.695103 2.498850 1.395083 -0.173840 38.482313 4.322861 6.807215 -13.142958 0.000000 0.000000 0.000000 -10.281706 0.417052 8.225481 6.863981 0.195632 31.581364 -9.311903 -17.280161 -20.427295 0.000000 0.000000 0.000000 11.947015 1.134522 -3.307063 -8.967168 2.760898 -22.817192 0.574723 13.168932 23.647487 14.581147 -6.682238 -23.445808 0.000000 0.000000 0.000000 -13.607396 -18.154785 6.868276 -32.677794 -37.320816 3.940847 130.016763 -28.815186 -53.716047 0.000000 0.000000 0.000000 22.398237 7.303787 4.434364 23.841845 40.375619 2.722756 -117.730944 29.822570 -38.607790 0.000000 0.000000 0.000000 
-0.027905 0.858165 0.188626 -0.147026 -12.970580 -14.906596 12.187876 0.731413 2.717594 1.566252 -0.172473 38.928242 4.314749 6.622500 -14.036269 0.000000 0.000000 0.000000 -9.814962 0.406295 9.025675 7.044539 0.063458 29.825792 -9.300384 -16.632569 -21.094400 0.000000 0.000000 0.000000 12.279303 1.154139 -3.252973 -8.862162 2.737580 -22.333545 0.881037 13.165391 24.057626 14.102178 -6.287847 -24.002548 0.000000 0.000000 0.000000 -14.121129 -17.375642 6.595799 -33.637887 -36.148302 3.814324 130.790698 -29.483896 -55.393071 0.000000 0.000000 0.000000 22.245506 7.047574 4.196124 25.463062 41.215893 3.314736 -117.810364 29.377975 -37.893324 0.000000 0.000000 0.000000 
-0.031451 0.858406 0.189286 -0.313342 -13.717413 -14.507014 12.505483 0.769146 2.450877 1.900048 -0.171583 39.546245 4.087410 6.128760 -13.812810 0.000000 0.000000 0.000000 -9.963369 0.479006 9.381354 7.747812 -0.178223 28.447093 -9.246369 -15.639353 -21.724719 0.000000 0.000000 0.000000 12.745943 1.150305 -2.995120 -8.677493 2.676941 -21.976905 0.781209 13.624545 24.327782 14.112828 -6.169856 -24.565692 0.000000 0.000000 0.000000 -15.184598 -16.522260 6.247617 -34.564503 -34.086424 3.438903 131.512056 -30.942351 -58.540322 0.000000 0.000000 0.000000 21.980251 6.665095 3.955055 27.698508 41.783268 4.051284 -117.842883 29.136091 -37.227409 0.000000 0.000000 0.000000 
-0.034593 0.857848 0.190684 -0.936577 -13.930311 -14.152406 13.104052 0.803634 2.026097 2.187264 -0.271848 40.162575 4.252533 6.703967 -13.465523 0.000000 0.000000 0.000000 -9.094381 0.389912 9.950921 7.690016 -0.207612 27.339360 -9.292797 -15.461363 -22.206253 0.000000 0.000000 0.000000 13.338399 1.190236 -2.962634 -8.791567 2.734045 -21.445051 1.255920 13.889390 24.722141 13.111572 -5.357670 -25.217535 0.000000 0.000000 0.000000 -15.209047 -16.146799 6.021514 -36.611034 -32.577470 3.359724 131.396712 -32.709063 -61.298072 0.000000 0.000000 0.000000 21.731080 6.032829 3.635764 30.258018 42.246740 4.889542 -118.428876 29.880230 -38.252169 0.000000 0.000000 0.000000 
-0.037211 0.856634 0.192561 -1.324711 -13.856195 -13.859439 13.243792 0.808054 1.264269 2.838722 -0.593692 41.042454 4.330835 7.046439 -12.764929 0.000000 0.000000 0.000000 -8.635266 0.328384 10.103589 7.914443 -0.302423 27.086107 -9.346485 -15.598407 -22.618573 0.000000 0.000000 0.000000 13.609939 1.183476 -2.859957 -8.635857 2.710164 -21.001472 1.292905 14.029661 25.155323 11.697104 -4.299421 -25.966662 0.000000 0.000000 0.000000 -15.216087 -15.117988 5.479424 -38.898039 -31.369803 3.322990 131.201043 -35.206261 -65.011273 0.000000 0.000000 0.000000 21.396789 5.437775 3.350702 32.925763 42.386886 5.695313 -119.009447 31.424952 -40.413302 0.000000 0.000000 0.000000 
-0.039246 0.855041 0.194999 -1.769161 -13.590216 -13.413862 13.538075 0.814829 0.420085 3.343008 -0.885256 41.878238 4.356209 7.090411 -12.517626 0.000000 0.000000 0.000000 -7.744410 0.204560 10.299422 7.519140 -0.228495 26.650349 -9.473588 -16.108065 -23.108302 0.000000 0.000000 0.000000 13.619281 1.195977 -3.079501 -8.378206 2.645262 -20.755645 1.597858 13.786422 25.768479 10.458238 -3.633673 -25.570159 0.000000 0.000000 0.000000 -15.190790 -14.632350 5.272275 -40.785494 -30.523564 3.287442 130.887129 -36.620881 -66.590152 0.000000 0.000000 0.000000 20.783267 4.763402 2.927875 35.941229 42.195709 6.536882 -120.333221 32.978994 -43.285778 0.000000 0.000000 0.000000 
-0.040508 0.854388 0.197822 -1.965259 -13.515251 -13.145902 13.191884 0.792138 -0.379865 3.730157 -1.068022 42.686925 4.885505 8.809232 -11.291081 0.000000 0.000000 0.000000 -6.968186 0.100012 9.916811 6.743271 0.044197 27.337481 -9.574275 -16.653416 -23.097440 0.000000 0.000000 0.000000 13.697167 1.178664 -3.012823 -8.325676 2.636301 -20.611476 1.598368 13.917533 25.995806 9.970256 -3.235426 -25.973577 0.000000 0.000000 0.000000 -15.038937 -14.133063 4.993414 -42.475483 -30.210546 3.395350 130.448747 -37.652930 -67.588070 0.000000 0.000000 0.000000 20.992076 4.147946 2.655780 38.427284 41.075054 6.854752 -122.441539 34.808932 -47.274941 0.000000 0.000000 0.000000 
-0.041234 0.854897 0.200893 -2.256950 -13.225485 -12.612760 12.731529 0.738303 -1.081304 4.537603 -1.531442 42.766630 5.225994 9.890551 -10.224765 0.000000 0.000000 0.000000 -6.062756 -0.018451 9.714223 5.924384 0.275010 27.251091 -9.645468 -17.261058 -22.786233 0.000000 0.000000 0.000000 13.681416 1.197802 -3.300264 -8.471429 2.660736 -21.181837 1.870662 13.805659 26.830132 9.669444 -3.134060 -25.554088 0.000000 0.000000 0.000000 -13.922746 -13.649813 4.767686 -44.283585 -30.871498 3.791301 129.058239 -36.528322 -64.044885 0.000000 0.000000 0.000000 20.312151 3.361058 2.216790 40.657050 40.893154 7.416551 -123.270190 35.683293 -48.884370 0.000000 0.000000 0.000000 
-0.041594 0.856546 0.203701 -2.491626 -13.193672 -11.923346 12.290104 0.694996 -1.934645 5.017032 -1.757138 42.960792 5.676185 11.256440 -8.844586 0.000000 0.000000 0.000000 -4.910335 -0.137680 8.863063 4.553658 0.760323 27.793371 -9.719302 -17.872082 -21.989737 0.000000 0.000000 0.000000 13.686079 1.217062 -3.561453 -8.478458 2.625356 -21.927244 1.980825 13.929572 27.075515 9.884871 -3.292222 -25.306477 0.000000 0.000000 0.000000 -12.623394 -13.531486 4.694396 -45.168323 -32.135414 4.349479 126.844930 -34.053890 -57.848388 0.000000 0.000000 0.000000 19.725514 2.752171 1.893076 41.918585 41.117792 7.887813 -124.183050 36.298511 -50.315747 0.000000 0.000000 0.000000 
-0.041945 0.858455 0.206453 -2.496646 -12.860830 -11.263452 11.771547 0.633829 -2.895535 5.620327 -2.114276 42.768673 5.794831 11.717266 -6.991431 0.000000 0.000000 0.000000 -4.155198 -0.214022 8.429928 3.476561 1.077152 27.617203 -9.779903 -18.506227 -21.258483 0.000000 0.000000 0.000000 13.298978 1.256682 -4.167245 -8.686438 2.663494 -22.435775 2.369989 13.410998 27.267000 9.964169 -3.571557 -24.407935 0.000000 0.000000 0.000000 -12.191340 -13.077326 4.562047 -45.201860 -33.523998 4.857173 126.053445 -32.082460 -53.725962 0.000000 0.000000 0.000000 19.297970 2.917470 1.899784 41.758137 41.142153 7.833190 -124.808322 36.224748 -50.863094 0.000000 0.000000 0.000000 
-0.042393 0.860169 0.208900 -2.455516 -13.080287 -10.962318 11.801004 0.637818 -2.827754 5.603151 -2.050563 41.914892 5.738705 11.731894 -5.793037 0.000000 0.000000 0.000000 -3.287574 -0.293264 8.292840 1.913301 1.601678 27.438461 -9.835623 -18.689533 -20.639743 0.000000 0.000000 0.000000 13.032330 1.224182 -4.158466 -8.599511 2.585813 -23.480414 2.577790 13.321604 27.267179 10.180682 -3.888552 -23.716639 0.000000 0.000000 0.000000 -11.661412 -12.770131 4.482648 -44.058947 -34.028762 4.811857 125.197934 -29.184213 -48.335465 0.000000 0.000000 0.000000 18.983807 2.794499 1.754289 40.783320 41.703716 7.754680 -124.341365 37.066369 -51.991137 0.000000 0.000000 0.000000 
-0.043158 0.862272 0.211086 -2.216521 -13.233658 -10.530241 11.255980 0.591733 -3.428277 5.937793 -2.158154 41.135197 6.055655 12.704435 -2.731761 0.000000 0.000000 0.000000 -2.947074 -0.337374 8.731835 0.794623 1.817783 25.903566 -9.838858 -18.504893 -20.338089 0.000000 0.000000 0.000000 12.252594 1.136808 -4.152187 -8.428728 2.525690 -23.353919 2.722980 12.760159 26.486616 10.699773 -4.640770 -22.139819 0.000000 0.000000 0.000000 -12.422142 -11.584843 4.076918 -41.560083 -33.712448 4.305019 125.609112 -27.692811 -46.210568 0.000000 0.000000 0.000000 18.965111 2.519644 1.410115 39.398805 41.576849 7.330367 -126.313640 37.886978 -55.845500 0.000000 0.000000 0.000000 
-0.044425 0.863721 0.212546 -2.177084 -13.822885 -10.350368 11.254127 0.614787 -3.734802 6.124753 -2.128796 40.963564 6.045013 12.829767 -0.174429 0.000000 0.000000 0.000000 -2.818466 -0.359818 9.403726 0.252786 1.850565 24.353365 -9.771790 -17.726796 -20.352280 0.000000 0.000000 0.000000 12.023726 1.090665 -3.962526 -8.514341 2.504900 -24.069122 3.020584 12.321300 27.359907 11.156959 -5.430409 -20.769327 0.000000 0.000000 0.000000 -13.592984 -9.921936 3.517432 -39.419154 -32.673604 3.444106 127.396983 -27.281282 -46.661457 0.000000 0.000000 0.000000 19.249508 2.461832 1.226230 37.951183 40.720870 6.452551 -127.192872 39.443463 -59.638185 0.000000 0.000000 0.000000 
-0.046051 0.865642 0.213233 -2.110881 -14.436160 -9.708006 11.001766 0.609748 -4.697937 6.345133 -2.093697 40.903089 6.473371 13.791849 3.018168 0.000000 0.000000 0.000000 -2.819002 -0.337630 9.318080 0.006969 1.817110 23.113374 -9.686469 -16.936427 -20.254140 0.000000 0.000000 0.000000 11.271616 0.969781 -3.700330 -8.117137 2.355136 -24.380125 3.319147 12.454593 27.021873 12.008459 -6.449568 -19.037279 0.000000 0.000000 0.000000 -13.688699 -8.545103 2.942239 -38.949800 -30.213147 2.550774 128.822861 -27.317224 -47.888434 0.000000 0.000000 0.000000 19.239299 0.751123 0.193861 39.671038 38.420085 6.115400 -130.326032 41.240757 -65.896033 0.000000 0.000000 0.000000 
-0.047754 0.869211 0.213434 -2.171918 -14.778779 -8.907991 11.191311 0.646026 -5.881640 5.921117 -1.799822 40.498450 7.280269 15.285482 6.972023 0.000000 0.000000 0.000000 -2.630781 -0.353966 9.510757 -0.234055 1.666740 21.061945 -9.526627 -16.194832 -19.660130 0.000000 0.000000 0.000000 10.876954 0.887041 -3.525735 -8.039625 2.313137 -24.612276 3.441694 11.770476 27.526653 11.686489 -6.505378 -18.604261 0.000000 0.000000 0.000000 -15.129660 -5.681324 1.734703 -38.541495 -27.545536 1.571062 130.029877 -28.348644 -50.294228 0.000000 0.000000 0.000000 19.081331 -0.548691 -0.725798 42.118965 34.878066 5.358913 -134.222214 42.030939 -71.996750 0.000000 0.000000 0.000000 
-0.049138 0.874848 0.213325 -1.940285 -15.599505 -7.589990 10.641226 0.613557 -7.615421 5.401449 -1.327613 40.483187 8.954250 17.919288 11.237639 0.000000 0.000000 0.000000 -1.977008 -0.393078 9.106748 -2.004013 1.882605 18.647904 -9.304675 -15.230816 -18.394285 0.000000 0.000000 0.000000 10.123203 0.735979 -3.125800 -7.937370 2.239682 -24.864060 3.950978 11.717620 27.582487 11.993358 -6.982987 -17.853067 0.000000 0.000000 0.000000 -15.713824 -2.796762 0.415000 -40.477724 -23.767506 0.488903 133.081340 -30.606475 -56.691397 0.000000 0.000000 0.000000 19.612481 -3.382774 -2.520304 46.678517 29.523236 4.182579 -140.844332 43.340131 -83.072046 0.000000 0.000000 0.000000 
-0.050144 0.880134 0.213701 -1.745931 -16.818816 -6.446863 9.952137 0.566182 -8.867966 4.702724 -0.712710 39.717452 12.162814 22.185056 16.804542 0.000000 0.000000 0.000000 -1.862887 -0.348858 8.455192 -2.977805 1.940722 16.943897 -8.965847 -13.780236 -17.252323 0.000000 0.000000 0.000000 9.732274 0.474233 -1.681464 -7.819288 2.160933 -25.847234 4.229339 11.975449 28.761721 11.408759 -6.660248 -18.067251 0.000000 0.000000 0.000000 -16.822299 0.991737 -1.443813 -42.894111 -20.264620 -0.692168 135.564243 -36.600839 -68.860204 0.000000 0.000000 0.000000 20.435504 -5.315977 -3.841129 49.278683 23.689176 2.014774 -144.855040 44.450776 -90.936105 0.000000 0.000000 0.000000 
-0.051252 0.884547 0.214702 -1.330635 -18.081517 -5.623732 8.753756 0.443336 -10.413347 4.493672 -0.310449 39.642558 15.984031 26.087962 23.879037 0.000000 0.000000 0.000000 -1.626501 -0.325406 7.920574 -4.595306 2.167179 15.614663 -8.652681 -12.520261 -16.220627 0.000000 0.000000 0.000000 9.199526 0.171588 0.236519 -7.543639 2.048569 -26.655285 4.140743 12.530372 29.091293 12.263069 -7.262029 -18.385839 0.000000 0.000000 0.000000 -17.665345 2.965567 -2.481816 -45.832893 -15.731752 -2.300271 141.132071 -45.688936 -89.630945 0.000000 0.000000 0.000000 20.565752 -6.935931 -4.900272 52.281374 19.465702 0.473400 -148.587595 46.331635 -99.816315 0.000000 0.000000 0.000000 
-0.053488 0.887466 0.217104 -1.271090 -19.581947 -4.774117 8.017014 0.421390 -13.056175 3.979935 0.424039 41.315618 21.259160 30.209367 32.846365 0.000000 0.000000 0.000000 -1.242320 -0.316771 7.313078 -5.836644 2.344359 14.730318 -8.341102 -11.070619 -15.617881 0.000000 0.000000 0.000000 9.658752 -0.015488 1.702389 -7.421461 1.992316 -26.902248 4.139459 13.627392 30.410133 13.615987 -7.713091 -20.978283 0.000000 0.000000 0.000000 -19.012492 4.120461 -3.227426 -48.628056 -12.757933 -3.618408 146.357935 -57.458005 -111.421601 0.000000 0.000000 0.000000 22.537395 -7.775226 -5.654877 52.496017 18.402231 -0.143606 -149.710018 51.773899 -108.661501 0.000000 0.000000 0.000000 
-0.058113 0.891269 0.221539 -1.417102 -21.036832 -3.133564 6.334909 0.260892 -17.174287 5.656349 0.040434 43.047070 20.399708 28.828312 34.155441 0.000000 0.000000 0.000000 -0.743670 -0.296831 6.029840 -6.669425 2.423052 13.926686 -7.949978 -9.612213 -14.835442 0.000000 0.000000 0.000000 9.362451 -0.151999 2.451729 -7.113934 1.859033 -25.677315 3.661992 14.678599 29.521370 13.801238 -7.708045 -21.129473 0.000000 0.000000 0.000000 -18.969287 5.091473 -3.803133 -51.068485 -9.817025 -4.791059 151.545650 -69.590211 -129.812468 0.000000 0.000000 0.000000 23.929374 -7.372195 -5.691801 54.248221 17.677922 -0.251174 -146.747409 59.465388 -112.925813 0.000000 0.000000 0.000000 
-0.066081 0.894124 0.230104 -2.185544 -23.404767 -1.513936 6.975394 0.911747 -23.175839 6.358332 0.520287 47.461882 16.559308 24.560404 34.537040 0.000000 0.000000 0.000000 1.109518 -0.411624 4.924119 2.222923 1.262305 19.387431 -12.685874 -22.814352 -17.859369 0.000000 0.000000 0.000000 10.357479 -0.229904 3.021757 -6.465851 1.608599 -24.815787 3.196139 17.408095 29.163572 14.585674 -7.260610 -24.315956 0.000000 0.000000 0.000000 -18.994082 5.605986 -4.383519 -51.910378 -6.453731 -6.169713 169.950468 -80.332404 -159.696643 0.000000 0.000000 0.000000 25.218745 -7.442107 -5.594056 54.658221 17.331716 -0.442047 -141.404775 67.455357 -113.262204 0.000000 0.000000 0.000000 
-0.077381 0.895934 0.244624 -2.354645 -25.966739 -1.417350 6.702741 1.557131 -27.997022 6.661807 1.067509 49.604026 12.902302 20.866427 28.184478 0.000000 0.000000 0.000000 2.251383 -0.595739 6.551274 2.356287 1.225719 18.534002 -13.564412 -24.001225 -17.884402 0.000000 0.000000 0.000000 10.009325 -0.560801 6.001400 -5.602863 1.422804 -27.249758 4.339662 19.592754 31.353297 14.705743 -6.826650 -26.523532 0.000000 0.000000 0.000000 -20.166444 5.134997 -4.297511 -51.986626 -3.405435 -7.604674 -126.249047 -86.847330 131.230727 0.000000 0.000000 0.000000 24.519683 -7.234706 -5.202502 56.629286 18.449117 0.014129 -135.708529 75.243309 -113.325115 0.000000 0.000000 0.000000 
-0.091512 0.893917 0.265598 -2.322833 -28.208843 -0.983976 5.763021 2.264555 -33.537058 6.666528 1.132398 48.339764 5.987078 11.767096 9.737159 0.000000 0.000000 0.000000 3.129422 -0.789365 9.198015 1.285237 1.239618 16.454491 -14.024544 -23.589259 -18.622749 0.000000 0.000000 0.000000 9.683842 -0.703184 7.620274 -4.864699 1.235047 -27.680259 4.673300 21.903800 31.353114 15.107546 -6.361733 -28.901466 0.000000 0.000000 0.000000 -21.020932 6.202880 -5.285137 -50.457852 0.853561 -8.958826 -56.258522 -82.365725 56.312676 0.000000 0.000000 0.000000 24.443967 -5.972457 -4.160174 57.096251 19.448173 0.527505 -123.456075 80.793365 -104.721923 0.000000 0.000000 0.000000 
-0.108690 0.890692 0.293020 -1.771837 -31.802149 -0.560678 5.625540 3.427218 -37.042556 3.151518 2.205744 39.314804 7.177876 13.127794 7.973081 0.000000 0.000000 0.000000 2.622628 -0.673777 12.132209 -0.491134 1.133979 12.722678 -14.117262 -21.231600 -18.587585 0.000000 0.000000 0.000000 8.636235 -0.766998 9.118498 -3.878916 1.018008 -28.669760 5.158055 25.980599 32.526076 16.421002 -6.661473 -30.007748 0.000000 0.000000 0.000000 -20.794921 6.184594 -5.593744 -50.854046 5.549055 -10.941107 -39.116810 -77.299010 36.909097 0.000000 0.000000 0.000000 24.507404 -5.990638 -3.657877 58.941987 22.557283 2.123826 -95.093030 83.931541 -77.784819 0.000000 0.000000 0.000000 
-0.129261 0.885387 0.326944 -1.171702 -35.338513 0.658755 5.018255 4.413419 -39.665076 -0.561124 2.247737 27.112765 9.275600 14.775711 17.357188 0.000000 0.000000 0.000000 1.194559 -0.224526 14.281663 -1.503526 1.039195 10.604272 -13.968868 -17.954068 -19.565575 0.000000 0.000000 0.000000 7.510030 -0.704505 8.962857 -3.482346 0.941951 -28.877366 5.105069 29.323187 32.593084 16.309665 -5.932654 -32.195824 0.000000 0.000000 0.000000 -20.414329 7.920000 -6.755269 -51.019635 9.089043 -12.298024 -29.542153 -72.598486 26.364867 0.000000 0.000000 0.000000 23.667027 -4.795389 -2.638302 60.819567 25.171312 3.845819 -43.611533 83.767974 -28.591933 0.000000 0.000000 0.000000 
-0.153643 0.880603 0.367309 -0.901003 -37.914458 3.019086 3.730541 4.610015 -40.742989 -2.364175 1.893321 19.043372 6.839830 10.982823 17.482949 0.000000 0.000000 0.000000 0.542138 0.151319 16.080819 -2.872545 0.939858 8.317322 -13.841726 -15.849207 -19.549783 0.000000 0.000000 0.000000 6.242109 -0.642274 8.120650 -3.414858 1.061593 -30.952429 6.327423 32.464157 33.661513 16.796116 -5.948782 -32.457844 0.000000 0.000000 0.000000 -18.450828 8.513104 -6.970993 -52.378902 12.529118 -14.126230 -23.397651 -68.755592 19.977159 0.000000 0.000000 0.000000 23.955835 -5.157538 -2.473291 61.835148 28.039451 5.514451 -12.149806 81.090467 0.435772 0.000000 0.000000 0.000000 
-0.182707 0.875270 0.415704 -0.348751 -38.509880 3.911297 1.724736 3.707161 -40.242358 -2.135152 1.837762 18.725810 3.977673 6.930619 16.493379 0.000000 0.000000 0.000000 -0.469748 0.722634 18.927964 -2.825455 0.881548 7.935311 -13.648670 -15.528644 -18.887322 0.000000 0.000000 0.000000 4.647786 -0.540494 7.425707 -2.615187 1.013262 -31.478985 5.688542 33.951254 33.010275 15.942710 -5.196474 -32.762839 0.000000 0.000000 0.000000 -19.125048 9.245535 -7.820839 -51.705402 13.760787 -14.275501 -14.741482 -62.712136 12.115988 0.000000 0.000000 0.000000 22.993263 -4.505798 -1.775119 63.748807 28.892233 6.565351 -1.816505 78.550483 9.336641 0.000000 0.000000 0.000000 
-0.217084 0.876599 0.471963 0.081028 -38.068598 4.390603 -0.064727 2.703741 -39.840447 -0.818530 2.084587 23.644533 2.268949 4.645764 15.711641 0.000000 0.000000 0.000000 -0.788715 1.108422 21.737124 -2.907770 1.141469 9.839688 -10.884038 -12.168998 -13.887755 0.000000 0.000000 0.000000 3.206878 -0.417738 6.191348 -5.516588 1.319519 -29.393984 6.461016 33.078056 29.877652 15.827064 -5.398189 -30.903943 0.000000 0.000000 0.000000 -17.889174 9.744631 -7.828753 -53.509887 15.458757 -15.222010 -8.714344 -56.461151 7.279778 0.000000 0.000000 0.000000 21.989980 -4.851533 -2.151054 65.510173 25.905030 5.645526 5.863436 74.930440 14.083080 0.000000 0.000000 0.000000 
-0.253332 0.882380 0.533665 -0.307104 -37.886577 5.789038 -0.490773 2.364483 -39.065169 0.274333 2.564408 28.738488 1.313647 3.130006 12.307458 0.000000 0.000000 0.000000 -1.859377 1.190322 20.031992 -2.515304 2.269007 17.174492 -5.027612 -5.848633 -4.923056 0.000000 0.000000 0.000000 1.356114 -0.230132 3.904468 -4.297920 1.221880 -30.416608 7.149096 32.422044 32.906421 14.866842 -4.522836 -33.502048 0.000000 0.000000 0.000000 -18.435725 11.058340 -8.565469 -53.750825 14.223318 -14.902224 -7.435654 -52.044777 6.323827 0.000000 0.000000 0.000000 20.615999 -4.661222 -2.149319 66.324880 21.504925 2.891762 14.820429 72.055840 19.718542 0.000000 0.000000 0.000000 
-0.287158 0.891220 0.593817 -0.255666 -36.689688 6.548369 -2.143347 0.928922 -35.800729 2.393060 1.897562 29.881266 1.582088 3.275939 7.765276 0.000000 0.000000 0.000000 -2.138810 0.658142 15.198419 -1.120757 4.264724 27.713947 0.450683 -5.345309 8.698938 0.000000 0.000000 0.000000 0.562431 -0.147434 3.051625 -4.628335 1.188046 -28.896142 4.873985 30.925943 30.515213 14.722149 -4.634713 -32.618912 0.000000 0.000000 0.000000 -16.885248 11.176571 -8.130127 -55.631328 13.772864 -15.154265 -7.586367 -46.793135 5.724333 0.000000 0.000000 0.000000 20.469901 -5.098808 -2.637177 68.158063 16.336987 0.208862 17.689418 68.020661 19.707447 0.000000 0.000000 0.000000 
-0.318645 0.902433 0.649127 -0.298476 -35.122069 6.559633 -2.366119 -0.267059 -28.668210 1.792463 1.487363 25.266331 2.105531 4.116627 3.630665 0.000000 0.000000 0.000000 -1.706961 0.106992 7.680296 3.124397 5.969974 39.747810 -0.985561 -10.559673 14.925060 0.000000 0.000000 0.000000 0.137148 -0.130575 3.379306 -4.698847 1.191777 -28.454605 2.779664 27.914101 30.521103 16.102222 -5.519625 -33.590767 0.000000 0.000000 0.000000 -16.260805 9.257151 -6.484146 -57.938129 11.696137 -15.051311 -5.115673 -45.074717 4.906673 0.000000 0.000000 0.000000 20.566201 -5.170206 -3.139397 69.767230 12.502470 -2.253320 16.669491 65.370450 17.536150 0.000000 0.000000 0.000000 
-0.350088 0.918725 0.700204 -0.951129 -34.508690 6.782879 -3.546330 -1.057863 -22.294920 4.236636 0.173398 21.497372 2.407405 4.712493 4.527077 0.000000 0.000000 0.000000 0.073759 0.104566 -1.359094 8.860621 5.422830 46.811859 -7.540650 -19.035911 9.959410 0.000000 0.000000 0.000000 -0.004748 -0.145402 4.220073 -4.089195 0.983092 -27.784159 1.050368 23.710932 29.459407 14.212547 -5.566169 -31.020274 0.000000 0.000000 0.000000 -15.438979 9.618077 -5.790299 -59.556446 11.664573 -15.347391 -6.915683 -43.648643 6.044666 0.000000 0.000000 0.000000 20.800680 -4.862628 -3.941437 71.087369 8.806929 -4.720817 20.699814 63.816321 18.423534 0.000000 0.000000 0.000000 
-0.382287 0.936840 0.749488 -2.492546 -36.155321 7.184200 -3.384598 -1.070021 -18.195880 5.356715 0.144640 22.683779 3.787128 6.977624 8.448026 0.000000 0.000000 0.000000 2.394316 0.658112 -7.728271 9.442223 5.168097 45.058847 -8.293358 -15.765365 -4.934670 0.000000 0.000000 0.000000 1.157277 -0.258537 5.095294 -4.545097 1.009181 -27.212224 1.594229 20.609362 29.015231 11.884936 -4.987144 -30.700454 0.000000 0.000000 0.000000 -15.813435 9.548534 -4.986012 -61.078888 11.502951 -15.351680 -6.556401 -42.514823 6.308745 0.000000 0.000000 0.000000 20.987038 -3.520990 -4.391538 70.679671 5.874006 -6.652919 23.699245 65.669393 19.545659 0.000000 0.000000 0.000000 
-0.414102 0.949711 0.799290 -5.014657 -39.026289 7.517892 -1.066709 -0.501228 -18.191426 5.287483 2.108082 31.896756 3.591005 6.402275 15.116510 0.000000 0.000000 0.000000 6.124713 0.890390 -9.037470 5.738003 4.121960 33.340441 -6.200621 -5.305145 -9.925364 0.000000 0.000000 0.000000 2.730739 -0.421276 6.690595 -2.817386 0.613776 -27.997019 1.916173 22.759570 28.590547 10.900970 -4.475306 -30.353984 0.000000 0.000000 0.000000 -15.420156 9.355108 -4.811104 -59.949271 11.153169 -14.975695 -9.200681 -40.981130 6.999018 0.000000 0.000000 0.000000 21.107099 -3.883321 -4.587109 70.228355 5.103687 -7.092677 24.002004 66.395342 20.051230 0.000000 0.000000 0.000000 
-0.445994 0.949673 0.851852 -4.989584 -41.588769 6.845636 -0.391620 0.337100 -24.137612 8.538409 4.618263 47.321133 0.032808 2.850578 22.902528 0.000000 0.000000 0.000000 8.506202 0.312960 -5.596663 2.357584 1.880465 18.430960 -2.636734 -0.543385 -4.488429 0.000000 0.000000 0.000000 3.647938 -0.509455 8.747736 -3.060706 0.829631 -29.841326 3.348895 24.203744 30.281176 10.832186 -4.202074 -32.864254 0.000000 0.000000 0.000000 -18.118461 10.209595 -5.402199 -56.214570 11.650230 -14.502942 -12.060986 -41.584949 8.246921 0.000000 0.000000 0.000000 21.031652 -2.367367 -3.844309 68.496270 9.043048 -4.723770 16.500465 68.986731 15.741382 0.000000 0.000000 0.000000 
-0.478258 0.933968 0.906612 -4.425993 -45.221696 5.550640 0.250422 1.769312 -29.465015 11.093966 5.492225 54.033218 -0.431645 2.869161 23.953090 0.000000 0.000000 0.000000 8.489128 -0.340506 -1.283897 0.182572 1.429707 13.583660 0.070396 1.047113 -0.179456 0.000000 0.000000 0.000000 4.449847 -0.532943 11.209598 -2.844138 1.181416 -32.989060 6.166678 29.260860 33.256011 10.774984 -3.721198 -33.786061 0.000000 0.000000 0.000000 -19.755773 8.809216 -5.206219 -54.164344 11.947706 -14.521600 -12.654888 -41.284669 8.105138 0.000000 0.000000 0.000000 22.908002 -2.515257 -3.394295 64.736607 12.977429 -2.633084 10.862992 74.873016 14.531473 0.000000 0.000000 0.000000 
-0.514372 0.912020 0.962624 -2.847702 -49.266480 4.032410 -0.227434 2.993339 -33.188181 10.042385 5.006741 47.999457 3.355135 6.012700 9.469147 0.000000 0.000000 0.000000 7.768791 -0.689625 2.880545 -2.547901 2.219708 15.363602 -3.469882 0.242221 -5.668165 0.000000 0.000000 0.000000 4.545333 -0.463009 12.287547 -2.896541 0.976171 -32.382530 5.601568 33.414221 31.806770 11.981072 -4.223724 -33.175291 0.000000 0.000000 0.000000 -19.946885 10.383674 -6.494782 -53.112444 13.741695 -14.872603 -10.483178 -42.090091 7.211704 0.000000 0.000000 0.000000 24.995864 -1.720321 -2.799651 61.929167 18.314011 0.302008 10.229017 74.571198 14.278255 0.000000 0.000000 0.000000 
-0.558327 0.897869 1.021533 -0.505447 -51.450356 2.435522 -0.612330 3.406385 -34.073056 7.721830 4.325374 40.336543 2.774995 5.934236 -4.677648 0.000000 0.000000 0.000000 4.936814 -0.494391 7.419291 -1.724434 2.079478 15.341500 -6.213730 -4.483265 -6.124736 0.000000 0.000000 0.000000 3.579469 -0.372547 11.028312 -4.150532 1.013799 -31.117614 6.523475 33.608126 31.041909 10.760034 -4.032080 -31.181192 0.000000 0.000000 0.000000 -20.454815 9.001521 -5.396952 -53.516636 15.506063 -15.574344 -6.578099 -41.223416 5.654940 0.000000 0.000000 0.000000 24.116452 -2.319557 -3.590022 63.951760 17.775400 0.374547 17.258330 73.106786 18.489287 0.000000 0.000000 0.000000 
-0.610601 0.895931 1.085245 0.241560 -52.994883 1.694346 -0.253493 3.056676 -31.544427 5.667791 5.491751 38.697451 2.852525 5.622390 -0.475360 0.000000 0.000000 0.000000 3.359958 -0.110922 9.702631 -0.818536 2.886984 19.544411 -4.409671 -6.993928 0.368908 0.000000 0.000000 0.000000 2.917529 -0.368276 8.111016 -3.841796 0.550874 -27.991901 4.048652 32.483314 28.875077 12.217484 -5.388888 -30.180178 0.000000 0.000000 0.000000 -18.139250 10.100629 -5.256259 -56.532476 13.775802 -15.476080 -3.538229 -39.548362 4.687935 0.000000 0.000000 0.000000 26.244180 -1.926724 -4.612868 64.354187 13.116671 -1.968272 29.825287 68.019593 24.377097 0.000000 0.000000 0.000000 
-0.666160 0.905180 1.149717 1.169246 -52.726712 0.587559 0.011666 2.605280 -29.651811 6.512519 7.034536 43.789092 2.162804 4.132262 1.936447 0.000000 0.000000 0.000000 1.654544 -0.042530 5.434111 3.617824 5.634201 32.585249 -1.114060 -9.629355 10.783294 0.000000 0.000000 0.000000 2.305827 -0.332414 6.566909 -3.625042 0.436685 -27.679107 2.367272 27.315322 29.227050 10.198905 -5.038525 -30.714715 0.000000 0.000000 0.000000 -19.983407 12.693024 -5.751983 -55.306067 11.236919 -14.158017 -4.004205 -39.281352 5.583010 0.000000 0.000000 0.000000 25.449506 -3.683792 -7.419465 65.099980 3.789339 -7.066461 36.781520 57.591431 22.017881 0.000000 0.000000 0.000000 
-0.718931 0.917160 1.210034 0.573161 -51.979457 -0.000721 0.947522 1.652965 -24.405420 6.440729 7.722439 44.525594 2.822695 5.319567 3.719996 0.000000 0.000000 0.000000 2.267361 -0.032351 -1.149088 8.215510 7.402558 42.099336 -4.950125 -12.905888 5.665481 0.000000 0.000000 0.000000 3.590463 -0.399869 6.901963 -3.281597 0.250905 -25.934523 -1.238810 22.237083 26.910356 10.055884 -5.858132 -28.946673 0.000000 0.000000 0.000000 -19.432516 11.544699 -4.078099 -55.274604 8.012207 -12.662483 -8.145997 -39.299024 7.419221 0.000000 0.000000 0.000000 22.663808 -4.955744 -8.821248 65.260048 -7.230938 -13.188806 39.012040 49.749144 18.220094 0.000000 0.000000 0.000000 
-0.767779 0.927155 1.266467 0.246558 -53.830401 -1.188304 1.879547 1.452233 -20.878126 7.473328 8.358334 45.523643 2.584533 4.838581 5.253911 0.000000 0.000000 0.000000 3.227242 0.311324 -5.615533 8.899049 7.696949 42.460323 -11.109175 -11.917735 -13.813016 0.000000 0.000000 0.000000 4.209179 -0.413508 7.604093 -1.089414 -0.248072 -25.173294 -3.762893 18.720553 26.687802 8.388623 -5.937760 -27.694326 0.000000 0.000000 0.000000 -18.551788 12.351664 -3.478945 -57.039471 5.010992 -11.528844 -8.435998 -45.525929 10.147058 0.000000 0.000000 0.000000 20.507312 -4.550685 -9.418471 64.031794 -13.922685 -16.665544 35.630078 43.308137 13.003839 0.000000 0.000000 0.000000 
-0.816098 0.931951 1.321625 -0.182127 -55.242907 -1.646167 2.718726 1.822255 -20.766383 9.285750 8.734875 48.107498 3.480952 6.499680 5.211439 0.000000 0.000000 0.000000 4.259105 0.568407 -7.622975 5.903846 5.724087 33.156395 -11.207750 -9.267863 -14.259649 0.000000 0.000000 0.000000 5.721674 -0.454234 7.765084 -1.544697 -0.240503 -25.195650 -3.469276 15.818331 27.696097 7.269566 -6.020528 -27.459295 0.000000 0.000000 0.000000 -19.334939 12.752115 -2.793957 -56.624663 3.955349 -11.030715 -9.399195 -55.410840 14.666989 0.000000 0.000000 0.000000 18.679583 -5.441712 -10.345540 63.365492 -19.622221 -19.864756 33.132889 41.133742 10.635394 0.000000 0.000000 0.000000 
-0.864076 0.929178 1.375389 -1.033602 -55.221005 -1.693581 3.618710 2.345246 -21.574448 9.555984 8.088655 47.200397 4.243014 7.826663 4.975408 0.000000 0.000000 0.000000 4.648712 0.357514 -6.132119 3.307516 4.271843 26.439980 -7.806112 -9.186330 -5.328134 0.000000 0.000000 0.000000 5.928785 -0.471880 8.093456 -1.095607 -0.185573 -26.714348 -0.987011 18.488205 28.610362 8.694855 -6.565885 -26.286271 0.000000 0.000000 0.000000 -21.001140 9.842426 -1.156086 -55.335247 2.130509 -10.792246 -11.406525 -57.412587 15.873569 0.000000 0.000000 0.000000 19.494541 -8.343136 -11.375471 61.669840 -22.781873 -20.947743 32.325499 41.270378 10.991091 0.000000 0.000000 0.000000 
-0.911562 0.923720 1.426223 -0.590229 -55.899682 -2.518393 3.425186 2.897014 -24.029179 6.214067 7.102866 40.250211 5.515361 9.972981 4.337993 0.000000 0.000000 0.000000 4.514684 -0.113553 -1.678384 0.528691 4.174470 24.145633 -7.076717 -9.856334 -2.184469 0.000000 0.000000 0.000000 6.241957 -0.474259 8.467286 -2.419749 0.070062 -27.070924 1.058640 20.606130 28.670317 8.429257 -6.312784 -25.098769 0.000000 0.000000 0.000000 -21.852955 10.464251 -1.908247 -54.349321 2.890701 -11.039773 -12.846479 -56.383451 15.840324 0.000000 0.000000 0.000000 21.392817 -7.396930 -11.257632 62.857232 -20.906305 -20.082520 24.139144 41.709054 8.486259 0.000000 0.000000 0.000000 
-0.959155 0.923205 1.474354 -0.881780 -55.895278 -1.512617 3.155501 3.131753 -25.400758 0.862021 3.298853 22.339128 6.808764 9.998819 10.864929 0.000000 0.000000 0.000000 3.361950 -0.201946 1.414158 1.062531 3.567606 22.608646 -5.879677 -11.838787 3.424617 0.000000 0.000000 0.000000 6.622578 -0.449389 6.858636 -2.671987 0.097245 -26.940115 2.841752 24.610358 29.430498 9.626619 -6.550898 -24.201996 0.000000 0.000000 0.000000 -20.504636 9.703496 -2.504884 -53.698703 6.631173 -12.236742 -15.977784 -52.618805 15.094051 0.000000 0.000000 0.000000 22.526976 -7.585912 -10.556715 63.347982 -16.198238 -17.707515 23.086085 42.768454 9.058468 0.000000 0.000000 0.000000 
-1.007590 0.920817 1.522220 -1.396973 -55.747900 -0.064939 2.635804 2.729227 -24.650993 -0.224276 0.253916 1.933499 6.143321 6.447198 24.915489 0.000000 0.000000 0.000000 2.878394 -0.171546 4.884595 1.117500 3.267920 21.817440 -5.673253 -11.999140 4.526989 0.000000 0.000000 0.000000 5.756356 -0.429133 5.834674 -2.559761 0.226214 -28.127646 5.386067 28.540035 31.168543 10.316897 -6.454064 -23.565399 0.000000 0.000000 0.000000 -19.465590 10.925230 -4.225705 -53.982117 9.476170 -13.331017 -16.718268 -44.509554 12.045454 0.000000 0.000000 0.000000 22.127200 -7.794189 -9.172228 64.239915 -9.495875 -14.706440 23.869142 42.426169 10.088769 0.000000 0.000000 0.000000 
-1.059111 0.912482 1.571471 -1.994089 -54.975601 0.545238 2.592327 2.791923 -25.326237 -1.547985 0.403510 -1.753406 3.373542 3.524555 30.747030 0.000000 0.000000 0.000000 2.336445 -0.002772 7.703909 2.441580 3.292599 23.248338 -5.643995 -12.870262 6.223503 0.000000 0.000000 0.000000 5.453241 -0.370598 4.634415 -3.002355 0.172874 -26.127341 5.665865 31.401549 30.166688 10.383299 -5.614757 -25.285694 0.000000 0.000000 0.000000 -18.886356 11.495529 -5.433949 -54.156649 12.894941 -14.497096 -8.683590 -41.688241 7.360421 0.000000 0.000000 0.000000 22.223241 -6.492208 -7.402288 65.108409 -4.134941 -11.882265 23.376809 45.351559 11.390209 0.000000 0.000000 0.000000 
-1.113174 0.898851 1.623487 -3.026036 -54.487518 1.591302 2.644998 3.377571 -27.614968 -1.749043 0.905697 5.906161 2.682354 2.830733 26.915122 0.000000 0.000000 0.000000 1.440978 0.180612 8.498382 3.659102 4.879782 30.044188 -2.274377 -8.170049 6.088641 0.000000 0.000000 0.000000 3.482656 -0.311830 3.786311 -2.183343 0.222189 -27.629963 8.523626 33.072873 32.679150 10.041179 -5.015294 -25.860327 0.000000 0.000000 0.000000 -18.889720 13.723680 -7.253507 -53.096566 16.166236 -15.503680 -3.963259 -37.730806 4.754292 0.000000 0.000000 0.000000 20.793983 -6.044343 -6.144473 66.037433 1.221535 -9.349165 23.794761 47.361218 12.717088 0.000000 0.000000 0.000000 
-1.165434 0.884240 1.675347 -3.872787 -52.115059 1.610268 1.774422 3.616300 -30.781243 -0.254354 2.435128 19.181449 1.345792 1.701573 16.419371 0.000000 0.000000 0.000000 0.449161 0.171360 6.849006 9.611402 6.361546 41.265887 -1.838857 -9.735927 9.561439 0.000000 0.000000 0.000000 1.341944 -0.269869 5.149851 -1.735446 0.399841 -29.158755 8.726620 32.650872 32.540951 10.460872 -4.953766 -26.213350 0.000000 0.000000 0.000000 -18.682239 14.287801 -7.968401 -52.530908 17.590232 -15.771615 -0.236178 -34.188656 2.879584 0.000000 0.000000 0.000000 20.534883 -5.553635 -5.403045 64.097478 2.227141 -8.456435 28.180559 50.743930 16.183911 0.000000 0.000000 0.000000 
-1.210101 0.877832 1.720518 -4.123376 -49.911710 1.891268 0.569265 3.339349 -32.779417 2.457457 3.585439 29.612679 -0.396322 -0.415639 8.100865 0.000000 0.000000 0.000000 -0.025303 0.088545 3.738872 13.832240 7.120439 49.928476 -6.294508 -15.581949 7.638421 0.000000 0.000000 0.000000 -0.304303 -0.158884 5.091711 -2.136451 0.425243 -28.861740 7.845680 31.813769 30.242482 10.871233 -4.916215 -26.434806 0.000000 0.000000 0.000000 -19.302723 13.080287 -7.695446 -51.215684 17.195044 -15.094269 3.042098 -35.360509 1.770114 0.000000 0.000000 0.000000 23.144701 -4.097127 -4.782835 61.543436 3.232757 -7.291567 23.309639 54.495954 15.056898 0.000000 0.000000 0.000000 
-1.246019 0.879835 1.756308 -4.539979 -49.374937 1.820358 0.362761 2.758969 -31.093362 4.204016 3.987222 33.668113 -0.749638 -1.013863 3.906312 0.000000 0.000000 0.000000 -0.169827 0.143307 -0.245235 16.929064 6.946229 53.920594 -10.004573 -20.424629 2.901345 0.000000 0.000000 0.000000 -0.404009 -0.127847 7.667905 -3.451192 1.067566 -32.091964 8.263658 30.753798 31.641839 10.265172 -5.019016 -24.685500 0.000000 0.000000 0.000000 -21.224916 12.732743 -7.523468 -49.482245 13.116703 -13.421414 1.807704 -40.418013 2.776403 0.000000 0.000000 0.000000 25.423758 -3.371095 -4.897968 58.388088 3.996024 -6.649918 26.274789 56.472372 17.257559 0.000000 0.000000 0.000000 
