HIERARCHY
ROOT Hips
{
	OFFSET -0.001795 -0.223333 0.028219
	CHANNELS 6 Xposition Yposition Zposition Zrotation Yrotation Xrotation
	JOINT LeftUpLeg
	{
		OFFSET 0.069520 -0.091406 -0.006815
		CHANNELS 3 Zrotation Yrotation Xrotation
		JOINT LeftLeg
		{
			OFFSET 0.034277 -0.375199 -0.004496
			CHANNELS 3 Zrotation Yrotation Xrotation
			JOINT LeftFoot
			{
				OFFSET -0.013596 -0.397961 -0.043693
				CHANNELS 3 Zrotation Yrotation Xrotation
				JOINT LeftToe
				{
					OFFSET 0.026358 -0.055791 0.119288
					CHANNELS 3 Zrotation Yrotation Xrotation
					End Site
					{
						OFFSET 0.000000 0.000000 0.000000
					}
				}
			}
		}
	}
	JOINT RightUpLeg
	{
		OFFSET -0.067670 -0.090522 -0.004320
		CHANNELS 3 Zrotation Yrotation Xrotation
		JOINT RightLeg
		{
			OFFSET -0.038290 -0.382569 -0.008850
			CHANNELS 3 Zrotation Yrotation Xrotation
			JOINT RightFoot
			{
				OFFSET 0.015774 -0.398415 -0.042312
				CHANNELS 3 Zrotation Yrotation Xrotation
				JOINT RightToe
				{
					OFFSET -0.025372 -0.048144 0.123348
					CHANNELS 3 Zrotation Yrotation Xrotation
					End Site
					{
						OFFSET 0.000000 0.000000 0.000000
					}
				}
			}
		}
	}
	JOINT Spine
	{
		OFFSET -0.002533 0.108963 -0.026696
		CHANNELS 3 Zrotation Yrotation Xrotation
		JOINT Spine1
		{
			OFFSET 0.005487 0.135180 0.001092
			CHANNELS 3 Zrotation Yrotation Xrotation
			JOINT Spine2
			{
				OFFSET 0.001457 0.052922 0.025425
				CHANNELS 3 Zrotation Yrotation Xrotation
				JOINT Neck
				{
					OFFSET -0.002778 0.213870 -0.042857
					CHANNELS 3 Zrotation Yrotation Xrotation
					JOINT Head
					{
						OFFSET 0.005152 0.064970 0.051349
						CHANNELS 3 Zrotation Yrotation Xrotation
						End Site
						{
							OFFSET 0.000000 0.000000 0.000000
						}
					}
				}
				JOINT LeftShoulder
				{
					OFFSET 0.078845 0.121749 -0.034090
					CHANNELS 3 Zrotation Yrotation Xrotation
					JOINT LeftArm
					{
						OFFSET 0.090977 0.030469 -0.008868
						CHANNELS 3 Zrotation Yrotation Xrotation
						JOINT LeftForeArm
						{
							OFFSET 0.259612 -0.012772 -0.027456
							CHANNELS 3 Zrotation Yrotation Xrotation
							JOINT LeftHand
							{
								OFFSET 0.249234 0.008986 -0.001171
								CHANNELS 3 Zrotation Yrotation Xrotation
								End Site
								{
									OFFSET 0.000000 0.000000 0.000000
								}
							}
						}
					}
				}
				JOINT RightShoulder
				{
					OFFSET -0.081759 0.118833 -0.038615
					CHANNELS 3 Zrotation Yrotation Xrotation
					JOINT RightArm
					{
						OFFSET -0.096012 0.032551 -0.009143
						CHANNELS 3 Zrotation Yrotation Xrotation
						JOINT RightForeArm
						{
							OFFSET -0.253742 -0.013329 -0.021401
							CHANNELS 3 Zrotation Yrotation Xrotation
							JOINT RightHand
							{
								OFFSET -0.255298 0.007772 -0.005559
								CHANNELS 3 Zrotation Yrotation Xrotation
								End Site
								{
									OFFSET 0.000000 0.000000 0.000000
								}
							}
						}
					}
				}
			}
		}
	}
}
MOTION
Frames: 76
Frame Time: 0.050000
0.000000 0.932405 0.000000 -1.745339 13.692358 -4.047304 2.559779 0.380038 12.940045 -3.131372 0.256921 -5.594226 4.037866 9.734161 4.579587 0.000000 0.000000 0.000000 -3.044167 -0.554213 5.472811 1.643644 -0.174557 6.370991 -4.475205 -11.879902 6.682050 0.000000 0.000000 0.000000 -4.844538 -0.123919 9.436113 9.170244 -2.063094 -17.521841 -4.408400 -2.000807 22.580462 2.057367 1.595139 -27.917470 0.000000 0.000000 0.000000 -55.165965 -0.455931 -10.884759 -26.170842 0.897200 -3.050943 4.166566 -19.331811 0.055846 0.000000 0.000000 0.000000 49.643188 5.557200 5.687537 27.335919 10.070160 -2.977275 -7.502925 19.798618 -0.376231 0.000000 0.000000 0.000000
0.008306 0.932306 -0.002585 -0.978228 12.713189 -3.818508 0.999822 0.662524 13.366105 -3.098122 0.261786 -6.364445 4.313543 10.351050 5.015670 0.000000 0.000000 0.000000 -4.120046 -0.339665 3.505048 0.863304 -0.000265 9.425287 -4.228327 -11.344487 6.619366 0.000000 0.000000 0.000000 -5.856901 -0.036992 8.219338 9.548775 -2.159250 -18.022579 -5.916111 -1.175859 25.153117 4.020900 0.759602 -30.351633 0.000000 0.000000 0.000000 -55.005040 1.499231 -12.926726 -26.541033 0.313941 -3.070352 4.412177 -20.161064 0.027934 0.000000 0.000000 0.000000 51.693399 4.240702 4.898211 27.610539 12.685817 -2.820959 -8.313002 20.008975 -0.446071 0.000000 0.000000 0.000000
0.015557 0.930548 -0.005561 -0.807780 13.064218 -3.283005 0.586922 0.679682 12.489168 -3.553324 0.271488 -5.948613 4.328757 10.073117 4.136674 0.000000 0.000000 0.000000 -3.701009 -0.070927 0.129268 -0.481084 0.297276 14.546454 -5.091656 -13.161713 6.649232 0.000000 0.000000 0.000000 -5.962724 -0.021013 7.599312 9.035701 -2.051869 -17.256519 -6.046919 -2.608427 26.388992 2.742339 0.948944 -27.278120 0.000000 0.000000 0.000000 -54.321959 0.546647 -10.773631 -27.801368 -0.926590 -3.250628 6.522794 -19.364029 -0.294095 0.000000 0.000000 0.000000 51.678236 5.782858 5.565938 27.482165 12.349013 -2.729101 -7.925734 19.011653 -0.387231 0.000000 0.000000 0.000000
0.021732 0.929970 -0.008549 -0.281442 13.928130 -4.351163 -0.614657 0.880102 13.897844 -2.904440 0.246816 -6.399098 3.941759 9.332415 3.963862 0.000000 0.000000 0.000000 -4.020287 0.113930 -2.996449 -0.646717 0.188649 21.897034 -6.795471 -16.520917 9.732677 0.000000 0.000000 0.000000 -6.861654 -0.008974 9.197420 10.025334 -2.314447 -17.885070 -6.832327 -3.235925 27.708932 2.963646 0.923207 -29.180028 0.000000 0.000000 0.000000 -56.269954 0.951144 -11.567460 -26.240142 -1.200638 -3.062316 5.435031 -20.532834 -0.109850 0.000000 0.000000 0.000000 53.815126 6.095913 5.851626 25.350637 12.103206 -2.692936 -8.699423 19.504040 -0.540648 0.000000 0.000000 0.000000
0.026066 0.930530 -0.010982 -0.723089 15.520966 -5.560636 0.162050 0.717452 14.584931 -3.561252 0.249759 -5.781490 3.283018 8.012518 3.539073 0.000000 0.000000 0.000000 -3.214761 0.324523 -6.019835 -0.566314 -0.280172 28.661327 -8.977281 -20.129762 13.621859 0.000000 0.000000 0.000000 -7.244887 -0.048055 11.551676 11.104959 -2.701168 -17.690518 -7.293211 -3.569854 27.476353 3.480686 0.710608 -29.133634 0.000000 0.000000 0.000000 -56.563874 -0.625777 -10.422796 -24.827515 -0.856953 -2.859744 5.276827 -20.754306 -0.098745 0.000000 0.000000 0.000000 54.431335 6.228501 6.340013 24.355022 11.930804 -2.688048 -7.661543 19.333133 -0.416826 0.000000 0.000000 0.000000
0.029111 0.931064 -0.011118 -0.949536 16.946714 -6.875169 0.575923 0.605333 15.735033 -3.802768 0.244506 -5.461469 2.653060 6.841404 3.382035 0.000000 0.000000 0.000000 -2.627339 0.556879 -9.776413 0.270904 -1.333061 34.958101 -12.425475 -24.872141 19.213060 0.000000 0.000000 0.000000 -8.205630 -0.055195 13.458461 11.700330 -2.808946 -18.393211 -7.318892 -5.019282 28.735666 3.895693 0.402126 -30.067150 0.000000 0.000000 0.000000 -57.276155 -0.439807 -10.197141 -24.359537 -1.928898 -2.764658 4.698651 -20.766266 0.014679 0.000000 0.000000 0.000000 54.406278 7.261148 6.980795 24.425872 10.935606 -2.793994 -7.087223 20.098197 -0.362878 0.000000 0.000000 0.000000
0.031016 0.932606 -0.007681 -1.476826 17.546915 -7.784911 1.156333 0.472088 16.695866 -3.756570 0.238126 -5.342237 2.306519 6.381874 3.687778 0.000000 0.000000 0.000000 -1.733488 0.808583 -13.009816 1.204008 -2.233161 38.010351 -14.549330 -27.845401 20.104026 0.000000 0.000000 0.000000 -8.444992 -0.095095 14.768966 12.093625 -2.885971 -18.943116 -7.316180 -5.690826 29.403990 2.923584 0.863199 -30.064496 0.000000 0.000000 0.000000 -57.052636 -0.440812 -9.798323 -23.713619 -2.056839 -2.753427 2.654406 -22.311276 0.401875 0.000000 0.000000 0.000000 53.865438 7.999918 7.493498 24.594389 10.348452 -2.862780 -6.190989 19.918096 -0.233371 0.000000 0.000000 0.000000
0.032361 0.932754 -0.000636 -2.050239 18.818873 -8.819511 1.923958 0.237012 17.851907 -3.604616 0.224911 -5.084514 1.825647 5.435068 3.456268 0.000000 0.000000 0.000000 -1.346436 0.944618 -16.037585 1.986724 -3.192758 40.178094 -12.477421 -26.064297 12.895504 0.000000 0.000000 0.000000 -8.493334 -0.190665 16.589311 12.531593 -2.959150 -19.479669 -7.192641 -6.386979 30.108791 3.386753 0.413149 -28.421452 0.000000 0.000000 0.000000 -57.544465 -1.196727 -9.093619 -22.783315 -2.430923 -2.617840 1.300882 -23.797227 0.700291 0.000000 0.000000 0.000000 54.235225 8.410221 7.966930 24.178656 9.907099 -2.926883 -6.159081 20.537162 -0.251699 0.000000 0.000000 0.000000
0.033583 0.933316 0.009057 -2.692419 20.056123 -9.595869 2.856553 -0.073954 19.090181 -3.519068 0.207823 -5.311563 1.251308 4.518938 3.597729 0.000000 0.000000 0.000000 -1.219777 0.982903 -18.634301 2.817708 -3.982894 40.715040 -11.413364 -25.316553 7.449315 0.000000 0.000000 0.000000 -8.130847 -0.341201 18.222077 12.956954 -3.059125 -19.726558 -7.385252 -6.215810 29.819305 3.342555 0.491335 -27.522218 0.000000 0.000000 0.000000 -57.543424 -1.827923 -9.100550 -22.312149 -2.796405 -2.395914 0.168774 -24.926133 0.966810 0.000000 0.000000 0.000000 54.659875 8.154546 8.432753 23.930234 10.392698 -2.979541 -6.032062 19.448790 -0.219934 0.000000 0.000000 0.000000
0.035144 0.932359 0.020474 -3.351189 21.847044 -10.230549 4.070803 -0.518044 19.759064 -3.737941 0.198455 -4.797084 0.644742 3.171069 3.056985 0.000000 0.000000 0.000000 -1.853640 0.758719 -21.502742 4.395630 -5.142677 40.250331 -10.807801 -24.242362 5.971568 0.000000 0.000000 0.000000 -8.095493 -0.510932 19.930800 13.794201 -3.305064 -19.867423 -7.329464 -7.047723 29.287154 3.169912 0.522186 -26.665739 0.000000 0.000000 0.000000 -58.272008 -1.680388 -9.597133 -21.052387 -3.664468 -2.096251 -1.043235 -27.052094 1.332354 0.000000 0.000000 0.000000 55.301709 8.690245 9.175196 23.149060 10.383240 -2.915431 -6.771523 19.447155 -0.347482 0.000000 0.000000 0.000000
0.037067 0.931069 0.033803 -3.694875 22.322703 -10.481479 4.533484 -0.702448 20.257822 -3.446034 0.200653 -4.022110 0.636268 2.892857 2.616784 0.000000 0.000000 0.000000 -2.231630 0.584931 -23.895613 5.475817 -5.385134 38.295919 -10.783249 -24.033846 5.844240 0.000000 0.000000 0.000000 -7.338122 -0.714380 21.321039 13.450777 -3.120683 -20.175858 -7.146585 -7.046335 29.350676 3.461614 0.337853 -26.255854 0.000000 0.000000 0.000000 -58.934676 -2.449374 -9.131765 -20.098061 -5.049047 -1.794451 -1.300635 -28.078622 1.449849 0.000000 0.000000 0.000000 55.856055 9.114303 9.942153 22.361262 10.908224 -2.850210 -6.768211 19.055053 -0.350601 0.000000 0.000000 0.000000
0.039267 0.928046 0.049296 -3.618285 22.894752 -10.034553 4.196347 -0.710748 20.755785 -2.379744 0.171725 -4.035760 0.745278 2.659473 1.934167 0.000000 0.000000 0.000000 -2.952031 0.268103 -25.925382 7.451808 -5.664176 34.377439 -11.549920 -25.189569 6.552033 0.000000 0.000000 0.000000 -6.662134 -0.981043 23.289587 13.885637 -3.224353 -20.329197 -6.777141 -7.162794 29.021322 3.587559 0.282641 -26.379139 0.000000 0.000000 0.000000 -59.971648 -3.823341 -7.926376 -19.118934 -6.661757 -1.487258 -1.202224 -29.603890 1.513935 0.000000 0.000000 0.000000 54.745250 10.007556 10.849177 22.291761 12.650976 -2.631652 -7.240668 18.502964 -0.406453 0.000000 0.000000 0.000000
0.041858 0.923521 0.067360 -3.356676 23.583134 -8.975346 3.472872 -0.643113 21.393969 -0.817136 0.132381 -5.049783 0.898198 2.447738 1.192707 0.000000 0.000000 0.000000 -3.369007 0.061620 -26.568390 8.213461 -4.531226 26.489533 -14.139703 -28.021654 11.893966 0.000000 0.000000 0.000000 -5.704124 -1.244390 24.275248 13.278936 -3.006765 -19.995192 -6.203585 -8.696795 28.554960 3.289048 0.213142 -25.944931 0.000000 0.000000 0.000000 -60.738635 -4.597084 -6.246231 -18.502348 -9.483798 -1.230808 -0.437629 -29.866223 1.319578 0.000000 0.000000 0.000000 54.292724 11.687355 11.706306 21.458610 13.255259 -2.331056 -7.595366 18.849539 -0.476006 0.000000 0.000000 0.000000
0.045178 0.917637 0.088346 -3.030629 24.235927 -7.551953 2.765898 -0.492672 20.922151 0.122747 0.093252 -4.044631 1.781544 1.928391 -1.989021 0.000000 0.000000 0.000000 -4.233564 -0.185279 -25.755692 9.038750 -3.207220 16.139473 -18.534008 -30.540264 24.270168 0.000000 0.000000 0.000000 -4.808112 -1.632477 26.108772 13.866639 -3.070159 -20.689481 -6.005153 -9.191776 27.643775 2.915691 0.106878 -23.143910 0.000000 0.000000 0.000000 -59.940913 -5.569296 -4.756031 -18.858718 -11.295980 -1.064080 -0.440794 -31.702357 1.394244 0.000000 0.000000 0.000000 53.507416 12.558039 12.111649 20.423689 15.106019 -1.964756 -7.930962 18.101856 -0.515173 0.000000 0.000000 0.000000
0.049081 0.910906 0.112241 -2.044338 24.942613 -5.122726 2.009340 -0.261396 19.443033 -0.079866 0.069592 -2.533318 2.622943 1.237676 -5.137661 0.000000 0.000000 0.000000 -4.910160 -0.349868 -24.860135 8.415346 -2.178148 9.128926 -18.535628 -28.345705 31.601372 0.000000 0.000000 0.000000 -3.764133 -2.011387 27.291626 13.801325 -2.921784 -20.985028 -5.527536 -9.909897 26.888646 3.608666 -0.342545 -23.920506 0.000000 0.000000 0.000000 -59.324115 -7.773343 -1.745910 -19.054643 -13.700323 -0.856479 1.351393 -31.516414 0.883857 0.000000 0.000000 0.000000 51.854805 15.486337 14.352722 20.228603 15.423547 -1.807498 -9.366732 18.769809 -0.761381 0.000000 0.000000 0.000000
0.053307 0.905144 0.138173 -1.692277 26.186159 -3.157943 1.743810 -0.190433 17.812498 -0.372804 0.004954 0.223393 3.648649 0.793302 -8.219392 0.000000 0.000000 0.000000 -4.654245 -0.360926 -24.929719 7.253947 -1.709323 7.037902 -18.686482 -27.699167 34.248283 0.000000 0.000000 0.000000 -1.869438 -2.906561 29.576988 14.623861 -3.146874 -20.677694 -4.808218 -9.921532 24.828753 3.087682 -0.211464 -21.374059 0.000000 0.000000 0.000000 -58.263825 -10.508334 1.241133 -18.764663 -16.234278 -0.506554 2.842573 -32.347499 0.479464 0.000000 0.000000 0.000000 50.304372 17.522437 16.040053 18.161926 16.574602 -1.578402 -9.420070 19.179937 -0.827790 0.000000 0.000000 0.000000
0.057341 0.897741 0.165493 -1.113931 25.833407 -0.489065 1.640213 -0.014115 14.926177 -1.196951 -0.123734 4.716635 3.984273 -0.859385 -11.053192 0.000000 0.000000 0.000000 -4.915953 -0.534178 -26.800315 7.782705 -1.869184 7.607528 -19.060969 -28.390310 33.512584 0.000000 0.000000 0.000000 -0.021236 -4.046198 32.901212 15.732751 -3.325950 -21.284875 -3.645971 -8.601562 23.426593 3.288127 -0.190402 -21.638051 0.000000 0.000000 0.000000 -56.882533 -13.371817 4.250245 -18.417950 -20.020530 -0.059714 4.473456 -31.890575 0.029244 0.000000 0.000000 0.000000 47.392606 20.603897 18.425944 15.713726 17.840446 -1.441490 -9.740527 19.362180 -0.925799 0.000000 0.000000 0.000000
0.060636 0.891346 0.192675 -0.458406 24.826347 2.766057 1.752583 0.105125 10.621802 -1.985570 -0.487381 11.741378 4.066175 -1.582315 -12.319843 0.000000 0.000000 0.000000 -4.856504 -0.653230 -30.033044 8.207871 -2.160037 10.196585 -18.260265 -29.145494 27.672893 0.000000 0.000000 0.000000 1.521635 -5.339556 36.782714 17.257791 -3.687806 -21.307026 -2.173030 -6.173034 21.338227 1.344604 0.938387 -18.345413 0.000000 0.000000 0.000000 -55.655625 -16.542745 7.205441 -15.220473 -22.402378 0.031336 7.383981 -32.219583 -0.778066 0.000000 0.000000 0.000000 43.940450 24.232360 21.087609 13.339948 19.387642 -1.359133 -11.799142 19.123195 -1.244689 0.000000 0.000000 0.000000
0.062992 0.885260 0.218748 0.200595 21.726579 6.157442 1.933182 0.079667 4.870848 -4.374961 -0.640449 19.719069 3.724999 -0.835344 -11.454836 0.000000 0.000000 0.000000 -4.715587 -0.588505 -34.320974 9.210349 -2.667582 13.906732 -16.709654 -29.056243 22.125380 0.000000 0.000000 0.000000 1.920295 -6.567471 42.888060 17.511986 -3.408033 -22.818403 -0.108710 -2.437223 20.867307 2.611785 0.149303 -16.917749 0.000000 0.000000 0.000000 -51.261476 -19.369916 9.390201 -13.248169 -25.466870 0.022818 11.226319 -31.414115 -1.807418 0.000000 0.000000 0.000000 40.737046 27.078705 23.063427 9.748987 22.115378 -1.485991 -14.263825 18.051049 -1.525980 0.000000 0.000000 0.000000
0.065421 0.878277 0.243475 -0.065836 19.276536 9.368443 2.314926 -0.258564 -1.889926 -5.719247 -0.948034 28.517936 4.045495 3.053537 -8.399535 0.000000 0.000000 0.000000 -3.990214 -0.272174 -38.496736 10.079274 -3.137064 17.189118 -15.552928 -29.113947 17.333857 0.000000 0.000000 0.000000 1.156263 -7.194263 48.694359 19.344357 -3.630949 -23.712792 1.534956 2.632605 19.574973 0.703156 1.712157 -15.821498 0.000000 0.000000 0.000000 -48.374897 -20.732878 8.737130 -10.196519 -26.423177 -0.149148 14.166246 -30.887068 -2.510030 0.000000 0.000000 0.000000 38.810975 28.724620 25.309687 5.607334 23.828032 -1.927119 -16.961961 17.503604 -1.861113 0.000000 0.000000 0.000000
0.069615 0.871898 0.267841 -0.270119 17.215525 12.813292 3.361833 -0.678355 -7.318469 -8.218836 -0.368039 34.455841 3.021617 2.455386 -6.485068 0.000000 0.000000 0.000000 -3.562232 -0.043999 -42.531122 10.802783 -3.549305 20.081215 -14.533797 -29.021788 13.106619 0.000000 0.000000 0.000000 1.449967 -8.164380 53.791388 18.099369 -2.711099 -26.464561 3.976701 4.296457 21.369532 0.812803 1.672312 -16.298704 0.000000 0.000000 0.000000 -44.522028 -22.131828 10.028128 -7.536773 -26.224391 -0.791265 19.727260 -29.314058 -3.801602 0.000000 0.000000 0.000000 35.151595 31.794400 26.432466 2.755324 24.526548 -2.198901 -19.573701 18.882726 -2.436693 0.000000 0.000000 0.000000
0.076469 0.867644 0.293174 -1.056468 15.437009 15.431611 3.813571 -1.000578 -11.363059 -7.552765 -0.840121 41.157679 1.414485 0.081371 -4.803426 0.000000 0.000000 0.000000 -3.376069 0.217988 -45.659320 12.297120 -4.278884 22.926640 -13.721059 -28.758435 10.218664 0.000000 0.000000 0.000000 1.419579 -8.557814 57.385713 17.035461 -2.352696 -27.076722 5.989593 5.795028 21.893649 -1.361458 3.173993 -18.218033 0.000000 0.000000 0.000000 -42.703743 -22.385610 10.095221 -6.135276 -26.250405 -1.116235 23.558714 -29.323184 -4.758934 0.000000 0.000000 0.000000 32.001633 33.398855 26.510841 1.442108 24.874610 -2.322991 -22.312012 20.273512 -3.059676 0.000000 0.000000 0.000000
0.086003 0.863447 0.319848 -0.985399 14.120817 17.953519 3.317657 -1.294355 -14.539229 -7.431320 -0.995546 45.882204 2.320970 0.455006 -7.907201 0.000000 0.000000 0.000000 -4.695710 -0.191968 -48.242997 14.445922 -5.377879 25.737365 -13.112805 -28.619915 7.566534 0.000000 0.000000 0.000000 1.503251 -8.968800 60.471400 15.745782 -1.616557 -29.867035 7.790980 5.610273 24.031210 -2.407927 3.735450 -19.759463 0.000000 0.000000 0.000000 -43.392443 -23.160135 11.637723 -3.525243 -24.766696 -1.590722 27.213574 -28.574502 -5.525155 0.000000 0.000000 0.000000 28.480783 34.368457 25.373432 1.687307 24.798247 -2.274570 -23.943201 21.177184 -3.445221 0.000000 0.000000 0.000000
0.098107 0.859748 0.348290 -2.057243 11.118013 19.462419 3.139174 -1.371001 -15.817361 -6.801284 -0.739947 48.879153 1.736644 -0.765245 -7.993256 0.000000 0.000000 0.000000 -3.431045 1.076610 -49.336108 13.706698 -5.063675 27.915949 -11.848321 -27.616852 3.663569 0.000000 0.000000 0.000000 1.097920 -7.981707 62.149943 15.881670 -1.717936 -29.329407 7.965387 6.254051 23.964182 -4.170084 4.634695 -17.523863 0.000000 0.000000 0.000000 -45.121442 -23.364187 12.494927 -2.322459 -24.032886 -1.720008 30.957964 -28.107656 -6.311791 0.000000 0.000000 0.000000 29.840218 34.878756 26.207790 2.469819 23.498882 -2.130060 -24.986722 21.994345 -3.783278 0.000000 0.000000 0.000000
0.112362 0.853999 0.378035 -2.727253 10.021791 20.881358 3.602677 -1.428950 -17.046662 -5.862660 -1.056991 51.286023 1.160911 -1.412506 -6.925929 0.000000 0.000000 0.000000 -4.581564 0.848453 -51.151641 15.815178 -6.394952 31.626426 -11.515778 -27.513299 1.969493 0.000000 0.000000 0.000000 1.653042 -8.140284 63.031662 15.278428 -1.428940 -30.598729 8.410484 5.893313 25.421517 -3.743959 4.327506 -19.180998 0.000000 0.000000 0.000000 -44.508989 -22.933965 12.586507 -4.526132 -25.320067 -1.679193 34.457510 -29.396480 -7.524816 0.000000 0.000000 0.000000 27.965752 33.587692 24.306076 6.587653 22.738493 -1.785991 -27.065326 22.860510 -4.247368 0.000000 0.000000 0.000000
0.128689 0.844175 0.408583 -4.053616 7.975151 21.738989 4.189692 -1.337453 -17.140364 -5.859437 -0.468260 53.954254 -0.387228 -1.196848 -0.670800 0.000000 0.000000 0.000000 -5.116640 1.219927 -52.371927 17.611034 -7.544873 35.263603 -10.915553 -27.096401 -0.754073 0.000000 0.000000 0.000000 1.469759 -7.188414 62.949049 15.478663 -1.672894 -29.464822 8.673250 6.388752 25.086254 -5.534765 5.316431 -20.531181 0.000000 0.000000 0.000000 -42.955346 -22.066746 11.678117 -7.316608 -26.664507 -1.416003 36.049841 -31.313919 -8.472479 0.000000 0.000000 0.000000 28.173009 31.443222 22.972058 11.348601 20.353611 -1.487791 -27.575154 23.902736 -4.462160 0.000000 0.000000 0.000000
0.145824 0.832089 0.439661 -4.717143 7.278311 21.061432 4.960842 -1.225564 -16.715300 -4.855980 -0.989730 57.242528 -2.054792 -4.975987 -0.776199 0.000000 0.000000 0.000000 -5.195850 1.404556 -52.377426 17.317475 -8.290125 40.647060 -10.742655 -27.430667 -3.925380 0.000000 0.000000 0.000000 2.429802 -7.479438 62.422470 14.942616 -1.327628 -31.273793 8.578432 4.306904 26.595590 -6.369099 5.634581 -18.578983 0.000000 0.000000 0.000000 -44.260944 -20.298880 11.651563 -9.149619 -27.480126 -1.369709 36.214588 -34.632379 -9.539846 0.000000 0.000000 0.000000 29.198595 28.963327 20.699864 16.361985 15.557942 -1.517306 -26.116711 28.414565 -5.107465 0.000000 0.000000 0.000000
0.162791 0.813779 0.470157 -5.997355 5.974206 19.652370 6.189171 -0.995858 -15.019829 -2.879914 -2.051758 61.259085 -4.681093 -12.589541 -2.878566 0.000000 0.000000 0.000000 -5.303661 1.754345 -51.971433 18.011948 -9.512378 46.303155 -10.509653 -27.615213 -7.414079 0.000000 0.000000 0.000000 2.812926 -7.116676 61.899821 16.051621 -1.802465 -29.696954 7.161787 5.089175 25.421824 -5.637441 5.257268 -17.825287 0.000000 0.000000 0.000000 -43.509889 -18.863518 9.932736 -12.184888 -27.982615 -0.855247 33.972669 -37.816775 -9.712685 0.000000 0.000000 0.000000 31.645213 25.010114 18.758820 19.659082 12.104885 -1.853263 -24.717021 31.271843 -5.277156 0.000000 0.000000 0.000000
0.179199 0.793518 0.498948 -6.932723 4.664666 18.684414 7.218884 -0.810474 -13.033622 -2.313611 -2.040327 63.948746 -4.979841 -14.861663 -4.760522 0.000000 0.000000 0.000000 -6.042048 1.819452 -52.667440 18.797980 -11.010598 52.649209 -10.478431 -27.667285 -8.449536 0.000000 0.000000 0.000000 2.933437 -6.534566 60.672405 16.434620 -1.756051 -30.534337 7.156851 3.140732 26.012482 -5.763805 5.132914 -16.153142 0.000000 0.000000 0.000000 -44.879011 -16.931837 9.713690 -13.639768 -28.259529 -0.824238 30.850306 -38.278182 -8.765511 0.000000 0.000000 0.000000 31.727825 22.536948 15.801166 23.510350 8.686122 -2.264730 -20.899583 32.841681 -4.537355 0.000000 0.000000 0.000000
0.194652 0.768807 0.525101 -8.510934 1.813924 16.858720 7.836033 -0.598213 -9.915639 -2.755434 -0.460037 66.144943 -2.874714 -16.242910 -12.341195 0.000000 0.000000 0.000000 -6.063461 2.642844 -53.306273 20.492144 -12.764545 59.161513 -11.850380 -31.010321 -7.234838 0.000000 0.000000 0.000000 2.557632 -5.091434 59.291694 18.567204 -2.322950 -29.659565 5.556700 3.154250 27.152690 -4.498006 4.332431 -15.585381 0.000000 0.000000 0.000000 -44.239337 -15.506416 8.795377 -17.056602 -27.920781 -0.525759 29.921793 -38.529854 -8.506031 0.000000 0.000000 0.000000 34.010247 20.787351 14.591538 24.512578 5.991402 -2.715050 -19.206109 33.318892 -4.200259 0.000000 0.000000 0.000000
0.209232 0.744320 0.548878 -9.754806 -1.168133 15.979713 7.859358 -0.466387 -7.785806 -2.897210 1.163940 67.840629 -1.065221 -14.149122 -16.038720 0.000000 0.000000 0.000000 -7.047835 3.134435 -54.377447 23.656572 -15.377573 64.135663 -13.749119 -35.269887 -5.598235 0.000000 0.000000 0.000000 3.322538 -4.263424 55.915293 19.062358 -2.701335 -28.315711 3.769140 2.358044 26.466725 -3.320197 3.338856 -13.967744 0.000000 0.000000 0.000000 -45.106686 -13.682492 8.243615 -18.744475 -25.695401 -0.662612 26.438168 -38.677147 -7.327896 0.000000 0.000000 0.000000 38.006400 18.823034 12.751124 23.662865 2.480874 -2.919304 -17.104168 33.718301 -3.746388 0.000000 0.000000 0.000000
0.222796 0.720826 0.571094 -11.415325 -4.266444 15.337373 7.672683 -0.343364 -5.218746 -2.327873 2.466748 70.115425 -0.688677 -14.812160 -18.064616 0.000000 0.000000 0.000000 -8.221485 3.607798 -55.045718 28.781631 -19.102063 66.715951 -17.052340 -41.630389 -2.835783 0.000000 0.000000 0.000000 4.134953 -3.591094 52.574985 19.423355 -2.873429 -27.925217 2.707889 1.195814 27.526601 -2.762944 2.693678 -13.716016 0.000000 0.000000 0.000000 -43.202734 -12.172842 8.278531 -23.748294 -25.308156 -0.662014 25.283008 -38.065706 -6.613541 0.000000 0.000000 0.000000 39.223128 17.499057 10.437744 24.276131 -0.496559 -3.226702 -16.599812 34.839359 -3.812681 0.000000 0.000000 0.000000
0.234479 0.699382 0.592928 -12.358540 -7.351383 15.084437 6.318717 -0.275807 -4.004771 -1.876046 4.005345 72.205910 0.242221 -11.997970 -18.655839 0.000000 0.000000 0.000000 -9.419991 3.949790 -54.384145 34.043909 -22.571593 67.887478 -18.677466 -47.542441 -6.345033 0.000000 0.000000 0.000000 5.531149 -3.391140 49.696568 19.581456 -2.751906 -28.614314 1.121858 -0.096170 27.918174 -3.113752 2.654909 -12.742406 0.000000 0.000000 0.000000 -43.785039 -10.849712 8.789722 -26.384282 -23.389907 -1.182211 22.330813 -38.974032 -5.620180 0.000000 0.000000 0.000000 41.243196 16.096404 7.724792 23.287480 -3.831157 -3.279672 -13.466336 35.750046 -3.063010 0.000000 0.000000 0.000000
0.243433 0.675926 0.614543 -13.996324 -10.999366 14.915160 5.672065 -0.158145 -2.083885 -1.631303 6.351860 74.252603 0.698357 -12.023718 -20.298778 0.000000 0.000000 0.000000 -11.108322 4.261069 -53.787086 41.091811 -26.414619 66.993436 -20.178921 -52.488330 -7.863994 0.000000 0.000000 0.000000 6.622196 -2.969250 46.082024 19.160253 -2.693536 -28.491719 0.622890 -0.655868 28.917581 -2.952542 2.271979 -12.665489 0.000000 0.000000 0.000000 -41.926637 -9.895891 9.233753 -32.675979 -22.075411 -1.593144 20.266508 -39.883372 -4.661633 0.000000 0.000000 0.000000 41.287968 14.620562 4.956854 23.610473 -6.654381 -3.550217 -12.750067 38.542285 -3.194089 0.000000 0.000000 0.000000
0.249448 0.651110 0.635321 -15.668637 -15.297051 14.821978 4.384654 0.009960 0.410378 -1.803019 9.440182 74.451264 0.564334 -12.153738 -20.059422 0.000000 0.000000 0.000000 -11.191572 5.243999 -52.309757 47.104435 -29.046348 66.874769 -18.139255 -56.730047 -16.291515 0.000000 0.000000 0.000000 7.581420 -2.492327 43.592726 18.991737 -2.516183 -29.067203 -0.074228 -1.048492 29.590581 -2.205178 1.397705 -12.874362 0.000000 0.000000 0.000000 -41.541029 -7.995404 9.091672 -36.198301 -19.880229 -2.526658 16.664608 -43.337664 -3.378910 0.000000 0.000000 0.000000 40.025914 13.384436 2.341694 23.853185 -9.020709 -3.760540 -10.564944 41.970396 -2.881072 0.000000 0.000000 0.000000
0.252898 0.626250 0.652641 -16.973225 -18.544325 14.266242 3.245002 0.254211 3.256300 -2.075572 11.957404 74.792894 1.074920 -11.565252 -21.231890 0.000000 0.000000 0.000000 -11.967922 5.679519 -51.608153 51.906151 -31.507591 67.037039 -17.558283 -59.798094 -19.390957 0.000000 0.000000 0.000000 9.059253 -2.505531 40.749665 18.175257 -2.486128 -28.560157 -0.442218 -2.303512 29.906435 -1.344025 0.298271 -15.147338 0.000000 0.000000 0.000000 -39.883871 -6.482629 9.382741 -41.214680 -18.621323 -3.330648 14.953885 -44.958658 -2.257853 0.000000 0.000000 0.000000 37.773308 12.243864 -0.262672 26.408118 -10.978258 -4.354588 -10.064423 46.097396 -3.282048 0.000000 0.000000 0.000000
0.254895 0.602224 0.664153 -18.219727 -21.888922 14.295263 2.823374 0.468535 5.102244 -2.259967 14.776343 75.673718 1.367555 -11.389478 -21.853507 0.000000 0.000000 0.000000 -12.437998 6.565849 -52.600648 55.680725 -33.979506 68.227450 -14.138845 -56.795157 -24.621405 0.000000 0.000000 0.000000 9.459549 -2.099854 39.071133 17.853264 -2.420108 -28.358777 -0.460473 -3.592299 29.662944 -2.497572 0.684482 -16.980619 0.000000 0.000000 0.000000 -37.544710 -3.940595 8.658333 -45.935276 -17.042314 -4.154289 10.232741 -50.158942 0.443367 0.000000 0.000000 0.000000 35.508581 11.466533 -2.400085 28.684383 -11.846783 -4.691302 -10.820789 51.928294 -4.614102 0.000000 0.000000 0.000000
0.256521 0.581086 0.669549 -19.278180 -24.123813 14.156589 2.555427 0.588794 5.896285 -1.748627 16.928133 78.780431 2.104060 -9.794222 -22.319228 0.000000 0.000000 0.000000 -12.562805 7.429248 -54.010585 58.577021 -36.132402 68.808951 -12.451877 -55.087831 -27.621334 0.000000 0.000000 0.000000 9.804491 -1.906546 37.481679 17.475173 -2.323999 -28.365484 0.268809 -4.897997 30.560359 -2.925803 0.515274 -19.103400 0.000000 0.000000 0.000000 -34.932285 -2.396865 8.394261 -50.282995 -16.425231 -4.541993 8.530402 -53.634928 2.291386 0.000000 0.000000 0.000000 32.384003 11.298732 -3.324770 31.288082 -11.533703 -5.049892 -13.717572 56.481764 -7.302641 0.000000 0.000000 0.000000
0.257612 0.565538 0.670076 -19.643403 -25.802213 13.217610 2.830166 0.636225 6.066510 -0.634292 18.170856 82.555558 1.903275 -9.746302 -20.655935 0.000000 0.000000 0.000000 -12.029736 8.413647 -55.445468 59.693365 -37.788903 70.432415 -11.045082 -53.260305 -30.237220 0.000000 0.000000 0.000000 9.272212 -1.490859 36.923107 18.789743 -2.552598 -27.920389 -0.520306 -5.535527 31.273620 -3.077688 0.342661 -20.160169 0.000000 0.000000 0.000000 -33.881699 -1.572390 8.307867 -51.629751 -15.980538 -4.865344 8.122010 -57.821915 3.452615 0.000000 0.000000 0.000000 31.798255 12.069660 -3.427289 32.996862 -10.277075 -4.982406 -20.093804 62.359402 -12.547750 0.000000 0.000000 0.000000
0.257803 0.553797 0.668257 -19.536771 -25.917778 11.986323 3.875409 0.620089 5.866984 1.344687 17.073745 86.919905 1.981533 -8.857808 -19.385282 0.000000 0.000000 0.000000 -11.302844 9.045023 -56.774975 58.339211 -38.438021 72.723984 -11.301927 -52.663492 -29.844467 0.000000 0.000000 0.000000 9.274649 -1.502526 36.230435 18.550986 -2.576873 -27.847127 0.246582 -6.940478 31.462322 -3.685528 0.508584 -20.619060 0.000000 0.000000 0.000000 -34.288015 -1.440793 8.942046 -51.903417 -16.099278 -5.062226 7.296129 -62.401227 4.804944 0.000000 0.000000 0.000000 30.974288 12.889690 -3.365657 33.709695 -9.213590 -4.755006 -24.718437 66.952339 -17.279537 0.000000 0.000000 0.000000
0.256965 0.547707 0.665970 -18.410357 -25.470116 9.771558 4.533531 0.618639 5.744003 3.177338 14.904186 90.730173 0.860549 -9.977720 -16.283228 0.000000 0.000000 0.000000 -10.039901 9.300221 -56.663067 54.007909 -38.660021 78.649983 -11.932074 -52.273149 -28.301780 0.000000 0.000000 0.000000 9.074893 -1.523991 35.607985 18.500421 -2.731364 -27.548569 -0.343663 -8.091191 31.288033 -3.729189 0.414883 -20.182345 0.000000 0.000000 0.000000 -34.991442 -1.696642 9.550256 -50.821501 -15.441345 -5.556739 6.301220 -67.981459 6.221789 0.000000 0.000000 0.000000 31.114181 13.576622 -3.242797 33.966418 -8.529774 -4.546455 -29.003786 72.713389 -22.675764 0.000000 0.000000 0.000000
0.255644 0.544867 0.664208 -17.587016 -25.244056 8.041876 5.220653 0.632062 5.722956 4.623698 12.866292 92.788399 -0.033907 -10.315252 -13.659495 0.000000 0.000000 0.000000 -8.340096 9.715956 -56.007094 49.702562 -37.484186 83.597563 -11.795391 -51.449299 -28.425814 0.000000 0.000000 0.000000 7.855281 -1.221188 34.805254 18.832122 -2.819601 -27.578656 -0.334155 -8.116436 31.681756 -3.560892 0.321564 -19.520309 0.000000 0.000000 0.000000 -35.300867 -2.566960 10.177262 -49.963601 -15.424871 -5.661018 8.136501 -73.939131 5.626934 0.000000 0.000000 0.000000 31.651872 13.990731 -2.927529 34.177929 -7.829249 -4.454110 -31.726752 75.919599 -26.082489 0.000000 0.000000 0.000000
0.254446 0.546371 0.662872 -16.657634 -23.862680 6.032658 5.997072 0.625761 5.721778 6.027315 9.477227 94.711140 -0.657167 -11.196305 -12.641509 0.000000 0.000000 0.000000 -7.428825 9.235868 -54.624351 46.166152 -36.366354 87.040146 -12.114139 -49.833861 -26.769210 0.000000 0.000000 0.000000 7.423614 -1.287227 34.283699 18.747423 -3.055251 -26.995621 -0.312777 -8.010826 30.690498 -3.497252 0.485652 -18.350235 0.000000 0.000000 0.000000 -35.985060 -3.009621 9.988936 -48.487695 -14.438758 -5.852934 1.334811 -79.216465 11.124655 0.000000 0.000000 0.000000 31.982637 13.859701 -2.534473 34.317082 -7.491359 -4.458972 -30.785897 78.046270 -26.056447 0.000000 0.000000 0.000000
0.253853 0.546443 0.662285 -15.622246 -22.929524 4.833455 6.574496 0.615701 5.659772 6.738605 7.361334 94.808375 -1.174495 -11.925941 -11.928421 0.000000 0.000000 0.000000 -7.413383 8.768073 -54.022555 44.198807 -35.892751 89.070192 -12.399100 -49.445266 -25.868107 0.000000 0.000000 0.000000 6.282897 -1.092239 33.272380 17.955232 -3.048119 -26.675008 0.424855 -7.452350 29.632566 -2.178665 -0.244122 -16.915643 0.000000 0.000000 0.000000 -35.387595 -3.761878 9.856435 -48.167680 -14.079272 -5.675066 -14.710988 -83.641639 26.068336 0.000000 0.000000 0.000000 31.915234 13.801024 -2.021802 34.230233 -7.387144 -4.513394 -25.796344 78.773866 -22.004991 0.000000 0.000000 0.000000
0.253962 0.547516 0.662762 -14.814822 -21.249832 3.738110 7.002694 0.578921 5.569292 6.899492 5.280887 94.910499 -1.049170 -12.393813 -12.885308 0.000000 0.000000 0.000000 -8.089346 7.758194 -53.162379 42.696327 -35.762277 90.204147 -12.701257 -48.108150 -24.273215 0.000000 0.000000 0.000000 5.561531 -1.090426 32.446941 17.292900 -3.035480 -26.437274 1.381905 -7.492731 28.498293 -2.191730 -0.077350 -16.379092 0.000000 0.000000 0.000000 -35.223064 -3.853814 9.375336 -48.327174 -13.781869 -5.534299 -65.095825 -84.373232 73.554974 0.000000 0.000000 0.000000 31.709755 13.089202 -2.030822 34.431270 -7.569474 -4.664584 -19.807576 78.813016 -16.917867 0.000000 0.000000 0.000000
0.254764 0.547186 0.664356 -14.024018 -19.792580 2.988871 7.511673 0.552796 5.621568 6.549153 4.216591 94.689415 -1.345646 -12.146817 -11.892727 0.000000 0.000000 0.000000 -8.830646 6.954428 -52.764347 41.742674 -35.736410 90.665197 -13.814133 -48.870879 -21.855154 0.000000 0.000000 0.000000 4.735785 -1.025773 31.503003 17.196535 -2.930279 -26.952413 1.672021 -6.959910 27.620569 -1.616222 -0.294609 -15.933512 0.000000 0.000000 0.000000 -34.627014 -4.359676 9.030077 -48.378278 -13.936651 -5.165493 -90.340919 -81.843694 95.795406 0.000000 0.000000 0.000000 31.672374 12.503584 -1.851878 34.747912 -7.402370 -4.768618 -13.790927 78.406436 -11.651286 0.000000 0.000000 0.000000
0.255742 0.545096 0.667270 -13.689612 -18.573724 2.617297 7.662517 0.558551 6.324887 6.200693 3.444395 94.365964 -1.672160 -12.532505 -11.401614 0.000000 0.000000 0.000000 -9.647849 6.078367 -51.707776 41.134028 -35.829891 91.048311 -12.959367 -47.432740 -23.461948 0.000000 0.000000 0.000000 4.535467 -1.103276 30.298481 16.605600 -2.869641 -26.788309 2.094399 -7.363620 26.250370 -1.977699 0.007567 -16.102936 0.000000 0.000000 0.000000 -33.801541 -4.290194 8.654087 -48.606624 -14.616943 -4.645988 -102.670495 -79.120460 105.917826 0.000000 0.000000 0.000000 31.111250 12.011810 -2.044494 34.956068 -7.746437 -4.853627 -11.047918 78.283798 -9.497282 0.000000 0.000000 0.000000
0.256672 0.541150 0.671151 -13.537255 -17.627014 2.126693 8.305065 0.577220 7.239439 5.803729 2.933260 94.098197 -2.163521 -12.726703 -10.225283 0.000000 0.000000 0.000000 -10.256682 5.367299 -50.496675 41.540139 -36.341697 90.454627 -13.002488 -48.646505 -24.265991 0.000000 0.000000 0.000000 4.444068 -1.169949 29.796536 16.557267 -2.591826 -28.199977 1.953829 -7.323027 26.070264 -2.188754 0.243719 -15.811120 0.000000 0.000000 0.000000 -31.949553 -5.051279 8.643338 -48.734666 -15.895895 -3.864846 -116.841512 -75.831854 118.524173 0.000000 0.000000 0.000000 29.864198 11.421181 -1.979532 35.748280 -7.399985 -5.003036 -15.263683 80.081272 -13.484487 0.000000 0.000000 0.000000
0.256826 0.536123 0.675386 -13.500697 -16.830430 1.876262 8.356516 0.601995 8.218934 5.995744 1.866916 93.292296 -3.682569 -13.881513 -7.138632 0.000000 0.000000 0.000000 -10.836398 4.813090 -49.700913 42.689294 -37.259963 89.185359 -13.838349 -51.495277 -23.971210 0.000000 0.000000 0.000000 4.524693 -1.259775 28.725436 15.906089 -2.531711 -28.008611 1.728945 -7.573537 24.948331 -2.396743 0.432241 -15.632369 0.000000 0.000000 0.000000 -29.780024 -5.356187 8.296285 -48.661181 -16.932172 -3.066249 -126.503803 -72.074878 126.668505 0.000000 0.000000 0.000000 29.586744 10.644057 -2.424577 35.576505 -7.295072 -4.890643 -19.375003 81.906749 -17.609582 0.000000 0.000000 0.000000
0.256143 0.530954 0.679518 -13.355246 -16.348942 1.518563 8.704355 0.627776 9.164527 5.803812 1.561559 92.666848 -4.717674 -14.253378 -4.686752 0.000000 0.000000 0.000000 -11.464474 4.306826 -48.711265 44.250168 -38.320994 87.756669 -14.413707 -54.435784 -24.345629 0.000000 0.000000 0.000000 4.452300 -1.283203 27.827616 15.591707 -2.380929 -28.616076 1.193962 -7.731468 24.519177 -2.782535 0.786871 -14.485450 0.000000 0.000000 0.000000 -28.246415 -5.739998 8.169862 -47.744505 -18.030830 -2.411509 -134.713808 -68.915183 134.391789 0.000000 0.000000 0.000000 29.351289 10.385002 -2.533739 35.728466 -6.985837 -4.819008 -29.458154 83.695059 -27.345330 0.000000 0.000000 0.000000
0.255358 0.525460 0.682806 -13.412642 -15.934476 0.974092 9.374315 0.635206 9.990081 5.902142 0.875923 92.478970 -6.111765 -14.538136 -1.230696 0.000000 0.000000 0.000000 -11.580567 4.051154 -48.043853 45.620114 -39.470165 86.820689 -16.143585 -57.908736 -22.496043 0.000000 0.000000 0.000000 4.206660 -1.253473 27.734334 14.970367 -2.344970 -28.402375 1.437678 -8.440199 24.257255 -3.017896 0.898443 -14.444250 0.000000 0.000000 0.000000 -26.915692 -5.960461 8.154849 -47.832918 -19.920178 -1.478863 -141.310105 -66.533889 141.973469 0.000000 0.000000 0.000000 28.997075 10.348255 -2.691269 35.883034 -6.189256 -4.573106 -70.656167 85.256586 -67.342970 0.000000 0.000000 0.000000
0.255287 0.522281 0.684727 -13.143483 -16.006204 1.020898 9.006412 0.643098 9.807430 6.467124 0.225729 92.843417 -7.249961 -15.377383 0.797988 0.000000 0.000000 0.000000 -12.105185 3.845425 -47.869975 47.134852 -40.334311 85.627390 -16.624319 -60.360295 -22.957077 0.000000 0.000000 0.000000 4.423952 -1.298004 27.828542 14.775022 -2.352517 -28.228533 1.168394 -8.308384 23.513002 -3.178270 1.172424 -12.326840 0.000000 0.000000 0.000000 -25.650659 -6.068172 7.855006 -48.035026 -20.830830 -0.841926 -147.334469 -64.166044 149.145664 0.000000 0.000000 0.000000 28.068419 10.536382 -2.323409 37.017634 -5.548345 -4.597889 -105.411748 84.289981 -101.108554 0.000000 0.000000 0.000000
0.256753 0.519291 0.685161 -12.992275 -16.785936 1.389246 8.829493 0.630967 8.874231 7.763740 -0.698486 94.105539 -8.699984 -17.243480 2.294241 0.000000 0.000000 0.000000 -13.182140 3.708266 -48.330194 49.880711 -41.674383 83.624646 -16.892813 -62.200030 -23.414374 0.000000 0.000000 0.000000 4.756741 -1.319214 28.737568 14.383951 -2.288040 -28.194286 1.528764 -7.184560 23.043361 -2.467633 0.841240 -10.513533 0.000000 0.000000 0.000000 -24.918248 -6.313198 7.580840 -48.197885 -20.846748 -0.626317 -150.160446 -62.942890 152.242688 0.000000 0.000000 0.000000 27.538085 10.253597 -2.059107 37.069527 -3.853863 -4.232338 -118.969593 82.558334 -113.334936 0.000000 0.000000 0.000000
0.259514 0.517249 0.684590 -12.860843 -17.581666 1.853598 8.349397 0.588256 7.395698 9.247256 -1.926519 95.830753 -9.990799 -19.714968 2.634915 0.000000 0.000000 0.000000 -14.876184 3.410753 -49.282119 53.378969 -43.010959 80.489865 -18.943776 -64.524937 -20.926188 0.000000 0.000000 0.000000 5.519322 -1.446079 29.418382 13.695154 -2.319831 -27.309606 1.962653 -6.597576 22.190414 -2.791336 1.245577 -9.158391 0.000000 0.000000 0.000000 -24.465239 -6.357815 7.427457 -48.220382 -19.480728 -1.057084 -154.092898 -62.225227 157.792982 0.000000 0.000000 0.000000 26.444349 11.309882 -1.110517 37.932274 -3.319487 -4.242324 -125.959593 79.530744 -118.080927 0.000000 0.000000 0.000000
0.262504 0.514691 0.683557 -12.519993 -19.470332 2.724522 7.533595 0.593636 6.435933 10.624127 -1.816703 96.426969 -10.616675 -22.466241 1.276773 0.000000 0.000000 0.000000 -16.592793 3.481768 -50.790440 56.699829 -44.089440 78.079224 -18.294936 -65.253996 -22.462571 0.000000 0.000000 0.000000 6.340937 -1.483250 30.641631 13.084743 -2.217927 -27.212495 2.258175 -5.769103 22.327902 -2.789017 1.240837 -9.408700 0.000000 0.000000 0.000000 -23.669792 -5.610540 6.906863 -48.494228 -17.042849 -2.017273 -157.046299 -61.689111 162.623336 0.000000 0.000000 0.000000 25.968159 11.676729 -0.873302 37.658988 -2.581502 -3.996345 -134.867968 78.081630 -126.955182 0.000000 0.000000 0.000000
0.264381 0.511816 0.682309 -12.284856 -20.849743 3.799682 6.958806 0.520379 4.835962 11.367685 -1.367575 97.477673 -10.406941 -23.910669 -0.505266 0.000000 0.000000 0.000000 -18.920582 3.299481 -53.072726 60.942160 -45.549062 74.383258 -21.476512 -66.799131 -18.040991 0.000000 0.000000 0.000000 7.084035 -1.556442 30.879665 13.041462 -2.132080 -27.454131 2.406742 -5.297635 23.102789 -3.714112 2.034696 -8.713132 0.000000 0.000000 0.000000 -24.178317 -4.322369 6.331947 -47.756208 -13.469048 -3.607649 -157.699128 -61.573772 163.519863 0.000000 0.000000 0.000000 26.036665 11.762379 -0.917739 37.293395 -2.741573 -4.030164 -140.919568 77.160472 -133.273907 0.000000 0.000000 0.000000
0.264667 0.509021 0.680393 -12.202449 -22.325883 3.978178 7.050591 0.548929 4.629330 11.625251 -0.320550 97.921488 -9.648638 -23.838157 -2.040159 0.000000 0.000000 0.000000 -19.978827 3.493233 -54.539133 61.907717 -45.989718 74.045860 -22.298815 -65.808249 -16.046748 0.000000 0.000000 0.000000 7.607817 -1.527139 32.212761 13.118577 -2.151102 -27.446598 2.741264 -4.641588 23.806116 -3.344356 1.792769 -8.185925 0.000000 0.000000 0.000000 -23.005512 -3.051718 5.378777 -47.762102 -10.030516 -4.917353 -159.190741 -62.236262 166.364095 0.000000 0.000000 0.000000 25.524271 11.744264 -0.803510 37.265301 -2.587477 -4.070145 -144.328941 76.337889 -136.750090 0.000000 0.000000 0.000000
0.263339 0.506201 0.677344 -11.753132 -23.580235 4.364147 7.115832 0.521295 3.630232 12.191739 0.053000 99.442639 -9.245464 -25.351912 -4.116474 0.000000 0.000000 0.000000 -20.519951 3.892104 -56.574162 61.384279 -46.395876 75.256430 -22.433361 -64.754844 -15.294087 0.000000 0.000000 0.000000 8.135303 -1.508229 33.362701 12.674949 -2.047335 -27.601154 3.193112 -4.856639 24.554517 -3.976717 2.230614 -8.464025 0.000000 0.000000 0.000000 -23.275296 -1.967295 5.008284 -46.144510 -7.382820 -5.963462 -164.714088 -63.430433 175.555378 0.000000 0.000000 0.000000 25.611312 11.509828 -1.218820 36.605970 -3.154552 -4.114987 -145.925482 76.613744 -139.098930 0.000000 0.000000 0.000000
0.261086 0.504359 0.673236 -11.426927 -24.993892 4.640839 7.093871 0.500246 2.616949 13.086637 0.189770 101.159400 -9.781728 -27.368396 -4.498647 0.000000 0.000000 0.000000 -20.278095 4.691558 -58.331344 59.864258 -46.048137 77.162329 -21.417065 -63.589563 -16.519830 0.000000 0.000000 0.000000 8.750845 -1.483443 34.202665 12.268752 -1.979572 -27.630564 3.182846 -4.240948 25.053380 -3.241040 1.708255 -7.557572 0.000000 0.000000 0.000000 -22.554641 -0.909475 4.277697 -44.223353 -4.467331 -6.805396 -169.619896 -63.767073 -176.985082 0.000000 0.000000 0.000000 26.053780 10.720211 -1.792635 36.546481 -4.022740 -4.366446 -145.454754 78.037559 -139.435071 0.000000 0.000000 0.000000
0.258466 0.503367 0.668437 -11.083706 -25.513983 5.100867 6.869635 0.420094 1.134101 14.163294 -0.925679 102.931463 -9.656639 -29.181325 -5.930659 0.000000 0.000000 0.000000 -20.046079 5.158692 -59.605861 57.867026 -45.916432 79.555908 -18.356436 -60.788062 -20.612606 0.000000 0.000000 0.000000 9.380292 -1.561979 35.035788 11.746667 -1.783060 -28.170235 3.846266 -4.849614 25.565841 -3.326342 1.546025 -9.053612 0.000000 0.000000 0.000000 -21.329099 0.074417 3.752402 -43.572335 -3.560043 -7.001544 -176.667989 -64.134413 -165.154921 0.000000 0.000000 0.000000 25.036405 10.074440 -2.284469 36.499624 -4.189170 -4.404145 -131.232738 80.677803 -125.737030 0.000000 0.000000 0.000000
0.255862 0.501368 0.663448 -10.472341 -26.518045 5.460113 6.441035 0.386559 0.647479 15.213895 -1.415930 103.976604 -9.248218 -31.212679 -7.964234 0.000000 0.000000 0.000000 -18.841132 6.237594 -60.811265 56.192653 -46.161294 82.455310 -15.374748 -60.234752 -26.316577 0.000000 0.000000 0.000000 9.869209 -1.527812 35.813302 11.834486 -1.651047 -28.878929 3.691769 -4.553420 26.412685 -3.019683 1.228656 -9.551140 0.000000 0.000000 0.000000 -21.993603 0.533436 3.703043 -39.647050 -3.981278 -6.646169 174.968807 -64.270144 -152.740041 0.000000 0.000000 0.000000 25.079431 9.762466 -2.511743 35.993786 -4.848727 -4.558287 -110.800087 82.531975 -105.493248 0.000000 0.000000 0.000000
0.253586 0.498892 0.658393 -10.194251 -27.463073 6.423094 5.685188 0.319460 0.195099 16.176501 -1.717846 104.413995 -8.112309 -31.081228 -9.912830 0.000000 0.000000 0.000000 -18.101294 7.067468 -61.615337 56.154153 -46.861795 83.611670 -11.255126 -58.944945 -34.349819 0.000000 0.000000 0.000000 10.951809 -1.683380 36.608550 11.063157 -1.405057 -29.480998 4.328527 -4.803073 26.676291 -1.962012 0.152280 -11.416107 0.000000 0.000000 0.000000 -21.473547 0.403265 3.899293 -37.354761 -5.830793 -5.869090 166.534441 -63.662150 -139.524214 0.000000 0.000000 0.000000 24.114807 9.457197 -2.733838 36.272550 -3.391823 -4.203954 -81.021797 83.279948 -76.659798 0.000000 0.000000 0.000000
0.251579 0.495520 0.653267 -9.836700 -28.279172 7.068175 5.005749 0.289173 0.361674 17.099834 -2.064691 104.337333 -7.318844 -31.485049 -11.620686 0.000000 0.000000 0.000000 -17.513701 7.602719 -61.510069 57.020437 -47.713375 83.884904 -7.008530 -57.476662 -43.101003 0.000000 0.000000 0.000000 11.420523 -1.657101 37.565008 11.304835 -1.200105 -30.598145 4.076282 -5.399958 27.206617 -1.956117 -0.037125 -12.381965 0.000000 0.000000 0.000000 -22.354548 -0.507807 4.977278 -33.732957 -8.795858 -5.019121 158.608506 -61.865179 -126.438637 0.000000 0.000000 0.000000 23.449438 10.607796 -2.242741 36.354299 -2.708269 -4.006037 -62.849224 82.136932 -58.568851 0.000000 0.000000 0.000000
0.249728 0.489877 0.648033 -9.455070 -28.357848 7.934523 4.839396 0.275832 0.494770 17.757029 -2.881093 104.217652 -6.124824 -31.481667 -13.920085 0.000000 0.000000 0.000000 -18.535778 7.213533 -61.700163 57.128239 -49.082212 84.924876 -6.281435 -54.751635 -44.752896 0.000000 0.000000 0.000000 12.859637 -2.037766 38.968322 11.313657 -1.124181 -31.056384 3.429055 -6.417638 26.201605 -0.199021 -1.427255 -11.559688 0.000000 0.000000 0.000000 -22.404127 -1.549200 5.839682 -30.158646 -14.604607 -3.483804 150.527010 -60.940640 -114.028289 0.000000 0.000000 0.000000 22.410071 11.312295 -1.935034 36.661339 -0.102278 -3.198465 -52.035185 79.398805 -47.024150 0.000000 0.000000 0.000000
0.247612 0.485052 0.642072 -9.107331 -29.193315 9.151148 4.607952 0.279963 0.842154 17.932249 -2.073670 104.071598 -4.589329 -30.723408 -16.422522 0.000000 0.000000 0.000000 -18.901953 7.284299 -61.419570 54.174748 -48.606081 88.747281 -5.212775 -50.841848 -47.351890 0.000000 0.000000 0.000000 13.129493 -1.950836 40.324113 13.096207 -1.046051 -32.227012 2.016880 -6.896802 26.064699 -0.010464 -1.608652 -10.894300 0.000000 0.000000 0.000000 -20.884998 -3.416534 6.807842 -25.745059 -20.603067 -2.160551 139.949835 -59.056327 -97.763208 0.000000 0.000000 0.000000 22.587698 13.514465 -1.009949 35.958455 2.332206 -2.308220 -48.280414 78.183796 -43.054782 0.000000 0.000000 0.000000
0.245161 0.482132 0.635150 -9.434118 -28.935068 10.897613 5.069628 0.210039 -0.351286 17.070282 -0.972046 103.839032 -5.366053 -30.134546 -14.664291 0.000000 0.000000 0.000000 -19.230135 6.840555 -60.378398 54.007873 -48.996327 89.309789 -7.016158 -54.436718 -42.688746 0.000000 0.000000 0.000000 14.050612 -2.277075 41.970864 13.842532 -0.963004 -32.816164 2.461117 -8.569323 23.779045 2.017497 -3.047774 -9.714016 0.000000 0.000000 0.000000 -19.776043 -3.778202 6.961819 -21.505963 -26.693668 -1.082929 135.691447 -58.193295 -91.415593 0.000000 0.000000 0.000000 20.150512 14.375686 -0.497960 36.886166 5.933549 -1.238813 -36.134352 74.495564 -31.539406 0.000000 0.000000 0.000000
0.242521 0.483673 0.627894 -8.960955 -28.573286 12.625740 4.336690 0.100782 -0.963050 16.069159 0.550234 102.679156 -5.197374 -27.930964 -13.850344 0.000000 0.000000 0.000000 -19.469898 6.107659 -57.269614 47.367852 -45.616987 95.885783 -11.308949 -54.713551 -31.466702 0.000000 0.000000 0.000000 13.282273 -2.078032 42.910685 16.426680 -1.028143 -33.190248 2.126613 -8.600791 22.705400 0.667521 -1.976492 -11.028301 0.000000 0.000000 0.000000 -16.664918 -6.359206 7.518275 -15.779020 -32.848549 -0.524527 126.754613 -54.176685 -76.283022 0.000000 0.000000 0.000000 17.373159 15.508939 0.819516 38.068627 9.151392 -0.581242 -36.582883 70.543127 -29.973993 0.000000 0.000000 0.000000
0.239661 0.484472 0.620312 -7.725286 -28.805245 14.963168 3.629358 -0.014910 -1.728733 14.665803 3.207703 101.195388 -7.025337 -27.929390 -10.402737 0.000000 0.000000 0.000000 -17.647334 5.743642 -51.171601 40.132243 -41.898123 105.547318 -15.371774 -51.282177 -17.618150 0.000000 0.000000 0.000000 13.487476 -2.152869 43.491731 15.585443 -0.540164 -34.723381 1.476231 -11.429474 22.055143 0.101671 -1.714865 -10.399128 0.000000 0.000000 0.000000 -12.448432 -5.493286 6.439214 -9.528959 -38.201288 -0.695049 120.183172 -51.248864 -64.307969 0.000000 0.000000 0.000000 17.585747 17.131861 0.552214 36.023506 11.439932 0.534925 -28.119259 68.199489 -23.590230 0.000000 0.000000 0.000000
0.235759 0.485027 0.611758 -6.511339 -28.735477 17.833622 2.774627 -0.181947 -3.154782 13.257771 5.453401 99.193761 -8.059843 -25.971308 -7.077516 0.000000 0.000000 0.000000 -14.324572 5.241338 -43.256857 35.240787 -35.946100 111.098192 -19.117448 -41.424993 6.455050 0.000000 0.000000 0.000000 12.576802 -1.922010 43.133759 15.104221 -0.378396 -34.768284 1.466517 -12.249213 21.133538 -0.482973 -1.340600 -11.455854 0.000000 0.000000 0.000000 -7.395656 -7.971606 6.335525 -3.481853 -41.301464 -1.240223 110.614856 -46.009466 -48.752376 0.000000 0.000000 0.000000 18.284788 18.250938 0.558500 33.146426 12.341579 1.003969 -28.833936 64.540374 -22.423066 0.000000 0.000000 0.000000
0.231025 0.485618 0.601229 -5.064310 -29.048820 22.682192 2.984033 -0.359153 -6.310187 11.824968 7.673159 95.697703 -9.299907 -27.350128 -5.973246 0.000000 0.000000 0.000000 -12.486001 3.994653 -33.149411 33.741711 -28.600110 109.328168 -14.482237 -29.295674 17.228929 0.000000 0.000000 0.000000 11.493137 -1.664020 43.234985 16.772963 0.676699 -38.712708 0.415069 -10.822881 20.459055 -0.894768 -0.084625 -5.105191 0.000000 0.000000 0.000000 -9.478339 -10.348219 8.328816 5.916618 -39.917914 -3.674144 104.677279 -42.360899 -41.813165 0.000000 0.000000 0.000000 19.783258 19.618845 1.461797 27.453195 10.355402 0.554725 -29.302898 61.199685 -20.160875 0.000000 0.000000 0.000000
0.224049 0.487937 0.587647 -4.175959 -29.494757 27.863302 3.955236 -0.396596 -8.712030 10.101897 9.748091 91.115068 -9.680809 -29.466520 -7.294351 0.000000 0.000000 0.000000 -12.146646 3.335395 -27.084469 33.885154 -23.342841 103.213479 -11.365194 -22.801517 27.981910 0.000000 0.000000 0.000000 10.264025 -1.343862 42.651071 17.563553 1.154468 -39.677523 0.862350 -8.759453 18.226181 -2.565062 2.585375 1.646087 0.000000 0.000000 0.000000 -11.384005 -11.068920 9.221179 8.950509 -38.350656 -4.436045 99.194832 -37.725745 -33.676285 0.000000 0.000000 0.000000 23.364429 19.992631 1.712964 22.066759 8.730399 0.314630 -29.146214 61.785648 -18.773454 0.000000 0.000000 0.000000
0.214152 0.495500 0.568890 -2.739346 -30.706790 32.371135 5.462436 -0.262960 -11.111128 7.253140 13.869716 87.795117 -5.152011 -27.801583 -16.060667 0.000000 0.000000 0.000000 -10.220715 2.711118 -19.931856 32.941704 -15.158104 93.876924 -8.924097 -20.376955 25.986202 0.000000 0.000000 0.000000 7.114187 -0.052612 40.926596 19.821991 1.815204 -40.447780 -0.111178 -4.267167 18.521430 -5.993932 6.592866 6.724225 0.000000 0.000000 0.000000 -14.153056 -12.500236 10.194962 9.646295 -35.010935 -4.519226 94.904529 -40.956757 -35.632663 0.000000 0.000000 0.000000 27.336506 19.367480 2.474391 17.211570 5.859557 -0.243340 -31.600140 60.328471 -18.222341 0.000000 0.000000 0.000000
0.201853 0.501307 0.543580 -0.162950 -30.618488 34.040286 6.456930 -0.157873 -13.576246 7.538937 12.954430 88.785193 -6.030481 -30.015089 -15.567470 0.000000 0.000000 0.000000 -5.877497 1.765391 -12.993866 27.393848 -6.209432 83.893236 -8.367001 -20.820139 20.804797 0.000000 0.000000 0.000000 5.240297 0.500616 39.889028 20.481946 0.839433 -36.419551 -0.240987 -2.381371 12.754335 -9.024128 11.643978 17.606378 0.000000 0.000000 0.000000 -18.337764 -11.066052 9.642514 5.835949 -30.470401 -3.410477 80.302953 -46.495133 -32.362440 0.000000 0.000000 0.000000 32.163839 19.118112 2.711192 12.822562 4.343437 -0.207736 -31.964346 60.729388 -17.071847 0.000000 0.000000 0.000000
0.188952 0.506520 0.509882 1.152132 -34.645007 36.578588 7.745569 0.673875 -18.688135 12.386808 10.685853 94.458297 -2.750893 -33.742406 -24.145322 0.000000 0.000000 0.000000 -3.785636 1.392951 -10.806233 20.975091 2.204488 75.639588 -7.373363 -19.120477 6.991033 0.000000 0.000000 0.000000 1.650268 2.900597 40.179955 20.041272 2.707446 -42.036914 -4.348458 -1.685900 18.133084 -12.503227 16.861710 19.827922 0.000000 0.000000 0.000000 -21.548268 -8.174691 8.737331 7.454394 -25.957971 -3.155255 55.030314 -48.710756 -21.906588 0.000000 0.000000 0.000000 38.938912 23.150949 5.583562 9.085726 2.905200 -0.306021 -35.027295 58.372352 -17.295113 0.000000 0.000000 0.000000
0.177033 0.506313 0.469307 5.244369 -33.359131 35.105748 6.616674 1.296090 -28.506778 17.982271 -1.581512 102.771232 10.241662 -26.140442 -48.999693 0.000000 0.000000 0.000000 -0.483703 0.927290 -9.869156 18.474133 2.931461 72.445111 -4.367777 -12.432080 4.860804 0.000000 0.000000 0.000000 -1.280614 5.664299 45.384213 17.582667 1.443342 -39.238349 1.189199 -3.766693 9.963678 -16.191940 18.423123 18.859695 0.000000 0.000000 0.000000 -31.703964 -8.362473 10.809045 8.462616 -21.087301 -2.521676 42.566889 -50.341328 -16.993342 0.000000 0.000000 0.000000 30.129871 19.751080 3.464794 12.812913 2.574741 -0.127381 -26.779279 62.471476 -14.280553 0.000000 0.000000 0.000000
0.164583 0.495490 0.425266 6.273920 -34.593559 35.290977 5.082649 4.181746 -43.765696 18.128784 -12.438825 117.637803 16.712687 -17.582850 -64.162850 0.000000 0.000000 0.000000 -0.710431 1.481314 -13.605823 23.823556 -0.270556 76.617779 -4.866490 -12.695570 0.304042 0.000000 0.000000 0.000000 -2.855873 6.292134 43.755211 10.123710 0.164852 -33.119890 4.515684 -5.355749 6.121734 -11.760810 16.401341 24.887954 0.000000 0.000000 0.000000 -31.052448 -10.948978 13.854105 2.533672 -13.189802 -1.256537 28.948579 -51.140793 -10.909881 0.000000 0.000000 0.000000 30.610833 23.249701 4.283908 14.948862 3.118291 0.236074 -27.766114 56.524606 -13.233226 0.000000 0.000000 0.000000
