HIERARCHY
ROOT Hips
{
	OFFSET -0.001795 -0.223333 0.028219
	CHANNELS 6 Xposition Yposition Zposition Zrotation Yrotation Xrotation
	JOINT LeftUpLeg
	{
		OFFSET 0.069520 -0.091406 -0.006815
		CHANNELS 3 Zrotation Yrotation Xrotation
		JOINT LeftLeg
		{
			OFFSET 0.034277 -0.375199 -0.004496
			CHANNELS 3 Zrotation Yrotation Xrotation
			JOINT LeftFoot
			{
				OFFSET -0.013596 -0.397961 -0.043693
				CHANNELS 3 Zrotation Yrotation Xrotation
				JOINT LeftToe
				{
					OFFSET 0.026358 -0.055791 0.119288
					CHANNELS 3 Zrotation Yrotation Xrotation
					End Site
					{
						OFFSET 0.000000 0.000000 0.000000
					}
				}
			}
		}
	}
	JOINT RightUpLeg
	{
		OFFSET -0.067670 -0.090522 -0.004320
		CHANNELS 3 Zrotation Yrotation Xrotation
		JOINT RightLeg
		{
			OFFSET -0.038290 -0.382569 -0.008850
			CHANNELS 3 Zrotation Yrotation Xrotation
			JOINT RightFoot
			{
				OFFSET 0.015774 -0.398415 -0.042312
				CHANNELS 3 Zrotation Yrotation Xrotation
				JOINT RightToe
				{
					OFFSET -0.025372 -0.048144 0.123348
					CHANNELS 3 Zrotation Yrotation Xrotation
					End Site
					{
						OFFSET 0.000000 0.000000 0.000000
					}
				}
			}
		}
	}
	JOINT Spine
	{
		OFFSET -0.002533 0.108963 -0.026696
		CHANNELS 3 Zrotation Yrotation Xrotation
		JOINT Spine1
		{
			OFFSET 0.005487 0.135180 0.001092
			CHANNELS 3 Zrotation Yrotation Xrotation
			JOINT Spine2
			{
				OFFSET 0.001457 0.052922 0.025425
				CHANNELS 3 Zrotation Yrotation Xrotation
				JOINT Neck
				{
					OFFSET -0.002778 0.213870 -0.042857
					CHANNELS 3 Zrotation Yrotation Xrotation
					JOINT Head
					{
						OFFSET 0.005152 0.064970 0.051349
						CHANNELS 3 Zrotation Yrotation Xrotation
						End Site
						{
							OFFSET 0.000000 0.000000 0.000000
						}
					}
				}
				JOINT LeftShoulder
				{
					OFFSET 0.078845 0.121749 -0.034090
					CHANNELS 3 Zrotation Yrotation Xrotation
					JOINT LeftArm
					{
						OFFSET 0.090977 0.030469 -0.008868
						CHANNELS 3 Zrotation Yrotation Xrotation
						JOINT LeftForeArm
						{
							OFFSET 0.259612 -0.012772 -0.027456
							CHANNELS 3 Zrotation Yrotation Xrotation
							JOINT LeftHand
							{
								OFFSET 0.249234 0.008986 -0.001171
								CHANNELS 3 Zrotation Yrotation Xrotation
								End Site
								{
									OFFSET 0.000000 0.000000 0.000000
								}
							}
						}
					}
				}
				JOINT RightShoulder
				{
					OFFSET -0.081759 0.118833 -0.038615
					CHANNELS 3 Zrotation Yrotation Xrotation
					JOINT RightArm
					{
						OFFSET -0.096012 0.032551 -0.009143
						CHANNELS 3 Zrotation Yrotation Xrotation
						JOINT RightForeArm
						{
							OFFSET -0.253742 -0.013329 -0.021401
							CHANNELS 3 Zrotation Yrotation Xrotation
							JOINT RightHand
							{
								OFFSET -0.255298 0.007772 -0.005559
								CHANNELS 3 Zrotation Yrotation Xrotation
								End Site
								{
									OFFSET 0.000000 0.000000 0.000000
								}
							}
						}
					}
				}
			}
		}
	}
}
MOTION
Frames: 76
Frame Time: 0.050000
0.000000 0.680310 0.000000 -1.684333 -22.949693 70.402073 -22.526461 0.196575 -80.542050 8.954962 -5.528262 42.512399 -17.848454 -22.382304 13.110896 0.000000 0.000000 0.000000 -11.520203 16.117063 -61.992482 24.002188 -4.561476 36.708154 -9.996484 -27.407516 41.398875 0.000000 0.000000 0.000000 22.237923 1.148330 89.818487 -4.695560 1.447532 -35.141041 -16.402615 -26.788285 24.624565 5.488109 0.607005 -52.702592 0.000000 0.000000 0.000000 57.086749 -4.814124 -4.674650 7.395112 -36.666794 2.948487 11.443475 17.156948 2.551697 0.000000 0.000000 0.000000 -62.154222 -13.240039 13.291303 -15.406386 17.000835 -3.353123 -3.808264 -9.756571 -0.275677 0.000000 0.000000 0.000000
-0.104184 0.683465 0.049035 164.782778 37.643455 110.742785 -79.238869 -21.355531 54.398816 45.795004 -25.855144 9.199799 -73.502707 -48.553676 58.614427 0.000000 0.000000 0.000000 -32.486928 -32.280565 61.413163 65.972868 -23.160747 -48.964352 -13.316905 -22.937072 38.100446 0.000000 0.000000 0.000000 174.769414 -18.525230 -77.602387 -1.877948 2.011772 -35.158592 -9.721882 -20.383117 22.027564 -2.271231 2.201578 -55.070058 0.000000 0.000000 0.000000 47.169224 -12.108180 -5.839653 9.403958 -34.272395 2.583695 27.089382 28.352605 10.950310 0.000000 0.000000 0.000000 -61.088741 -14.264681 15.091698 -18.901584 16.201014 -3.189764 -5.197641 -16.236430 -0.542805 0.000000 0.000000 0.000000
-0.216122 0.687446 0.094011 157.478288 40.534250 104.610124 -82.039398 -25.182672 44.084860 39.420784 -24.838188 15.750567 -52.012548 -30.966815 49.131632 0.000000 0.000000 0.000000 -63.248432 -27.498013 73.219679 86.279210 -44.629729 -19.582438 2.036091 -6.392305 19.441748 0.000000 0.000000 0.000000 174.697710 -23.201565 -74.242966 -2.548204 2.255547 -35.250318 -12.705457 -23.922239 22.097928 -6.159082 2.725741 -56.326448 0.000000 0.000000 0.000000 43.678429 -6.423422 -8.747777 4.736745 -33.768534 3.477696 34.826343 30.995291 17.395187 0.000000 0.000000 0.000000 -65.310872 -12.522106 16.177803 -15.423008 14.895847 -2.355076 -3.189405 -11.834080 -0.425140 0.000000 0.000000 0.000000
-0.326421 0.677074 0.137469 152.263499 43.690132 100.240261 -83.720515 -30.708662 35.431948 37.333730 -28.576923 21.518900 -39.054907 -30.640919 34.815285 0.000000 0.000000 0.000000 -74.197650 -24.561757 72.744841 81.471668 -59.552860 7.967633 -7.047390 1.604019 -18.213659 0.000000 0.000000 0.000000 175.302629 -27.943170 -71.445040 -3.756051 2.434288 -34.847193 -15.127857 -22.185313 23.472622 -8.222814 3.644406 -58.161940 0.000000 0.000000 0.000000 40.207966 -8.953325 -8.340410 10.608933 -29.485220 1.356018 36.984045 38.136440 22.251899 0.000000 0.000000 0.000000 -62.964109 -11.107082 16.161172 -13.746063 15.588236 -2.384005 -1.334631 -13.074969 -0.668534 0.000000 0.000000 0.000000
-0.432592 0.644959 0.185835 145.805880 46.096091 95.100917 -77.298062 -35.771549 21.976108 41.504296 -43.337555 26.827621 0.667460 -45.663410 -21.426628 0.000000 0.000000 0.000000 -80.278003 -22.353537 71.152605 42.181112 -65.856149 67.672449 -18.987535 11.756257 -64.273647 0.000000 0.000000 0.000000 177.398678 -35.815320 -68.949839 -4.439950 2.491201 -33.969399 -17.850725 -23.688598 23.603693 -7.895514 4.857396 -61.851934 0.000000 0.000000 0.000000 29.454361 -11.125448 -5.870231 13.833973 -20.299389 -0.375475 68.262625 31.793005 41.900415 0.000000 0.000000 0.000000 -58.402868 -7.126415 17.090265 -12.302783 18.775582 -3.483249 -0.776197 -13.238536 -0.719745 0.000000 0.000000 0.000000
-0.528569 0.586068 0.239497 144.398920 50.255328 92.280363 -76.396016 -40.100667 12.392393 18.585638 -68.985376 68.790083 19.498821 -20.300763 -65.249675 0.000000 0.000000 0.000000 -78.459907 -18.403820 73.717703 17.952196 -61.257271 102.590626 -10.467840 39.283905 -84.490581 0.000000 0.000000 0.000000 178.904998 -39.263445 -64.300742 -5.575230 2.601880 -33.322796 -21.049846 -25.042783 23.098525 -10.470142 7.868800 -71.402428 0.000000 0.000000 0.000000 3.331101 -15.457452 9.932584 34.204431 -15.396380 -0.723120 112.178572 24.651282 72.166072 0.000000 0.000000 0.000000 -47.841299 -3.151804 19.037785 -12.547853 21.257438 -5.398660 -6.982351 -14.699036 -0.758255 0.000000 0.000000 0.000000
-0.611495 0.513975 0.298894 145.100029 53.309906 90.865938 -70.049698 -34.281891 2.866308 -54.825191 -61.128583 166.701748 11.701180 -6.897813 -82.838875 0.000000 0.000000 0.000000 -76.174722 -12.770570 79.480635 10.937340 -59.268008 111.973979 125.498489 36.037895 57.362955 0.000000 0.000000 0.000000 174.382797 -36.654628 -55.533918 -8.844789 2.890678 -32.755871 -29.204218 -34.685503 25.565870 -18.395209 14.756351 -92.560013 0.000000 0.000000 0.000000 -21.854461 -8.092193 35.365225 39.322456 -1.223397 3.412533 145.631139 13.181660 68.037742 0.000000 0.000000 0.000000 -28.615301 7.545011 15.790848 -13.085374 20.941341 -8.114037 -21.674356 -21.326905 -2.863053 0.000000 0.000000 0.000000
-0.677631 0.423561 0.363269 142.382795 58.991081 86.107891 -62.944178 -18.065399 -4.893997 -30.679697 -24.907035 -173.053448 8.542143 -5.662947 -95.066534 0.000000 0.000000 0.000000 -70.207089 -4.238958 93.726352 16.335502 -58.548785 106.696658 -82.544379 73.532134 -174.024588 0.000000 0.000000 0.000000 159.659094 -20.109680 -40.857683 -10.749267 2.437185 -29.303078 -58.946523 -53.332395 45.480042 -140.719477 -18.468411 -92.684686 0.000000 0.000000 0.000000 -39.530447 -2.395067 94.617602 12.598059 22.226417 3.648603 -175.385359 13.513098 113.348455 0.000000 0.000000 0.000000 -1.648433 36.651503 -33.743423 -3.916460 10.719732 -6.112186 -52.863792 22.332781 -29.537373 0.000000 0.000000 0.000000
-0.727812 0.328418 0.422781 99.443857 75.564952 38.018957 -41.935899 0.075971 -5.703889 -9.107055 -31.839917 -177.428120 16.963722 -22.094295 -96.703853 0.000000 0.000000 0.000000 -46.851553 10.493516 114.005739 7.714402 -59.290758 105.707093 -15.616395 -9.636380 -113.401445 0.000000 0.000000 0.000000 88.540436 56.432337 -70.823491 1.156386 -0.410911 -13.694003 176.023569 4.366012 136.808767 -129.187798 -62.045175 -86.135614 0.000000 0.000000 0.000000 -62.893020 -35.844741 -58.426733 44.856920 -24.817854 -4.212235 163.690495 6.687262 -159.373933 0.000000 0.000000 0.000000 45.492782 11.710100 92.711341 -40.450563 -2.821757 -2.552891 -74.174879 -74.095908 36.660534 0.000000 0.000000 0.000000
-0.766448 0.250543 0.466654 9.624635 36.636257 -58.257162 25.211357 -7.672674 25.967648 -5.803763 11.896840 161.360355 30.491705 -42.479835 -91.443987 0.000000 0.000000 0.000000 -62.136986 36.458554 98.555847 37.123593 -25.913925 105.547271 -15.286644 -9.122708 -109.853515 0.000000 0.000000 0.000000 42.771152 55.542334 -116.971043 4.338434 -0.433048 -22.520843 137.568541 51.003141 98.208509 -3.102818 -51.713102 153.849935 0.000000 0.000000 0.000000 -92.032749 -24.680959 -24.728478 49.610431 -4.371099 6.568883 159.208360 35.816571 -109.743480 0.000000 0.000000 0.000000 64.579248 5.309139 76.658161 -14.973599 8.306162 -1.194650 -96.336901 -36.581964 9.697564 0.000000 0.000000 0.000000
-0.795180 0.184797 0.489888 5.379468 11.091291 -64.500127 52.644150 -20.544473 40.846441 -6.746089 13.238989 159.929850 40.179887 -39.978181 -110.600120 0.000000 0.000000 0.000000 -140.742331 5.524378 25.103727 15.409510 -7.293663 145.828622 -23.323285 12.092652 -109.373130 0.000000 0.000000 0.000000 25.515314 43.265437 -127.958411 8.179158 -1.054789 -24.214515 140.024891 83.072254 53.317664 15.244527 -19.978346 114.734251 0.000000 0.000000 0.000000 -93.025507 -5.412613 -17.640435 59.900805 0.876487 11.130638 143.358737 15.802686 -176.413485 0.000000 0.000000 0.000000 68.028792 -16.693720 40.817108 18.845063 -9.969290 -6.181267 -99.673684 -0.915669 -9.500998 0.000000 0.000000 0.000000
-0.814872 0.152832 0.497506 5.126619 10.160301 -64.835977 49.577981 -11.429027 26.687748 -6.877331 22.678533 162.650610 21.876087 -18.950621 -91.892932 0.000000 0.000000 0.000000 -17.447226 -27.816743 -110.608085 -129.455160 -61.349519 -43.057407 -74.893652 -34.287429 95.179317 0.000000 0.000000 0.000000 26.347482 40.958884 -123.419460 12.400217 -2.309301 -20.910087 -100.597224 84.242361 136.892694 72.502723 -51.440031 68.311646 0.000000 0.000000 0.000000 -80.227794 0.013057 -16.321694 60.435446 -3.335335 3.975818 139.165726 -13.264659 122.277179 0.000000 0.000000 0.000000 58.540357 -22.243945 2.779967 17.221176 -52.426769 -6.697823 -110.099410 38.075428 -34.576310 0.000000 0.000000 0.000000
-0.826472 0.138592 0.499020 5.370979 13.486898 -64.761595 34.305865 0.732661 -1.965229 -4.640612 10.827846 169.906998 10.512463 4.461731 -81.180741 0.000000 0.000000 0.000000 -11.078814 -10.075936 -76.523001 -25.167740 -72.291764 -150.746099 -38.602789 -44.462001 71.070236 0.000000 0.000000 0.000000 32.707548 40.073087 -112.688040 7.768775 -2.210988 -10.528697 -76.015036 69.537237 133.174899 87.508909 -48.057834 52.265337 0.000000 0.000000 0.000000 -70.050735 17.938337 37.565589 49.613405 10.468483 10.936016 135.065117 3.267584 -138.799880 0.000000 0.000000 0.000000 41.222227 -27.643821 -11.146843 -7.784774 -65.685280 26.035782 -121.720243 32.121568 -2.559863 0.000000 0.000000 0.000000
-0.832236 0.140764 0.497378 7.102658 15.326484 -64.403356 24.966051 2.265336 -20.447604 -5.417519 7.686554 166.127701 9.528829 7.171056 -78.877404 0.000000 0.000000 0.000000 -3.867957 -2.410391 -70.499809 7.266155 17.600820 -175.527751 3.608806 -2.245657 19.738892 0.000000 0.000000 0.000000 39.461109 40.905343 -102.642157 4.132469 -1.336015 -5.305738 -73.440755 59.595651 112.762991 -1.657320 -4.776775 86.933289 0.000000 0.000000 0.000000 -63.039184 1.047078 3.263218 32.043696 -6.044953 14.315722 137.728131 -28.099087 -173.262422 0.000000 0.000000 0.000000 -13.680506 -18.944269 -57.588827 -87.007378 -17.899888 -4.064246 136.359605 20.273040 -105.586394 0.000000 0.000000 0.000000
-0.834036 0.144659 0.494830 6.147344 18.270060 -65.030691 19.148827 0.577185 -28.436525 -10.233043 33.100401 155.429292 6.571988 21.280947 -85.494684 0.000000 0.000000 0.000000 -0.171713 0.320706 -51.809254 170.290680 -57.352954 -2.528649 84.018344 -54.916288 -166.213491 0.000000 0.000000 0.000000 35.758132 33.080747 -101.886313 -4.312673 1.831580 -2.636016 -47.816757 51.219887 115.335803 -7.180922 1.939261 80.426334 0.000000 0.000000 0.000000 -51.454953 3.811340 7.191726 18.354583 -9.996879 6.811641 144.270475 -38.750510 -150.849150 0.000000 0.000000 0.000000 -19.714192 -14.739435 -29.855763 -81.341831 -36.591802 16.124754 161.491607 39.765598 17.971313 0.000000 0.000000 0.000000
-0.832707 0.155373 0.491217 6.868008 22.099855 -65.347749 16.605263 -1.325361 -34.494184 -20.230556 36.428569 136.103950 7.223056 19.899007 -86.496403 0.000000 0.000000 0.000000 2.497776 1.206456 -39.412919 32.814697 -73.063638 128.554365 5.616277 -42.937843 -97.541360 0.000000 0.000000 0.000000 33.290456 25.111959 -98.390665 -12.379918 5.679840 2.279311 -29.509354 38.826515 106.293199 -7.898401 8.227440 62.544736 0.000000 0.000000 0.000000 -44.323191 0.662908 5.650946 3.103785 -8.395998 0.019605 153.846084 -47.946130 -143.101864 0.000000 0.000000 0.000000 -31.842080 -9.158843 -23.458183 -68.881736 -40.040650 32.712149 -178.502240 45.489576 135.075208 0.000000 0.000000 0.000000
-0.828191 0.160830 0.485050 5.336012 24.299008 -67.074618 14.010037 -2.737359 -36.405701 -33.243629 31.612833 107.467733 6.518569 22.877896 -82.607455 0.000000 0.000000 0.000000 1.617326 0.670481 -33.606881 7.635870 -34.753453 140.261029 -7.159828 -27.967110 -86.066696 0.000000 0.000000 0.000000 28.808057 16.399715 -95.719031 -12.351642 5.275801 -1.397660 -12.906220 32.119593 99.804872 -7.551390 5.887621 43.451677 0.000000 0.000000 0.000000 -28.348265 -0.884844 -1.350098 -22.165073 -7.705782 -9.498921 -171.865365 -57.116067 167.309115 0.000000 0.000000 0.000000 -39.701971 -2.083941 -18.157613 -50.590649 -41.120779 28.949010 178.443268 47.273107 163.022735 0.000000 0.000000 0.000000
-0.821430 0.167528 0.473662 4.656497 25.642505 -67.939743 5.787417 -6.796191 -40.142090 -20.785262 9.252232 101.337269 8.126871 20.028102 -73.639550 0.000000 0.000000 0.000000 0.282053 -0.097796 -31.652213 2.595991 -17.825773 120.042893 -8.877411 -24.172926 -83.102357 0.000000 0.000000 0.000000 26.848430 12.245004 -92.824795 -12.551503 5.584992 0.086524 -6.293601 27.559128 93.917749 -4.541772 4.723541 26.735551 0.000000 0.000000 0.000000 -14.127990 -2.279330 -1.050934 -46.204495 -5.929440 -15.669063 -157.403052 -66.516249 154.651646 0.000000 0.000000 0.000000 -38.041258 -2.254151 -14.080579 -12.323945 -51.454113 9.612743 -176.398710 50.232542 -164.244411 0.000000 0.000000 0.000000
-0.812781 0.172817 0.458518 5.168946 23.892872 -68.162694 -4.506200 -11.345788 -41.857859 -4.455954 -9.627935 91.472859 9.602678 13.813298 -57.438625 0.000000 0.000000 0.000000 0.217126 0.161958 -32.900557 2.549113 -8.517622 77.482705 -8.586311 -21.246339 -71.487253 0.000000 0.000000 0.000000 25.789323 11.623652 -87.469452 -9.657263 4.190318 -1.211700 -5.243584 23.395515 87.706901 -1.598694 3.148919 12.587677 0.000000 0.000000 0.000000 2.341951 -1.437492 -0.130115 -65.015997 -5.538701 -19.435704 -131.729384 -68.274663 121.395162 0.000000 0.000000 0.000000 -36.519336 -1.075434 -10.587978 23.833654 -43.683565 -9.332213 -172.890817 55.890643 -149.032071 0.000000 0.000000 0.000000
-0.804556 0.171507 0.441916 5.093944 23.606090 -67.854900 -16.040710 -17.390458 -42.360615 14.475619 -26.358966 82.765630 7.867269 1.398799 -40.891613 0.000000 0.000000 0.000000 -0.383128 -0.047685 -32.834471 6.083535 -6.436889 50.420300 -8.069284 -22.616503 -47.156781 0.000000 0.000000 0.000000 27.283737 12.647681 -85.686379 -9.572999 4.167193 -1.362221 -1.963157 23.454776 85.744547 2.054928 -1.259638 9.603311 0.000000 0.000000 0.000000 9.284045 -6.652250 2.096545 -72.544449 -8.307228 -19.947494 -100.187329 -81.950791 97.105732 0.000000 0.000000 0.000000 -32.431139 -2.759880 -9.807802 47.267859 -29.159159 -14.393312 -163.057314 63.957520 -130.716633 0.000000 0.000000 0.000000
-0.799110 0.167696 0.427495 7.020082 22.637935 -67.146439 -22.778738 -19.917850 -41.082360 33.611509 -33.279105 63.984523 4.025775 -11.999520 -30.476308 0.000000 0.000000 0.000000 -0.818264 0.109693 -31.571743 10.069191 -5.243782 32.079955 -11.875107 -23.657628 0.085921 0.000000 0.000000 0.000000 28.849311 14.525108 -81.956828 -7.800269 3.344911 -2.685158 -3.234390 22.526506 83.860712 3.544042 -0.854648 2.374222 0.000000 0.000000 0.000000 18.043309 -10.775145 3.873604 -78.290619 -14.234528 -17.495854 13.447201 -82.761080 -7.366532 0.000000 0.000000 0.000000 -34.912304 -0.259723 -9.418572 67.661535 -15.835480 -10.989506 -133.729151 69.278791 -98.398890 0.000000 0.000000 0.000000
-0.796969 0.164044 0.418081 7.107497 23.579939 -67.058471 -28.214008 -22.656832 -40.235645 51.302170 -35.524324 46.760818 -8.992025 -30.448106 -8.268446 0.000000 0.000000 0.000000 -2.880917 -0.591494 -28.022011 10.437182 -3.726153 19.738268 -8.010173 -15.731200 22.305257 0.000000 0.000000 0.000000 31.220544 15.233939 -80.626418 -6.873815 2.853372 -5.341300 -7.677868 24.371458 82.257344 2.011522 0.558991 3.030273 0.000000 0.000000 0.000000 26.969283 -11.378244 4.112544 -86.223809 -18.536409 -15.614149 42.468468 -67.914751 -23.826551 0.000000 0.000000 0.000000 -34.129818 5.064542 -8.214910 76.887927 -3.529937 -3.385306 -92.668457 59.414982 -49.548694 0.000000 0.000000 0.000000
-0.796815 0.159231 0.413965 7.286334 23.019078 -67.981610 -28.724996 -23.368270 -41.332088 59.898493 -33.533601 36.498652 -28.740542 -37.260854 21.079586 0.000000 0.000000 0.000000 -1.816190 0.049078 -24.685528 8.915022 -2.404251 12.327594 -9.274073 -17.258738 21.022017 0.000000 0.000000 0.000000 31.469675 15.686649 -79.305596 -7.330152 3.095906 -4.389591 -11.151567 19.564921 77.234167 1.942908 0.551983 -1.656750 0.000000 0.000000 0.000000 29.068705 -16.812679 3.528659 -84.443934 -20.346511 -9.241754 44.935414 -52.395818 -17.901653 0.000000 0.000000 0.000000 -38.611346 6.900097 -6.675217 83.516912 8.273845 5.008917 -78.577756 50.484597 -34.463306 0.000000 0.000000 0.000000
-0.797114 0.157497 0.413195 6.754619 21.793275 -68.567328 -29.217639 -23.401778 -41.396713 64.916405 -32.832489 32.070747 -30.917721 -23.677762 38.862462 0.000000 0.000000 0.000000 -0.104806 0.701667 -23.206476 7.878908 -1.766711 8.305617 -9.144125 -16.760921 24.698561 0.000000 0.000000 0.000000 29.510017 15.174509 -80.106437 -5.978652 2.602682 -2.951586 -14.986345 14.532875 75.745184 0.365317 1.087753 -3.374507 0.000000 0.000000 0.000000 28.806638 -18.679718 1.264654 -81.750144 -19.161096 -4.568037 36.545604 -43.462854 -9.958230 0.000000 0.000000 0.000000 -37.475501 8.041787 -4.118929 82.525597 14.461606 4.425453 -70.051328 61.182480 -38.645873 0.000000 0.000000 0.000000
-0.797642 0.156867 0.413907 7.982271 19.217738 -68.872369 -23.761650 -20.565791 -43.562971 60.077277 -30.655007 33.095170 -25.197443 -14.330763 41.967862 0.000000 0.000000 0.000000 3.888849 2.130353 -22.424259 3.569341 -0.666224 7.980696 -8.430812 -16.418134 25.078280 0.000000 0.000000 0.000000 27.894102 16.036498 -78.339936 -3.611480 1.603019 -5.581116 -15.112480 13.578409 77.049477 1.969554 -0.899293 -1.899013 0.000000 0.000000 0.000000 22.116953 -29.333299 4.018143 -73.212267 -15.026618 -7.824031 51.162211 -38.975254 -14.323692 0.000000 0.000000 0.000000 -36.383083 5.292002 -4.189060 78.052786 12.541915 2.287653 -36.191910 69.008111 -20.196742 0.000000 0.000000 0.000000
-0.799072 0.152442 0.414413 6.999364 20.210406 -69.567319 -21.227530 -19.787644 -44.005523 52.159093 -28.144856 34.905972 -24.009538 -15.837637 37.447893 0.000000 0.000000 0.000000 4.463808 2.278895 -23.153514 1.928515 -0.370295 10.381953 -6.315718 -13.510505 27.720342 0.000000 0.000000 0.000000 25.293287 13.197544 -79.492126 -4.307845 1.873510 -5.742007 -14.932425 12.787701 76.777311 1.384986 -0.180711 -3.431379 0.000000 0.000000 0.000000 14.793047 -24.138245 4.977616 -67.673638 -13.523351 -9.138679 44.292842 -43.813441 -13.525369 0.000000 0.000000 0.000000 -38.850451 7.517559 -4.150127 77.622156 12.433033 1.795809 0.906509 73.992604 4.741591 0.000000 0.000000 0.000000
-0.800374 0.148601 0.415057 4.828674 19.183831 -70.245237 -19.029065 -16.997879 -40.828155 48.549835 -24.566738 30.707940 -19.759043 -15.107993 30.083907 0.000000 0.000000 0.000000 7.034430 3.208175 -24.530076 -0.764907 0.286492 11.728614 -3.236654 -9.741885 31.196963 0.000000 0.000000 0.000000 21.388773 10.276220 -81.941159 -3.874481 1.706480 -4.520809 -13.194784 11.679524 79.223198 1.420819 -0.983895 0.248425 0.000000 0.000000 0.000000 7.850952 -25.839006 6.684156 -59.545996 -12.431511 -9.728496 42.034877 -45.260266 -13.411000 0.000000 0.000000 0.000000 -33.337295 9.884547 -3.463561 73.902653 13.820713 0.060287 21.500251 69.768978 19.538701 0.000000 0.000000 0.000000
-0.798925 0.137902 0.415108 3.790514 16.145930 -70.318722 -11.379091 -11.991906 -39.520260 39.150590 -18.999784 28.549954 -11.839296 -20.806768 5.673102 0.000000 0.000000 0.000000 12.723386 5.909724 -30.583320 -7.199806 2.394310 21.731843 5.017783 2.158874 20.651128 0.000000 0.000000 0.000000 17.756603 9.336882 -84.048809 -4.915752 2.136441 -3.256956 -11.291329 9.724266 82.728960 -1.637428 2.170972 2.807242 0.000000 0.000000 0.000000 7.498199 -21.834743 5.343216 -61.113064 -12.747068 -10.372583 32.409861 -51.169484 -10.191417 0.000000 0.000000 0.000000 -33.055935 11.655511 -3.867136 76.974814 17.025471 1.203849 15.918848 68.946900 16.499031 0.000000 0.000000 0.000000
-0.794441 0.133047 0.415156 0.963640 13.284754 -71.198742 -8.081487 -8.417510 -34.373805 29.949802 -13.371566 25.041839 4.964939 -15.321562 -30.867864 0.000000 0.000000 0.000000 17.321324 9.163302 -38.730642 -16.312510 6.487476 32.184970 14.076294 13.600364 21.537036 0.000000 0.000000 0.000000 11.081905 4.447680 -87.156984 -3.617358 1.605688 -1.038732 -5.389264 8.044169 86.249409 1.122561 -1.524040 5.136660 0.000000 0.000000 0.000000 5.369155 -18.681324 5.078598 -56.546512 -13.658815 -10.951097 11.807393 -49.028460 -1.470136 0.000000 0.000000 0.000000 -24.222173 14.499670 -2.134984 68.569114 20.378339 0.293579 12.295229 66.364482 14.318882 0.000000 0.000000 0.000000
-0.787996 0.131235 0.415821 0.281984 8.952878 -71.281426 -3.503978 -4.415019 -27.586530 9.913194 -4.260139 20.536131 7.955886 4.479779 -23.787047 0.000000 0.000000 0.000000 21.752337 13.687084 -46.273949 -25.300688 11.741695 39.520206 13.714605 16.651454 16.418818 0.000000 0.000000 0.000000 6.250707 2.914197 -86.816574 -3.833654 1.693663 0.486329 1.606832 3.803841 87.731941 -0.117077 0.641660 4.457419 0.000000 0.000000 0.000000 6.304663 -11.992124 3.242912 -59.565912 -11.654635 -13.506413 -7.932071 -55.348152 9.247381 0.000000 0.000000 0.000000 -20.657692 12.988610 -2.168000 65.236544 23.243860 0.870462 3.686793 62.498538 9.195457 0.000000 0.000000 0.000000
-0.782061 0.136128 0.419325 -1.962436 6.559823 -71.256133 -2.064424 -2.583900 -20.518871 -3.292512 0.196078 11.964205 11.759860 17.083503 -21.796579 0.000000 0.000000 0.000000 21.724474 16.071747 -54.297728 -32.120892 16.600086 45.456841 16.791676 19.766467 19.728282 0.000000 0.000000 0.000000 0.637291 -1.854007 -87.954214 -4.285858 1.911786 2.352107 13.539380 2.722915 87.237814 2.301748 -1.103978 4.354708 0.000000 0.000000 0.000000 12.450232 -10.212631 2.468886 -66.486474 -6.273919 -18.877811 -25.108045 -62.586815 21.048560 0.000000 0.000000 0.000000 -13.749924 15.742039 -0.937881 57.961632 19.166866 -1.248385 -24.183234 66.575489 -6.682859 0.000000 0.000000 0.000000
-0.778818 0.139430 0.427093 -4.167374 3.303185 -71.331106 1.581508 -0.972155 -15.776872 -14.416093 2.038211 6.400523 14.888776 26.327472 -15.947060 0.000000 0.000000 0.000000 20.968729 18.122328 -60.443504 -36.091070 19.901410 49.129184 14.141654 16.081275 19.859834 0.000000 0.000000 0.000000 -4.727980 -5.520519 -86.256321 -4.346740 1.927185 2.927974 24.375122 0.916197 86.482238 3.420307 -2.364621 7.813755 0.000000 0.000000 0.000000 19.074527 -5.240128 1.161232 -71.548024 -3.204032 -23.639816 -64.232300 -61.283986 47.097761 0.000000 0.000000 0.000000 -7.025639 18.772373 0.989661 52.112462 16.067664 -2.723304 -53.088284 63.897971 -22.775505 0.000000 0.000000 0.000000
-0.778979 0.142811 0.437571 -6.760181 1.686623 -70.908492 1.608424 -0.922024 -15.582898 -15.939074 2.766673 11.174119 15.482769 30.445918 -28.813997 0.000000 0.000000 0.000000 19.286236 18.831801 -67.174308 -39.925647 24.154718 53.509635 20.396898 21.913345 25.005373 0.000000 0.000000 0.000000 -11.384488 -11.609414 -84.289620 -5.348526 2.469809 5.036138 40.034435 2.862097 83.867346 5.328820 -3.092514 7.612641 0.000000 0.000000 0.000000 24.591846 -4.165909 2.062788 -74.551395 -4.289571 -26.950992 -93.903458 -59.624303 67.255773 0.000000 0.000000 0.000000 1.192495 18.789210 3.578269 43.553580 11.706453 -4.044055 -85.418737 60.147312 -40.032288 0.000000 0.000000 0.000000
-0.779709 0.147401 0.446281 -8.837822 -0.711820 -70.308784 3.385156 -0.425546 -15.270809 -18.166029 3.808175 15.908102 13.282312 39.338155 -52.069965 0.000000 0.000000 0.000000 20.255270 20.686659 -69.497000 -42.317442 27.576661 58.103374 24.322021 26.180403 27.331740 0.000000 0.000000 0.000000 -18.129591 -15.892436 -79.669817 -4.773895 2.187572 4.375937 51.566494 7.207894 82.431004 9.278730 -8.032128 8.288704 0.000000 0.000000 0.000000 31.879115 -3.266073 4.084559 -72.291215 -8.802419 -27.506931 -109.806360 -55.910645 71.459435 0.000000 0.000000 0.000000 8.420434 17.767415 7.047470 38.292668 8.093115 -4.648004 -89.513944 55.355195 -39.298297 0.000000 0.000000 0.000000
-0.778666 0.147987 0.450616 -9.913739 -1.056029 -69.714191 1.581027 -0.736027 -14.565600 -15.739645 3.614907 20.300522 12.780003 38.148938 -54.477869 0.000000 0.000000 0.000000 23.596630 22.499505 -68.532263 -47.080026 32.039497 61.189370 26.263212 30.945934 25.791712 0.000000 0.000000 0.000000 -23.446236 -19.940635 -76.752019 -5.954217 2.837144 6.186217 64.612046 12.443650 85.425742 11.400028 -9.684191 8.093308 0.000000 0.000000 0.000000 32.083325 -2.180130 5.203555 -68.572100 -14.847263 -26.125323 -115.274917 -55.966556 66.671637 0.000000 0.000000 0.000000 16.987759 14.487809 11.989396 29.222943 5.306269 -5.214006 -85.688501 66.164521 -51.773269 0.000000 0.000000 0.000000
-0.775295 0.152553 0.450543 -8.735188 -0.876749 -68.820234 0.212284 -1.219037 -17.324344 -11.596895 2.783037 26.954305 14.432297 37.268809 -45.581128 0.000000 0.000000 0.000000 31.277559 25.396701 -62.025582 -56.891462 38.105474 60.358215 29.454667 32.702858 29.912014 0.000000 0.000000 0.000000 -25.200673 -20.985897 -76.636895 -9.167915 4.512818 6.711188 77.944878 14.985460 91.703037 16.227423 -13.000781 5.225982 0.000000 0.000000 0.000000 30.886385 -7.340052 6.333887 -63.539862 -18.620148 -24.858065 -116.761804 -60.078332 59.334723 0.000000 0.000000 0.000000 15.678789 11.465718 10.729802 34.983819 1.646890 -5.829317 -64.650233 64.477445 -33.277191 0.000000 0.000000 0.000000
-0.771327 0.156693 0.449127 -7.359940 -2.648066 -68.084775 2.093896 -0.729838 -18.636435 -9.478146 2.323979 26.865590 14.111435 27.140673 -32.276688 0.000000 0.000000 0.000000 37.777556 26.873343 -53.702759 -51.499676 39.207019 68.802433 25.346434 20.397219 37.767422 0.000000 0.000000 0.000000 -26.625484 -20.432097 -77.447105 -9.877141 5.072120 10.054160 81.571539 18.315453 95.029599 19.586582 -14.464520 2.148401 0.000000 0.000000 0.000000 28.488703 -7.429460 4.732420 -58.609920 -15.701911 -20.931290 -122.642517 -64.075931 58.867967 0.000000 0.000000 0.000000 15.678739 11.845565 12.306754 37.887719 4.057079 -4.654172 -48.834254 63.033578 -23.801618 0.000000 0.000000 0.000000
-0.769168 0.156996 0.448008 -5.632561 -2.248291 -67.560011 4.761986 -0.052747 -18.207187 -14.903269 3.794621 21.525602 14.417982 25.785812 -13.962530 0.000000 0.000000 0.000000 40.309042 25.453452 -47.227661 -47.992911 38.608620 72.960361 20.560969 12.170045 40.982431 0.000000 0.000000 0.000000 -26.576864 -20.768995 -79.823338 -12.042373 6.325277 11.422241 86.355867 18.029437 100.481893 16.312068 -12.998874 5.736469 0.000000 0.000000 0.000000 25.287412 -9.367178 1.878277 -54.368748 -10.750313 -19.047043 -122.694241 -68.897755 58.127929 0.000000 0.000000 0.000000 17.067726 11.278183 13.701050 37.509998 8.590527 -3.333006 -51.791935 59.745535 -25.164731 0.000000 0.000000 0.000000
-0.769006 0.155879 0.448001 -4.171579 -2.939050 -67.281652 11.221745 1.487772 -16.478326 -23.977726 5.289020 14.106026 13.081674 23.416481 0.351410 0.000000 0.000000 0.000000 42.469381 25.984878 -45.019476 -44.260272 38.655985 78.437367 15.817642 5.960528 41.846603 0.000000 0.000000 0.000000 -25.148242 -18.974202 -82.078475 -14.846221 8.060948 14.130136 87.930048 17.144454 101.985229 11.684171 -14.949681 12.857711 0.000000 0.000000 0.000000 21.400540 -11.558246 -1.417290 -51.900488 -5.133260 -17.516437 -111.913782 -71.499262 49.122751 0.000000 0.000000 0.000000 17.997039 13.436863 15.221696 37.845881 13.853508 -1.694271 -48.076067 53.955524 -22.163707 0.000000 0.000000 0.000000
-0.771255 0.156398 0.448498 -4.104889 -2.260170 -67.091266 13.297968 1.731871 -14.587607 -28.955884 4.959486 8.358437 11.542578 21.658133 11.450226 0.000000 0.000000 0.000000 39.902786 25.979391 -48.169952 -37.311211 35.627023 84.204278 13.075964 1.545223 44.794458 0.000000 0.000000 0.000000 -25.820402 -20.020708 -81.887540 -13.846607 7.948212 17.264040 86.582848 18.564185 100.941052 9.917908 -15.942376 16.182337 0.000000 0.000000 0.000000 20.001355 -11.250865 -1.762036 -47.925760 -0.969585 -15.065096 -118.456307 -75.003662 59.082370 0.000000 0.000000 0.000000 20.295499 11.998939 16.159002 37.585796 19.628007 -0.871953 -38.520246 57.847028 -20.583295 0.000000 0.000000 0.000000
-0.773772 0.155924 0.448081 -3.472784 -2.934412 -67.232855 16.578045 2.286716 -12.548724 -34.590029 4.515864 3.547187 15.422350 26.796040 14.968813 0.000000 0.000000 0.000000 38.073460 26.376732 -49.899318 -34.233133 33.089058 85.868936 12.236225 1.546129 42.550269 0.000000 0.000000 0.000000 -24.210846 -18.367217 -83.869069 -15.685154 8.929791 18.184645 83.873767 15.596491 98.416579 5.609618 -17.783508 23.860786 0.000000 0.000000 0.000000 15.691204 -11.051524 -5.274106 -43.163978 7.534457 -13.920581 -111.911723 -74.303790 55.528753 0.000000 0.000000 0.000000 21.983469 14.002747 16.018866 35.253294 23.086470 -0.584107 -22.196588 55.932409 -13.277869 0.000000 0.000000 0.000000
-0.775810 0.156115 0.445620 -3.736494 -1.296969 -67.339250 14.728180 1.900689 -13.649573 -34.274379 4.682939 5.611550 14.249839 25.356721 12.262692 0.000000 0.000000 0.000000 33.669175 24.147364 -51.282150 -34.241210 31.350731 82.762684 13.833085 5.436476 38.215348 0.000000 0.000000 0.000000 -22.269416 -18.798304 -86.075458 -18.137222 10.415999 17.604016 84.374938 13.693460 98.904580 3.319552 -18.723064 27.783536 0.000000 0.000000 0.000000 14.392206 -11.435909 -6.955753 -38.789263 11.929719 -12.239494 -115.637850 -76.086936 61.184144 0.000000 0.000000 0.000000 21.927281 15.057154 15.526350 36.288460 23.685069 -0.249091 -6.244555 46.846761 -4.849119 0.000000 0.000000 0.000000
-0.776566 0.157053 0.442330 -3.386325 -0.339539 -67.484030 12.922385 1.445551 -12.138517 -34.549628 4.277642 4.555156 18.561261 31.603056 6.372019 0.000000 0.000000 0.000000 30.540753 22.030578 -50.120837 -34.946153 29.269791 77.126934 12.886528 7.524554 31.944550 0.000000 0.000000 0.000000 -19.183020 -17.057596 -88.084706 -18.952554 10.287746 14.605295 79.770930 8.625140 98.604134 3.968384 -16.208089 27.216502 0.000000 0.000000 0.000000 14.418838 -11.435825 -6.370837 -35.020138 11.093215 -10.937547 -129.823590 -82.236782 85.356668 0.000000 0.000000 0.000000 21.194302 14.627704 11.985136 38.138933 19.395520 -2.065447 1.305162 44.033625 -2.268481 0.000000 0.000000 0.000000
-0.776901 0.161845 0.440167 -3.323593 0.028880 -67.921590 10.251155 0.981037 -11.103272 -33.021505 4.296346 5.369114 22.273941 37.892514 -0.261332 0.000000 0.000000 0.000000 27.983057 19.666784 -46.634749 -34.886798 26.060727 70.166567 14.005992 11.260119 28.267897 0.000000 0.000000 0.000000 -16.785735 -15.419456 -89.417909 -16.879887 8.333610 9.543858 70.679749 5.831954 99.798749 0.907373 -13.892227 31.072106 0.000000 0.000000 0.000000 16.639465 -6.105494 -5.743822 -31.508613 5.468655 -9.396844 28.595151 -87.546600 -59.782098 0.000000 0.000000 0.000000 29.360083 13.220265 16.839900 32.583616 15.646360 -5.845860 4.416703 49.459265 -2.918239 0.000000 0.000000 0.000000
-0.776935 0.166949 0.439390 -2.620732 0.616689 -68.610617 9.253106 0.824869 -10.736841 -32.822145 4.584895 6.574561 22.454564 43.259816 -14.061853 0.000000 0.000000 0.000000 24.689319 16.806133 -42.086375 -30.775963 21.230941 64.635853 6.692826 7.791815 13.222275 0.000000 0.000000 0.000000 -13.375217 -12.511102 -90.899854 -16.498606 7.513585 4.862279 62.529676 4.095808 100.130928 -0.860455 -6.655206 30.021798 0.000000 0.000000 0.000000 17.872141 -4.733174 -3.681114 -27.888905 1.108923 -8.262371 39.824399 -76.665855 -59.052799 0.000000 0.000000 0.000000 31.432654 8.607276 16.021396 32.445808 8.343935 -9.389364 8.150163 61.611543 -0.904687 0.000000 0.000000 0.000000
-0.777338 0.174523 0.439670 -3.468238 0.193811 -69.002177 7.438068 0.487766 -8.519720 -27.199664 3.499385 4.383481 18.260526 36.712750 -20.451622 0.000000 0.000000 0.000000 22.854902 15.156123 -39.387958 -27.679981 18.556559 62.478441 3.188853 7.753893 -0.601253 0.000000 0.000000 0.000000 -13.415349 -12.612236 -90.890285 -13.494079 6.087408 3.855846 54.317747 6.240312 96.660660 2.061663 -7.545487 24.710846 0.000000 0.000000 0.000000 23.986159 0.641384 -1.629334 -32.164582 -7.487867 -9.299548 22.872545 -68.460708 -35.184844 0.000000 0.000000 0.000000 30.922692 3.383161 14.490246 33.545071 -3.271644 -12.731589 36.038376 74.462600 23.141936 0.000000 0.000000 0.000000
-0.776911 0.177012 0.438558 -4.171992 -0.987764 -69.450845 7.146780 0.451801 -7.472954 -26.018535 3.056937 2.492963 18.465612 40.655063 -27.134720 0.000000 0.000000 0.000000 21.602042 14.360188 -37.750403 -24.542313 16.370079 61.914902 -1.288959 3.744874 -16.089010 0.000000 0.000000 0.000000 -13.760323 -12.073758 -89.813991 -11.800425 5.254951 3.057370 46.103624 6.432770 91.642961 1.504097 -2.297581 19.379126 0.000000 0.000000 0.000000 27.561706 1.422847 0.446297 -40.078402 -11.806544 -11.899078 24.221366 -63.081274 -27.938218 0.000000 0.000000 0.000000 22.586524 -1.617175 7.218900 34.114062 -16.291374 -14.772425 99.176148 68.004114 78.531692 0.000000 0.000000 0.000000
-0.774813 0.176558 0.434787 -4.311604 -3.305453 -69.356537 8.445831 0.715270 -7.991066 -26.530349 3.638177 3.460654 15.877646 32.096205 -21.726142 0.000000 0.000000 0.000000 20.834157 15.068252 -39.706499 -22.327937 15.677808 62.890499 -2.699190 3.447878 -23.164173 0.000000 0.000000 0.000000 -15.782861 -11.999539 -89.300622 -9.955279 4.432282 2.938806 41.316415 6.859692 87.204966 4.926510 -1.548343 8.028321 0.000000 0.000000 0.000000 34.728537 2.748020 2.397239 -52.767374 -18.368540 -14.952445 14.192720 -63.008180 -15.819364 0.000000 0.000000 0.000000 6.675338 -3.966019 -1.886621 36.052350 -30.496281 -14.739033 95.350482 56.323505 70.520625 0.000000 0.000000 0.000000
-0.770287 0.173182 0.429393 -4.655847 -6.553657 -69.648707 10.818126 1.019734 -5.845448 -28.560802 3.029919 -1.186373 17.875750 36.401105 -17.809366 0.000000 0.000000 0.000000 20.238384 16.354777 -41.502117 -20.069842 14.091882 62.578215 -2.762771 1.044418 -20.890328 0.000000 0.000000 0.000000 -17.870822 -11.202421 -87.102471 -7.236050 3.056668 -0.036679 34.959909 3.890097 86.467595 7.431146 -3.767318 3.537571 0.000000 0.000000 0.000000 33.662807 -2.133824 2.951834 -63.310938 -20.929861 -16.715742 14.905491 -63.533200 -11.278194 0.000000 0.000000 0.000000 -6.167370 -4.844915 -6.914845 35.165301 -40.626216 -14.237592 99.706293 48.545436 67.010713 0.000000 0.000000 0.000000
-0.763250 0.171459 0.424874 -4.408290 -7.963389 -69.865796 10.534780 0.931218 -4.461395 -33.466852 3.145371 -3.393884 20.366095 38.445920 -7.753704 0.000000 0.000000 0.000000 17.780270 17.690293 -47.587870 -18.823798 14.576855 69.710893 -3.329558 -2.378136 -18.212847 0.000000 0.000000 0.000000 -19.565821 -11.586894 -86.670012 -6.769482 2.919209 2.438391 30.401090 2.253671 80.895975 4.517037 -0.656225 0.598218 0.000000 0.000000 0.000000 33.687609 -0.722378 2.157723 -73.858776 -19.805161 -16.443385 -1.652292 -64.483504 3.541680 0.000000 0.000000 0.000000 -18.086797 -4.709228 -8.789640 29.281644 -42.741811 -10.744272 113.370378 46.998480 80.140646 0.000000 0.000000 0.000000
-0.755398 0.171583 0.422446 -5.018841 -11.876838 -69.912836 12.803059 1.124430 -2.622079 -37.344659 2.989879 -6.789709 21.778883 37.810427 2.625212 0.000000 0.000000 0.000000 15.582516 19.375165 -52.428850 -14.223228 11.426720 74.480053 -3.019368 -3.603687 -12.827166 0.000000 0.000000 0.000000 -22.037889 -10.782471 -85.124951 -2.810163 1.136451 1.387934 24.614708 0.007120 78.367993 8.422366 -5.219149 -3.157959 0.000000 0.000000 0.000000 35.450979 -5.965135 2.410384 -81.689689 -22.754863 -13.003012 9.206287 -60.972831 -0.857500 0.000000 0.000000 0.000000 -22.936445 -4.382555 -7.931239 21.064004 -43.113300 -6.803184 122.788605 50.686371 92.011547 0.000000 0.000000 0.000000
-0.748347 0.170868 0.420971 -5.829108 -13.093427 -70.187414 13.083909 0.724157 1.870522 -41.846431 1.022028 -14.235216 22.377517 40.332542 2.667005 0.000000 0.000000 0.000000 10.046229 18.139799 -58.021753 -7.794876 6.307660 81.725460 -3.238811 -5.436028 -8.770932 0.000000 0.000000 0.000000 -24.518899 -11.886750 -82.373031 0.375850 -0.338035 2.503956 21.286545 -0.220850 74.293005 9.690582 -6.339750 -7.233935 0.000000 0.000000 0.000000 33.541454 -7.637668 2.012233 -85.642865 -25.514390 -7.142791 14.874262 -55.901918 -3.013742 0.000000 0.000000 0.000000 -25.154437 -7.575405 -7.124759 14.088911 -35.821909 -3.577350 129.818695 52.373353 100.269253 0.000000 0.000000 0.000000
-0.743634 0.174500 0.418147 -5.918474 -15.630326 -70.047682 16.538633 1.526050 -0.145847 -47.656809 2.247107 -13.007318 21.993791 43.974016 -5.880822 0.000000 0.000000 0.000000 8.081947 18.450236 -59.938652 -4.939513 4.366489 85.568760 -2.496762 -3.654355 -7.309027 0.000000 0.000000 0.000000 -25.653560 -10.764499 -81.831293 1.961538 -0.988682 1.185748 16.581142 -3.558501 73.637911 7.376981 -5.427203 -6.470467 0.000000 0.000000 0.000000 31.051132 -5.753062 0.721752 -87.790798 -22.379886 -5.209928 10.345657 -55.552756 -0.064646 0.000000 0.000000 0.000000 -24.357784 -4.367622 -5.121315 13.790884 -30.936545 -3.877326 137.223018 61.274952 116.081009 0.000000 0.000000 0.000000
-0.741477 0.178066 0.413172 -6.278189 -15.247741 -69.474695 17.975535 2.374533 -4.388348 -47.647675 3.201563 -9.664419 22.944475 42.313549 -0.330859 0.000000 0.000000 0.000000 4.324674 16.382620 -61.394304 -4.969351 5.255035 90.390307 -1.196925 -1.281890 -4.071128 0.000000 0.000000 0.000000 -27.237393 -12.564955 -81.545944 3.069077 -1.327362 -0.972923 15.112032 -4.039722 73.642778 9.148681 -6.674723 -9.872289 0.000000 0.000000 0.000000 32.223829 -7.314804 0.653375 -88.831127 -22.041652 -4.056251 14.400135 -53.128374 -2.459599 0.000000 0.000000 0.000000 -24.964587 -4.094727 -4.360237 20.321714 -21.840271 -5.661172 138.771961 69.612456 126.946477 0.000000 0.000000 0.000000
-0.740496 0.180556 0.405953 -5.806805 -16.368250 -69.656455 20.557516 4.067899 -10.372085 -49.159750 5.866981 -3.532141 23.591051 40.448266 4.580621 0.000000 0.000000 0.000000 3.005222 16.286752 -62.032889 -3.335045 3.812420 94.219290 -1.313806 -0.778553 -5.680401 0.000000 0.000000 0.000000 -27.376726 -11.693744 -81.655599 2.961193 -1.245063 -1.433561 13.609779 -4.685299 72.692325 7.734901 -5.795286 -8.807115 0.000000 0.000000 0.000000 32.296556 -7.670572 0.537293 -86.365050 -20.622092 -4.425543 6.227411 -48.783677 0.464207 0.000000 0.000000 0.000000 -23.494096 -1.421306 -3.341722 27.059545 -15.849625 -7.058102 135.603243 76.737939 129.354214 0.000000 0.000000 0.000000
-0.739461 0.182419 0.396772 -5.092624 -17.115566 -69.840836 22.927049 5.531448 -13.989861 -49.821993 8.051154 1.271008 24.548890 39.293994 10.401366 0.000000 0.000000 0.000000 0.726469 15.886951 -64.620354 -0.906287 0.398529 98.971949 1.454265 6.731730 -4.940973 0.000000 0.000000 0.000000 -26.685315 -10.347629 -82.400881 3.237800 -1.324066 -1.955075 10.058587 -6.679208 72.223342 6.946506 -6.034993 -7.297774 0.000000 0.000000 0.000000 29.081700 -7.812429 0.271493 -86.987517 -17.549190 -4.921374 7.423563 -43.235307 -0.173913 0.000000 0.000000 0.000000 -26.197309 0.142715 -2.517642 35.228564 -9.215595 -8.016975 135.836083 81.839705 133.293179 0.000000 0.000000 0.000000
-0.738179 0.181684 0.385200 -4.784853 -17.092369 -70.383316 19.439036 5.047345 -16.207869 -42.436267 8.742901 5.819748 23.986978 35.279310 17.331801 0.000000 0.000000 0.000000 -1.828454 14.419493 -66.647392 5.250923 -8.620077 100.967621 -1.777615 -2.117875 -5.172965 0.000000 0.000000 0.000000 -25.532965 -9.265290 -82.554650 3.123492 -1.198781 -3.048571 7.957552 -6.209705 71.517003 7.477123 -6.221355 -9.673132 0.000000 0.000000 0.000000 28.169175 -8.284512 0.382037 -85.600330 -15.169906 -6.328383 0.247713 -38.927803 1.720712 0.000000 0.000000 0.000000 -26.843347 -0.664272 -2.307966 40.426822 -3.880813 -7.749423 139.806344 84.296033 140.261152 0.000000 0.000000 0.000000
-0.737777 0.183820 0.370236 -2.886399 -17.561660 -71.097923 15.881739 4.169357 -16.483920 -34.320859 7.817970 7.567109 24.444599 32.585478 25.949471 0.000000 0.000000 0.000000 -0.834952 15.718202 -66.487486 9.526426 -13.998461 96.584714 -3.766415 -8.912088 -1.150660 0.000000 0.000000 0.000000 -23.170489 -6.361018 -84.868442 1.936053 -0.723992 -2.605115 5.441017 -7.181453 72.139309 2.513199 -2.381081 -5.506354 0.000000 0.000000 0.000000 24.585155 -6.239563 0.185286 -86.713673 -12.350934 -8.529112 2.929317 -40.174908 1.155491 0.000000 0.000000 0.000000 -24.959933 1.906945 -1.606795 38.802292 -2.613962 -7.453955 157.014024 84.639117 158.134488 0.000000 0.000000 0.000000
-0.738985 0.183411 0.354360 -2.663664 -16.289467 -70.853228 15.070331 4.122014 -18.503513 -32.461252 8.438712 12.060357 20.874141 28.605693 27.550557 0.000000 0.000000 0.000000 -1.275362 14.759498 -65.816876 11.219800 -15.932579 95.726272 -5.220883 -11.276745 -6.657356 0.000000 0.000000 0.000000 -21.916119 -6.454744 -87.028005 1.800048 -0.685070 -2.322376 3.189866 -7.209031 73.239674 2.959516 -3.259445 -3.692805 0.000000 0.000000 0.000000 21.919518 -8.019023 0.612927 -87.107156 -12.257470 -8.619383 8.212099 -38.562908 -0.457860 0.000000 0.000000 0.000000 -26.364681 -0.023075 -1.951377 44.012465 -2.580217 -8.628277 172.820407 78.252005 176.299122 0.000000 0.000000 0.000000
-0.742450 0.182018 0.338717 -1.464664 -16.652790 -70.825107 16.800787 5.113054 -20.650102 -32.224467 10.146403 17.731735 19.272408 27.335637 25.405675 0.000000 0.000000 0.000000 -0.914301 15.135550 -64.403607 12.251756 -14.513677 87.868360 -6.355273 -15.045601 -3.788252 0.000000 0.000000 0.000000 -20.993290 -4.909552 -89.023309 2.364763 -0.946112 -2.033097 -1.449347 -9.747134 73.902804 -0.088027 -1.102789 1.519757 0.000000 0.000000 0.000000 18.596152 -9.449943 0.739445 -90.253147 -11.639026 -6.852718 19.223851 -37.894805 -3.300325 0.000000 0.000000 0.000000 -29.311441 -0.645773 -1.414831 49.281962 -6.992998 -12.162914 168.121004 69.495695 167.565533 0.000000 0.000000 0.000000
-0.747545 0.183333 0.325873 -2.076814 -14.451544 -70.891866 18.673507 6.032556 -23.885119 -37.106078 13.083598 24.169647 21.758090 31.343284 19.375457 0.000000 0.000000 0.000000 -2.824971 12.774360 -64.425467 14.671826 -17.146959 86.359673 -9.098092 -21.179161 5.425406 0.000000 0.000000 0.000000 -20.440747 -6.335285 -88.169199 2.054741 -0.701786 -3.727262 -2.097309 -10.435349 76.272874 0.298258 -2.003085 3.447797 0.000000 0.000000 0.000000 13.324216 -13.295220 2.369918 -87.707983 -14.616266 -4.448760 24.824104 -33.982693 -3.911493 0.000000 0.000000 0.000000 -28.367950 -4.946229 -1.941108 49.834627 -9.243617 -14.005816 164.296751 62.493035 158.730500 0.000000 0.000000 0.000000
-0.752090 0.184077 0.316130 -1.208273 -15.209466 -71.578877 18.412070 7.166115 -29.079471 -31.964038 15.484661 37.825078 17.417222 29.399128 -4.500280 0.000000 0.000000 0.000000 -4.620298 11.989156 -63.768417 20.085318 -20.845771 82.139640 -13.872619 -28.739715 12.395385 0.000000 0.000000 0.000000 -19.845460 -4.839463 -89.258787 3.134628 -1.347532 -1.135951 -6.121478 -14.064279 76.376203 -2.493592 0.747745 6.766397 0.000000 0.000000 0.000000 6.461692 -15.267435 4.515093 -82.994935 -18.147386 -0.917223 25.356389 -27.402132 -2.761069 0.000000 0.000000 0.000000 -28.371984 -4.553273 -0.729410 52.493961 -8.761677 -16.165562 163.120512 59.625220 150.730878 0.000000 0.000000 0.000000
-0.755493 0.188789 0.309253 -1.933246 -14.678483 -71.305300 18.400551 8.402761 -36.958899 -30.522542 17.549433 50.785296 18.987686 36.878791 -20.047623 0.000000 0.000000 0.000000 -4.775804 10.253522 -57.671742 20.682996 -17.592775 75.692298 -11.435720 -24.579107 11.779609 0.000000 0.000000 0.000000 -19.593024 -5.235811 -88.983010 2.988848 -1.217569 -1.940023 -7.478309 -16.184506 78.685339 -4.490230 3.152724 8.238389 0.000000 0.000000 0.000000 0.470952 -14.634447 6.264211 -79.164241 -19.611986 -0.968656 27.340081 -27.626868 -2.503061 0.000000 0.000000 0.000000 -21.737249 -4.298622 -0.531107 48.617186 -8.502879 -15.649474 161.790590 61.988796 144.012953 0.000000 0.000000 0.000000
-0.757314 0.194633 0.304794 -2.025175 -14.411501 -71.181534 16.041783 8.226684 -43.183445 -24.362597 16.530774 63.771387 14.888412 32.895061 -37.131745 0.000000 0.000000 0.000000 -5.702551 7.952569 -49.536906 21.025126 -13.547928 67.202398 -11.393794 -25.219037 4.444823 0.000000 0.000000 0.000000 -18.770043 -4.662954 -89.181979 2.642178 -1.090737 -1.645915 -6.931120 -16.079021 77.829319 -4.759891 3.619066 8.396243 0.000000 0.000000 0.000000 1.968636 -16.959904 6.368206 -76.409919 -19.460489 -1.192350 20.514033 -26.612221 -2.073418 0.000000 0.000000 0.000000 -21.282086 -2.873186 -0.055636 49.197301 -8.917148 -16.061681 149.082085 67.375614 128.636319 0.000000 0.000000 0.000000
-0.758297 0.199785 0.302448 -1.448113 -14.369061 -71.353973 15.740805 9.202701 -49.736442 -23.711281 17.026267 71.687823 14.228796 34.047681 -40.816517 0.000000 0.000000 0.000000 -3.366528 7.056652 -39.567614 13.547345 -4.850830 57.948206 -8.463629 -19.591531 -8.513988 0.000000 0.000000 0.000000 -17.796453 -3.600112 -89.933304 2.345076 -0.987328 -1.302207 -7.160762 -16.923806 77.327564 -6.339055 5.288090 6.458768 0.000000 0.000000 0.000000 0.059509 -17.344191 7.358365 -74.623257 -19.058996 -2.130323 21.195892 -27.348125 -2.379581 0.000000 0.000000 0.000000 -20.358477 -2.431570 0.160475 47.191140 -7.502204 -14.823020 127.133484 69.582635 101.129138 0.000000 0.000000 0.000000
-0.759220 0.200759 0.301647 -1.307668 -14.028219 -71.042601 17.100614 10.997070 -57.411516 -27.492577 21.320121 79.155500 12.705956 34.460391 -45.108395 0.000000 0.000000 0.000000 -4.463939 4.653711 -31.134355 11.645892 -2.106069 45.386298 -7.776711 -15.377614 -18.667625 0.000000 0.000000 0.000000 -17.271717 -3.267250 -90.593786 2.051264 -0.959901 0.126433 -7.178657 -17.675804 76.316441 -6.763082 5.941487 7.017060 0.000000 0.000000 0.000000 -1.340515 -16.176786 7.365683 -73.159203 -16.791875 -3.772956 16.166569 -28.212486 -1.680103 0.000000 0.000000 0.000000 -23.713734 -3.162592 0.471457 50.933038 -7.317956 -16.568926 111.045857 66.375813 79.887953 0.000000 0.000000 0.000000
-0.761738 0.205228 0.301051 -1.143596 -16.173995 -71.421309 13.453489 9.363998 -56.921242 -18.880389 15.543765 85.012831 11.589985 25.844202 -54.590991 0.000000 0.000000 0.000000 -1.854194 4.482574 -25.777259 6.657326 0.658056 35.963458 -6.702919 -13.772023 -8.709232 0.000000 0.000000 0.000000 -18.097816 -2.010670 -89.014020 2.682773 -1.118716 -1.508517 -6.797445 -18.287547 75.846665 -4.762325 3.668396 9.179786 0.000000 0.000000 0.000000 -1.020681 -15.459008 7.044872 -70.895423 -11.935001 -7.235214 7.733380 -33.292098 -0.128641 0.000000 0.000000 0.000000 -21.491507 -3.043878 0.438847 50.596149 -11.511285 -18.137244 103.377670 62.651028 66.712780 0.000000 0.000000 0.000000
-0.766038 0.208829 0.299748 -0.849638 -17.319699 -71.288230 11.782851 8.130764 -53.152863 -12.912826 10.076438 81.653520 11.712250 17.650387 -50.836510 0.000000 0.000000 0.000000 -2.355609 4.079853 -24.502219 6.130201 0.744571 30.918156 -3.650334 -11.460978 8.098934 0.000000 0.000000 0.000000 -18.696724 -1.297389 -87.878246 2.381386 -1.038852 -0.738624 -5.484468 -19.028065 76.007600 -5.592665 5.242759 10.733339 0.000000 0.000000 0.000000 -3.495046 -10.971667 6.212037 -68.343658 -9.760346 -9.537371 -0.075134 -37.963868 3.150454 0.000000 0.000000 0.000000 -19.807429 -3.077060 0.253263 55.786922 -11.955077 -21.182600 93.918446 63.260971 60.599138 0.000000 0.000000 0.000000
-0.772191 0.216165 0.298874 -0.821102 -18.781957 -71.073881 12.489009 7.401188 -42.189606 -10.541550 8.111725 66.880359 11.592131 13.492209 -49.958099 0.000000 0.000000 0.000000 0.438721 5.161671 -24.863406 1.129472 2.111763 25.637593 -0.521730 -5.278362 7.791621 0.000000 0.000000 0.000000 -19.691641 -1.018667 -87.372362 2.965923 -1.213848 -1.775557 -4.413163 -17.076943 78.472132 -4.044498 3.782579 14.386627 0.000000 0.000000 0.000000 -3.754814 -9.060475 5.327348 -65.863529 -9.367113 -11.419662 -1.217914 -38.512946 3.909019 0.000000 0.000000 0.000000 -15.140591 -1.760114 -0.416153 62.294419 -13.791223 -24.982170 99.676794 69.307356 78.491287 0.000000 0.000000 0.000000
-0.778980 0.216580 0.300805 -1.096751 -19.745221 -71.017362 12.479814 5.403291 -29.895137 -9.268569 5.618375 40.471784 7.452114 2.116497 -39.368142 0.000000 0.000000 0.000000 0.108838 5.981987 -28.209614 1.176395 2.392930 28.421361 -3.437074 -8.838039 1.020659 0.000000 0.000000 0.000000 -20.779485 -1.307507 -85.994979 2.229224 -1.098379 1.147337 -1.390958 -18.386614 75.047379 -3.608838 2.774204 12.010995 0.000000 0.000000 0.000000 -6.716708 -8.015728 5.931618 -62.520881 -6.127504 -13.111802 -6.799949 -40.105020 5.838905 0.000000 0.000000 0.000000 -15.277542 -1.289550 0.023901 68.059374 -12.754750 -27.406546 93.046673 68.623247 72.793840 0.000000 0.000000 0.000000
-0.784921 0.219123 0.306174 -0.844634 -22.272190 -70.259078 11.870635 3.669433 -18.241484 -6.428484 2.353367 15.638068 4.225760 3.799224 -24.380345 0.000000 0.000000 0.000000 2.623320 8.159509 -31.320758 -0.162759 3.149456 29.548710 -2.631324 -7.218105 1.102986 0.000000 0.000000 0.000000 -21.981517 -0.087011 -84.682022 3.748554 -1.779112 0.954842 -0.354750 -17.943284 74.415612 -2.533517 1.817830 15.584761 0.000000 0.000000 0.000000 -3.055485 -9.318233 5.162401 -63.993926 -3.892636 -13.929060 -9.475055 -40.248514 6.476588 0.000000 0.000000 0.000000 -11.643023 -3.915847 -1.234699 68.920777 -9.232715 -25.141523 68.954573 72.201225 56.632774 0.000000 0.000000 0.000000
-0.790073 0.215267 0.314234 -0.610479 -24.902401 -69.974816 12.760167 3.097808 -11.878826 -7.250693 1.233378 -1.166919 0.518999 4.293293 14.889824 0.000000 0.000000 0.000000 2.431870 8.546025 -32.048633 4.052295 1.818879 29.316339 -6.613303 -15.203214 -5.473824 0.000000 0.000000 0.000000 -23.590491 0.820066 -82.927349 4.944204 -2.363536 1.544563 0.947206 -19.980249 74.323663 -1.517552 -0.123515 14.487551 0.000000 0.000000 0.000000 -9.686567 -7.806106 6.895780 -55.422166 -2.153943 -14.805569 -12.630728 -44.675131 8.626634 0.000000 0.000000 0.000000 -7.290050 -1.256843 -0.543694 67.628179 -3.413981 -22.429869 38.010369 72.319319 31.472845 0.000000 0.000000 0.000000
-0.794354 0.213408 0.323866 -0.094641 -26.810090 -69.607574 12.908432 2.894009 -9.678467 -7.197639 0.768643 -11.023379 -5.459957 1.877289 37.264224 0.000000 0.000000 0.000000 3.612607 8.769892 -31.145171 5.036308 1.720998 29.193662 -10.613747 -25.794089 -17.253824 0.000000 0.000000 0.000000 -24.247496 1.946099 -81.856433 6.172521 -2.961318 1.940594 1.095682 -19.025145 74.083216 0.445148 -3.244816 14.411032 0.000000 0.000000 0.000000 -7.154377 -5.335295 4.846814 -55.503969 0.426735 -15.554969 -20.509735 -45.098273 12.364044 0.000000 0.000000 0.000000 -5.806873 1.841009 0.578336 66.065892 4.048188 -17.832378 12.318418 61.797147 10.607993 0.000000 0.000000 0.000000
-0.798369 0.206198 0.333533 -0.487521 -27.442631 -69.053776 9.186879 1.756397 -7.741114 -2.520213 0.592404 -17.221993 -7.397433 1.828602 43.981200 0.000000 0.000000 0.000000 2.661553 6.273273 -25.008960 9.199116 0.164029 23.017694 -11.809880 -30.814028 -39.137566 0.000000 0.000000 0.000000 -24.448712 2.254875 -82.437872 6.515612 -3.345121 4.132218 1.632894 -17.908129 77.210765 3.426156 -8.854021 27.419577 0.000000 0.000000 0.000000 -16.867327 -7.087737 8.565190 -45.398294 -2.494593 -14.881829 -10.866900 -44.665731 6.857185 0.000000 0.000000 0.000000 6.256574 3.241913 0.459230 55.285351 11.344748 -13.115941 4.944948 54.579913 6.059870 0.000000 0.000000 0.000000
-0.802295 0.198614 0.342567 1.407876 -30.100951 -70.385771 9.457006 1.830441 -6.788832 0.308138 0.548661 -16.367136 -13.728233 -1.372495 50.070713 0.000000 0.000000 0.000000 1.526519 4.779516 -20.882401 15.550073 -0.798783 20.295339 -12.213409 -28.432193 -51.570118 0.000000 0.000000 0.000000 -24.921575 4.345251 -83.147603 7.811218 -4.002160 4.216271 2.166670 -17.583958 83.117861 2.377355 -8.214554 26.686220 0.000000 0.000000 0.000000 -17.675756 -7.561992 8.691677 -39.525472 -2.257316 -14.463556 -18.819579 -52.988972 11.006172 0.000000 0.000000 0.000000 8.401167 4.688425 1.867199 50.279116 19.315919 -11.414266 -7.446564 46.154476 0.674413 0.000000 0.000000 0.000000
-0.806987 0.201296 0.351439 1.133573 -29.977013 -68.374018 7.203396 1.455173 -9.159612 3.415180 0.131375 -11.841438 -16.260280 -4.481242 47.645651 0.000000 0.000000 0.000000 -0.262441 3.078775 -16.746847 15.037425 -0.632391 12.007624 -11.213428 -37.056851 -55.876824 0.000000 0.000000 0.000000 -27.113626 2.957754 -86.074466 8.521561 -4.744720 6.830103 3.631424 -18.872001 83.450749 5.490082 -15.345302 22.801495 0.000000 0.000000 0.000000 -20.865516 -12.517860 12.353740 -35.395223 1.149427 -13.963267 -6.652042 -48.496870 2.265149 0.000000 0.000000 0.000000 12.103969 9.368186 4.238824 45.061252 19.836481 -10.950805 -14.855584 45.842716 -2.655657 0.000000 0.000000 0.000000
