HIERARCHY
ROOT Hips
{
	OFFSET -0.001795 -0.223333 0.028219
	CHANNELS 6 Xposition Yposition Zposition Zrotation Yrotation Xrotation
	JOINT LeftUpLeg
	{
		OFFSET 0.069520 -0.091406 -0.006815
		CHANNELS 3 Zrotation Yrotation Xrotation
		JOINT LeftLeg
		{
			OFFSET 0.034277 -0.375199 -0.004496
			CHANNELS 3 Zrotation Yrotation Xrotation
			JOINT LeftFoot
			{
				OFFSET -0.013596 -0.397961 -0.043693
				CHANNELS 3 Zrotation Yrotation Xrotation
				JOINT LeftToe
				{
					OFFSET 0.026358 -0.055791 0.119288
					CHANNELS 3 Zrotation Yrotation Xrotation
					End Site
					{
						OFFSET 0.000000 0.000000 0.000000
					}
				}
			}
		}
	}
	JOINT RightUpLeg
	{
		OFFSET -0.067670 -0.090522 -0.004320
		CHANNELS 3 Zrotation Yrotation Xrotation
		JOINT RightLeg
		{
			OFFSET -0.038290 -0.382569 -0.008850
			CHANNELS 3 Zrotation Yrotation Xrotation
			JOINT RightFoot
			{
				OFFSET 0.015774 -0.398415 -0.042312
				CHANNELS 3 Zrotation Yrotation Xrotation
				JOINT RightToe
				{
					OFFSET -0.025372 -0.048144 0.123348
					CHANNELS 3 Zrotation Yrotation Xrotation
					End Site
					{
						OFFSET 0.000000 0.000000 0.000000
					}
				}
			}
		}
	}
	JOINT Spine
	{
		OFFSET -0.002533 0.108963 -0.026696
		CHANNELS 3 Zrotation Yrotation Xrotation
		JOINT Spine1
		{
			OFFSET 0.005487 0.135180 0.001092
			CHANNELS 3 Zrotation Yrotation Xrotation
			JOINT Spine2
			{
				OFFSET 0.001457 0.052922 0.025425
				CHANNELS 3 Zrotation Yrotation Xrotation
				JOINT Neck
				{
					OFFSET -0.002778 0.213870 -0.042857
					CHANNELS 3 Zrotation Yrotation Xrotation
					JOINT Head
					{
						OFFSET 0.005152 0.064970 0.051349
						CHANNELS 3 Zrotation Yrotation Xrotation
						End Site
						{
							OFFSET 0.000000 0.000000 0.000000
						}
					}
				}
				JOINT LeftShoulder
				{
					OFFSET 0.078845 0.121749 -0.034090
					CHANNELS 3 Zrotation Yrotation Xrotation
					JOINT LeftArm
					{
						OFFSET 0.090977 0.030469 -0.008868
						CHANNELS 3 Zrotation Yrotation Xrotation
						JOINT LeftForeArm
						{
							OFFSET 0.259612 -0.012772 -0.027456
							CHANNELS 3 Zrotation Yrotation Xrotation
							JOINT LeftHand
							{
								OFFSET 0.249234 0.008986 -0.001171
								CHANNELS 3 Zrotation Yrotation Xrotation
								End Site
								{
									OFFSET 0.000000 0.000000 0.000000
								}
							}
						}
					}
				}
				JOINT RightShoulder
				{
					OFFSET -0.081759 0.118833 -0.038615
					CHANNELS 3 Zrotation Yrotation Xrotation
					JOINT RightArm
					{
						OFFSET -0.096012 0.032551 -0.009143
						CHANNELS 3 Zrotation Yrotation Xrotation
						JOINT RightForeArm
						{
							OFFSET -0.253742 -0.013329 -0.021401
							CHANNELS 3 Zrotation Yrotation Xrotation
							JOINT RightHand
							{
								OFFSET -0.255298 0.007772 -0.005559
								CHANNELS 3 Zrotation Yrotation Xrotation
								End Site
								{
									OFFSET 0.000000 0.000000 0.000000
								}
							}
						}
					}
				}
			}
		}
	}
}
MOTION
Frames: 76
Frame Time: 0.050000
0.000000 0.931243 0.000000 -1.968083 3.413154 -3.256506 1.755437 0.689002 10.328924 0.787862 -0.014948 -1.619262 -1.501678 -2.958499 0.400901 0.000000 0.000000 0.000000 3.109126 -1.163232 8.417456 0.960368 -0.123822 -0.448939 -0.738758 -2.161385 0.599479 0.000000 0.000000 0.000000 0.872533 0.031086 -0.582299 0.590451 -0.505713 4.478962 -1.660407 0.345663 1.638503 6.223266 -2.762648 -13.121219 0.000000 0.000000 0.000000 -30.609297 -4.792908 -1.173001 -46.917287 0.485944 -5.168404 -2.398634 -17.381123 0.931466 0.000000 0.000000 0.000000 28.677720 2.054379 -0.622581 54.954359 4.486904 -3.352008 -3.270807 22.002384 0.248120 0.000000 0.000000 0.000000
-0.000285 0.931047 0.000278 -1.889857 3.734865 -2.985569 1.822479 0.666882 10.221064 0.636531 0.013947 -1.994643 -1.660223 -3.250940 0.467186 0.000000 0.000000 0.000000 2.912312 -1.126446 8.238663 1.297624 -0.166047 -0.592897 -0.835160 -2.398551 0.582048 0.000000 0.000000 0.000000 0.894156 0.071492 -1.463366 0.629997 -0.632713 6.261250 -1.957097 0.239932 0.804678 7.399959 -3.118169 -15.283124 0.000000 0.000000 0.000000 -30.527540 -4.762809 -1.250249 -46.727678 1.006289 -5.256132 -2.594351 -18.538318 1.016648 0.000000 0.000000 0.000000 27.770708 2.115999 -0.549104 56.640395 4.955049 -3.106985 -3.504796 21.896758 0.199894 0.000000 0.000000 0.000000
-0.000413 0.930287 0.000247 -1.377322 3.560871 -2.939130 1.553838 0.712996 10.408129 0.085069 0.072399 -2.310902 -1.673353 -3.238848 0.541150 0.000000 0.000000 0.000000 2.475536 -1.118661 8.478810 1.046567 -0.151093 -1.042216 -0.847670 -2.270703 0.188513 0.000000 0.000000 0.000000 0.834224 0.030665 -0.598692 0.526590 -0.434491 3.725082 -1.708079 -0.685708 2.677701 6.439854 -2.776610 -14.695585 0.000000 0.000000 0.000000 -29.999053 -5.030451 -0.490170 -47.725134 -0.544428 -5.106177 -0.866602 -17.026027 0.721996 0.000000 0.000000 0.000000 27.844222 4.195746 0.460807 55.217992 5.519412 -2.866275 -2.325574 20.465377 0.343874 0.000000 0.000000 0.000000
-0.000625 0.930167 0.000131 -1.112815 3.317307 -3.418174 0.914078 0.846260 11.227654 0.701040 0.038409 -2.772463 -1.604947 -3.012582 0.686210 0.000000 0.000000 0.000000 2.331008 -1.156253 8.909271 0.718217 -0.110231 -0.863529 -0.823248 -2.103240 -0.060287 0.000000 0.000000 0.000000 0.599871 0.018395 -0.337178 0.267226 -0.348259 4.875601 -1.371739 -0.660392 2.120372 6.360029 -2.606007 -15.533274 0.000000 0.000000 0.000000 -29.755654 -5.145584 -0.339397 -48.304027 -0.942365 -5.001783 -0.619783 -17.767008 0.716350 0.000000 0.000000 0.000000 27.910076 5.237519 1.029008 55.029713 6.163629 -2.495910 -2.264320 20.024360 0.330897 0.000000 0.000000 0.000000
-0.000840 0.930435 -0.000224 -0.722508 3.458106 -3.299390 0.656716 0.879094 11.315332 0.466671 0.073476 -3.205347 -1.802716 -3.191177 1.088498 0.000000 0.000000 0.000000 2.079473 -1.139088 8.942104 0.468281 -0.093253 -1.142685 -0.886763 -2.268912 -0.058481 0.000000 0.000000 0.000000 0.366613 0.007275 -0.116877 0.214192 -0.333422 5.114726 -1.318209 -0.953693 1.541046 5.753136 -2.196868 -15.876192 0.000000 0.000000 0.000000 -29.859555 -5.389796 -0.105536 -48.258898 -1.442936 -4.781174 -0.023977 -17.519284 0.619680 0.000000 0.000000 0.000000 28.105498 6.060160 1.426334 53.868189 6.444512 -2.241717 -1.704822 18.371281 0.366704 0.000000 0.000000 0.000000
-0.000896 0.930740 -0.000481 -0.510624 3.702273 -2.945789 0.666275 0.870937 11.293014 0.104122 0.125123 -3.925210 -2.060454 -3.459815 1.535552 0.000000 0.000000 0.000000 1.966268 -1.121676 8.852841 0.338922 -0.098878 -1.669882 -0.942292 -2.489260 0.126575 0.000000 0.000000 0.000000 0.033789 0.015128 -0.359372 0.225337 -0.328735 4.796475 -1.025396 -1.134166 1.980262 5.076414 -1.748109 -16.386868 0.000000 0.000000 0.000000 -29.471220 -5.333686 -0.035063 -48.892396 -2.133208 -4.637488 0.196312 -17.831331 0.604494 0.000000 0.000000 0.000000 28.047975 6.651000 1.780092 53.301195 6.657435 -2.155810 -1.409435 17.132005 0.378835 0.000000 0.000000 0.000000
-0.000836 0.931692 -0.000726 -0.395869 3.934375 -2.561603 0.351198 0.887934 11.124021 0.487238 0.118088 -4.469666 -2.269856 -3.575724 2.057765 0.000000 0.000000 0.000000 1.997737 -1.078352 8.461736 0.131837 -0.080649 -1.737628 -0.996472 -2.754731 0.444804 0.000000 0.000000 0.000000 -0.236488 0.010934 -0.284764 0.348964 -0.377603 4.350316 -0.946570 -1.240433 2.195472 5.194614 -1.772749 -16.784941 0.000000 0.000000 0.000000 -29.487953 -5.207068 -0.103453 -48.712340 -2.509327 -4.488860 0.306444 -17.899118 0.592692 0.000000 0.000000 0.000000 28.004090 7.017616 2.026727 52.718101 6.758490 -2.108901 -1.499726 16.480205 0.353650 0.000000 0.000000 0.000000
-0.000732 0.932651 -0.000985 -0.421325 4.212431 -2.506002 0.078740 0.925745 11.313500 1.094926 0.101695 -5.033176 -2.474073 -3.709238 2.514643 0.000000 0.000000 0.000000 1.953358 -1.032748 8.110450 0.331650 -0.082411 -1.233319 -1.063888 -3.018545 0.685052 0.000000 0.000000 0.000000 -0.390359 -0.012300 0.348147 0.424350 -0.380519 3.551062 -0.747300 -1.129575 2.437649 5.245895 -1.798657 -16.702420 0.000000 0.000000 0.000000 -30.100472 -6.024085 0.312267 -48.189385 -3.178076 -4.167466 1.181988 -17.014372 0.432262 0.000000 0.000000 0.000000 28.663728 7.255477 2.278332 52.094097 6.935817 -2.072279 -2.331384 15.022776 0.236768 0.000000 0.000000 0.000000
-0.000518 0.933638 -0.001416 -0.441625 4.769848 -2.358164 0.142001 0.908359 11.357765 1.153732 0.120605 -5.586114 -2.851957 -4.136646 3.032575 0.000000 0.000000 0.000000 1.884916 -1.008195 7.916372 0.619780 -0.111676 -1.187338 -1.185481 -3.473111 1.094607 0.000000 0.000000 0.000000 -0.353190 -0.032925 0.915669 0.384057 -0.364870 3.508945 -0.754729 -1.250437 1.874241 5.526448 -1.860517 -17.253786 0.000000 0.000000 0.000000 -30.017704 -6.427152 0.490211 -48.220131 -3.835711 -3.843705 1.554578 -15.871529 0.346107 0.000000 0.000000 0.000000 28.677337 7.505161 2.485420 52.536525 6.716809 -2.144801 -3.079174 14.534792 0.151693 0.000000 0.000000 0.000000
-0.000307 0.935159 -0.002024 -0.761190 4.656269 -2.175597 0.519883 0.870957 11.420010 1.030006 0.149806 -6.175152 -2.977320 -4.015489 3.658475 0.000000 0.000000 0.000000 2.107233 -0.992417 7.654273 0.785296 -0.131245 -1.251558 -1.022579 -3.314776 1.788223 0.000000 0.000000 0.000000 0.068163 -0.075860 1.881244 0.369297 -0.321705 2.876166 -0.682813 -1.074855 1.177527 4.922819 -1.427262 -17.636075 0.000000 0.000000 0.000000 -30.105788 -6.307013 0.311234 -49.026710 -4.305279 -3.644440 2.780576 -13.776445 0.151416 0.000000 0.000000 0.000000 28.563497 7.581404 2.564634 52.683110 6.776391 -2.072793 -3.575916 13.580880 0.096320 0.000000 0.000000 0.000000
-0.000089 0.936267 -0.002513 -0.956908 4.284275 -1.783367 0.693894 0.813998 10.784388 0.932755 0.142159 -5.836184 -2.847573 -3.659998 3.862103 0.000000 0.000000 0.000000 2.380403 -0.967429 7.306685 0.562046 -0.117606 -1.558114 -0.814946 -2.999681 2.307416 0.000000 0.000000 0.000000 0.390249 -0.100548 2.295244 0.296300 -0.284754 2.953055 -0.654695 -0.441583 0.568024 5.165752 -1.457534 -18.017059 0.000000 0.000000 0.000000 -30.632569 -6.877301 0.442149 -48.421898 -5.393937 -3.044389 2.714096 -11.942748 0.131756 0.000000 0.000000 0.000000 28.837505 7.692625 2.795007 52.329590 7.788755 -1.618220 -3.648290 11.042636 0.087958 0.000000 0.000000 0.000000
-0.000013 0.938714 -0.002367 -1.217646 4.163772 -1.918939 0.927236 0.742336 10.104816 0.974952 0.083784 -4.396277 -2.824799 -3.452504 4.151153 0.000000 0.000000 0.000000 2.885209 -0.831795 6.027774 0.164521 0.014266 0.918562 -0.849966 -3.191973 2.601881 0.000000 0.000000 0.000000 0.650890 -0.167646 3.579154 0.600941 -0.403311 2.253234 -0.864815 0.007135 -0.710595 5.111113 -1.338704 -18.113902 0.000000 0.000000 0.000000 -30.539575 -6.697269 0.064102 -49.289814 -5.283277 -2.974143 3.426178 -11.281286 0.042487 0.000000 0.000000 0.000000 28.997305 8.228665 3.288668 52.191633 8.281081 -1.342144 -4.536787 9.401021 0.033461 0.000000 0.000000 0.000000
-0.000163 0.941153 -0.001591 -1.364856 4.725111 -2.182669 1.170998 0.673529 9.645320 1.019081 0.031819 -3.170110 -3.155447 -3.803649 4.594176 0.000000 0.000000 0.000000 2.987023 -0.743834 5.331720 0.453501 0.035712 2.737362 -1.017530 -3.786384 3.216301 0.000000 0.000000 0.000000 0.938848 -0.260476 5.190787 0.263087 -0.194051 1.433253 -0.301441 0.134849 -1.908063 5.128143 -1.322871 -17.925865 0.000000 0.000000 0.000000 -30.594324 -6.728686 -0.085596 -49.448360 -5.317749 -2.834629 4.217217 -11.755960 -0.048523 0.000000 0.000000 0.000000 27.776688 7.801114 3.032431 51.997415 8.276480 -1.237945 -3.667623 8.381342 0.082206 0.000000 0.000000 0.000000
-0.000550 0.944954 -0.000998 -1.694420 4.583622 -2.992395 1.030374 0.659614 9.191761 1.924404 -0.155043 -0.827974 -3.132764 -3.429682 5.169466 0.000000 0.000000 0.000000 3.161408 -0.629147 4.464586 0.684372 0.069365 5.096483 -0.759203 -3.954588 5.523398 0.000000 0.000000 0.000000 1.269827 -0.305043 5.775048 0.595758 -0.394338 2.083943 -0.769193 0.826213 -3.243674 5.787113 -1.585591 -17.989617 0.000000 0.000000 0.000000 -31.109460 -6.920295 -0.372808 -49.276187 -5.652911 -2.473070 5.105492 -12.508595 -0.174391 0.000000 0.000000 0.000000 27.066762 9.062669 4.047069 52.574616 9.740406 -0.538734 -4.312452 8.782302 0.049316 0.000000 0.000000 0.000000
-0.000872 0.948127 -0.003108 -1.377939 5.092081 -3.707635 1.017191 0.633144 8.894346 1.511779 -0.188873 0.693633 -3.627737 -3.793037 6.107972 0.000000 0.000000 0.000000 2.181185 -0.391792 3.012893 1.511287 -0.018265 8.110490 -0.309356 -3.718107 7.981469 0.000000 0.000000 0.000000 1.400567 -0.346741 6.438097 0.346147 -0.248896 1.698529 -1.004032 1.674602 -3.961013 5.513261 -1.386999 -17.466722 0.000000 0.000000 0.000000 -29.480798 -8.472862 0.273659 -50.729480 -6.597432 -1.987550 4.961064 -13.483337 -0.206133 0.000000 0.000000 0.000000 25.395989 9.438784 4.590520 51.976205 12.730665 0.748340 -4.412238 9.141037 0.048445 0.000000 0.000000 0.000000
-0.000808 0.952288 -0.013049 -1.429472 4.732866 -5.299518 0.503671 0.638468 8.247186 1.926930 -0.378351 3.260140 -3.169384 -1.951266 7.939993 0.000000 0.000000 0.000000 2.844094 -0.178296 1.293147 0.462082 0.273838 11.729252 -0.354629 -5.096202 12.222871 0.000000 0.000000 0.000000 1.837746 -0.388254 6.923247 -0.085516 -0.054097 2.314085 -1.475002 2.272414 -4.898586 6.514552 -1.731302 -18.455139 0.000000 0.000000 0.000000 -25.966640 -10.277045 1.414939 -50.774938 -8.657021 -1.071262 6.232403 -16.056779 -0.467166 0.000000 0.000000 0.000000 22.281921 11.375656 5.708463 50.046725 16.651314 2.415932 -6.928777 10.368316 -0.119484 0.000000 0.000000 0.000000
-0.000135 0.956562 -0.038744 -1.529944 4.273235 -6.657760 -0.624338 0.471139 5.231477 2.699971 -0.806301 8.103989 -1.712121 1.192391 9.157665 0.000000 0.000000 0.000000 2.962095 0.052029 -0.435665 0.306963 0.376729 14.201284 -0.181883 -5.446230 14.480758 0.000000 0.000000 0.000000 2.464018 -0.513609 8.472523 -1.131325 0.574540 -0.159267 -0.963611 2.749592 -3.253824 6.257215 -1.768403 -17.465647 0.000000 0.000000 0.000000 -21.285310 -12.177057 2.819078 -47.406589 -16.070651 1.682892 7.141767 -14.291470 -0.509870 0.000000 0.000000 0.000000 17.963022 14.804821 7.321298 42.754931 20.663099 3.181754 -7.616416 10.273366 -0.162280 0.000000 0.000000 0.000000
0.000440 0.957068 -0.083623 -1.533316 3.678494 -8.600489 -0.448011 0.148853 1.689946 0.086205 -0.573746 13.102426 -4.841643 -4.351059 9.282135 0.000000 0.000000 0.000000 2.823969 0.563156 -4.420063 2.328257 -0.077804 20.723772 -2.483309 -9.049143 11.063339 0.000000 0.000000 0.000000 2.589226 -0.763190 12.158531 -0.227485 0.147488 -0.498285 -2.586306 5.081925 -3.235854 8.176004 -2.765763 -16.866721 0.000000 0.000000 0.000000 -12.004486 -16.366145 4.716767 -38.014592 -23.195726 3.350465 10.202436 -14.244619 -0.962409 0.000000 0.000000 0.000000 10.237800 17.188456 7.927466 32.664226 24.506594 3.109612 -7.393494 7.851352 -0.061631 0.000000 0.000000 0.000000
-0.000546 0.953478 -0.142889 -1.904604 2.957364 -10.032633 -0.652459 -0.364545 -3.705276 -0.610518 -0.730914 20.333445 -4.148604 -2.833469 9.969784 0.000000 0.000000 0.000000 2.997771 1.100793 -8.604656 1.983750 0.094747 24.567530 -1.482440 -6.834237 9.758291 0.000000 0.000000 0.000000 3.371073 -0.992714 14.474989 -0.779997 0.424371 -0.634999 -1.528489 4.950488 -3.132986 8.379451 -2.990962 -16.728818 0.000000 0.000000 0.000000 -4.107087 -18.210385 5.733110 -23.167914 -23.633831 1.632618 13.495115 -12.178461 -1.172350 0.000000 0.000000 0.000000 0.742290 21.919183 8.122315 20.687289 24.044597 1.550025 -2.746235 2.832461 0.083324 0.000000 0.000000 0.000000
-0.002507 0.943019 -0.210407 -2.089263 0.269803 -10.880206 0.423776 -0.741047 -8.455943 -4.653982 0.616089 27.543794 1.268840 3.251143 1.409633 0.000000 0.000000 0.000000 2.087163 1.598270 -13.345594 2.309767 0.269141 28.336994 -1.209842 -5.204944 5.550253 0.000000 0.000000 0.000000 2.367465 -1.124527 18.947500 0.060470 0.075815 -3.463300 -0.582460 7.410581 -0.835950 5.363708 -1.269080 -16.039436 0.000000 0.000000 0.000000 4.249587 -17.626434 5.573964 -7.974296 -20.104082 -0.257718 10.851432 -7.795777 -0.576080 0.000000 0.000000 0.000000 -11.424310 22.386880 5.835363 13.184267 20.357887 0.349324 1.307824 1.850863 0.043570 0.000000 0.000000 0.000000
-0.004884 0.927691 -0.279513 -2.455958 -1.919346 -11.641255 2.327370 -0.758127 -11.397983 -8.143325 2.389658 33.034960 4.432522 7.362058 -6.586089 0.000000 0.000000 0.000000 1.144070 2.058961 -18.040450 3.654189 0.128345 35.344311 -4.860887 -12.509989 2.562363 0.000000 0.000000 0.000000 1.401259 -1.016999 20.900484 0.198709 -0.060495 -1.915112 -0.053371 9.556364 -1.220241 5.648897 -1.690920 -13.944201 0.000000 0.000000 0.000000 11.484474 -14.386539 5.118041 2.009364 -14.328210 -0.735052 6.088174 -0.455224 -0.045981 0.000000 0.000000 0.000000 -15.110118 19.721295 4.444004 2.770055 14.228008 -0.504494 4.352323 1.199309 -0.021802 0.000000 0.000000 0.000000
-0.008099 0.908941 -0.350962 -2.357110 -4.480974 -11.739327 1.666967 -0.772752 -10.897198 -9.879085 3.587498 33.272120 8.031127 15.494745 -13.308304 0.000000 0.000000 0.000000 1.520937 2.362331 -19.480546 5.842888 -0.274376 43.419979 -8.785208 -21.012887 -1.721450 0.000000 0.000000 0.000000 0.247080 -0.805642 23.587411 -0.389162 0.210195 -3.227455 2.124421 9.790151 0.956410 4.426139 -1.090578 -13.736863 0.000000 0.000000 0.000000 19.924696 -11.554309 4.801639 3.383592 -5.944632 -0.114143 1.046004 4.742048 -0.139337 0.000000 0.000000 0.000000 -21.526511 16.269449 2.885594 -1.520987 9.694749 -0.396423 6.176221 -0.476391 -0.184098 0.000000 0.000000 0.000000
-0.009528 0.892774 -0.427966 -4.361354 -5.842739 -11.011559 2.602886 -0.571125 -9.692918 -9.200678 3.150105 29.685941 9.613846 20.380512 -19.196242 0.000000 0.000000 0.000000 2.564994 2.523990 -19.175868 9.340159 -1.907468 52.602607 -10.991450 -26.344344 -2.983981 0.000000 0.000000 0.000000 0.838828 -0.927719 26.146332 -1.493788 0.721241 -2.011306 3.540706 9.731678 0.843237 3.420497 -0.648236 -12.866955 0.000000 0.000000 0.000000 24.220025 -6.813610 4.408630 3.061671 -3.072517 0.080063 -2.106046 10.527948 -0.639777 0.000000 0.000000 0.000000 -21.595620 12.340127 2.407319 -4.661217 3.263401 0.173689 6.672982 -2.092652 -0.342294 0.000000 0.000000 0.000000
-0.006032 0.886437 -0.509595 -4.343469 -6.901211 -8.124507 2.417861 -0.838608 -13.795559 -9.307192 2.887599 24.308598 10.938727 25.157237 -19.560732 0.000000 0.000000 0.000000 2.160869 2.421489 -18.915233 11.838237 -3.163187 57.125765 -10.700253 -24.704969 10.206592 0.000000 0.000000 0.000000 -0.088276 -0.666958 26.703807 -2.038751 0.962790 -2.282617 4.749207 9.899876 2.419532 2.337790 0.348265 -15.894246 0.000000 0.000000 0.000000 24.151562 -2.501781 3.791857 1.486559 -2.331843 0.023311 -2.252611 11.781965 -0.731984 0.000000 0.000000 0.000000 -19.450805 7.055524 1.694651 -4.708924 0.328854 0.445390 2.718580 -2.386159 -0.197476 0.000000 0.000000 0.000000
0.004148 0.885348 -0.591795 -3.948496 -7.857486 -5.355259 1.890119 -1.158335 -18.332535 -10.686403 3.044723 19.798804 10.578305 24.288440 -18.707870 0.000000 0.000000 0.000000 2.175076 2.512628 -19.525333 11.544459 -2.599464 59.514697 -7.400315 -19.693192 29.617242 0.000000 0.000000 0.000000 -0.490830 -0.489257 26.398866 -1.316636 0.613011 -1.943147 3.071373 10.047366 2.853083 3.545473 -0.115189 -18.057204 0.000000 0.000000 0.000000 25.511817 -1.732716 3.823301 -5.038491 -2.311013 -0.494270 0.967248 11.373615 -0.378800 0.000000 0.000000 0.000000 -17.117356 3.221367 1.035286 -1.761522 -1.083225 0.247588 -0.499330 -1.467053 -0.025048 0.000000 0.000000 0.000000
0.019620 0.882720 -0.666896 -2.887765 -7.666781 -3.027269 -0.053160 -1.815701 -23.028898 -11.180297 3.831446 25.740889 9.386302 20.511704 -19.547381 0.000000 0.000000 0.000000 2.000814 2.108435 -17.081672 10.932735 -2.157483 56.225916 -5.524606 -17.464474 30.140769 0.000000 0.000000 0.000000 -0.538246 -0.471555 26.122569 -1.900428 0.890555 -1.675784 3.985905 7.968669 3.004002 1.968524 0.689717 -19.567544 0.000000 0.000000 0.000000 16.916903 -4.118119 2.833512 -3.136980 -0.499942 -0.323750 3.257118 9.414553 -0.092152 0.000000 0.000000 0.000000 -13.342553 3.599165 1.425702 -2.846030 -4.612669 0.639982 -1.965796 -2.283714 0.019883 0.000000 0.000000 0.000000
0.036156 0.878622 -0.732814 -1.805621 -6.924158 -2.199460 1.034029 -1.833340 -27.125090 -13.580499 6.145816 36.222213 8.729589 17.728888 -15.104607 0.000000 0.000000 0.000000 2.791617 1.676745 -13.513024 10.057093 -1.795265 49.357755 -8.885450 -21.656329 13.654112 0.000000 0.000000 0.000000 0.006552 -0.634931 26.109970 -0.328838 0.155566 -0.883515 1.646102 7.100656 1.715703 1.581416 0.983247 -20.500964 0.000000 0.000000 0.000000 11.561781 -7.340805 3.114781 -6.229911 -2.438408 -0.601599 8.200939 4.619871 0.153374 0.000000 0.000000 0.000000 -10.401026 2.796114 1.210031 0.346179 -5.351267 0.243867 -2.190010 -1.155750 0.042067 0.000000 0.000000 0.000000
0.052060 0.878558 -0.788420 0.175299 -7.467765 -1.387576 1.174871 -1.749603 -27.082547 -13.272837 7.507693 44.449404 8.055636 15.826797 -13.896867 0.000000 0.000000 0.000000 2.157890 1.383086 -11.820651 7.158925 -0.146985 44.041570 -8.450164 -19.892515 -5.977987 0.000000 0.000000 0.000000 -0.245109 -0.518260 25.494817 -1.241905 0.562070 -4.958194 0.662010 3.843659 5.279465 2.976016 -0.143517 -21.298597 0.000000 0.000000 0.000000 3.925947 -9.293272 3.132560 -7.396138 -6.796735 -0.762970 14.281333 -3.529262 -0.255033 0.000000 0.000000 0.000000 -5.086998 3.605362 1.463476 5.665782 -3.445028 -0.520315 -6.938927 -1.084502 0.183363 0.000000 0.000000 0.000000
0.067609 0.888882 -0.834741 0.042198 -7.075616 -1.898478 2.042590 -1.419449 -23.697127 -9.737264 6.061690 49.442723 7.363447 14.358614 -9.257686 0.000000 0.000000 0.000000 2.158125 1.113004 -9.730581 6.540280 -0.189155 36.926380 -9.051272 -20.958401 -11.682943 0.000000 0.000000 0.000000 0.884642 -0.799184 25.269485 -1.279081 0.589599 -3.448374 -0.886190 0.405069 3.718512 1.499008 0.344846 -21.213169 0.000000 0.000000 0.000000 -1.144183 -11.378083 4.001725 -12.255905 -16.568189 -0.506954 23.857774 -12.719371 -1.950339 0.000000 0.000000 0.000000 -1.390944 5.208742 1.826584 12.888328 0.498623 -1.066455 -13.527235 -0.461042 0.267686 0.000000 0.000000 0.000000
0.084396 0.908973 -0.874274 -0.222702 -8.055327 -0.585227 3.093948 -0.995090 -19.285712 -5.173497 3.565984 49.754899 7.379267 15.145687 -1.805202 0.000000 0.000000 0.000000 1.406841 1.044200 -9.570310 5.655111 0.064935 30.833935 -7.760317 -16.531895 -11.513276 0.000000 0.000000 0.000000 0.176571 -0.568998 22.239919 -0.876332 0.404259 -2.093607 -0.290888 -3.075403 2.803893 -1.286333 1.398170 -21.190036 0.000000 0.000000 0.000000 -6.183285 -11.909498 4.967639 -17.208570 -25.139957 0.471476 28.018204 -29.474657 -5.513110 0.000000 0.000000 0.000000 4.705563 7.341370 1.863052 17.509306 6.062049 -0.616716 -18.962747 2.997562 -0.257035 0.000000 0.000000 0.000000
0.102914 0.927292 -0.908269 -0.603043 -9.191785 -0.088679 4.400331 -0.566795 -13.565000 -3.222928 2.215594 43.504830 6.094374 13.019017 2.732620 0.000000 0.000000 0.000000 1.501743 0.917199 -8.530602 3.627656 0.514198 24.060186 -6.927330 -14.673786 -7.638069 0.000000 0.000000 0.000000 -0.077724 -0.458390 19.734288 -0.397275 0.174408 -2.768745 -1.197726 -5.105615 4.229227 -2.541950 1.790625 -22.481604 0.000000 0.000000 0.000000 -9.014657 -15.187321 7.209029 -20.626954 -32.280015 1.835286 35.773131 -38.423321 -9.756150 0.000000 0.000000 0.000000 11.084224 10.152176 1.956985 21.487580 8.384695 -0.231898 -23.318331 6.490367 -1.112184 0.000000 0.000000 0.000000
0.122482 0.938201 -0.937957 -1.105493 -9.533957 1.232395 5.469420 -0.273517 -7.720180 -1.515000 0.756370 32.468110 2.915114 6.316473 0.397041 0.000000 0.000000 0.000000 0.380262 1.004438 -9.668694 3.179430 0.427750 19.899599 -6.171064 -13.485672 -4.751862 0.000000 0.000000 0.000000 -0.679942 -0.332165 16.098079 0.475896 -0.220231 -0.830781 -1.255719 -6.712406 2.936590 -3.001096 1.858970 -22.782557 0.000000 0.000000 0.000000 -10.257079 -17.831644 9.041565 -24.176131 -37.997809 3.704703 35.523403 -43.919664 -11.033540 0.000000 0.000000 0.000000 15.550249 11.286204 1.513378 25.899267 9.693452 0.259764 -27.548073 10.753309 -2.467017 0.000000 0.000000 0.000000
0.142770 0.940185 -0.962391 -1.920996 -10.034139 1.959468 5.551082 -0.109385 -3.357353 -1.232363 0.264478 20.903592 2.093348 4.437296 -0.328435 0.000000 0.000000 0.000000 0.182957 1.235850 -11.694624 1.660934 0.725955 18.104944 -5.287923 -11.891397 -2.810605 0.000000 0.000000 0.000000 -0.575620 -0.323687 13.757513 1.010690 -0.465974 -0.653087 -0.599397 -8.989157 3.501616 -4.132344 2.129596 -23.787754 0.000000 0.000000 0.000000 -10.322131 -18.202609 9.761913 -27.272117 -40.481122 5.119816 33.664419 -44.851706 -10.201258 0.000000 0.000000 0.000000 16.263422 10.637917 0.426610 29.263049 10.944100 0.728398 -28.476338 13.893624 -3.590117 0.000000 0.000000 0.000000
0.162460 0.939601 -0.981547 -2.281093 -10.412000 1.489692 4.699787 0.066431 0.470995 -0.627347 -0.034481 10.874996 1.486786 3.532977 1.181493 0.000000 0.000000 0.000000 -0.443627 1.332163 -12.808781 0.225708 0.967106 16.525104 -3.811958 -9.445620 0.107493 0.000000 0.000000 0.000000 -0.885469 -0.261204 11.746972 1.636840 -0.772020 1.295740 0.033343 -11.060397 2.331372 -5.249455 2.472204 -23.723506 0.000000 0.000000 0.000000 -12.391952 -18.097823 10.727414 -29.385237 -40.536334 5.617011 28.702003 -43.071609 -7.695380 0.000000 0.000000 0.000000 16.672502 10.515285 -0.327491 32.709359 10.225911 0.887768 -28.291443 17.466847 -4.730205 0.000000 0.000000 0.000000
0.180712 0.938484 -0.996424 -2.410327 -10.706617 0.459477 3.842422 0.204030 2.435401 -0.989351 0.053290 6.055204 2.182838 5.353115 2.834787 0.000000 0.000000 0.000000 -1.032883 1.321490 -13.056699 -1.129431 1.268566 16.236115 -2.588659 -7.517743 2.193772 0.000000 0.000000 0.000000 -1.121038 -0.227189 11.146307 1.922180 -0.920227 1.797099 0.850883 -12.680066 1.508045 -5.862099 2.593887 -23.726271 0.000000 0.000000 0.000000 -15.154955 -16.691382 11.187601 -32.367935 -38.282538 5.523746 21.453230 -44.147919 -4.981068 0.000000 0.000000 0.000000 17.290323 10.110791 -1.203370 35.932675 8.739686 0.767883 -28.023144 19.951561 -5.594846 0.000000 0.000000 0.000000
0.196577 0.939864 -1.008784 -2.285114 -10.067502 -0.613023 2.593769 0.317182 3.666112 -1.137530 0.103481 2.872109 3.086457 7.579899 5.055597 0.000000 0.000000 0.000000 -1.930196 1.219760 -12.771352 -2.204091 1.380139 14.951538 -1.313565 -5.552730 4.148963 0.000000 0.000000 0.000000 -1.677005 -0.171990 10.265588 2.549736 -1.249279 2.245793 1.158445 -13.969401 1.062607 -6.104378 2.614647 -23.793371 0.000000 0.000000 0.000000 -18.099698 -15.268333 11.500843 -34.502635 -35.518226 4.858340 12.713767 -44.930798 -1.580843 0.000000 0.000000 0.000000 17.801541 9.515962 -1.892888 38.551710 6.948317 0.319974 -26.052050 20.937497 -5.535975 0.000000 0.000000 0.000000
0.209592 0.942936 -1.019197 -2.440295 -9.861228 -1.111966 2.153026 0.346895 3.891847 -1.302870 0.140168 1.931669 2.810297 7.209728 5.913847 0.000000 0.000000 0.000000 -2.348484 1.173053 -12.639189 -3.104599 1.468584 13.857975 -0.501800 -4.661228 5.955622 0.000000 0.000000 0.000000 -2.440886 -0.098620 9.232790 2.541576 -1.256129 2.557215 1.778088 -14.403420 1.117678 -6.334299 2.699370 -23.394620 0.000000 0.000000 0.000000 -21.286937 -13.659023 11.608861 -34.758400 -31.660616 3.319940 6.552888 -45.676877 0.872188 0.000000 0.000000 0.000000 18.868494 9.124092 -2.489726 40.210283 5.060256 -0.241622 -23.303619 21.480887 -5.049880 0.000000 0.000000 0.000000
0.219625 0.946023 -1.027983 -2.742526 -10.239252 -1.746496 1.992550 0.397772 4.346210 -1.483542 0.176799 1.283413 2.780036 7.305800 6.913266 0.000000 0.000000 0.000000 -2.573380 1.123995 -12.288135 -3.644934 1.403843 12.054194 0.882701 -2.689235 7.746673 0.000000 0.000000 0.000000 -2.984959 -0.051957 7.344802 2.128975 -1.061953 4.636888 2.265804 -13.644250 0.215168 -6.115138 2.694426 -22.465836 0.000000 0.000000 0.000000 -22.020258 -12.133532 10.654604 -36.280031 -27.197740 2.195040 2.115246 -43.889482 2.522511 0.000000 0.000000 0.000000 18.905515 9.230275 -2.311473 42.342129 3.656450 -0.807933 -20.102105 21.342125 -4.250197 0.000000 0.000000 0.000000
0.226509 0.948479 -1.034635 -3.158752 -9.958692 -1.990735 2.057960 0.400705 4.414348 -1.388629 0.169440 0.778911 2.531233 6.986244 7.607122 0.000000 0.000000 0.000000 -2.711249 1.132366 -12.506135 -3.591377 1.375390 11.912474 1.684016 -1.210610 8.174325 0.000000 0.000000 0.000000 -3.507792 -0.019064 6.216030 1.641676 -0.813004 4.464483 2.332867 -12.797465 1.056455 -5.659365 2.544894 -22.108302 0.000000 0.000000 0.000000 -23.124714 -10.526921 9.671601 -36.656187 -23.304306 0.927305 1.053874 -40.866466 2.597580 0.000000 0.000000 0.000000 19.499622 8.959336 -2.313904 43.395038 3.105950 -1.196933 -18.262187 19.865726 -3.467883 0.000000 0.000000 0.000000
0.230664 0.949851 -1.039086 -3.563941 -10.028598 -2.869519 2.213627 0.443672 4.878978 -1.252167 0.143786 1.212151 2.503776 6.985998 7.843357 0.000000 0.000000 0.000000 -2.611527 1.039128 -11.500889 -3.333563 1.265580 11.313065 2.882789 0.553656 9.423547 0.000000 0.000000 0.000000 -3.873291 -0.008836 5.391870 1.075895 -0.520981 4.274923 2.004942 -11.279517 2.033017 -4.782811 2.238456 -21.266838 0.000000 0.000000 0.000000 -23.722046 -9.021223 8.389560 -36.372831 -19.230000 -0.329192 0.841707 -35.440597 2.094590 0.000000 0.000000 0.000000 19.634762 9.106385 -1.797488 43.680090 3.331760 -1.349566 -15.540448 18.279356 -2.542718 0.000000 0.000000 0.000000
0.232978 0.951283 -1.041665 -3.778710 -9.489728 -3.167981 2.331866 0.484025 5.429613 -1.129328 0.139024 0.406710 2.135635 6.451027 8.289427 0.000000 0.000000 0.000000 -2.318758 0.995176 -10.907734 -3.622010 1.348106 11.616811 3.447888 1.849744 9.338468 0.000000 0.000000 0.000000 -3.944610 -0.011659 4.432893 0.341570 -0.147033 4.052517 1.251553 -9.766260 2.459533 -4.016014 2.044231 -19.657388 0.000000 0.000000 0.000000 -23.810805 -7.904571 7.113338 -36.081275 -16.086149 -1.142466 2.020056 -28.725155 1.201852 0.000000 0.000000 0.000000 19.844182 8.789091 -1.454117 44.027210 2.858969 -1.706635 -12.443429 16.320224 -1.644871 0.000000 0.000000 0.000000
0.234186 0.951888 -1.042745 -4.122695 -7.860086 -3.915608 2.802883 0.508796 6.127904 -1.063638 0.130375 0.197688 1.321781 5.098762 8.155700 0.000000 0.000000 0.000000 -2.056201 0.868319 -9.545147 -3.615508 1.335846 11.680486 3.732015 2.433491 9.697421 0.000000 0.000000 0.000000 -4.334741 -0.010965 4.031113 0.265233 -0.138147 3.534465 0.379263 -8.669832 2.972677 -2.958538 1.661086 -18.412475 0.000000 0.000000 0.000000 -23.767927 -7.118799 5.964626 -35.656367 -14.028502 -1.592992 3.587168 -22.043245 0.499198 0.000000 0.000000 0.000000 20.294140 8.650408 -0.990591 44.357366 2.946965 -1.908990 -11.153020 13.589829 -1.080578 0.000000 0.000000 0.000000
0.234905 0.952042 -1.042680 -4.117195 -6.756691 -4.338488 2.747963 0.522818 6.451223 -0.842586 0.100329 0.174297 0.808546 4.240203 8.050571 0.000000 0.000000 0.000000 -1.866285 0.742150 -8.144524 -4.099174 1.346824 10.881268 4.273310 3.705906 9.689404 0.000000 0.000000 0.000000 -4.535755 -0.014568 3.228331 -0.403206 0.193176 2.795633 -0.126258 -7.457829 3.967979 -2.109433 1.339419 -17.707003 0.000000 0.000000 0.000000 -23.179007 -6.613595 5.015850 -35.554115 -12.597522 -1.850070 3.984867 -16.943740 0.261959 0.000000 0.000000 0.000000 20.577584 8.231973 -0.679037 43.689789 3.259913 -1.987457 -9.415440 12.008663 -0.682668 0.000000 0.000000 0.000000
0.235281 0.952266 -1.042011 -4.111506 -6.092538 -5.021015 2.813750 0.526818 6.612889 -0.872100 0.080763 1.123335 0.511203 3.718337 7.881689 0.000000 0.000000 0.000000 -1.932214 0.615609 -6.819388 -3.939574 1.235070 10.070626 4.224074 3.498652 9.995069 0.000000 0.000000 0.000000 -4.816281 -0.020616 2.843818 -0.843429 0.416823 3.118419 -0.620841 -6.002403 3.617742 -0.815754 0.779499 -17.371143 0.000000 0.000000 0.000000 -22.390411 -6.008577 3.937427 -35.921695 -11.427637 -1.922414 6.100123 -12.992376 -0.039689 0.000000 0.000000 0.000000 20.349652 8.277254 -0.040143 43.869415 3.805593 -1.989104 -8.443399 10.212709 -0.426234 0.000000 0.000000 0.000000
0.235250 0.952525 -1.041328 -4.061343 -4.989798 -5.508009 2.815708 0.532645 6.882280 -0.758160 0.056705 1.387791 -0.011745 2.850785 7.823301 0.000000 0.000000 0.000000 -1.894095 0.491311 -5.438604 -3.791858 1.124529 9.207205 4.118960 2.701465 11.252381 0.000000 0.000000 0.000000 -4.731769 -0.034046 2.653877 -1.356467 0.670087 2.645727 -0.964577 -5.251742 4.035150 -0.422440 0.671292 -16.998081 0.000000 0.000000 0.000000 -22.556838 -5.362165 3.143505 -35.444198 -9.844538 -2.235010 7.332836 -11.022914 -0.145329 0.000000 0.000000 0.000000 20.324416 8.226757 0.371438 43.397681 4.391183 -1.942029 -7.943817 9.405065 -0.313241 0.000000 0.000000 0.000000
0.234591 0.953084 -1.040692 -4.155919 -3.887134 -6.255242 2.993504 0.564177 7.645647 -0.574073 0.032268 1.301256 -0.581442 1.939391 7.876145 0.000000 0.000000 0.000000 -1.810701 0.387358 -4.269352 -3.484379 1.015825 8.638793 3.804720 0.637835 14.381162 0.000000 0.000000 0.000000 -4.890485 -0.046139 2.911052 -1.415890 0.690729 1.808581 -1.839375 -4.071466 4.528394 0.475777 0.350544 -17.412711 0.000000 0.000000 0.000000 -22.322591 -4.822204 2.234351 -35.687220 -9.089220 -2.287062 8.970935 -9.340494 -0.245471 0.000000 0.000000 0.000000 20.610572 8.177945 0.917944 43.249808 5.043900 -1.947216 -7.288028 8.886643 -0.208785 0.000000 0.000000 0.000000
0.232855 0.952892 -1.040004 -4.022795 -3.064434 -6.661437 2.839028 0.581833 7.943899 -0.207053 -0.020442 1.429322 -0.936406 1.328958 7.764600 0.000000 0.000000 0.000000 -1.810713 0.327070 -3.608490 -3.418238 0.998864 8.615203 3.241900 -1.606151 17.486215 0.000000 0.000000 0.000000 -5.070951 -0.052289 2.992656 -1.618008 0.790521 1.548998 -2.190351 -3.201696 4.448628 0.946613 0.198548 -17.059914 0.000000 0.000000 0.000000 -22.238248 -4.378839 1.551388 -35.444255 -7.703957 -2.507418 9.592663 -9.293589 -0.308969 0.000000 0.000000 0.000000 21.105523 7.969152 1.177556 42.689058 6.261314 -1.633796 -6.745334 8.433701 -0.139302 0.000000 0.000000 0.000000
0.229959 0.952933 -1.039084 -3.979328 -2.155207 -7.156699 2.886961 0.591859 8.349611 0.137630 -0.069980 1.552288 -1.355027 0.633174 7.715381 0.000000 0.000000 0.000000 -1.744593 0.276837 -3.056818 -3.131131 0.927415 8.417857 2.344570 -4.460452 21.737012 0.000000 0.000000 0.000000 -5.263336 -0.060663 3.111801 -1.720468 0.841515 1.275925 -2.608459 -2.207498 4.327025 1.548756 -0.014744 -16.759405 0.000000 0.000000 0.000000 -21.762613 -4.003225 0.864871 -35.822622 -7.109672 -2.521442 9.847607 -9.173696 -0.349560 0.000000 0.000000 0.000000 21.543411 8.053358 1.677742 42.375001 7.509393 -1.351171 -6.378192 7.906603 -0.083386 0.000000 0.000000 0.000000
0.226315 0.952371 -1.037837 -3.899564 -1.098713 -7.541966 3.033311 0.593933 8.835545 0.347095 -0.088562 1.318077 -1.830878 -0.207052 7.547920 0.000000 0.000000 0.000000 -1.764735 0.193418 -2.138191 -2.837455 0.843991 8.053000 1.116867 -7.003058 24.799818 0.000000 0.000000 0.000000 -5.404184 -0.069277 3.179705 -1.793055 0.878703 0.905393 -2.939359 -1.309396 4.558242 1.848981 -0.063757 -16.465661 0.000000 0.000000 0.000000 -21.485153 -3.776377 0.317254 -36.563403 -6.471484 -2.620860 9.891305 -9.407336 -0.392112 0.000000 0.000000 0.000000 21.522812 7.863610 2.049596 42.498300 9.185931 -0.973855 -5.404793 7.369275 -0.009807 0.000000 0.000000 0.000000
0.222640 0.951829 -1.036435 -3.989001 -0.502360 -8.060577 3.387271 0.603904 9.597912 0.471157 -0.091324 0.989460 -2.113666 -0.737055 7.386119 0.000000 0.000000 0.000000 -1.717048 0.107136 -1.173789 -2.408048 0.739983 7.675844 0.783380 -7.302228 24.538674 0.000000 0.000000 0.000000 -5.446661 -0.080644 3.183009 -1.847181 0.906079 1.049391 -3.074885 -0.379244 4.147323 2.237336 -0.147669 -16.557087 0.000000 0.000000 0.000000 -21.245769 -3.621247 -0.142954 -37.081287 -6.306287 -2.557139 10.234196 -9.196425 -0.436324 0.000000 0.000000 0.000000 21.734146 8.099104 2.566258 41.819973 10.303111 -0.697092 -4.691443 6.417969 0.039441 0.000000 0.000000 0.000000
0.219477 0.951120 -1.035101 -3.914254 0.306047 -8.115598 3.483467 0.576364 9.604688 0.655928 -0.114183 1.015314 -2.426903 -1.348549 7.156657 0.000000 0.000000 0.000000 -1.748521 0.056034 -0.619616 -2.224568 0.682502 7.325496 0.378257 -7.570529 23.837621 0.000000 0.000000 0.000000 -5.335437 -0.086032 3.126527 -1.917589 0.943727 0.714337 -3.264030 0.183525 4.375529 2.593164 -0.265328 -16.488920 0.000000 0.000000 0.000000 -21.130232 -3.818748 -0.304793 -37.381483 -6.318727 -2.501774 10.448261 -9.400262 -0.485910 0.000000 0.000000 0.000000 21.485153 8.284581 2.997031 40.787904 11.326361 -0.487449 -3.893286 6.124806 0.071996 0.000000 0.000000 0.000000
0.216788 0.950374 -1.033888 -3.703698 0.515527 -8.132468 3.306729 0.594221 9.741557 0.908337 -0.139203 0.895406 -2.469560 -1.488034 6.998781 0.000000 0.000000 0.000000 -1.894512 0.019778 -0.208642 -2.148574 0.649806 7.011849 0.327848 -7.396675 22.948163 0.000000 0.000000 0.000000 -4.961872 -0.090266 2.762597 -2.043587 1.009676 0.370106 -3.287931 0.997613 4.688657 3.107971 -0.498702 -16.348880 0.000000 0.000000 0.000000 -21.018369 -4.411638 -0.217118 -37.154147 -6.166254 -2.471769 10.308765 -9.336968 -0.490548 0.000000 0.000000 0.000000 20.611249 8.680588 3.498929 39.692642 12.047798 -0.379304 -3.567384 5.486974 0.084765 0.000000 0.000000 0.000000
0.214279 0.949575 -1.032735 -3.444993 0.769850 -7.976178 3.203474 0.584603 9.541642 0.908606 -0.144216 1.019734 -2.525501 -1.665625 6.811427 0.000000 0.000000 0.000000 -2.210701 -0.009714 0.143770 -1.880582 0.576145 6.545149 0.257374 -7.201730 21.873510 0.000000 0.000000 0.000000 -4.603137 -0.088907 2.173762 -1.962416 0.965101 0.727718 -3.243654 1.152199 4.482032 3.371873 -0.717432 -15.561617 0.000000 0.000000 0.000000 -21.058618 -5.119999 0.083567 -36.156665 -6.107662 -2.380048 10.048144 -9.212529 -0.469503 0.000000 0.000000 0.000000 19.780507 9.281800 3.889159 38.420910 12.500606 -0.266465 -3.543252 4.672488 0.084545 0.000000 0.000000 0.000000
0.211717 0.948910 -1.031595 -3.408418 0.990453 -7.815766 3.261606 0.559137 9.288737 1.059907 -0.171305 1.228326 -2.547107 -1.806397 6.572665 0.000000 0.000000 0.000000 -2.247316 -0.031604 0.406989 -1.767161 0.541132 6.270417 0.416370 -6.640364 20.808727 0.000000 0.000000 0.000000 -4.056375 -0.084508 1.794063 -1.935580 0.952105 0.606399 -2.948205 0.880573 4.549652 3.690316 -1.046279 -14.658242 0.000000 0.000000 0.000000 -21.168926 -5.542501 0.373248 -35.268930 -5.930371 -2.391747 9.614638 -9.380010 -0.438471 0.000000 0.000000 0.000000 18.726128 9.855617 4.112023 37.249034 12.711425 -0.204065 -2.827799 3.638756 0.088143 0.000000 0.000000 0.000000
0.209233 0.948046 -1.030509 -3.274885 1.152166 -7.733942 3.232628 0.557226 9.276587 1.168500 -0.182100 1.180307 -2.559051 -1.927306 6.352691 0.000000 0.000000 0.000000 -2.436729 -0.041209 0.530724 -1.815559 0.545950 6.218736 0.976450 -5.520346 20.107309 0.000000 0.000000 0.000000 -3.709158 -0.081213 1.640252 -1.671491 0.813571 1.039951 -2.765985 0.377213 4.093841 3.641301 -1.144642 -13.891599 0.000000 0.000000 0.000000 -21.300519 -5.748155 0.592687 -34.429823 -5.791938 -2.378659 9.358203 -9.461760 -0.414337 0.000000 0.000000 0.000000 18.251539 10.415622 4.261572 36.479463 12.775293 -0.124461 -2.689452 2.931135 0.082700 0.000000 0.000000 0.000000
0.207200 0.947334 -1.029418 -3.070226 1.293436 -7.502333 3.253208 0.550132 9.246468 0.991643 -0.147339 0.882505 -2.610102 -2.059913 6.265034 0.000000 0.000000 0.000000 -2.497348 -0.074837 0.964360 -1.934510 0.536529 5.702032 0.966521 -5.039002 18.460465 0.000000 0.000000 0.000000 -3.473437 -0.069994 0.964056 -1.381802 0.655047 1.645726 -2.590978 0.232111 3.740255 3.644326 -1.237348 -13.174822 0.000000 0.000000 0.000000 -21.195392 -6.535997 1.059640 -34.035892 -5.810130 -2.333744 8.941538 -9.443290 -0.378933 0.000000 0.000000 0.000000 17.707133 10.953561 4.490189 36.075723 12.330102 -0.216306 -2.088904 2.674143 0.080233 0.000000 0.000000 0.000000
0.205632 0.946610 -1.028349 -2.787882 1.568713 -7.451276 3.097797 0.552819 9.174728 0.943871 -0.145445 0.975330 -2.693618 -2.274371 6.117130 0.000000 0.000000 0.000000 -2.818850 -0.100013 1.308772 -1.830034 0.511595 5.566634 0.934280 -4.692013 17.252926 0.000000 0.000000 0.000000 -3.197512 -0.062385 0.608992 -1.237771 0.570665 2.096769 -2.371478 -0.292764 3.620592 3.619075 -1.300000 -12.846820 0.000000 0.000000 0.000000 -21.159666 -6.864006 1.372257 -33.957468 -6.024076 -2.307299 8.815769 -9.606878 -0.367792 0.000000 0.000000 0.000000 17.214066 11.266126 4.517469 35.902937 11.936579 -0.276157 -1.194705 1.931565 0.065191 0.000000 0.000000 0.000000
0.204342 0.946278 -1.027413 -2.558312 1.671766 -7.476635 2.821480 0.585189 9.367441 1.160348 -0.161642 0.774258 -2.726595 -2.331709 6.116934 0.000000 0.000000 0.000000 -2.959242 -0.137218 1.808152 -1.832765 0.501476 5.374212 0.788003 -4.512760 15.866639 0.000000 0.000000 0.000000 -3.007557 -0.053543 0.160539 -1.026775 0.451830 2.485874 -2.259357 -0.494320 3.876320 3.515990 -1.295735 -12.500972 0.000000 0.000000 0.000000 -20.954623 -7.459533 1.781654 -33.756813 -6.576193 -2.192767 8.478813 -9.730551 -0.341214 0.000000 0.000000 0.000000 16.841565 11.973997 4.833924 35.594796 11.101328 -0.506656 -0.235845 1.722753 0.053520 0.000000 0.000000 0.000000
0.202900 0.946214 -1.026818 -2.366226 1.839965 -7.573698 2.630520 0.608261 9.529089 1.330577 -0.177832 0.702804 -2.812992 -2.445428 6.189744 0.000000 0.000000 0.000000 -3.132567 -0.168080 2.225247 -1.692828 0.471066 5.224531 0.639373 -4.522059 15.103007 0.000000 0.000000 0.000000 -2.802456 -0.048649 0.000524 -0.871683 0.361859 2.801279 -2.117785 -0.837353 3.821751 3.258616 -1.165614 -12.399576 0.000000 0.000000 0.000000 -20.890910 -7.614164 1.956887 -33.731765 -7.382133 -2.013824 8.638127 -9.974801 -0.358903 0.000000 0.000000 0.000000 16.733164 12.397635 4.973027 35.590432 9.901217 -0.799430 0.553033 1.571713 0.042432 0.000000 0.000000 0.000000
0.201099 0.946503 -1.026548 -2.314287 2.011131 -7.569323 2.633299 0.586599 9.241264 1.456518 -0.215000 1.175382 -2.885024 -2.534228 6.253334 0.000000 0.000000 0.000000 -3.237542 -0.182158 2.417920 -1.504641 0.440522 5.220323 0.746333 -4.127368 14.548380 0.000000 0.000000 0.000000 -2.630838 -0.044924 -0.036305 -0.701859 0.270126 2.849497 -2.130605 -1.110622 3.974897 3.427674 -1.397301 -11.512860 0.000000 0.000000 0.000000 -20.592140 -7.894266 2.182649 -33.398313 -8.629909 -1.714963 8.937675 -10.226618 -0.390991 0.000000 0.000000 0.000000 16.972229 12.311286 4.895586 35.455707 9.010613 -1.032567 0.934311 2.083178 0.058873 0.000000 0.000000 0.000000
0.199056 0.946994 -1.026421 -2.308514 2.068234 -7.471526 2.709007 0.578631 9.238942 1.560731 -0.216908 0.966390 -2.968188 -2.557000 6.500014 0.000000 0.000000 0.000000 -3.233891 -0.195868 2.602611 -1.152731 0.380294 5.142110 0.567097 -4.182391 13.708509 0.000000 0.000000 0.000000 -2.657354 -0.040334 -0.291598 -0.464561 0.149759 2.706112 -2.024965 -1.372926 4.239180 3.298314 -1.372330 -11.211757 0.000000 0.000000 0.000000 -20.075476 -8.216410 2.461630 -33.256083 -9.861648 -1.448530 9.111008 -9.999001 -0.389571 0.000000 0.000000 0.000000 16.884062 12.377515 4.867780 35.691705 8.091204 -1.277304 0.729390 2.843808 0.087673 0.000000 0.000000 0.000000
0.196949 0.947196 -1.026140 -2.250175 1.709714 -7.182224 2.939312 0.557156 9.064889 1.220660 -0.171455 0.835310 -2.868758 -2.304933 6.690748 0.000000 0.000000 0.000000 -3.256494 -0.203587 2.798924 -0.904013 0.333002 4.957574 0.625775 -3.564447 12.016923 0.000000 0.000000 0.000000 -2.775445 -0.032106 -0.785895 -0.173206 -0.011356 3.054791 -1.781081 -1.431039 4.041326 2.932935 -1.259904 -10.158428 0.000000 0.000000 0.000000 -19.877326 -8.253660 2.567809 -32.855404 -10.223815 -1.362341 9.067732 -10.138616 -0.387294 0.000000 0.000000 0.000000 16.619278 12.099059 4.633356 36.141957 7.777326 -1.334086 0.037590 3.343197 0.101361 0.000000 0.000000 0.000000
0.194918 0.947523 -1.025779 -2.412945 1.263198 -7.137840 3.040087 0.559361 9.077247 1.523560 -0.209711 0.873076 -2.664236 -1.919476 6.771753 0.000000 0.000000 0.000000 -3.198229 -0.219212 3.055780 -0.661334 0.294681 4.920819 1.092203 -2.321166 10.938681 0.000000 0.000000 0.000000 -2.705285 -0.025784 -1.003429 -0.390844 0.109639 2.964400 -1.523824 -1.393078 4.176630 2.864364 -1.256074 -9.942188 0.000000 0.000000 0.000000 -19.070694 -8.237622 2.643496 -33.084904 -10.556794 -1.318426 9.283938 -10.634988 -0.421601 0.000000 0.000000 0.000000 16.488828 11.606173 4.319312 36.549435 7.360115 -1.449173 -0.440870 4.665749 0.132984 0.000000 0.000000 0.000000
0.193022 0.947681 -1.025530 -2.489057 0.662083 -7.175720 2.859034 0.585537 9.046450 2.105393 -0.297592 1.191827 -2.341562 -1.367264 6.777566 0.000000 0.000000 0.000000 -3.036469 -0.226873 3.175833 -0.670194 0.307648 5.140053 1.390352 -1.405254 9.944196 0.000000 0.000000 0.000000 -2.691114 -0.025451 -0.985123 -0.398751 0.120764 2.923394 -1.399184 -1.444675 4.268681 2.371963 -0.990835 -9.502940 0.000000 0.000000 0.000000 -18.938558 -7.678302 2.451044 -33.067531 -10.574242 -1.354889 9.649063 -11.029859 -0.463863 0.000000 0.000000 0.000000 16.406562 11.250363 4.043470 37.131086 7.256644 -1.475096 -1.635560 5.825480 0.128396 0.000000 0.000000 0.000000
0.191324 0.947708 -1.025631 -2.559116 0.069579 -7.100891 2.761781 0.576818 8.606224 2.483426 -0.390752 1.983552 -1.993462 -0.810269 6.692051 0.000000 0.000000 0.000000 -2.959434 -0.205559 2.950240 -0.686618 0.329284 5.511041 1.829415 -0.327493 9.358990 0.000000 0.000000 0.000000 -2.625509 -0.025505 -0.813273 -0.485108 0.174209 2.797049 -1.363769 -1.268235 4.278518 2.364874 -0.976261 -9.701991 0.000000 0.000000 0.000000 -18.710129 -7.505752 2.398489 -33.391872 -10.111140 -1.490456 9.476973 -11.623172 -0.471613 0.000000 0.000000 0.000000 16.488096 10.723926 3.739742 37.285870 7.059677 -1.523679 -2.402063 7.405687 0.119921 0.000000 0.000000 0.000000
0.189872 0.947624 -1.025939 -2.543147 -0.539750 -6.975325 2.494588 0.580648 8.206704 2.955166 -0.491195 2.590410 -1.641127 -0.225497 6.650350 0.000000 0.000000 0.000000 -2.914382 -0.188826 2.802887 -0.713022 0.345704 5.727275 2.070866 0.478376 8.548556 0.000000 0.000000 0.000000 -2.467375 -0.023408 -0.667221 -0.943722 0.419632 2.755507 -0.989821 -1.508606 4.360679 1.991750 -0.809322 -9.234959 0.000000 0.000000 0.000000 -18.611528 -7.039181 2.319771 -33.321676 -9.540895 -1.691249 9.134697 -12.274563 -0.451434 0.000000 0.000000 0.000000 16.314239 10.438504 3.442563 37.779923 7.180135 -1.463144 -3.751140 8.327992 0.054621 0.000000 0.000000 0.000000
0.188745 0.947870 -1.026340 -2.514818 -1.012745 -6.926365 2.374569 0.584729 8.026337 3.142653 -0.537560 2.902152 -1.419941 0.197964 6.772153 0.000000 0.000000 0.000000 -2.927677 -0.164420 2.549018 -0.705454 0.355366 5.915306 2.352603 1.015282 8.548618 0.000000 0.000000 0.000000 -2.531495 -0.027701 -0.472756 -1.072672 0.490963 2.772854 -0.871526 -1.391263 4.302515 1.903081 -0.761299 -9.179226 0.000000 0.000000 0.000000 -18.588330 -6.832233 2.244424 -33.493226 -8.413279 -1.984048 8.597147 -12.624895 -0.407425 0.000000 0.000000 0.000000 16.230912 9.893600 3.128451 37.701377 7.630267 -1.317020 -4.504297 9.466347 0.002033 0.000000 0.000000 0.000000
0.187986 0.948125 -1.026848 -2.511506 -1.506432 -6.735220 2.176970 0.582506 7.712292 3.456496 -0.599966 3.168540 -1.172490 0.664908 6.895092 0.000000 0.000000 0.000000 -2.820984 -0.143090 2.295687 -0.866222 0.393455 6.121341 2.539696 1.621102 8.028007 0.000000 0.000000 0.000000 -2.389066 -0.027441 -0.276035 -1.398224 0.665343 2.706234 -0.581193 -1.543098 4.259938 1.587388 -0.549385 -9.503874 0.000000 0.000000 0.000000 -18.672056 -6.216847 2.032892 -33.547554 -6.948343 -2.387042 8.211666 -13.501357 -0.385132 0.000000 0.000000 0.000000 16.152657 9.752731 2.946747 37.765567 7.720891 -1.253674 -5.873052 10.340980 -0.109688 0.000000 0.000000 0.000000
0.187505 0.948598 -1.027505 -2.541162 -1.608847 -6.738691 1.858761 0.589653 7.531993 4.091753 -0.709585 3.436664 -1.099941 0.855120 7.057502 0.000000 0.000000 0.000000 -2.769256 -0.123238 2.020666 -1.019890 0.441566 6.560610 2.803396 2.153250 8.067298 0.000000 0.000000 0.000000 -2.345626 -0.031312 -0.053830 -1.389632 0.660560 2.884290 -0.750560 -1.475658 3.987073 1.805017 -0.664445 -9.827057 0.000000 0.000000 0.000000 -18.560104 -6.044248 1.914666 -33.853680 -5.742751 -2.680238 8.115425 -14.196880 -0.397680 0.000000 0.000000 0.000000 16.709341 9.486946 2.803225 37.381915 8.234995 -1.076177 -7.158462 10.866465 -0.219331 0.000000 0.000000 0.000000
0.187205 0.948713 -1.028208 -2.456806 -1.661888 -6.632609 1.356999 0.578318 7.019918 4.791480 -0.858299 4.057620 -0.998981 1.053900 7.110771 0.000000 0.000000 0.000000 -2.739595 -0.085716 1.525135 -1.371187 0.528729 7.079820 3.025870 2.583579 8.139083 0.000000 0.000000 0.000000 -2.262892 -0.030817 0.018437 -1.395979 0.666668 2.479652 -0.997919 -1.539067 4.424899 1.855468 -0.672335 -10.282418 0.000000 0.000000 0.000000 -18.672259 -6.018714 1.929384 -34.036933 -4.743889 -2.978417 7.712884 -14.349727 -0.352319 0.000000 0.000000 0.000000 16.775974 9.742355 2.933768 37.606369 8.770195 -0.957158 -8.379097 11.530447 -0.342294 0.000000 0.000000 0.000000
0.186872 0.948456 -1.028784 -2.379457 -1.773296 -6.699422 0.952953 0.565680 6.589398 5.330430 -1.008742 4.909581 -0.856005 1.275974 7.036345 0.000000 0.000000 0.000000 -2.601055 -0.073893 1.332282 -1.774388 0.627457 7.574760 3.045615 2.817796 7.766907 0.000000 0.000000 0.000000 -2.256951 -0.031726 0.040524 -1.376115 0.656807 2.573618 -0.976084 -1.534785 4.281241 1.681430 -0.531201 -10.592592 0.000000 0.000000 0.000000 -18.747422 -5.711233 1.771917 -34.427300 -3.940290 -3.206702 7.379555 -13.662537 -0.294894 0.000000 0.000000 0.000000 16.775414 9.964857 3.028475 37.777520 9.597334 -0.706499 -9.107892 11.152974 -0.383936 0.000000 0.000000 0.000000
0.186308 0.948330 -1.029091 -2.214226 -1.626219 -6.631981 0.937190 0.539535 6.292926 5.115237 -0.998554 5.217215 -0.922052 1.159978 7.024739 0.000000 0.000000 0.000000 -2.737469 -0.075877 1.393914 -1.782030 0.623674 7.501418 2.925814 2.783035 7.387369 0.000000 0.000000 0.000000 -2.499455 -0.036472 0.153432 -1.455005 0.700283 1.957607 -0.961216 -1.667152 4.901973 1.589935 -0.461019 -10.929225 0.000000 0.000000 0.000000 -18.834387 -5.819442 1.876201 -34.541234 -3.304476 -3.430331 7.372750 -13.275261 -0.281054 0.000000 0.000000 0.000000 16.978534 10.500666 3.298434 37.656154 9.961266 -0.640556 -8.764139 11.284397 -0.362802 0.000000 0.000000 0.000000
0.185471 0.948182 -1.029145 -2.215571 -1.649107 -6.558553 1.431052 0.527993 6.446184 4.373256 -0.850064 4.815367 -0.979676 1.041537 6.993823 0.000000 0.000000 0.000000 -2.670637 -0.102484 1.733604 -1.571377 0.583140 7.433672 2.498812 2.536083 6.141034 0.000000 0.000000 0.000000 -2.632001 -0.033658 -0.059433 -1.510866 0.726625 2.429725 -0.624664 -1.754653 4.725181 1.166269 -0.122423 -11.813657 0.000000 0.000000 0.000000 -18.514344 -5.203130 1.585102 -34.607552 -3.413790 -3.407268 7.415558 -12.574909 -0.264290 0.000000 0.000000 0.000000 16.320256 10.553150 3.292250 38.363823 10.612976 -0.436499 -8.943380 11.167615 -0.374701 0.000000 0.000000 0.000000
0.184340 0.948559 -1.028846 -2.219613 -1.799133 -6.812373 1.630983 0.505067 6.245776 4.124420 -0.875623 5.731160 -0.937828 1.154048 7.109236 0.000000 0.000000 0.000000 -2.799562 -0.087561 1.574090 -0.870851 0.492759 8.009776 2.228063 1.770690 6.408531 0.000000 0.000000 0.000000 -2.300389 -0.044280 0.559517 -1.358914 0.650840 2.205784 -0.719119 -1.247447 4.589952 1.125562 -0.144904 -10.555738 0.000000 0.000000 0.000000 -19.481555 -5.360396 1.525655 -34.170117 -3.075321 -3.412250 6.870766 -11.859304 -0.205927 0.000000 0.000000 0.000000 17.258727 9.923934 3.059088 37.663546 10.335209 -0.537192 -8.211508 13.157710 -0.397543 0.000000 0.000000 0.000000
0.183018 0.948055 -1.028517 -2.624411 -2.519790 -7.454261 2.963418 0.470690 6.432432 2.656859 -0.700247 6.946268 -0.687427 1.469231 6.844332 0.000000 0.000000 0.000000 -2.131775 -0.115344 1.733916 -0.779368 0.542254 9.146354 1.966927 1.538412 5.659902 0.000000 0.000000 0.000000 -2.189809 -0.079898 2.017261 -2.310349 1.141110 1.189603 0.938521 -0.359430 4.812330 1.428690 -0.323078 -10.760641 0.000000 0.000000 0.000000 -20.412093 -5.622395 1.614445 -32.517518 -3.258124 -3.229877 4.485287 -13.211313 0.018238 0.000000 0.000000 0.000000 15.864713 10.008213 3.164796 38.921482 9.461058 -0.845298 -8.975770 13.095116 -0.464808 0.000000 0.000000 0.000000
0.181564 0.948399 -1.027965 -2.410131 -2.086031 -7.887989 3.152262 0.450378 6.318759 2.172145 -0.665144 7.883810 -0.969075 1.067483 7.053470 0.000000 0.000000 0.000000 -2.273295 -0.068761 1.125212 -0.209933 0.516391 10.923159 1.218728 -0.233132 5.917076 0.000000 0.000000 0.000000 -2.724511 -0.089143 2.451346 -1.877097 0.922250 1.379232 0.080289 0.281230 4.489401 2.852123 -1.270070 -10.053207 0.000000 0.000000 0.000000 -19.343237 -7.750996 2.500027 -33.110265 -1.090507 -3.698711 4.661545 -13.860878 -0.021965 0.000000 0.000000 0.000000 16.709941 9.810511 3.292788 39.907313 8.873298 -1.094112 -8.753826 13.309952 -0.430800 0.000000 0.000000 0.000000
