HIERARCHY
ROOT Hips
{
	OFFSET -0.001795 -0.223333 0.028219
	CHANNELS 6 Xposition Yposition Zposition Zrotation Yrotation Xrotation
	JOINT LeftUpLeg
	{
		OFFSET 0.069520 -0.091406 -0.006815
		CHANNELS 3 Zrotation Yrotation Xrotation
		JOINT LeftLeg
		{
			OFFSET 0.034277 -0.375199 -0.004496
			CHANNELS 3 Zrotation Yrotation Xrotation
			JOINT LeftFoot
			{
				OFFSET -0.013596 -0.397961 -0.043693
				CHANNELS 3 Zrotation Yrotation Xrotation
				JOINT LeftToe
				{
					OFFSET 0.026358 -0.055791 0.119288
					CHANNELS 3 Zrotation Yrotation Xrotation
					End Site
					{
						OFFSET 0.000000 0.000000 0.000000
					}
				}
			}
		}
	}
	JOINT RightUpLeg
	{
		OFFSET -0.067670 -0.090522 -0.004320
		CHANNELS 3 Zrotation Yrotation Xrotation
		JOINT RightLeg
		{
			OFFSET -0.038290 -0.382569 -0.008850
			CHANNELS 3 Zrotation Yrotation Xrotation
			JOINT RightFoot
			{
				OFFSET 0.015774 -0.398415 -0.042312
				CHANNELS 3 Zrotation Yrotation Xrotation
				JOINT RightToe
				{
					OFFSET -0.025372 -0.048144 0.123348
					CHANNELS 3 Zrotation Yrotation Xrotation
					End Site
					{
						OFFSET 0.000000 0.000000 0.000000
					}
				}
			}
		}
	}
	JOINT Spine
	{
		OFFSET -0.002533 0.108963 -0.026696
		CHANNELS 3 Zrotation Yrotation Xrotation
		JOINT Spine1
		{
			OFFSET 0.005487 0.135180 0.001092
			CHANNELS 3 Zrotation Yrotation Xrotation
			JOINT Spine2
			{
				OFFSET 0.001457 0.052922 0.025425
				CHANNELS 3 Zrotation Yrotation Xrotation
				JOINT Neck
				{
					OFFSET -0.002778 0.213870 -0.042857
					CHANNELS 3 Zrotation Yrotation Xrotation
					JOINT Head
					{
						OFFSET 0.005152 0.064970 0.051349
						CHANNELS 3 Zrotation Yrotation Xrotation
						End Site
						{
							OFFSET 0.000000 0.000000 0.000000
						}
					}
				}
				JOINT LeftShoulder
				{
					OFFSET 0.078845 0.121749 -0.034090
					CHANNELS 3 Zrotation Yrotation Xrotation
					JOINT LeftArm
					{
						OFFSET 0.090977 0.030469 -0.008868
						CHANNELS 3 Zrotation Yrotation Xrotation
						JOINT LeftForeArm
						{
							OFFSET 0.259612 -0.012772 -0.027456
							CHANNELS 3 Zrotation Yrotation Xrotation
							JOINT LeftHand
							{
								OFFSET 0.249234 0.008986 -0.001171
								CHANNELS 3 Zrotation Yrotation Xrotation
								End Site
								{
									OFFSET 0.000000 0.000000 0.000000
								}
							}
						}
					}
				}
				JOINT RightShoulder
				{
					OFFSET -0.081759 0.118833 -0.038615
					CHANNELS 3 Zrotation Yrotation Xrotation
					JOINT RightArm
					{
						OFFSET -0.096012 0.032551 -0.009143
						CHANNELS 3 Zrotation Yrotation Xrotation
						JOINT RightForeArm
						{
							OFFSET -0.253742 -0.013329 -0.021401
							CHANNELS 3 Zrotation Yrotation Xrotation
							JOINT RightHand
							{
								OFFSET -0.255298 0.007772 -0.005559
								CHANNELS 3 Zrotation Yrotation Xrotation
								End Site
								{
									OFFSET 0.000000 0.000000 0.000000
								}
							}
						}
					}
				}
			}
		}
	}
}
MOTION
Frames: 76
Frame Time: 0.050000
0.000000 1.112836 0.000000 -2.031423 2.070330 71.164130 -14.214969 -6.230630 -47.730768 -30.679021 23.873515 77.425505 4.166980 31.389762 -91.259875 0.000000 0.000000 0.000000 0.140663 11.314715 -82.142321 -2.069203 1.027033 12.644319 -6.247667 -10.889932 -35.228822 0.000000 0.000000 0.000000 -5.340482 4.144803 126.701757 8.435170 -1.132622 -24.869660 9.824549 51.280194 20.282622 -20.451943 -30.269363 132.718850 0.000000 0.000000 0.000000 -77.434561 -40.548979 -38.828556 172.516517 -41.390016 40.809598 -5.909476 12.133251 -0.310815 0.000000 0.000000 0.000000 29.726731 30.914258 50.912505 -121.425848 -21.302329 43.520556 21.273937 -2.694856 -3.174873 0.000000 0.000000 0.000000
-0.002561 1.149402 0.013916 -0.964404 4.054571 77.089424 14.897404 2.365895 -87.865036 -105.753494 59.834698 36.178492 124.622585 57.818433 109.074722 0.000000 0.000000 0.000000 2.132929 10.278400 -86.566684 1.382495 1.253432 39.842498 -8.542605 -15.837069 -66.903075 0.000000 0.000000 0.000000 -10.776314 7.803456 116.952751 4.133527 -0.162771 -24.786504 26.929866 45.716138 31.444976 -18.003114 -19.935453 132.977318 0.000000 0.000000 0.000000 7.184163 -38.520942 -12.569727 98.472529 4.219782 -42.590971 -16.051880 17.159357 -7.566011 0.000000 0.000000 0.000000 -47.919175 32.739377 -5.426290 -42.371143 -11.102913 17.631341 -1.101318 0.899997 0.288097 0.000000 0.000000 0.000000
-0.003464 1.162762 0.024263 -91.677791 -64.958583 32.283086 35.838748 46.934811 -168.979140 7.241664 -54.421846 -145.843197 -17.881643 35.522924 -111.054477 0.000000 0.000000 0.000000 2.251295 -32.529509 58.913283 -96.858503 31.908934 -15.227278 -24.845615 -6.189735 -91.707702 0.000000 0.000000 0.000000 11.385913 -32.669485 -146.493341 -2.936566 0.456466 -22.080064 -50.502952 -48.978449 64.773251 -16.303723 -16.115935 -78.944520 0.000000 0.000000 0.000000 43.838963 -21.783251 6.438517 40.232293 -0.149889 0.943904 1.439572 16.551267 -0.891114 0.000000 0.000000 0.000000 -43.410802 8.539533 1.219443 -27.629265 26.208759 -7.611863 -18.184280 -15.082481 2.431264 0.000000 0.000000 0.000000
-0.002299 1.159400 0.028884 -62.562473 -60.831658 0.420521 13.972878 -11.991314 -156.250688 -120.171714 11.504097 27.718520 9.536316 19.896567 -108.162081 0.000000 0.000000 0.000000 2.966242 -1.078103 63.313983 -88.191612 45.991313 15.706629 -12.251373 -13.139845 -88.688717 0.000000 0.000000 0.000000 -106.713518 -48.684625 -44.422615 0.276001 0.600091 -24.478343 -158.313704 -29.867308 157.654786 -2.408213 -1.676383 -58.826691 0.000000 0.000000 0.000000 56.881862 -5.973905 1.346745 21.311183 -16.489705 5.509100 6.438512 15.261689 3.024261 0.000000 0.000000 0.000000 -54.345974 -3.657538 21.611185 -31.534440 25.332444 -26.800186 -11.720895 -9.570212 -3.233966 0.000000 0.000000 0.000000
0.000537 1.132813 0.033821 -56.647654 -59.326686 -6.078557 -12.177162 -33.902018 -139.660363 -35.499890 12.104851 110.600022 -1.624749 39.173335 -99.989577 0.000000 0.000000 0.000000 -14.631181 20.055195 57.298131 -97.740497 38.334464 8.646206 -14.715710 -4.692198 -75.217103 0.000000 0.000000 0.000000 -131.956795 -15.143256 -27.750098 -0.365266 0.956583 -24.016407 -177.655360 4.457576 165.806048 2.972881 3.118006 -58.149244 0.000000 0.000000 0.000000 57.495023 6.631878 26.838822 28.247359 -24.524014 9.098744 -1.254645 25.822095 6.973588 0.000000 0.000000 0.000000 -55.024021 -0.619009 1.904234 -14.853246 27.101486 -17.532453 -14.335427 -3.306599 -7.629044 0.000000 0.000000 0.000000
0.003613 1.105704 0.046421 -49.123754 -57.542087 -19.596879 -15.474813 -24.335444 -131.198690 -22.522550 0.860265 122.532553 -4.302752 45.028936 -92.732019 0.000000 0.000000 0.000000 -35.698275 34.864104 54.095251 -97.602564 18.668039 -6.318779 -15.434783 22.067016 -59.771616 0.000000 0.000000 0.000000 -128.994973 -17.690806 -31.254939 0.821615 0.671502 -24.866497 -179.737105 6.746025 163.461679 0.756680 0.367443 -59.597716 0.000000 0.000000 0.000000 60.403652 -6.667489 -35.732258 1.467101 -15.492050 -10.817920 11.925637 -1.784677 -8.773402 0.000000 0.000000 0.000000 -56.768056 -18.199899 54.796094 -44.593990 17.509562 15.320095 7.529858 -21.663109 6.427094 0.000000 0.000000 0.000000
0.005151 1.071684 0.071758 -78.969731 -40.256498 24.594392 -16.746519 -56.958441 -133.944996 -15.594983 -31.794466 127.374674 0.958725 36.781470 -92.140057 0.000000 0.000000 0.000000 -21.028570 16.483219 28.839193 -102.027362 12.509150 -1.779591 37.159945 58.205969 22.283048 0.000000 0.000000 0.000000 -124.400592 0.020987 -12.285995 0.985323 0.652741 -24.599797 167.463464 32.929556 157.025702 1.559065 -1.353499 -64.776185 0.000000 0.000000 0.000000 53.563673 -2.555901 -19.592756 8.775825 -18.772898 -7.606451 18.367576 7.498270 -8.746469 0.000000 0.000000 0.000000 -49.551691 -14.958595 36.600292 -36.295822 18.578063 10.825135 -2.003011 -21.703670 8.126659 0.000000 0.000000 0.000000
0.004932 1.049702 0.104511 -76.001801 -39.864265 16.083266 -30.456392 -60.726085 -123.210795 -14.538515 -19.669285 133.962968 -4.008893 43.369429 -101.619990 0.000000 0.000000 0.000000 -32.314580 16.898441 20.186264 -103.348227 8.295837 -8.611992 71.871021 54.947540 61.540756 0.000000 0.000000 0.000000 -124.413220 4.634291 -13.285874 2.330303 0.270036 -26.145298 162.830650 36.416808 154.110847 4.683135 -6.110405 -72.158336 0.000000 0.000000 0.000000 48.469244 -2.006175 -14.201021 12.506977 -18.006868 -5.991214 21.714874 9.457316 -9.406754 0.000000 0.000000 0.000000 -45.321114 -10.345919 34.228798 -39.006449 15.686769 11.591365 -1.079762 -24.043764 7.696004 0.000000 0.000000 0.000000
0.004715 1.033071 0.141683 -71.814944 -34.919369 9.335643 -22.181228 -60.131692 -131.338178 -23.956590 18.236893 127.429003 -1.521020 40.083660 -116.512599 0.000000 0.000000 0.000000 -51.025027 21.101711 1.984898 -93.227830 -5.091089 0.944927 -118.388476 70.076950 -168.802002 0.000000 0.000000 0.000000 -122.800426 1.893254 -11.248343 1.437722 0.448012 -25.498988 171.037698 27.349463 158.097936 4.836242 -0.320009 -68.103919 0.000000 0.000000 0.000000 50.643216 -5.190365 -18.266596 13.298288 -16.270622 -5.851806 24.800439 13.504430 -11.756808 0.000000 0.000000 0.000000 -45.090762 -14.814211 39.928636 -38.780080 14.163225 10.428978 0.638185 -26.393004 9.095387 0.000000 0.000000 0.000000
0.006480 1.018004 0.182447 -44.953827 -43.827591 -33.369399 -12.895554 -16.741666 -132.105186 -129.781550 46.633776 22.048059 25.871423 11.982861 -124.975861 0.000000 0.000000 0.000000 -54.877531 -3.862459 -59.895565 -83.990267 12.412259 -3.335171 -53.177849 26.244958 -134.372754 0.000000 0.000000 0.000000 -122.223329 -14.848337 -32.408913 1.411403 0.414115 -25.276260 -175.890604 -1.900666 160.948014 1.386730 3.646844 -65.198655 0.000000 0.000000 0.000000 48.755260 14.272705 42.815615 32.072456 -17.175238 6.115606 -8.275090 36.244257 12.673885 0.000000 0.000000 0.000000 -49.114043 10.216717 -28.110142 -13.166371 19.657086 -13.119430 -18.746560 4.656035 -12.019757 0.000000 0.000000 0.000000
0.009360 0.998976 0.225659 -39.898210 -39.095899 -41.120511 8.442868 27.126575 -114.731384 -154.038161 -17.714055 -13.807518 57.008440 -23.110730 -131.742474 0.000000 0.000000 0.000000 -9.609143 17.459484 -75.054972 -108.105550 -9.163138 -19.504584 -72.493088 24.776274 -159.581709 0.000000 0.000000 0.000000 -113.564496 -26.199963 -38.323948 1.872603 0.330485 -24.912414 -167.387312 -21.068560 156.850407 1.613583 4.934449 -63.384121 0.000000 0.000000 0.000000 46.403996 6.223041 23.599246 27.849914 -18.269026 6.288485 2.692165 33.734865 13.122993 0.000000 0.000000 0.000000 -45.613420 2.820731 -7.097354 -18.871216 20.803229 -12.723653 -22.219864 -1.110210 -11.459960 0.000000 0.000000 0.000000
0.010374 0.962678 0.271962 -27.157412 -31.974053 -54.685452 34.756561 28.924350 -48.468120 -156.329910 58.906026 7.961991 -103.159094 75.300084 -177.571327 0.000000 0.000000 0.000000 14.317931 23.197636 -53.680071 -86.463311 -30.761084 -43.246853 -21.367571 -7.154446 -132.020537 0.000000 0.000000 0.000000 -98.291477 -39.373503 -54.968132 1.453918 0.436449 -23.611788 -146.079158 -45.769468 141.703067 3.417178 8.870718 -65.741060 0.000000 0.000000 0.000000 45.035864 -4.057836 5.169003 26.218774 -25.602796 7.477780 16.187999 36.235317 16.978771 0.000000 0.000000 0.000000 -34.533225 2.000334 2.143377 -25.409037 20.938420 -16.161598 -27.841912 -2.818326 -9.793267 0.000000 0.000000 0.000000
0.008318 0.910713 0.325036 -20.225571 -27.161522 -56.664512 33.064531 17.495282 -32.391191 -37.756666 58.820314 116.802670 9.615521 49.568694 -56.367132 0.000000 0.000000 0.000000 23.224338 20.709018 -40.457928 -12.713185 4.937652 19.554184 -6.185606 -26.587879 -81.497316 0.000000 0.000000 0.000000 -89.653696 -45.611369 -65.667209 1.697005 0.291578 -20.741671 -142.762919 -54.781365 135.817450 -3.723832 10.629585 -74.875183 0.000000 0.000000 0.000000 34.739228 -8.199463 5.675790 35.829154 -25.820717 7.748782 19.507239 32.591671 12.413142 0.000000 0.000000 0.000000 -25.732954 12.223592 4.437085 -33.661679 19.205267 -21.996533 -30.651354 -0.856592 -8.269875 0.000000 0.000000 0.000000
0.004219 0.840022 0.391510 -14.447882 -20.417566 -57.910222 29.635820 15.735433 -39.165756 -48.713583 63.707936 106.959006 16.439888 48.913514 -24.778026 0.000000 0.000000 0.000000 23.902434 13.944088 -27.596581 1.715105 1.109479 31.407774 -8.885725 -24.179767 -39.164162 0.000000 0.000000 0.000000 -80.523427 -52.314748 -77.475531 3.325187 -0.121190 -19.639942 -121.046058 -63.684193 111.430293 -72.888362 2.656953 -115.369710 0.000000 0.000000 0.000000 15.395037 -23.377190 21.789294 55.257318 -12.902038 9.688137 20.623604 34.036348 7.851985 0.000000 0.000000 0.000000 -8.510627 22.410159 -3.995362 -39.121364 27.194186 -27.241273 -32.642841 8.645452 -5.607446 0.000000 0.000000 0.000000
-0.002343 0.770677 0.474393 -7.636063 -11.876941 -58.375096 25.718184 12.310260 -46.519436 -74.517112 69.561534 80.704438 30.066766 52.465787 12.091489 0.000000 0.000000 0.000000 15.098488 6.143286 -17.120892 5.322084 -0.266103 30.806539 -9.981997 -22.376045 -9.000677 0.000000 0.000000 0.000000 -49.611262 -48.433873 -106.857731 -0.728867 0.701340 -13.683241 -66.487640 -72.948153 42.571798 -19.012676 84.228277 113.671661 0.000000 0.000000 0.000000 -26.703172 -27.735841 50.076961 72.995813 -7.489757 2.624612 36.522832 14.284893 3.682651 0.000000 0.000000 0.000000 40.420133 43.317578 -22.372095 -28.353537 45.623180 -4.940123 -18.025216 32.875893 4.684206 0.000000 0.000000 0.000000
-0.011409 0.691720 0.571068 -3.529344 -11.025362 -55.933372 40.458995 20.570006 -46.618326 -42.460372 67.010433 118.187180 13.081832 28.998704 6.180799 0.000000 0.000000 0.000000 11.943485 4.672421 -15.680614 5.531075 0.279801 39.221610 -7.297817 -16.062986 -5.003641 0.000000 0.000000 0.000000 -32.744928 -37.983487 -122.839588 -2.772075 0.028353 23.433508 30.136221 -52.637404 -117.869092 -23.542998 45.892666 101.609895 0.000000 0.000000 0.000000 -76.413841 -13.143159 67.133441 49.129405 -19.242456 -7.899607 33.243141 -17.726518 -5.940985 0.000000 0.000000 0.000000 56.645816 29.928716 -9.073979 -14.467789 22.671941 6.487946 7.274877 37.522151 16.297678 0.000000 0.000000 0.000000
-0.022059 0.606210 0.676244 -3.208161 -11.892128 -57.333863 58.860943 24.565064 -32.766680 -27.400742 56.042144 135.207292 4.794484 9.426894 -8.481309 0.000000 0.000000 0.000000 8.708475 4.461255 -17.862653 7.636220 0.192227 54.394337 -7.272507 -16.685969 -1.469000 0.000000 0.000000 0.000000 -23.475274 -19.032382 -119.773858 -7.879462 19.477512 119.035894 90.627584 39.758847 172.734584 -9.612066 37.175400 120.061276 0.000000 0.000000 0.000000 -41.610308 -42.904294 -62.835267 -6.212815 -8.675147 9.506042 -44.859638 -21.250354 -4.794599 0.000000 0.000000 0.000000 93.480502 22.801302 5.987423 -17.054050 15.172655 -4.569155 10.242418 33.381063 -18.615349 0.000000 0.000000 0.000000
-0.033523 0.549703 0.774207 -3.715259 -7.016615 -57.537413 71.976004 16.941630 -15.735440 -14.309781 29.442656 147.900217 -1.925862 -30.178593 -29.748161 0.000000 0.000000 0.000000 2.713781 4.102593 -24.904187 13.011608 -6.341857 76.147992 -11.942057 -27.544320 -5.369691 0.000000 0.000000 0.000000 -17.776338 -14.202213 -113.104333 -3.542045 6.727537 126.830987 21.688906 45.816739 41.984315 -13.864751 31.599184 97.939247 0.000000 0.000000 0.000000 -37.047297 1.243635 -18.819166 -7.777736 18.531747 -2.398285 -58.025491 -25.529833 12.056733 0.000000 0.000000 0.000000 86.118623 -7.401777 11.089954 -0.648193 -18.530544 -0.929663 20.108159 31.278905 0.197041 0.000000 0.000000 0.000000
-0.047177 0.517559 0.860576 -3.318960 -8.248533 -60.327143 84.589558 3.987774 7.193847 -8.800419 -0.502956 147.948149 18.769908 -21.225947 -93.045449 0.000000 0.000000 0.000000 3.181109 4.948088 -28.327316 17.194771 -11.300367 84.591756 -16.860813 -37.311660 -0.835337 0.000000 0.000000 0.000000 -16.024647 -6.267538 -92.342411 -2.052967 -7.592168 125.024835 -6.796756 32.668868 3.335578 -19.504631 31.299908 82.777115 0.000000 0.000000 0.000000 -21.497966 9.547724 -14.429061 -15.051656 22.011714 -4.459601 -88.592473 -21.255106 13.272382 0.000000 0.000000 0.000000 73.007612 -16.470369 -2.167335 7.235961 -26.718434 -5.033542 31.801657 34.111791 8.613407 0.000000 0.000000 0.000000
-0.066335 0.512338 0.941649 -5.394192 -5.403160 -62.242549 72.176489 2.606493 6.484732 -4.236514 -26.288622 150.327600 7.284642 -1.575214 -69.754879 0.000000 0.000000 0.000000 -6.050945 1.085866 -23.083374 22.101141 -14.840116 74.242411 -17.499812 -38.376325 -3.199400 0.000000 0.000000 0.000000 -14.659531 -7.605371 -77.722255 0.104833 -8.411854 108.884618 -9.529073 26.159589 -12.210081 -17.947372 12.039397 47.313024 0.000000 0.000000 0.000000 -3.300179 17.433346 -7.288589 -17.663418 21.715840 -5.429449 -121.411950 -5.311079 -9.813592 0.000000 0.000000 0.000000 51.337613 -19.268597 -5.637685 16.877484 -45.619989 -8.261559 42.056786 32.918009 14.626438 0.000000 0.000000 0.000000
-0.091770 0.515718 1.025886 -5.889915 -7.866004 -64.636022 71.325968 -2.824374 17.459711 -0.093780 -38.127509 141.167760 5.104564 -5.734930 -55.508885 0.000000 0.000000 0.000000 -9.431580 -0.134526 -15.445142 30.609821 -18.901151 68.172438 -18.656691 -47.855075 -15.116150 0.000000 0.000000 0.000000 -10.036354 -1.385363 -64.354611 3.949145 -10.083356 80.869862 -9.915768 17.366528 -13.701607 -10.771555 4.903743 30.307899 0.000000 0.000000 0.000000 11.516951 15.369653 -0.301974 -20.197420 21.481241 -6.038922 -155.468511 -0.154647 -31.103014 0.000000 0.000000 0.000000 34.621818 -15.275524 -5.097557 11.751253 -59.001798 -1.498888 52.229246 23.249843 11.380234 0.000000 0.000000 0.000000
-0.120823 0.502861 1.105674 -5.154795 -9.409753 -66.447103 64.490221 -3.015617 21.897131 -0.030298 -35.847832 139.708980 9.529380 -1.109350 -76.789032 0.000000 0.000000 0.000000 -13.461877 -1.020292 -8.494496 36.705620 -21.222900 65.919372 -16.369209 -50.600443 -24.365627 0.000000 0.000000 0.000000 -6.157872 2.188525 -57.740085 2.448499 -3.819505 62.852961 -4.441641 16.926372 -5.034751 -2.350349 1.071828 6.136251 0.000000 0.000000 0.000000 23.780278 16.282179 3.063097 -31.134807 12.416858 -7.954068 -174.451722 -9.876044 159.275633 0.000000 0.000000 0.000000 11.276976 -17.941629 -7.217836 24.821090 -53.292654 -6.128336 56.090565 4.141542 2.570007 0.000000 0.000000 0.000000
-0.149044 0.470701 1.172315 -7.039813 -9.650037 -68.124134 58.432052 -2.637320 24.074638 -6.495588 -10.785117 142.786345 9.321911 19.156893 -96.440489 0.000000 0.000000 0.000000 -14.576336 -1.242564 -9.008778 38.106051 -23.487093 68.446821 -15.220792 -48.370667 -24.925979 0.000000 0.000000 0.000000 -9.495786 -0.940341 -57.060778 4.170892 -3.837464 32.296691 4.010367 13.023714 25.430522 1.510495 1.397193 -14.161880 0.000000 0.000000 0.000000 33.236211 14.301731 2.071415 -47.409559 10.247278 -13.191739 176.763488 -23.007870 -142.608643 0.000000 0.000000 0.000000 -8.365261 -14.246579 -5.584965 46.131018 -40.964371 -17.665613 54.398616 -12.812775 -6.777987 0.000000 0.000000 0.000000
-0.175567 0.424650 1.224849 -6.855196 -12.252703 -69.459466 44.072253 1.459976 22.723412 -12.138382 20.650382 140.557621 16.808479 7.444873 -105.427917 0.000000 0.000000 0.000000 -14.955134 -1.159476 -14.764777 44.451962 -30.322241 74.960142 -18.323647 -55.248558 -19.150599 0.000000 0.000000 0.000000 -9.534216 -0.211287 -52.888276 7.430328 -5.110327 19.633722 1.184655 12.420455 33.855047 5.540796 -0.529181 -21.918028 0.000000 0.000000 0.000000 39.463052 9.193911 2.719172 -63.639390 -6.424379 -9.968608 173.599612 -38.728267 -146.489239 0.000000 0.000000 0.000000 -12.798512 -13.537673 -4.839046 57.280443 -29.010166 -18.688136 51.432522 -9.999769 -4.824811 0.000000 0.000000 0.000000
-0.199066 0.374744 1.264282 -5.888384 -12.475871 -71.778101 28.938074 4.250038 9.521077 -10.779428 19.379760 139.633102 14.603094 12.255703 -98.740470 0.000000 0.000000 0.000000 -18.565106 -1.918568 -18.123414 49.684692 -34.471463 75.508580 -16.787403 -55.618079 -21.603749 0.000000 0.000000 0.000000 -9.949902 -0.443275 -51.573168 2.364079 -1.491811 17.588423 5.666632 9.186056 34.952551 2.386558 1.073949 -25.066244 0.000000 0.000000 0.000000 38.998744 5.462103 1.864560 -83.648948 -23.006458 2.758674 164.617823 -51.648777 -132.919554 0.000000 0.000000 0.000000 -16.161998 -13.224965 -4.013416 70.007905 -22.564996 -20.882349 51.443394 14.527873 7.245921 0.000000 0.000000 0.000000
-0.218762 0.331517 1.295186 -5.703680 -14.996079 -71.527387 19.348613 4.312710 -3.359693 -7.392283 13.898090 139.511480 12.548419 16.856280 -88.756009 0.000000 0.000000 0.000000 -19.410661 -1.755485 -23.022511 55.254401 -37.740642 73.893681 -12.064586 -56.719688 -32.523788 0.000000 0.000000 0.000000 -10.923752 -0.005324 -51.577981 3.481894 -1.949921 10.960658 3.569938 3.825172 39.512975 0.811538 1.005441 -26.727776 0.000000 0.000000 0.000000 39.179267 1.988720 0.132455 -104.732492 -33.410591 28.005336 127.260251 -54.429423 -79.659579 0.000000 0.000000 0.000000 -17.872014 -9.879893 -1.848487 76.811645 -12.104472 -19.828273 48.593934 18.297021 8.280703 0.000000 0.000000 0.000000
-0.234545 0.299462 1.320056 -6.447168 -14.933466 -73.502238 12.846625 3.141194 -15.704010 -5.190530 6.418883 136.785536 13.443482 9.464109 -80.287974 0.000000 0.000000 0.000000 -20.548791 -2.223488 -22.517204 50.116036 -32.793787 73.343751 -9.693439 -50.701002 -38.488070 0.000000 0.000000 0.000000 -12.367047 -1.420042 -47.808811 2.778395 -1.436063 5.357518 3.020730 0.855608 41.992868 2.420341 -0.256303 -29.370790 0.000000 0.000000 0.000000 39.481457 2.137645 -0.806314 -114.670499 -38.329597 46.754417 100.499426 -44.341754 -44.634133 0.000000 0.000000 0.000000 -22.791292 -8.693491 -0.256858 83.689288 -10.314308 -23.258567 47.221653 24.529803 10.987101 0.000000 0.000000 0.000000
-0.247293 0.281575 1.340077 -4.596101 -16.951114 -75.209782 12.390979 3.653859 -22.481526 -1.384714 -3.318423 134.387140 14.358613 0.077780 -72.502596 0.000000 0.000000 0.000000 -17.837884 -1.214909 -24.008478 47.836938 -31.403528 76.398579 -8.531888 -49.236273 -41.231173 0.000000 0.000000 0.000000 -11.544507 -0.082436 -46.683319 3.339239 -1.651771 4.176268 1.967071 -0.370175 42.032917 1.360795 -0.094579 -28.842123 0.000000 0.000000 0.000000 38.463604 -0.193237 -1.323240 -118.075587 -40.455968 55.186664 86.461648 -34.508434 -27.506562 0.000000 0.000000 0.000000 -23.051342 -8.938302 0.271125 83.840925 -10.000779 -24.854928 44.247171 26.733860 11.191547 0.000000 0.000000 0.000000
-0.256987 0.263692 1.354259 -5.066639 -18.701578 -76.840300 12.438084 4.154440 -27.361314 -0.676400 -4.030200 130.656928 14.288716 -4.975569 -68.106922 0.000000 0.000000 0.000000 -15.455923 -0.441652 -25.895551 39.856983 -26.313804 82.159408 -9.892638 -46.954592 -36.284919 0.000000 0.000000 0.000000 -10.842040 0.256890 -43.474425 3.389063 -1.603423 1.367611 1.808719 -0.837411 43.733405 2.428323 -0.864405 -29.203336 0.000000 0.000000 0.000000 39.140266 -1.704725 -1.732884 -111.780873 -44.821368 56.869225 73.788594 -31.502226 -20.802225 0.000000 0.000000 0.000000 -23.806226 -10.034597 0.521423 83.138393 -11.371141 -26.958891 43.133602 27.995956 11.399786 0.000000 0.000000 0.000000
-0.263631 0.250805 1.361227 -4.477499 -19.992475 -77.588206 12.047903 4.604579 -31.874792 2.409691 -9.452224 125.364692 14.293299 -12.480333 -64.939986 0.000000 0.000000 0.000000 -12.945809 0.670280 -28.745408 32.937515 -20.646661 86.852193 -10.150418 -40.103855 -31.536783 0.000000 0.000000 0.000000 -10.318120 0.865774 -43.061829 3.733238 -1.753776 1.533682 0.541328 -2.520726 44.832215 1.695810 -0.972319 -28.473307 0.000000 0.000000 0.000000 37.792794 -2.821828 -2.442052 -107.081568 -44.912502 54.993639 64.175873 -29.828881 -16.588286 0.000000 0.000000 0.000000 -23.018095 -9.267764 1.016106 82.673945 -9.827381 -27.575429 42.489078 27.630704 10.979036 0.000000 0.000000 0.000000
-0.267350 0.240117 1.363203 -4.538943 -21.378602 -77.782613 11.550418 4.906684 -34.947148 0.207622 -3.066402 122.530193 12.399372 -9.763576 -57.882914 0.000000 0.000000 0.000000 -11.218691 1.612104 -30.951775 28.129213 -15.953138 89.186830 -10.491533 -34.777630 -24.922091 0.000000 0.000000 0.000000 -10.684580 0.802618 -41.525431 4.568649 -2.178776 3.333312 0.439531 -2.978294 44.480375 1.888851 -1.417592 -27.091172 0.000000 0.000000 0.000000 34.708987 -5.976125 -2.501860 -95.819591 -47.955860 48.788868 51.329347 -32.947380 -13.628580 0.000000 0.000000 0.000000 -20.982633 -8.573223 0.943433 80.788926 -8.318501 -26.252986 41.441852 27.079024 10.363041 0.000000 0.000000 0.000000
-0.269228 0.232265 1.362059 -4.486850 -22.759184 -77.725216 11.135867 5.799860 -41.018853 -0.748452 -1.659143 123.389941 10.232890 -10.229134 -49.259602 0.000000 0.000000 0.000000 -10.485082 2.460630 -33.569082 27.584652 -16.199498 92.174999 -10.802186 -32.378353 -18.041231 0.000000 0.000000 0.000000 -10.575771 1.263313 -41.583020 5.305102 -2.579374 6.575050 -0.131933 -3.509541 44.561986 0.064463 -0.813499 -23.175988 0.000000 0.000000 0.000000 32.683241 -9.275026 -2.387600 -85.307409 -50.322523 42.771818 44.235757 -34.871067 -11.725357 0.000000 0.000000 0.000000 -15.687225 -6.651701 0.413646 75.901370 -7.846453 -23.905916 45.057198 26.419605 10.556089 0.000000 0.000000 0.000000
-0.270031 0.229005 1.359862 -3.564209 -24.946182 -77.615820 10.413529 6.941167 -46.544752 -1.484298 -0.053438 122.378244 5.337686 -12.053517 -32.388136 0.000000 0.000000 0.000000 -9.978335 3.792013 -37.192376 27.921890 -16.245304 91.923293 -11.433484 -29.257817 -5.164499 0.000000 0.000000 0.000000 -9.100343 2.905552 -41.863588 6.118532 -3.008190 12.732108 -1.143184 -5.619372 40.815458 -0.566166 -0.915108 -19.778379 0.000000 0.000000 0.000000 24.712617 -13.798974 -0.707048 -64.976133 -51.270121 28.846217 34.795060 -36.425272 -8.229206 0.000000 0.000000 0.000000 -11.665432 -4.358502 0.343242 71.023289 -6.907731 -21.328020 48.087506 34.341372 14.605069 0.000000 0.000000 0.000000
-0.271145 0.219723 1.358662 -3.248185 -26.335895 -77.935139 8.910471 7.329439 -51.751309 -1.509046 -1.610665 125.373799 0.708563 -13.481688 -18.500336 0.000000 0.000000 0.000000 -9.962137 4.782213 -40.125851 27.783013 -17.441671 94.392394 -10.372690 -25.073322 1.938277 0.000000 0.000000 0.000000 -8.421045 3.888168 -42.195762 7.685839 -3.900960 16.800559 -2.957716 -5.737244 39.287125 -1.004514 -0.694299 -12.812963 0.000000 0.000000 0.000000 20.885784 -18.706839 1.126736 -47.240840 -52.335892 18.517702 29.234454 -36.125118 -6.447323 0.000000 0.000000 0.000000 -8.230274 -3.729426 -0.291734 64.742707 -8.866554 -19.365866 52.859858 35.989782 16.556748 0.000000 0.000000 0.000000
-0.273157 0.210914 1.358165 -1.796284 -28.050176 -78.676860 8.066044 8.181760 -54.773437 -0.605386 -4.181660 126.988753 -3.737997 -15.759928 -7.509142 0.000000 0.000000 0.000000 -10.138308 5.829002 -42.692916 30.707816 -20.427180 93.617257 -12.284853 -28.083244 6.487679 0.000000 0.000000 0.000000 -7.007916 5.576764 -42.863429 7.985753 -3.921683 23.009018 -4.058138 -7.582733 34.744292 -2.210724 0.221731 -7.842770 0.000000 0.000000 0.000000 16.041494 -20.503859 2.960698 -34.156931 -53.232040 12.038751 27.957010 -35.418185 -5.792720 0.000000 0.000000 0.000000 -7.388122 -2.730230 -0.171727 60.337450 -10.707561 -18.294405 57.542768 41.043009 20.530606 0.000000 0.000000 0.000000
-0.275982 0.197574 1.357885 -1.173444 -29.106842 -78.712717 6.262190 7.658631 -56.113989 1.283812 -7.577848 126.940593 -3.946376 -15.657082 -6.643549 0.000000 0.000000 0.000000 -8.544088 7.219510 -44.117543 30.634191 -20.405070 93.665913 -10.479640 -25.157726 3.319052 0.000000 0.000000 0.000000 -5.899592 6.763624 -43.293175 8.423540 -4.035139 25.070021 -6.976496 -8.289033 33.364215 -1.441506 -0.089428 0.330211 0.000000 0.000000 0.000000 14.451354 -23.366865 4.114744 -25.328299 -50.208302 6.965140 24.089400 -37.829995 -5.107265 0.000000 0.000000 0.000000 -6.768960 -2.042435 -0.181256 54.925333 -17.870034 -19.091355 67.665905 43.607676 25.637824 0.000000 0.000000 0.000000
-0.278229 0.182112 1.355734 -1.104692 -30.778080 -78.724541 5.063303 7.733982 -57.991261 3.019411 -11.001607 126.328016 -3.478594 -16.452111 -8.515726 0.000000 0.000000 0.000000 -8.155990 7.845482 -44.570596 35.757306 -24.519711 90.259248 -13.201010 -32.283412 -0.242970 0.000000 0.000000 0.000000 -5.646911 7.720281 -44.413641 9.104463 -4.333284 28.291151 -8.627932 -10.631864 32.208350 -1.122846 -0.406043 3.250906 0.000000 0.000000 0.000000 13.346787 -24.745688 4.722909 -21.737348 -50.195293 5.809011 23.416390 -37.894713 -5.046009 0.000000 0.000000 0.000000 -10.438782 -3.353422 0.100636 51.646030 -23.635647 -20.483933 71.999742 42.127658 24.943089 0.000000 0.000000 0.000000
-0.278781 0.176073 1.350507 -0.666835 -31.122139 -77.583754 4.297822 7.913875 -60.045895 3.600531 -10.638100 124.262537 -3.535139 -14.694545 -6.816469 0.000000 0.000000 0.000000 -6.492798 9.192498 -46.080188 38.398950 -25.682640 86.741186 -15.307062 -36.872303 -0.092680 0.000000 0.000000 0.000000 -5.289356 9.009869 -46.939460 10.039794 -4.931899 36.637360 -11.776100 -12.820545 25.321760 -1.880975 1.646404 12.052542 0.000000 0.000000 0.000000 15.214270 -23.332207 3.758024 -25.544061 -52.137481 8.502715 21.745394 -39.606522 -4.787090 0.000000 0.000000 0.000000 -10.990737 -3.756819 0.114297 47.439431 -31.045614 -20.588321 80.289812 41.760224 28.284557 0.000000 0.000000 0.000000
-0.277459 0.171097 1.341801 -1.883294 -31.653790 -77.235949 2.515306 6.802439 -61.653650 4.535824 -11.845670 122.247326 -3.721120 -10.793906 -2.426630 0.000000 0.000000 0.000000 -6.047468 10.145197 -48.388115 38.703739 -24.980787 82.638472 -18.317857 -35.200887 17.483160 0.000000 0.000000 0.000000 -6.078989 8.231181 -46.048493 9.070663 -3.887001 34.051503 -11.379619 -11.676318 27.336562 -0.822261 -0.383911 6.037096 0.000000 0.000000 0.000000 17.775022 -23.140708 2.826255 -31.166458 -52.073357 11.186606 24.355040 -39.757088 -6.043208 0.000000 0.000000 0.000000 -13.097469 -6.985093 -0.605701 43.873956 -33.222239 -19.621011 85.893732 41.963303 30.541108 0.000000 0.000000 0.000000
-0.274569 0.177378 1.330615 0.426904 -32.065893 -77.928654 1.157536 6.056432 -59.094873 6.203927 -11.909727 121.705001 -1.515281 -10.295466 -8.628069 0.000000 0.000000 0.000000 -4.009843 12.177088 -49.977925 36.702067 -22.653384 82.339785 -21.861503 -38.106959 23.808244 0.000000 0.000000 0.000000 -5.126308 9.525996 -46.766352 8.010641 -2.473250 37.517533 -11.846983 -12.471617 24.394623 -4.155468 5.476435 17.615236 0.000000 0.000000 0.000000 11.827333 -19.851515 4.031973 -38.277658 -51.803605 13.338188 19.612323 -41.962490 -4.203162 0.000000 0.000000 0.000000 -10.587368 -7.054274 -1.308389 41.931046 -35.497866 -18.834688 89.094302 44.755659 35.586476 0.000000 0.000000 0.000000
-0.272235 0.187173 1.319489 -0.205568 -31.725423 -76.795314 1.321145 6.203570 -59.958001 5.548451 -12.911732 124.471829 -1.943779 -13.103489 -9.975246 0.000000 0.000000 0.000000 -3.952637 12.900145 -51.954630 32.004448 -19.421488 83.390373 -22.019479 -36.262621 30.376315 0.000000 0.000000 0.000000 -8.377192 8.626270 -50.006118 6.707783 -1.365537 43.016438 -6.721515 -11.449997 19.040703 -6.544907 8.576922 18.531390 0.000000 0.000000 0.000000 11.841001 -18.017538 3.878671 -54.204356 -49.366859 19.204735 34.257499 -40.506631 -8.778166 0.000000 0.000000 0.000000 -11.986515 -7.566369 -1.089681 47.412534 -37.575786 -22.030807 86.912916 41.980697 33.416098 0.000000 0.000000 0.000000
-0.270843 0.194186 1.310672 -1.000331 -31.194821 -77.146388 4.270610 7.464410 -56.459027 3.082973 -10.136697 126.710407 1.704873 -5.777273 -14.337226 0.000000 0.000000 0.000000 -2.293800 13.566898 -51.478729 24.764603 -15.095821 89.750120 -22.302346 -36.667669 29.574622 0.000000 0.000000 0.000000 -10.037728 7.131228 -48.811581 3.148094 1.592387 41.230882 -2.422860 -8.799387 20.424348 -7.981736 10.737053 20.470084 0.000000 0.000000 0.000000 9.918628 -18.348052 4.766102 -59.820716 -42.990473 16.470439 48.016429 -47.723710 -15.312552 0.000000 0.000000 0.000000 -8.924236 -4.401706 -1.022734 52.899475 -42.680654 -26.824627 91.257094 44.764494 40.243859 0.000000 0.000000 0.000000
-0.268942 0.200099 1.303939 -1.869556 -31.662634 -76.947899 6.400040 8.676086 -54.620831 6.855242 -20.867273 126.217002 0.890145 -12.921183 -18.114861 0.000000 0.000000 0.000000 0.128324 14.949208 -51.149913 19.478580 -11.449405 97.242167 -17.868171 -33.303591 21.528019 0.000000 0.000000 0.000000 -12.677270 6.048482 -49.995196 3.351783 1.258444 42.950206 -1.146067 -7.754037 19.326663 -9.463694 10.155074 10.989893 0.000000 0.000000 0.000000 11.929201 -9.203226 1.735465 -76.338162 -35.510543 18.409782 56.325706 -58.139839 -22.961394 0.000000 0.000000 0.000000 -9.060642 -5.863851 -1.425218 60.903653 -43.845551 -32.313780 89.952794 37.065043 32.169808 0.000000 0.000000 0.000000
-0.264816 0.203138 1.298058 -3.983210 -32.462266 -75.858841 8.379684 9.936087 -54.221638 7.669795 -23.991188 123.843763 0.243351 -9.606374 -13.625180 0.000000 0.000000 0.000000 1.111247 15.030048 -49.863009 18.321802 -10.380783 96.240162 -16.245082 -30.902329 21.923237 0.000000 0.000000 0.000000 -16.463294 4.079436 -50.580786 4.104066 -0.228075 38.511449 -0.866352 -3.862061 24.061307 -6.055542 5.608061 5.571576 0.000000 0.000000 0.000000 15.240943 -9.622687 1.481571 -80.781169 -27.454060 12.459440 54.241933 -69.909963 -28.386656 0.000000 0.000000 0.000000 -6.188768 -6.639632 -2.435801 64.790924 -45.326395 -35.258378 91.369922 33.421355 29.973562 0.000000 0.000000 0.000000
-0.257998 0.205974 1.292215 -4.626310 -33.668068 -76.147000 8.843027 9.628396 -50.767030 10.731137 -25.937855 119.756127 2.147389 -11.632977 -21.397383 0.000000 0.000000 0.000000 -0.454457 13.112082 -47.064737 21.163684 -11.066544 92.649693 -17.689812 -33.163484 21.233166 0.000000 0.000000 0.000000 -17.074905 3.718268 -50.463207 4.202114 -0.353823 36.522020 -1.293552 -3.566325 26.431643 -3.988467 3.287801 3.623347 0.000000 0.000000 0.000000 16.011656 -7.210197 0.686917 -81.545033 -19.644449 6.328036 20.578047 -77.357325 -5.798461 0.000000 0.000000 0.000000 -7.397587 -6.681792 -2.200424 67.243095 -46.625778 -38.548598 88.123281 26.200814 20.570359 0.000000 0.000000 0.000000
-0.248061 0.215545 1.286193 -4.879291 -36.581511 -75.829226 11.596055 13.230013 -53.446105 10.344004 -25.141348 118.210528 -0.206588 -11.986003 -14.552240 0.000000 0.000000 0.000000 -2.093980 13.161066 -48.210267 26.967908 -14.872495 88.065684 -22.120297 -35.879110 31.729146 0.000000 0.000000 0.000000 -16.941258 4.468449 -50.346056 6.280881 -1.493114 36.855620 -1.949397 -6.551247 23.349960 -3.847165 2.864685 3.239470 0.000000 0.000000 0.000000 11.687594 -4.602502 0.263132 -79.112777 -11.922313 1.378844 -28.645459 -73.412553 32.197675 0.000000 0.000000 0.000000 -11.008294 -5.571935 -0.832738 69.724362 -46.795538 -41.987028 90.426433 21.257475 14.932995 0.000000 0.000000 0.000000
-0.237209 0.219486 1.281514 -7.655025 -38.656203 -73.734986 12.066298 13.250930 -51.372684 9.364463 -19.621658 113.378768 0.993777 -8.817525 -15.732576 0.000000 0.000000 0.000000 -5.916047 11.026364 -47.442576 33.752069 -17.639300 77.834698 -26.969784 -37.589444 43.254165 0.000000 0.000000 0.000000 -15.850061 4.445852 -46.523902 6.321730 -1.541916 29.476647 -2.803598 -5.256619 26.741202 3.787356 -4.990829 9.286791 0.000000 0.000000 0.000000 8.339373 -11.794508 3.090707 -76.732307 -10.824642 -0.691027 -22.336099 -67.221660 24.194338 0.000000 0.000000 0.000000 -5.697241 -7.127566 -2.533906 67.488568 -47.841246 -40.952224 83.943208 22.827607 14.215124 0.000000 0.000000 0.000000
-0.226781 0.223524 1.278112 -5.381948 -40.245825 -76.121008 13.422587 12.960071 -44.727642 9.603339 -12.470015 106.043096 1.280472 -9.594266 -17.683580 0.000000 0.000000 0.000000 -9.107141 9.237324 -45.590310 36.362322 -16.248743 74.984447 -24.557344 -36.206984 40.746707 0.000000 0.000000 0.000000 -14.026663 5.947549 -47.027643 5.572821 -0.775038 29.565548 -2.559818 -6.816020 28.297130 -3.082774 2.702364 9.446218 0.000000 0.000000 0.000000 -0.705987 -4.495365 2.353011 -73.413198 -8.221619 -3.892344 -43.863739 -64.943539 40.176602 0.000000 0.000000 0.000000 -7.882207 -7.580287 -2.047233 69.909989 -46.060073 -43.256776 88.711569 23.330629 15.840318 0.000000 0.000000 0.000000
-0.219095 0.227883 1.276811 -8.735641 -41.704938 -73.241816 14.947737 13.241672 -42.407557 8.274955 -9.075874 100.914245 2.916085 -8.600450 -22.575376 0.000000 0.000000 0.000000 -12.076800 8.152119 -45.885904 38.267226 -17.760155 73.886156 -23.041545 -33.927934 43.987287 0.000000 0.000000 0.000000 -15.932699 5.311624 -47.707894 7.908617 -2.860991 25.428728 -4.519079 -7.849967 32.233634 1.772805 -3.115641 8.282348 0.000000 0.000000 0.000000 -4.997891 -4.724908 3.606554 -72.319555 -7.030489 -5.673774 -49.264754 -62.711929 43.412984 0.000000 0.000000 0.000000 -6.750234 -7.846944 -2.556443 69.532169 -44.068168 -42.690533 89.379815 26.223670 18.530732 0.000000 0.000000 0.000000
-0.214565 0.226275 1.276605 -9.701657 -43.794761 -72.939500 16.187134 13.144650 -38.406733 8.941382 -7.350358 96.457075 4.109527 -7.116132 -25.587331 0.000000 0.000000 0.000000 -11.757040 8.095532 -43.993376 39.731390 -17.916181 73.401040 -24.984571 -35.442118 45.207967 0.000000 0.000000 0.000000 -15.418401 5.938046 -46.795362 7.949150 -2.853442 22.734645 -4.164148 -8.653915 33.542617 3.113776 -4.412399 10.103484 0.000000 0.000000 0.000000 -6.535599 -5.803643 4.810124 -73.850539 -5.359783 -6.663629 -50.465126 -63.661215 45.550590 0.000000 0.000000 0.000000 -6.244702 -9.100287 -3.151124 64.918197 -43.687956 -39.399488 91.956597 28.389399 20.194491 0.000000 0.000000 0.000000
-0.213137 0.223069 1.277154 -9.662368 -44.479845 -73.108997 15.229116 12.798829 -39.012965 9.489095 -7.093792 95.553822 2.441061 -7.364154 -19.992098 0.000000 0.000000 0.000000 -14.933854 6.911801 -43.905386 45.746134 -22.858167 74.893561 -29.655486 -39.287227 45.424244 0.000000 0.000000 0.000000 -15.157652 5.947780 -46.132617 7.897597 -2.618602 23.912200 -4.434133 -9.927203 32.321313 3.018877 -4.384842 8.348586 0.000000 0.000000 0.000000 -8.771194 -2.773445 3.997939 -72.599717 -2.540591 -8.436872 -66.426731 -63.180737 58.908727 0.000000 0.000000 0.000000 -6.667886 -9.310980 -2.998550 62.086848 -41.263367 -36.279230 103.833176 31.558740 28.410232 0.000000 0.000000 0.000000
-0.213496 0.223932 1.277889 -9.657409 -45.656696 -72.944843 15.495964 13.327144 -39.251945 11.006108 -8.077502 93.064058 1.648130 -7.631454 -17.763398 0.000000 0.000000 0.000000 -14.284122 7.117911 -42.839589 47.265989 -23.706037 75.501735 -29.353756 -39.774605 43.113247 0.000000 0.000000 0.000000 -15.350639 6.603961 -47.164175 8.584400 -3.042431 22.959844 -5.070740 -10.909273 32.737017 4.718280 -6.435047 1.752693 0.000000 0.000000 0.000000 -8.822712 -2.347050 3.930391 -71.003027 1.700697 -10.863244 -86.636933 -63.635486 77.807207 0.000000 0.000000 0.000000 -8.732006 -11.072818 -2.911065 57.149409 -39.369023 -32.356853 114.267805 33.078939 35.819519 0.000000 0.000000 0.000000
-0.214689 0.223841 1.279006 -9.517418 -46.557913 -73.694371 15.886149 13.278264 -37.841305 11.730502 -7.274970 89.592105 0.642769 -9.725998 -17.451534 0.000000 0.000000 0.000000 -14.660217 6.183173 -39.875489 49.759703 -23.310548 73.783886 -33.058541 -44.061763 41.100089 0.000000 0.000000 0.000000 -14.310355 6.910452 -46.220443 7.580592 -2.475322 19.450889 -4.973134 -11.106741 34.663393 4.026938 -6.015194 -3.628330 0.000000 0.000000 0.000000 -5.317173 1.551754 1.126237 -70.684752 6.961180 -12.587177 -100.226235 -57.647855 85.814422 0.000000 0.000000 0.000000 -11.663924 -11.470457 -1.956567 53.272883 -35.475445 -28.634223 127.032639 36.515232 50.913908 0.000000 0.000000 0.000000
-0.216308 0.228325 1.280201 -9.305140 -46.987600 -72.908323 14.516230 13.042367 -39.269043 12.990029 -7.310461 87.926859 0.247394 -11.917293 -19.051374 0.000000 0.000000 0.000000 -15.892122 5.686057 -39.068490 51.128789 -22.553384 72.120917 -36.979222 -47.043862 42.865413 0.000000 0.000000 0.000000 -14.907156 7.472938 -48.409812 6.948881 -2.221796 17.825037 -4.416518 -11.631879 35.746915 2.369239 -4.650873 -7.756950 0.000000 0.000000 0.000000 -1.767237 5.294603 -1.522611 -68.283080 13.535164 -14.663474 -108.959370 -48.201573 83.731351 0.000000 0.000000 0.000000 -13.060424 -10.693375 -1.044686 50.868958 -34.274452 -26.916364 138.288755 38.439182 67.632217 0.000000 0.000000 0.000000
-0.219013 0.233344 1.282160 -9.491112 -47.869573 -73.239405 15.432095 12.975256 -36.774691 13.482129 -7.208632 86.776596 -0.137672 -14.475281 -20.704075 0.000000 0.000000 0.000000 -16.051746 5.449620 -37.594052 48.679572 -20.901966 73.785368 -32.162523 -42.959884 42.093936 0.000000 0.000000 0.000000 -13.531043 8.353675 -47.872017 6.133746 -1.821705 15.857352 -3.296196 -10.191935 35.234959 3.219768 -5.029239 -10.371861 0.000000 0.000000 0.000000 4.267897 1.730427 -1.131307 -67.246648 16.913676 -15.518190 -120.843540 -43.458707 91.461830 0.000000 0.000000 0.000000 -15.835637 -13.748376 -1.132896 43.291288 -27.574389 -19.106763 141.024749 42.570868 77.283107 0.000000 0.000000 0.000000
-0.222574 0.240026 1.284252 -9.317098 -47.336408 -74.241461 14.181248 11.806757 -35.973381 14.851409 -9.333092 89.805428 -2.644121 -19.419540 -17.641341 0.000000 0.000000 0.000000 -17.271627 4.527642 -35.240058 44.109187 -18.641487 78.134337 -28.874531 -43.958260 31.326181 0.000000 0.000000 0.000000 -13.827500 8.507692 -49.249878 5.382926 -1.587897 15.855824 -3.727721 -11.970610 36.198548 -0.659149 -2.300259 -14.014448 0.000000 0.000000 0.000000 11.857689 8.001050 -4.712211 -64.901222 21.724984 -15.172356 -128.176583 -41.190892 98.891716 0.000000 0.000000 0.000000 -18.156788 -11.005696 0.503951 40.690450 -21.052327 -15.416322 154.343372 49.960146 108.920330 0.000000 0.000000 0.000000
-0.225945 0.245771 1.286202 -10.148556 -47.257511 -73.598435 14.105795 12.310099 -37.593922 14.687404 -11.817374 94.445689 -3.906802 -21.475492 -15.225430 0.000000 0.000000 0.000000 -17.492108 4.183613 -33.333781 40.539770 -16.467658 80.368252 -23.224822 -40.523089 23.495885 0.000000 0.000000 0.000000 -14.685082 8.504577 -50.331359 4.637021 -1.402183 14.027079 -3.093317 -12.618771 37.957074 -1.442772 -1.775931 -16.139122 0.000000 0.000000 0.000000 19.919816 8.438812 -5.527195 -66.409864 19.508152 -12.565588 -136.937848 -43.693508 117.334415 0.000000 0.000000 0.000000 -21.135125 -11.407941 1.258411 39.666642 -13.041921 -12.207835 160.989540 53.052531 123.378470 0.000000 0.000000 0.000000
-0.228243 0.250266 1.287728 -9.592470 -47.478842 -73.919814 13.899759 12.959653 -39.352218 15.166960 -14.336367 98.488132 -6.328521 -24.448897 -11.264319 0.000000 0.000000 0.000000 -17.776019 3.874283 -31.617700 38.385217 -13.797417 80.531265 -20.665935 -39.194029 18.405311 0.000000 0.000000 0.000000 -15.583084 8.563295 -51.327419 5.141271 -1.756482 13.037029 -3.416354 -13.037370 38.946199 -2.068270 -1.416569 -17.978779 0.000000 0.000000 0.000000 25.165447 8.424037 -5.895935 -64.476615 14.224726 -8.162198 -150.727503 -49.415900 150.445292 0.000000 0.000000 0.000000 -22.625074 -11.088731 1.858901 36.190908 -5.131462 -8.672615 171.988431 62.830390 147.472458 0.000000 0.000000 0.000000
-0.229964 0.255561 1.288770 -9.361203 -47.848492 -73.902486 12.749381 13.048483 -41.038137 17.070825 -19.074905 102.719089 -8.610304 -28.490461 -8.820925 0.000000 0.000000 0.000000 -19.151904 3.498487 -30.467061 38.566322 -13.395544 80.482839 -19.035752 -37.419500 16.910182 0.000000 0.000000 0.000000 -17.114047 8.463758 -52.696503 6.164527 -2.201639 16.182623 -2.568742 -14.188921 36.484944 -3.605403 -0.372601 -17.786313 0.000000 0.000000 0.000000 26.000028 8.074288 -5.805363 -62.288548 3.731837 -2.316345 -168.507966 -56.944822 -171.155009 0.000000 0.000000 0.000000 -20.963228 -9.320649 1.880571 29.880030 0.008112 -5.410599 -158.254232 63.368739 -164.619438 0.000000 0.000000 0.000000
-0.231264 0.255441 1.289544 -8.715738 -48.096553 -74.076607 12.909738 13.488947 -41.398642 15.583610 -18.281020 105.554975 -7.938783 -28.209894 -9.475847 0.000000 0.000000 0.000000 -21.256196 3.187090 -30.105334 38.298195 -12.677694 80.001116 -16.877620 -33.948905 17.262167 0.000000 0.000000 0.000000 -18.599404 8.010121 -53.130734 6.806742 -2.562084 15.252344 -1.875911 -14.339219 37.101285 -4.773704 0.325047 -17.825351 0.000000 0.000000 0.000000 26.939874 7.744040 -5.961498 -60.370425 -7.541069 3.925267 169.506801 -61.185774 -133.419557 0.000000 0.000000 0.000000 -20.073021 -8.572856 1.807714 25.749481 3.920861 -3.912559 -144.499560 58.515343 -139.736070 0.000000 0.000000 0.000000
-0.233373 0.258172 1.290209 -8.296752 -48.257586 -74.312483 14.101515 14.111273 -40.560418 15.717206 -19.815529 108.047535 -6.954474 -31.531408 -13.106769 0.000000 0.000000 0.000000 -22.218211 2.813102 -28.689788 38.471289 -11.947367 79.080254 -15.843073 -33.863326 12.285082 0.000000 0.000000 0.000000 -20.420196 7.360633 -54.020779 7.917889 -3.179690 15.678529 -1.335485 -14.192248 37.003213 -4.918506 0.422217 -17.547012 0.000000 0.000000 0.000000 26.938521 5.932312 -5.675190 -55.369428 -18.315954 8.385810 147.446156 -61.531954 -100.826189 0.000000 0.000000 0.000000 -19.282261 -6.990500 1.968749 21.203792 7.064714 -2.837276 -129.359081 51.028522 -108.870073 0.000000 0.000000 0.000000
-0.237055 0.258096 1.290990 -8.294357 -48.276533 -74.550357 16.736926 15.683572 -39.918176 13.924455 -19.756937 110.784260 -4.855409 -31.147945 -16.536863 0.000000 0.000000 0.000000 -23.460763 2.572927 -28.388749 38.814350 -12.138560 79.103915 -14.811164 -31.724252 13.479887 0.000000 0.000000 0.000000 -21.056276 6.787588 -53.635485 7.283904 -2.865028 12.981293 -0.986730 -13.584941 39.229712 -5.492119 0.831266 -16.756995 0.000000 0.000000 0.000000 27.755776 5.264851 -5.799446 -55.065646 -26.860814 13.284992 132.631163 -60.131798 -80.962165 0.000000 0.000000 0.000000 -19.926585 -5.650861 2.427494 20.428712 7.288011 -2.828618 -119.981614 41.793489 -85.505272 0.000000 0.000000 0.000000
-0.242579 0.258530 1.291690 -8.946660 -48.168270 -74.219485 18.073845 16.537920 -40.093446 13.092053 -20.633356 112.368712 -5.442291 -32.298807 -15.653439 0.000000 0.000000 0.000000 -24.649933 2.369936 -28.486243 40.100979 -13.551064 79.173699 -15.397261 -32.475305 13.942403 0.000000 0.000000 0.000000 -23.176754 5.251644 -52.645366 7.717720 -3.109527 12.177478 0.127629 -12.625046 39.552998 -5.856872 1.107006 -17.436537 0.000000 0.000000 0.000000 28.651295 3.436132 -5.474444 -53.868095 -34.506929 17.450440 121.408583 -55.896540 -64.664919 0.000000 0.000000 0.000000 -19.277148 -4.732972 2.501273 19.918390 7.487395 -2.772226 -116.680123 32.223787 -68.444319 0.000000 0.000000 0.000000
-0.249180 0.257651 1.292003 -9.104945 -48.528923 -74.414485 19.419592 17.506437 -40.044576 13.509020 -22.581263 113.132902 -4.178181 -32.136507 -17.704470 0.000000 0.000000 0.000000 -25.147139 2.246247 -27.946079 41.220802 -13.834334 77.886739 -15.702701 -32.507296 15.437871 0.000000 0.000000 0.000000 -23.443244 4.809583 -51.342001 7.301521 -2.873241 10.369713 0.553632 -11.664469 40.372735 -5.752884 1.147716 -16.293290 0.000000 0.000000 0.000000 29.142395 2.707267 -5.418178 -55.041918 -39.740193 21.562810 116.422715 -50.601390 -54.000099 0.000000 0.000000 0.000000 -18.984670 -5.187072 2.331983 20.722372 6.247472 -3.001438 -116.124246 25.489061 -58.774858 0.000000 0.000000 0.000000
-0.255635 0.256707 1.291802 -10.190614 -48.544913 -73.784095 20.003571 17.506061 -39.460996 13.828729 -23.392984 113.179104 -2.018467 -30.851654 -21.349832 0.000000 0.000000 0.000000 -24.706166 1.988915 -26.525770 41.861677 -13.823942 76.779188 -17.264956 -35.880743 12.840729 0.000000 0.000000 0.000000 -25.318041 3.550613 -50.674826 7.499020 -2.994651 9.423457 1.537046 -11.392458 40.713337 -5.630716 1.072730 -15.698029 0.000000 0.000000 0.000000 29.055993 1.375808 -5.235633 -60.137130 -41.852956 25.894463 114.147513 -48.542964 -50.378201 0.000000 0.000000 0.000000 -19.116422 -4.933827 2.512354 21.873835 3.703505 -3.432487 -113.487136 25.188511 -57.123012 0.000000 0.000000 0.000000
-0.260870 0.254747 1.291325 -10.765050 -49.169167 -73.457200 20.470331 17.941314 -39.301231 14.537351 -25.197482 113.830301 0.074897 -30.675610 -25.391099 0.000000 0.000000 0.000000 -24.776231 1.843694 -24.916245 42.565493 -13.454577 75.328409 -17.980322 -38.491397 9.195090 0.000000 0.000000 0.000000 -26.005394 3.174517 -49.753038 7.810569 -3.110500 9.136581 1.817943 -10.557041 40.567500 -4.889918 0.680952 -14.411406 0.000000 0.000000 0.000000 29.275538 0.510049 -5.086617 -66.147463 -41.766245 29.258080 111.969576 -47.496390 -47.988381 0.000000 0.000000 0.000000 -18.233910 -6.056880 1.988976 22.307246 -0.170004 -3.893624 -115.050806 27.510297 -61.956011 0.000000 0.000000 0.000000
-0.264762 0.252140 1.290910 -10.377925 -49.758995 -73.817435 20.956180 18.171621 -38.287064 15.073243 -25.261658 113.127135 1.112795 -29.220215 -27.168847 0.000000 0.000000 0.000000 -23.754833 1.783666 -22.979605 41.634701 -11.616329 74.053500 -17.602434 -40.996535 2.074982 0.000000 0.000000 0.000000 -26.066111 3.412671 -49.773105 8.080316 -3.194357 9.979568 1.944836 -9.955695 40.488850 -4.558336 0.583315 -13.218420 0.000000 0.000000 0.000000 27.528156 -0.435954 -4.719053 -73.343594 -39.187970 30.563878 110.033166 -47.837808 -47.005855 0.000000 0.000000 0.000000 -18.469621 -7.421058 1.575210 24.134176 -6.613506 -5.322915 -115.642048 32.778704 -69.775574 0.000000 0.000000 0.000000
-0.267879 0.250202 1.290717 -10.375325 -50.493503 -73.692712 20.984367 18.456887 -38.055053 16.314445 -27.085255 113.182354 1.672724 -27.950271 -27.821310 0.000000 0.000000 0.000000 -23.066847 1.770390 -21.618900 42.763090 -11.303790 71.897863 -17.781111 -44.344353 -3.376884 0.000000 0.000000 0.000000 -25.955572 3.699075 -49.504817 9.098964 -3.616124 11.400430 0.991727 -9.889696 40.029048 -3.844458 0.167830 -10.947204 0.000000 0.000000 0.000000 25.334330 -0.635936 -4.548522 -78.150661 -35.076324 29.260319 111.863162 -49.909340 -49.915555 0.000000 0.000000 0.000000 -17.835359 -8.941604 0.936989 27.123770 -13.280481 -7.631289 -115.499979 40.290305 -79.589091 0.000000 0.000000 0.000000
-0.270477 0.250499 1.290379 -10.468055 -51.379000 -73.291919 22.109734 19.466431 -37.621955 17.517665 -28.372051 112.081910 2.320650 -29.919706 -30.251690 0.000000 0.000000 0.000000 -21.322280 1.786031 -20.163697 43.154305 -10.517688 70.586478 -16.958367 -46.515534 -9.476100 0.000000 0.000000 0.000000 -24.867214 4.307247 -48.675798 9.174901 -3.559473 11.462583 0.317153 -9.722046 40.056818 -2.735616 -0.762014 -10.666810 0.000000 0.000000 0.000000 22.773970 -0.789462 -4.257800 -81.678693 -30.476233 26.625809 111.997756 -53.657897 -53.885179 0.000000 0.000000 0.000000 -17.966884 -10.297965 0.625684 30.891420 -20.098465 -11.082533 -121.359681 53.813864 -102.977673 0.000000 0.000000 0.000000
-0.272677 0.247640 1.289614 -10.073387 -52.045642 -73.150568 22.923698 20.431832 -37.692024 19.478803 -30.979559 111.575247 3.369331 -31.972962 -33.065249 0.000000 0.000000 0.000000 -20.263755 1.807166 -19.307572 43.817452 -10.054571 69.794023 -15.370383 -48.450628 -16.945309 0.000000 0.000000 0.000000 -24.371394 4.753777 -48.468260 10.279707 -3.997597 12.908760 -1.141371 -9.344128 39.473754 -0.153831 -2.646308 -7.695683 0.000000 0.000000 0.000000 19.101516 -1.326870 -3.554951 -82.603422 -28.845847 24.379535 108.219502 -60.645518 -57.918459 0.000000 0.000000 0.000000 -17.598428 -12.546697 -0.180408 34.439146 -25.103534 -14.372328 -124.762903 67.519218 -121.527448 0.000000 0.000000 0.000000
-0.273905 0.244770 1.287534 -9.610842 -52.948333 -73.616245 23.915974 21.578879 -37.649619 20.581827 -33.286790 111.839680 4.516309 -33.589416 -35.686321 0.000000 0.000000 0.000000 -17.317680 1.949078 -18.983557 42.574383 -8.544004 69.448960 -14.708584 -51.062323 -21.649265 0.000000 0.000000 0.000000 -23.309289 5.240627 -47.312060 10.316999 -3.924846 11.940290 -2.087658 -10.067155 40.312115 0.678471 -3.573279 -8.088586 0.000000 0.000000 0.000000 16.761431 -2.948382 -2.838441 -85.161575 -30.263009 27.148928 90.729899 -59.766247 -43.179990 0.000000 0.000000 0.000000 -17.177318 -12.870386 -0.241562 38.283238 -28.550040 -18.059442 -113.334514 83.541017 -123.485531 0.000000 0.000000 0.000000
-0.274462 0.246437 1.284224 -9.031975 -54.161041 -73.768178 26.498704 23.721454 -36.775825 23.411770 -36.382219 109.371860 4.577912 -38.703109 -37.203203 0.000000 0.000000 0.000000 -14.608511 1.983776 -18.018744 43.645575 -8.189486 69.550114 -12.442390 -53.278875 -28.970081 0.000000 0.000000 0.000000 -22.199529 5.939643 -46.738113 11.596837 -4.374267 12.252775 -3.980005 -10.521167 39.699101 2.960427 -5.535504 -7.421714 0.000000 0.000000 0.000000 13.766478 -5.705855 -1.408747 -87.059585 -33.351951 30.629874 70.794923 -53.830903 -25.667125 0.000000 0.000000 0.000000 -18.393989 -12.725279 0.365552 42.463355 -31.761034 -22.380718 40.580819 76.605176 19.191273 0.000000 0.000000 0.000000
-0.274354 0.247201 1.280045 -6.948438 -53.955095 -75.056983 26.664961 23.643764 -36.105953 23.749661 -37.430039 110.293994 6.164390 -40.110801 -39.812765 0.000000 0.000000 0.000000 -13.188691 2.135162 -18.328799 43.633891 -7.710973 68.074452 -11.256977 -53.625238 -32.942559 0.000000 0.000000 0.000000 -21.500608 6.621283 -47.309788 11.161823 -4.078618 14.458248 -4.492903 -11.675865 38.910637 2.288139 -5.148592 -7.415086 0.000000 0.000000 0.000000 12.549638 -6.921365 -0.587755 -88.753678 -37.819174 35.880724 63.474390 -45.251185 -17.476285 0.000000 0.000000 0.000000 -17.834261 -12.577541 0.198213 42.343235 -34.760069 -23.624402 55.359533 68.009749 25.965181 0.000000 0.000000 0.000000
-0.274394 0.247492 1.276062 -6.517806 -53.730997 -75.009655 26.149556 22.825357 -35.510069 23.803591 -36.520222 110.465682 7.147574 -34.611300 -40.423137 0.000000 0.000000 0.000000 -14.067182 1.837521 -16.918410 44.408844 -7.292751 64.199446 -12.227627 -51.830906 -31.170249 0.000000 0.000000 0.000000 -22.075258 6.702577 -48.244652 12.020125 -4.321933 19.920171 -4.623617 -14.287600 35.366976 0.743218 -3.774004 -4.430805 0.000000 0.000000 0.000000 8.921882 -11.354824 2.386641 -84.724467 -41.174569 34.564297 64.176920 -38.665349 -12.689387 0.000000 0.000000 0.000000 -14.923437 -11.672137 -0.517619 43.610561 -34.493423 -23.651992 45.911574 69.807561 20.558757 0.000000 0.000000 0.000000
-0.273437 0.245733 1.272675 -6.857396 -52.531299 -72.889811 27.457315 23.626031 -35.685772 19.732256 -37.509039 117.098120 10.019251 -28.069479 -46.256414 0.000000 0.000000 0.000000 -16.665592 2.568350 -21.339104 52.053860 -12.575270 63.323001 -12.674621 -52.186219 -26.457626 0.000000 0.000000 0.000000 -24.713732 5.742672 -48.691348 12.949502 -5.003754 21.155804 -4.052454 -16.145051 36.234344 -3.964698 0.979250 -0.106185 0.000000 0.000000 0.000000 6.262652 -11.274171 3.463886 -84.430212 -47.588166 40.255378 65.397319 -32.309232 -8.653683 0.000000 0.000000 0.000000 -11.354826 -12.325534 -2.682655 48.839476 -33.860673 -25.687408 9.938962 65.006718 -3.377714 0.000000 0.000000 0.000000
-0.271162 0.256750 1.269632 -8.638321 -51.755800 -68.441606 27.837632 23.372602 -35.215660 20.119176 -33.527965 115.547868 15.334120 -21.178255 -60.441173 0.000000 0.000000 0.000000 -18.295155 2.998674 -24.919995 55.157188 -14.209863 62.141685 -15.778544 -50.904396 -15.245371 0.000000 0.000000 0.000000 -25.564098 4.902507 -47.976546 13.265825 -4.932709 25.147090 -2.420167 -17.551798 27.766039 -5.013747 1.886100 -1.769575 0.000000 0.000000 0.000000 9.790101 -18.784098 5.115498 -81.239619 -51.736805 43.634033 59.464116 -19.457436 -3.401762 0.000000 0.000000 0.000000 -10.302861 -13.064114 -2.537194 51.596985 -33.236849 -26.532562 -0.685915 69.482160 -10.394583 0.000000 0.000000 0.000000
