HIERARCHY
ROOT Hips
{
	OFFSET -0.001795 -0.223333 0.028219
	CHANNELS 6 Xposition Yposition Zposition Zrotation Yrotation Xrotation
	JOINT LeftUpLeg
	{
		OFFSET 0.069520 -0.091406 -0.006815
		CHANNELS 3 Zrotation Yrotation Xrotation
		JOINT LeftLeg
		{
			OFFSET 0.034277 -0.375199 -0.004496
			CHANNELS 3 Zrotation Yrotation Xrotation
			JOINT LeftFoot
			{
				OFFSET -0.013596 -0.397961 -0.043693
				CHANNELS 3 Zrotation Yrotation Xrotation
				JOINT LeftToe
				{
					OFFSET 0.026358 -0.055791 0.119288
					CHANNELS 3 Zrotation Yrotation Xrotation
					End Site
					{
						OFFSET 0.000000 0.000000 0.000000
					}
				}
			}
		}
	}
	JOINT RightUpLeg
	{
		OFFSET -0.067670 -0.090522 -0.004320
		CHANNELS 3 Zrotation Yrotation Xrotation
		JOINT RightLeg
		{
			OFFSET -0.038290 -0.382569 -0.008850
			CHANNELS 3 Zrotation Yrotation Xrotation
			JOINT RightFoot
			{
				OFFSET 0.015774 -0.398415 -0.042312
				CHANNELS 3 Zrotation Yrotation Xrotation
				JOINT RightToe
				{
					OFFSET -0.025372 -0.048144 0.123348
					CHANNELS 3 Zrotation Yrotation Xrotation
					End Site
					{
						OFFSET 0.000000 0.000000 0.000000
					}
				}
			}
		}
	}
	JOINT Spine
	{
		OFFSET -0.002533 0.108963 -0.026696
		CHANNELS 3 Zrotation Yrotation Xrotation
		JOINT Spine1
		{
			OFFSET 0.005487 0.135180 0.001092
			CHANNELS 3 Zrotation Yrotation Xrotation
			JOINT Spine2
			{
				OFFSET 0.001457 0.052922 0.025425
				CHANNELS 3 Zrotation Yrotation Xrotation
				JOINT Neck
				{
					OFFSET -0.002778 0.213870 -0.042857
					CHANNELS 3 Zrotation Yrotation Xrotation
					JOINT Head
					{
						OFFSET 0.005152 0.064970 0.051349
						CHANNELS 3 Zrotation Yrotation Xrotation
						End Site
						{
							OFFSET 0.000000 0.000000 0.000000
						}
					}
				}
				JOINT LeftShoulder
				{
					OFFSET 0.078845 0.121749 -0.034090
					CHANNELS 3 Zrotation Yrotation Xrotation
					JOINT LeftArm
					{
						OFFSET 0.090977 0.030469 -0.008868
						CHANNELS 3 Zrotation Yrotation Xrotation
						JOINT LeftForeArm
						{
							OFFSET 0.259612 -0.012772 -0.027456
							CHANNELS 3 Zrotation Yrotation Xrotation
							JOINT LeftHand
							{
								OFFSET 0.249234 0.008986 -0.001171
								CHANNELS 3 Zrotation Yrotation Xrotation
								End Site
								{
									OFFSET 0.000000 0.000000 0.000000
								}
							}
						}
					}
				}
				JOINT RightShoulder
				{
					OFFSET -0.081759 0.118833 -0.038615
					CHANNELS 3 Zrotation Yrotation Xrotation
					JOINT RightArm
					{
						OFFSET -0.096012 0.032551 -0.009143
						CHANNELS 3 Zrotation Yrotation Xrotation
						JOINT RightForeArm
						{
							OFFSET -0.253742 -0.013329 -0.021401
							CHANNELS 3 Zrotation Yrotation Xrotation
							JOINT RightHand
							{
								OFFSET -0.255298 0.007772 -0.005559
								CHANNELS 3 Zrotation Yrotation Xrotation
								End Site
								{
									OFFSET 0.000000 0.000000 0.000000
								}
							}
						}
					}
				}
			}
		}
	}
}
MOTION
Frames: 76
Frame Time: 0.050000
0.000000 0.632858 0.000000 -13.330891 16.364230 42.154975 23.234226 -0.669295 -35.329329 -16.347284 4.965276 47.381851 11.717096 31.094585 -26.617913 0.000000 0.000000 0.000000 -12.539097 -4.449393 -51.631512 3.697470 -4.880050 58.531347 -3.311172 -10.352970 12.157433 0.000000 0.000000 0.000000 -16.599995 1.944414 73.487861 6.104266 0.659903 -39.956011 8.463627 18.461449 20.996477 8.039200 1.457220 -34.361924 0.000000 0.000000 0.000000 6.143275 -20.720313 6.776140 -21.860137 -45.134447 0.316316 50.357998 -26.546926 -14.224833 0.000000 0.000000 0.000000 -5.425930 11.973704 4.774062 34.919258 34.331409 7.241882 -63.944791 31.428309 -9.149895 0.000000 0.000000 0.000000
-0.031708 0.614003 0.011825 -11.853734 17.968722 45.369782 26.872217 -0.414200 -38.133262 -20.546356 7.276267 48.592622 10.590565 29.952994 -35.099329 0.000000 0.000000 0.000000 -13.158779 -6.377025 -56.149947 5.408705 -7.134537 64.016896 -3.565336 -8.709116 -0.316100 0.000000 0.000000 0.000000 -16.219225 0.695379 72.757299 6.217209 0.465470 -37.410023 6.402223 20.513489 21.338441 9.661063 1.808645 -41.643679 0.000000 0.000000 0.000000 10.404880 -21.164766 7.348065 -19.396554 -47.714232 -1.456905 60.505579 -20.529933 -15.233811 0.000000 0.000000 0.000000 -2.006004 7.848291 4.377528 36.761280 31.264114 6.113059 -72.386056 30.170876 -7.925549 0.000000 0.000000 0.000000
-0.061121 0.577720 0.022853 -6.449977 19.151900 48.239485 26.250111 -1.233250 -35.955886 -22.028336 7.594610 51.513652 9.829193 30.995661 -46.119996 0.000000 0.000000 0.000000 -17.699246 -9.022569 -52.952037 6.152212 -9.523257 66.940542 -5.718666 -11.299686 -18.227172 0.000000 0.000000 0.000000 -14.024713 -2.435794 73.685254 3.779303 0.638880 -36.842993 6.643324 18.414764 20.951407 6.697416 2.579970 -40.232923 0.000000 0.000000 0.000000 11.269836 -21.947037 7.585405 -19.153291 -45.750863 -1.269914 68.726569 -21.784340 -18.339491 0.000000 0.000000 0.000000 0.078615 6.598310 4.431801 38.758228 24.599414 3.677016 -83.931643 33.384408 -12.513109 0.000000 0.000000 0.000000
-0.083955 0.536096 0.032999 -10.035628 17.163786 49.752051 29.451467 -0.618076 -31.166776 -24.014369 10.913758 55.047853 11.905416 34.386760 -28.996916 0.000000 0.000000 0.000000 -17.075022 -7.510522 -54.516361 4.954950 -7.853478 69.547812 -5.441081 -7.613603 -24.196601 0.000000 0.000000 0.000000 -14.647817 0.113641 71.784737 2.582729 0.724233 -35.840375 8.862194 20.609149 18.696933 6.175619 2.977865 -42.459806 0.000000 0.000000 0.000000 7.333130 -20.127102 6.579035 -20.484430 -40.973774 -0.590565 83.621178 -28.216999 -30.349297 0.000000 0.000000 0.000000 8.972167 3.797109 6.235548 34.473435 20.829115 0.545147 -92.974416 35.233400 -15.923154 0.000000 0.000000 0.000000
-0.099857 0.478768 0.040744 -7.981655 19.787582 51.386999 30.461375 -1.714087 -28.213630 -28.546414 12.966976 56.963531 15.027169 37.744340 -15.677108 0.000000 0.000000 0.000000 -17.581523 -8.600809 -52.152665 2.855452 -8.917627 76.737784 -7.561071 -7.659062 -43.075614 0.000000 0.000000 0.000000 -11.900190 -4.111019 72.677526 0.027396 0.984149 -35.949605 10.537775 22.378565 17.846757 7.432859 2.513655 -36.622105 0.000000 0.000000 0.000000 5.872909 -20.118700 6.182819 -21.799504 -34.881082 -0.252767 96.276944 -31.734459 -42.433944 0.000000 0.000000 0.000000 11.383934 0.526244 5.386665 38.239687 17.503573 0.122540 -101.137914 37.472013 -20.469084 0.000000 0.000000 0.000000
-0.109017 0.420601 0.046754 -4.105157 23.356082 53.500477 31.004390 -2.942766 -26.472690 -27.360586 10.903091 60.533380 12.439100 29.301188 -14.328212 0.000000 0.000000 0.000000 -20.026227 -10.833730 -48.265962 0.252978 -10.455686 83.525741 -9.620921 -9.614898 -60.290808 0.000000 0.000000 0.000000 -9.197545 -9.352605 73.739218 0.334404 0.962024 -36.352667 10.554169 23.168551 14.766065 9.498676 2.119304 -39.097061 0.000000 0.000000 0.000000 0.023084 -16.445493 3.255576 -21.303924 -29.994525 0.214361 104.955463 -37.534865 -54.533816 0.000000 0.000000 0.000000 15.403802 -2.205109 4.866059 38.299188 16.397177 -0.267837 -105.399769 40.170144 -25.818402 0.000000 0.000000 0.000000
-0.112660 0.367606 0.050727 -1.091138 25.194411 53.978316 30.078256 -3.546488 -24.780297 -23.674313 7.412023 65.416049 10.365328 22.474373 -10.161744 0.000000 0.000000 0.000000 -23.619067 -11.723939 -41.640536 -3.011136 -10.296110 87.541977 -11.506404 -7.001288 -70.612283 0.000000 0.000000 0.000000 -7.392457 -12.919155 74.994375 2.680986 0.853866 -38.638533 10.848216 26.698300 12.414036 14.601062 0.886819 -38.285723 0.000000 0.000000 0.000000 -8.754020 -18.624343 0.388024 -20.009484 -21.482537 0.683491 115.047652 -47.802506 -75.638859 0.000000 0.000000 0.000000 23.193175 -3.722730 7.185627 30.570523 13.023929 -2.406656 -108.389249 40.648010 -30.125465 0.000000 0.000000 0.000000
-0.110153 0.325828 0.053795 -5.398415 22.414035 50.996302 33.755381 -3.579191 -20.088015 -28.112768 13.642816 67.893213 10.529912 23.613310 -12.357396 0.000000 0.000000 0.000000 -24.173661 -11.557991 -44.880262 -3.740868 -7.197033 95.551592 -11.320377 -9.948805 -70.076769 0.000000 0.000000 0.000000 -6.643745 -11.488471 76.208326 2.809516 1.086088 -42.080103 12.727421 30.206105 10.224904 17.342336 -1.565112 -29.627930 0.000000 0.000000 0.000000 -22.676417 -20.864888 -4.725196 -13.943479 -11.871103 0.395711 122.770351 -59.352331 -91.612841 0.000000 0.000000 0.000000 28.962551 -7.790794 6.584478 24.811527 14.704246 -2.907769 -104.710803 48.981291 -38.115586 0.000000 0.000000 0.000000
-0.101484 0.296740 0.054625 -6.414883 20.338919 49.897913 35.743584 -3.611332 -18.393951 -26.870504 15.375343 72.965902 8.641437 18.476585 -20.603885 0.000000 0.000000 0.000000 -25.002344 -13.766656 -51.711383 -5.007290 -1.990672 104.563123 -10.594266 -8.718027 -55.959466 0.000000 0.000000 0.000000 -4.343338 -12.901378 78.526566 1.400048 1.434868 -48.033791 11.889852 31.806072 3.928070 16.555297 -6.621715 -13.536811 0.000000 0.000000 0.000000 -35.744118 -21.989456 -7.840869 -4.626247 0.121883 -0.147338 142.159411 -72.901564 -119.341877 0.000000 0.000000 0.000000 40.381470 -8.063128 9.355114 11.545501 4.654406 -2.031774 -109.828625 52.264514 -56.717008 0.000000 0.000000 0.000000
-0.087550 0.282352 0.052508 -6.380082 18.494188 46.094773 36.906869 -4.138227 -12.781772 -20.135770 11.014981 76.088158 5.741849 2.819312 -26.320164 0.000000 0.000000 0.000000 -28.188188 -16.227473 -55.339629 -3.800011 -0.278135 112.818875 -4.637460 -2.124730 -18.087802 0.000000 0.000000 0.000000 -3.098118 -13.779282 82.747000 5.806737 2.251685 -53.718960 8.541294 33.197697 1.189017 20.966506 -28.079115 16.594302 0.000000 0.000000 0.000000 -40.673747 -18.812385 -10.922764 -0.206646 3.861107 -0.076340 178.437381 -77.450864 -163.521622 0.000000 0.000000 0.000000 49.956939 -7.220543 12.137751 2.122653 -0.097369 0.278627 -105.496423 54.299224 -64.235836 0.000000 0.000000 0.000000
-0.068002 0.290432 0.045692 -13.302526 14.840360 41.267806 44.976052 -6.235689 -4.375785 -21.521761 16.092021 74.796511 6.071723 4.046150 -27.201592 0.000000 0.000000 0.000000 -21.282374 -11.934180 -63.472390 -4.518017 6.324271 116.760306 -1.719554 -0.662849 -6.481608 0.000000 0.000000 0.000000 -2.115557 -13.062260 89.674023 0.292128 2.995388 -71.547831 19.948910 29.503121 4.649448 -2.135131 -22.298032 54.604380 0.000000 0.000000 0.000000 -46.709282 -17.329974 -10.242441 7.228941 10.199719 0.984414 -132.695825 -79.387047 140.625497 0.000000 0.000000 0.000000 53.650215 -6.591326 7.059629 -6.302045 -9.401945 3.120477 -94.933651 73.677136 -79.155079 0.000000 0.000000 0.000000
-0.041708 0.311484 0.032786 -26.143644 5.530858 24.693528 53.272749 -12.857066 20.440768 -21.036177 19.213440 70.871881 5.633146 -2.334502 -30.806382 0.000000 0.000000 0.000000 -8.990884 0.372027 -63.891745 -6.327881 17.893720 119.051556 2.754071 4.173994 4.277029 0.000000 0.000000 0.000000 -3.129187 -6.129487 104.710298 6.469077 5.055170 -80.535146 27.362446 34.355180 9.631374 -8.460336 -25.406472 76.272983 0.000000 0.000000 0.000000 -49.128337 -16.085495 -13.682873 12.319563 15.001672 2.380185 -116.818894 -73.358542 118.137137 0.000000 0.000000 0.000000 53.190581 -6.990967 6.341265 -6.938232 -12.261640 3.366229 -8.347214 83.446728 -10.560743 0.000000 0.000000 0.000000
-0.006312 0.344326 0.012001 -25.668675 -12.859203 -5.316796 53.830298 -15.537027 51.398716 -10.033986 7.508913 73.248417 2.871814 -15.266119 -28.735253 0.000000 0.000000 0.000000 0.089982 6.062644 -38.578872 -9.186649 35.727401 114.048006 -1.628485 10.714866 -20.968371 0.000000 0.000000 0.000000 -1.887157 4.318417 124.497114 7.115479 -0.152227 -60.222196 15.451169 36.468509 -17.514595 -11.236497 -17.294767 74.034193 0.000000 0.000000 0.000000 -44.909577 -11.496530 -14.019867 12.387019 17.758784 2.439060 -103.458200 -64.678196 93.605389 0.000000 0.000000 0.000000 51.302452 -5.830561 5.213245 -6.906325 -20.548613 3.630927 54.708559 67.792139 37.164420 0.000000 0.000000 0.000000
0.038565 0.376806 -0.018223 -17.422246 -11.095777 -21.268186 57.787642 -15.853653 45.076708 -1.297721 -4.262514 86.071061 5.808829 -24.571093 -41.561727 0.000000 0.000000 0.000000 -9.705130 1.737333 -31.762155 -11.636878 35.465294 108.978724 -6.311573 4.857158 -38.627799 0.000000 0.000000 0.000000 0.137257 -4.948978 134.834451 34.021970 8.846705 -90.129821 17.302621 44.126664 27.391755 -21.513758 -15.244208 89.751388 0.000000 0.000000 0.000000 -51.258885 -15.242136 -18.060969 16.366775 15.131624 3.617830 -71.377451 -63.068976 61.154204 0.000000 0.000000 0.000000 56.775782 -5.143621 19.665662 -4.459497 -19.074036 3.068962 18.088713 62.437670 0.738830 0.000000 0.000000 0.000000
0.088951 0.404822 -0.053569 -10.363472 -10.673777 -33.156352 52.571640 -9.629164 37.153754 -1.046861 -7.630747 99.844259 7.053541 -31.876652 -48.510838 0.000000 0.000000 0.000000 -19.928018 -1.392461 -31.136408 -8.618884 27.672297 99.993863 -8.742705 1.642728 -50.303295 0.000000 0.000000 0.000000 6.326682 -21.489777 136.776275 9.890424 11.217014 -157.922401 12.585792 12.444426 96.011693 -5.016917 -45.368272 59.261619 0.000000 0.000000 0.000000 -53.893807 -9.684806 1.923078 1.376643 5.787762 0.889863 14.017072 -71.558237 -16.996958 0.000000 0.000000 0.000000 34.381012 -0.843832 9.305656 8.391278 -11.238883 -4.950915 37.602470 44.570724 6.941328 0.000000 0.000000 0.000000
0.138332 0.415322 -0.092616 -7.797260 -9.308453 -40.235053 43.764550 -4.473541 28.512756 -5.067548 -1.514417 110.631189 1.014038 -34.884205 -37.281227 0.000000 0.000000 0.000000 -23.989022 -2.891102 -32.242083 -1.997768 15.158820 91.822667 -9.486925 -3.645245 -54.415221 0.000000 0.000000 0.000000 42.207832 -54.149941 107.100954 176.381870 46.572262 -53.728160 165.337975 -6.091731 -129.452637 168.486920 26.098892 73.537515 0.000000 0.000000 0.000000 -10.393874 13.812688 135.525490 35.557617 -30.547746 -16.990389 72.447083 28.735186 7.047087 0.000000 0.000000 0.000000 -15.780157 -4.410174 -151.995040 -65.707790 6.135579 4.319602 -21.581784 -43.401965 3.473665 0.000000 0.000000 0.000000
0.182349 0.410269 -0.134529 -7.269007 -12.487458 -46.062351 36.469814 0.468016 18.321692 -6.905887 5.738253 121.007453 -7.358601 -23.730526 -12.041404 0.000000 0.000000 0.000000 -23.282372 -2.395490 -35.951296 8.766147 2.792953 85.654871 -8.294173 -12.938007 -44.272742 0.000000 0.000000 0.000000 102.818518 -35.978484 47.322833 21.552015 81.210305 155.557052 153.730248 -4.574029 -126.044578 166.064994 24.905503 67.418705 0.000000 0.000000 0.000000 -3.640218 15.542425 120.716121 23.646467 -42.033129 -14.017499 79.012275 5.972267 0.826104 0.000000 0.000000 0.000000 -13.416064 7.717280 -112.368215 -68.133931 -21.582337 20.492520 15.494825 -40.530479 -13.059446 0.000000 0.000000 0.000000
0.219118 0.391501 -0.179655 -5.725847 -14.690792 -50.323051 25.868483 3.721823 1.846828 -12.035763 24.007042 126.183113 -0.512377 3.356505 11.190897 0.000000 0.000000 0.000000 -21.526484 -1.450014 -38.344430 17.790348 -5.440766 80.044364 -8.383260 -19.893620 -31.488024 0.000000 0.000000 0.000000 89.643202 14.999011 23.498253 -1.088425 16.933911 132.501280 99.637917 -4.397892 -100.563766 51.616833 18.077221 16.840099 0.000000 0.000000 0.000000 -23.935326 5.341740 51.275487 -14.110065 -15.408433 -3.799552 77.630926 -48.478677 -37.263300 0.000000 0.000000 0.000000 18.264625 10.679046 -14.980389 23.130529 -34.959343 -6.177513 35.159077 19.952647 1.635890 0.000000 0.000000 0.000000
0.247560 0.366811 -0.229024 -3.407025 -18.568458 -54.161538 18.283237 5.158579 -18.157866 -15.408215 38.507831 129.300211 10.006146 21.048905 25.090244 0.000000 0.000000 0.000000 -16.978356 0.923757 -40.133936 21.599805 -6.737701 77.922805 -9.920003 -29.491190 -27.299637 0.000000 0.000000 0.000000 72.646394 15.413189 18.534881 -0.744340 4.223038 126.724915 73.628301 -10.876856 -95.438835 46.424292 11.851910 12.873142 0.000000 0.000000 0.000000 -19.207154 -5.118532 35.133456 -21.441861 -5.212606 -2.329142 85.787953 -55.299284 -40.661729 0.000000 0.000000 0.000000 19.778340 9.606584 -10.320915 31.247520 -23.535634 -4.209148 28.408158 33.290783 4.479541 0.000000 0.000000 0.000000
0.268401 0.338809 -0.282596 0.429813 -24.084607 -57.041467 16.421260 7.797518 -32.258860 -13.380124 38.886029 129.392549 15.268580 30.478732 -1.260050 0.000000 0.000000 0.000000 -10.983520 4.069059 -39.386064 21.017982 -2.908566 74.564939 -9.740870 -31.329025 -33.324886 0.000000 0.000000 0.000000 73.173357 5.802632 31.896659 1.818859 22.743079 125.430879 85.441413 -7.905866 -95.076869 26.256855 14.279023 8.770418 0.000000 0.000000 0.000000 -14.663342 -4.375182 34.973865 -22.227383 -13.624997 -1.557547 85.108671 -43.930797 -27.492109 0.000000 0.000000 0.000000 22.350868 15.686155 -7.299406 35.638316 -9.767425 0.497311 22.730209 46.432141 2.845285 0.000000 0.000000 0.000000
0.284869 0.305241 -0.333175 0.340550 -25.671993 -58.565177 10.090918 6.987332 -44.125685 -7.180254 26.843971 130.851388 13.186180 26.685601 -29.722409 0.000000 0.000000 0.000000 -8.848702 4.655009 -37.895364 18.578491 -0.830838 61.932236 -11.976524 -32.280318 -21.888229 0.000000 0.000000 0.000000 75.729809 -1.265741 50.515239 3.985560 34.116430 134.476869 103.443885 11.455936 -99.829529 21.340743 17.915565 2.021593 0.000000 0.000000 0.000000 -12.554152 2.493819 49.465046 -15.397293 -26.913166 -1.181410 77.785503 -26.201774 -13.253752 0.000000 0.000000 0.000000 23.418850 19.034526 -3.421192 36.339765 0.428493 3.112543 18.096609 61.967780 -2.576706 0.000000 0.000000 0.000000
0.300384 0.266392 -0.369812 2.234386 -30.406747 -61.242600 7.030309 8.184991 -50.488887 -1.496788 15.743697 129.087058 12.503362 22.477582 -34.670052 0.000000 0.000000 0.000000 -7.192143 7.074366 -41.613627 21.178812 -1.445208 55.870199 -15.709259 -36.510025 0.719000 0.000000 0.000000 0.000000 49.093191 -3.776978 51.000822 9.879845 -1.624330 140.822973 49.320145 2.425306 -132.485850 19.321122 12.341102 0.288131 0.000000 0.000000 0.000000 -15.967075 -16.601479 23.412386 -24.269608 -5.366367 0.920898 51.317962 -39.468758 -8.910125 0.000000 0.000000 0.000000 22.292211 21.989617 3.974427 35.910169 13.011669 13.621465 -38.233929 63.257593 -30.098636 0.000000 0.000000 0.000000
0.316547 0.232916 -0.387752 3.078396 -33.722551 -64.539535 5.030807 8.954636 -53.730985 3.820417 3.508613 128.817237 11.417360 13.780835 -36.298743 0.000000 0.000000 0.000000 -8.724238 7.763867 -43.585701 26.791262 -3.603461 54.877760 -19.193926 -39.318287 14.262032 0.000000 0.000000 0.000000 35.545639 -5.028882 42.918941 14.918533 -17.145303 135.954516 32.256189 -24.077396 -126.507294 13.876982 2.396768 -5.002329 0.000000 0.000000 0.000000 -16.798593 -24.258870 14.482764 -26.708737 3.309457 -1.044657 33.590238 -40.420722 -2.954440 0.000000 0.000000 0.000000 20.276502 24.906376 6.877137 30.197546 21.738242 10.899266 -50.667972 61.737145 -16.154474 0.000000 0.000000 0.000000
0.334160 0.211935 -0.394226 4.450092 -35.731307 -67.373278 2.536154 9.311010 -57.545668 7.082129 -4.133504 128.047896 9.750638 8.321114 -31.069715 0.000000 0.000000 0.000000 -9.451870 8.508097 -45.224346 28.347436 -3.849598 58.798154 -18.851114 -39.806659 12.675035 0.000000 0.000000 0.000000 31.937613 -1.872905 25.193843 14.143516 -18.503983 129.044732 22.852645 -38.226808 -93.319701 15.529079 2.240844 -11.651995 0.000000 0.000000 0.000000 -13.073371 -23.731542 12.882788 -27.128022 0.377426 -1.938065 26.683739 -35.526968 -4.053190 0.000000 0.000000 0.000000 21.201219 26.653583 13.052043 17.302597 31.442097 2.350835 -58.069121 52.434915 -12.143303 0.000000 0.000000 0.000000
0.351827 0.198740 -0.398165 4.839733 -36.507842 -69.620144 -0.480302 7.912627 -59.422423 10.885581 -8.642785 120.898172 8.323833 4.614208 -27.520816 0.000000 0.000000 0.000000 -9.587875 8.189847 -44.223379 26.585331 -2.295578 61.188527 -16.087644 -37.557725 4.754483 0.000000 0.000000 0.000000 22.532502 1.929802 7.329120 12.841889 -18.883833 124.867861 2.780701 -36.732830 -56.702605 13.873268 0.834249 -21.439923 0.000000 0.000000 0.000000 -10.045471 -24.800025 11.058484 -28.559782 -1.783344 -1.353101 22.000723 -32.131671 -4.851526 0.000000 0.000000 0.000000 11.525095 24.987402 13.730354 10.751815 37.712378 -0.317099 -60.379777 42.944139 -13.844780 0.000000 0.000000 0.000000
0.365677 0.192363 -0.405080 4.560720 -37.465260 -71.423154 -2.033288 7.296136 -60.256625 14.154319 -13.281558 116.282902 5.047172 -0.180663 -18.797910 0.000000 0.000000 0.000000 -6.608158 8.256546 -41.058987 20.594478 1.720187 61.284374 -13.168066 -32.761920 -1.809317 0.000000 0.000000 0.000000 12.767454 3.844781 -7.778031 10.989886 -18.792174 124.547453 -6.593285 -27.325164 -34.374621 9.661272 1.527056 -28.006231 0.000000 0.000000 0.000000 -9.874998 -25.002603 8.114161 -27.587912 -2.387893 -1.495671 16.241021 -29.578146 -4.213584 0.000000 0.000000 0.000000 2.805441 23.689165 12.132263 10.061742 42.358497 -0.028954 -60.307756 34.642331 -12.424722 0.000000 0.000000 0.000000
0.375315 0.190332 -0.414180 3.872952 -37.395981 -72.757406 -2.373757 6.682830 -59.850499 16.086990 -14.561698 111.096663 2.668717 -1.407876 -11.695452 0.000000 0.000000 0.000000 -5.472344 7.575011 -38.337916 18.055235 3.441637 61.785694 -12.406357 -30.538447 -3.445896 0.000000 0.000000 0.000000 5.104343 4.460234 -17.259756 10.380465 -19.019266 124.012434 -10.196774 -19.191899 -26.146547 7.085034 1.247729 -23.951984 0.000000 0.000000 0.000000 -12.920681 -26.651937 7.436829 -24.693785 -2.257945 -1.161155 16.953920 -27.081063 -4.312960 0.000000 0.000000 0.000000 0.483894 23.465545 11.321566 14.087543 42.080962 1.738585 -59.391269 34.924409 -13.436838 0.000000 0.000000 0.000000
0.383242 0.186732 -0.423859 2.465366 -36.423734 -73.902280 -1.843413 5.979141 -58.620358 16.223957 -13.727192 106.498790 -0.063084 -1.504430 -2.283852 0.000000 0.000000 0.000000 -4.948394 6.597011 -35.586614 14.373583 5.612163 62.554444 -11.426216 -27.602904 -6.884295 0.000000 0.000000 0.000000 -0.517646 4.062423 -22.876219 10.000280 -15.144127 122.947588 -9.776022 -10.622180 -23.621486 5.863488 0.544682 -17.734504 0.000000 0.000000 0.000000 -15.771693 -28.592409 7.155816 -20.435998 -2.599291 -0.575795 19.666555 -27.518157 -5.212442 0.000000 0.000000 0.000000 2.563572 23.091033 11.685234 20.572423 39.937544 3.748796 -58.314251 39.501049 -15.847286 0.000000 0.000000 0.000000
0.391681 0.185162 -0.432666 0.956564 -35.547951 -74.939552 -0.166534 5.584768 -55.097938 15.083540 -10.919716 102.395840 -0.336877 -0.753024 -0.058828 0.000000 0.000000 0.000000 -2.861463 6.121711 -32.487526 9.580716 7.954239 61.079126 -9.685040 -22.762225 -3.455127 0.000000 0.000000 0.000000 -5.494798 2.903423 -26.169949 10.975342 -12.714589 118.587251 -10.294511 -3.649761 -21.316487 4.597109 -0.230617 -10.999293 0.000000 0.000000 0.000000 -19.602838 -29.665867 6.707583 -17.925741 -4.123948 -0.049369 25.239835 -32.299241 -7.969182 0.000000 0.000000 0.000000 8.914063 22.203420 13.343494 21.954877 36.317040 3.174292 -53.001858 45.492090 -17.182932 0.000000 0.000000 0.000000
0.402244 0.183060 -0.441032 -0.665865 -34.652106 -75.175729 1.171540 5.145689 -52.202393 12.677018 -6.919785 98.356461 1.056119 2.062863 0.040646 0.000000 0.000000 0.000000 -2.385033 5.505833 -30.462734 6.250409 9.406615 59.825285 -8.214191 -19.018011 -2.547892 0.000000 0.000000 0.000000 -9.579342 1.688034 -28.546275 11.044028 -10.180812 115.807713 -9.627503 2.101640 -20.409013 4.556223 -1.592132 -5.588726 0.000000 0.000000 0.000000 -22.385594 -30.059609 5.968717 -18.182215 -6.050961 0.435777 32.097293 -36.851185 -11.946701 0.000000 0.000000 0.000000 12.773295 22.186046 14.933875 24.556666 33.568039 2.981600 -47.628302 50.000557 -17.108618 0.000000 0.000000 0.000000
0.415006 0.181113 -0.449357 -2.568266 -33.505343 -75.218033 2.456585 4.643464 -49.363636 8.628574 -2.020761 95.468483 3.898342 6.615454 -2.357627 0.000000 0.000000 0.000000 -1.394471 4.948428 -27.938844 1.334352 11.102822 56.498800 -6.347804 -14.287159 -2.023730 0.000000 0.000000 0.000000 -13.044712 0.134289 -28.977176 11.082126 -8.596651 112.422877 -9.164468 7.325569 -20.622785 3.476310 -2.752971 0.547964 0.000000 0.000000 0.000000 -24.904203 -29.509580 4.743220 -20.458063 -7.098172 0.929747 40.260628 -40.666435 -17.091467 0.000000 0.000000 0.000000 19.089824 20.840685 17.090381 23.384883 31.628199 1.784589 -41.583858 52.980446 -15.802609 0.000000 0.000000 0.000000
0.429540 0.181928 -0.457508 -4.513916 -32.880804 -74.763852 2.525668 3.770539 -47.309413 6.232629 0.663285 91.143151 5.565824 9.873043 -1.843464 0.000000 0.000000 0.000000 -2.295022 4.347330 -26.970064 1.544416 10.323580 55.962712 -6.281469 -14.420542 -1.017918 0.000000 0.000000 0.000000 -15.282414 -0.606620 -30.687623 10.933694 -6.895515 108.442070 -6.566647 11.069555 -18.318977 2.628938 -3.526099 5.263257 0.000000 0.000000 0.000000 -28.188706 -28.741603 4.365547 -19.470636 -5.158593 0.639296 42.694855 -45.937610 -19.880656 0.000000 0.000000 0.000000 23.107521 18.742091 17.130624 24.124884 31.803797 1.545523 -33.132645 55.562323 -12.686808 0.000000 0.000000 0.000000
0.444394 0.183113 -0.464228 -4.332655 -34.164265 -76.009133 3.785979 4.333794 -44.289895 4.995037 3.089688 86.567236 6.613566 11.735794 -0.717392 0.000000 0.000000 0.000000 -0.440074 4.476152 -25.218044 -0.470904 11.107419 53.399227 -4.431730 -11.626770 2.541522 0.000000 0.000000 0.000000 -12.591499 0.843748 -31.717352 10.542804 -4.961282 108.997899 -4.720926 9.635749 -21.431809 -0.333761 -5.361782 17.512576 0.000000 0.000000 0.000000 -31.061247 -26.563201 3.451001 -18.085767 -1.505080 0.196113 46.072593 -50.627112 -23.058873 0.000000 0.000000 0.000000 27.969357 19.021102 18.370023 24.373576 29.677027 1.021230 -28.507925 57.060042 -11.307079 0.000000 0.000000 0.000000
0.458660 0.186613 -0.468367 -5.822809 -32.751964 -75.649671 2.238775 2.822937 -43.983208 3.948329 3.196059 85.700442 6.492384 12.435094 4.221168 0.000000 0.000000 0.000000 -2.422461 3.544637 -23.864170 -1.857708 11.832864 54.161318 -3.215830 -5.883658 -2.721721 0.000000 0.000000 0.000000 -13.598581 0.934677 -35.970852 9.208121 -0.963328 102.544970 3.103893 12.343782 -13.876923 -2.313954 -4.308884 24.348835 0.000000 0.000000 0.000000 -35.388506 -23.719702 3.593692 -14.564490 2.459434 -0.633250 45.440915 -58.385810 -24.954617 0.000000 0.000000 0.000000 34.239852 17.255284 18.129808 20.452638 28.052926 -0.320255 -21.792091 58.592140 -8.768467 0.000000 0.000000 0.000000
0.470525 0.190117 -0.469920 -6.906194 -32.717608 -76.461075 1.572835 2.010225 -41.854589 3.658238 3.236384 85.125573 7.644685 14.432754 5.106472 0.000000 0.000000 0.000000 -2.270307 3.276421 -22.396682 -2.278846 12.143392 54.977735 -2.235558 -5.539885 0.603165 0.000000 0.000000 0.000000 -12.299750 1.624448 -37.079058 7.827104 2.650006 94.097482 8.753472 13.344511 -9.050541 -3.430025 -5.585601 35.600697 0.000000 0.000000 0.000000 -37.582383 -21.804616 4.551838 -14.138072 7.049317 -1.381973 48.370535 -63.969704 -28.822085 0.000000 0.000000 0.000000 38.440008 13.024203 15.015337 21.967354 24.459927 -0.840858 -15.621086 62.517637 -5.662565 0.000000 0.000000 0.000000
0.478403 0.192126 -0.469762 -6.811548 -32.651696 -77.195759 1.702242 2.012077 -41.644236 4.041158 2.815470 86.865362 6.115644 12.495462 7.203156 0.000000 0.000000 0.000000 -1.745105 3.274931 -21.830513 -4.384409 13.661715 55.122540 -0.243198 -0.529261 0.468760 0.000000 0.000000 0.000000 -11.079987 1.930168 -36.247220 6.657617 5.598746 83.345111 12.958092 11.651665 -2.602101 -4.003409 -5.527925 45.772118 0.000000 0.000000 0.000000 -41.263110 -18.078596 4.959203 -11.394620 10.205228 -1.584565 51.309944 -68.867173 -32.706539 0.000000 0.000000 0.000000 41.303670 10.203450 11.671328 24.616372 20.717354 -1.190806 -12.015607 64.998851 -3.287413 0.000000 0.000000 0.000000
0.482307 0.195856 -0.468451 -7.064450 -32.605090 -78.181122 2.025181 2.028042 -40.989764 5.326602 0.968049 88.022110 3.859248 9.915358 10.801179 0.000000 0.000000 0.000000 -2.126494 3.217014 -21.962152 -2.948344 13.399166 57.601994 1.422796 -0.146690 5.668684 0.000000 0.000000 0.000000 -10.386228 2.094266 -36.000559 2.644832 9.019372 66.380222 19.761980 11.003042 11.552458 -2.177934 -8.042956 50.328790 0.000000 0.000000 0.000000 -42.571513 -17.343847 7.661470 -11.154756 12.729736 -2.011318 64.682559 -72.080369 -46.044210 0.000000 0.000000 0.000000 43.660136 7.281357 8.494631 25.979432 17.283477 -2.320807 -5.640149 66.771512 1.293180 0.000000 0.000000 0.000000
0.483562 0.193918 -0.466905 -6.443479 -32.472194 -79.680157 3.654062 2.740971 -39.876799 5.634003 0.355556 88.474992 1.492121 6.271841 10.226233 0.000000 0.000000 0.000000 -1.861391 3.271153 -21.941406 -2.115515 13.384872 59.318316 2.158794 -0.018432 8.095126 0.000000 0.000000 0.000000 -9.921669 1.991937 -34.901944 -1.169219 10.711716 53.133992 24.593812 9.721233 22.569217 -1.791096 -6.999016 52.029202 0.000000 0.000000 0.000000 -41.959082 -14.993454 7.797846 -13.413015 13.435575 -2.892197 87.893053 -77.703283 -72.787794 0.000000 0.000000 0.000000 43.290079 5.067501 5.743256 30.051114 14.489421 -3.442672 4.641456 68.857546 9.078350 0.000000 0.000000 0.000000
0.483622 0.193117 -0.465616 -5.760313 -32.521288 -80.478799 5.121514 3.431249 -38.562176 5.071529 1.043238 87.795232 1.839435 6.127925 7.944141 0.000000 0.000000 0.000000 -1.358447 3.532562 -22.448707 -0.902580 13.406999 61.851459 0.937484 -1.689539 6.624080 0.000000 0.000000 0.000000 -9.624277 2.139347 -34.787977 -2.990241 10.383799 44.869670 25.395005 8.537628 29.434042 -0.708165 -7.362523 49.573689 0.000000 0.000000 0.000000 -39.185735 -13.313355 7.513049 -16.696238 14.121966 -4.138602 118.888586 -79.448818 -106.813554 0.000000 0.000000 0.000000 42.389911 3.825206 4.022338 33.130486 11.754213 -4.551859 15.087728 70.659036 17.142659 0.000000 0.000000 0.000000
0.483375 0.190031 -0.464624 -4.500207 -32.822341 -81.358829 5.797016 3.775695 -37.081291 6.167880 0.446204 86.349366 0.891126 3.299352 4.216158 0.000000 0.000000 0.000000 -0.750313 3.995064 -23.511919 0.192494 13.260891 63.223387 0.025320 -4.801263 8.890439 0.000000 0.000000 0.000000 -8.885551 2.772069 -35.427369 -4.092096 10.377090 40.349852 25.477792 7.694249 32.534767 0.010592 -7.928083 48.544321 0.000000 0.000000 0.000000 -37.374078 -12.443191 7.472700 -18.681169 15.612326 -5.026542 144.120840 -78.814827 -134.822894 0.000000 0.000000 0.000000 40.322101 1.776256 1.728941 36.319264 8.478432 -5.701163 30.187221 70.225168 28.047808 0.000000 0.000000 0.000000
0.482884 0.184571 -0.463620 -3.575904 -33.143736 -82.392223 6.015186 3.703759 -34.957408 6.615440 0.669216 84.666462 1.968341 2.693605 -2.595758 0.000000 0.000000 0.000000 -0.423628 4.141566 -23.587051 0.766262 13.218583 63.726667 -1.053492 -6.892662 8.667470 0.000000 0.000000 0.000000 -8.402998 3.148299 -35.724696 -4.429280 9.415418 35.612525 24.451578 6.264011 36.208480 0.873693 -8.047568 47.037770 0.000000 0.000000 0.000000 -35.888547 -10.882211 7.380133 -21.182735 15.748543 -6.148214 161.979187 -79.682452 -156.461124 0.000000 0.000000 0.000000 37.296218 0.792925 0.071256 38.389429 5.501889 -6.782529 43.226688 67.279489 35.563811 0.000000 0.000000 0.000000
0.482194 0.180071 -0.462349 -2.339727 -33.870644 -83.617723 6.785194 4.042477 -32.947584 7.216060 0.856293 83.015034 1.334927 -0.551613 -7.232582 0.000000 0.000000 0.000000 1.078583 4.667180 -23.669904 1.496501 13.528406 65.313948 -2.639520 -9.197280 6.274192 0.000000 0.000000 0.000000 -7.087896 4.092970 -36.044369 -5.226023 9.779346 33.650604 24.526272 4.498262 36.773767 1.565761 -8.353980 48.027172 0.000000 0.000000 0.000000 -36.762682 -9.663904 7.805189 -21.525625 15.374945 -6.398688 165.019603 -80.673039 -160.251145 0.000000 0.000000 0.000000 34.894735 -0.088400 -1.570371 39.130074 3.675662 -7.147773 44.608031 63.702663 33.619098 0.000000 0.000000 0.000000
0.481062 0.173970 -0.460918 -2.739975 -34.384705 -83.917679 6.656983 3.864385 -31.911865 7.428176 0.707475 82.172836 1.508591 -1.750672 -10.548648 0.000000 0.000000 0.000000 1.174811 4.724159 -23.636603 2.390965 13.275909 66.828560 -3.496674 -10.142313 3.997470 0.000000 0.000000 0.000000 -6.228521 4.467766 -35.826923 -4.844382 7.667635 27.621559 22.849981 1.786820 40.605111 3.162475 -8.907464 44.901731 0.000000 0.000000 0.000000 -33.930381 -8.786089 8.815909 -24.511552 13.907187 -7.658823 163.355829 -81.595798 -158.278959 0.000000 0.000000 0.000000 30.651580 -0.999991 -3.475999 41.299504 1.531801 -8.034191 46.369826 59.007624 30.713819 0.000000 0.000000 0.000000
0.479902 0.169891 -0.459521 -2.523096 -34.409773 -84.904526 7.403426 4.122393 -30.896181 6.498112 1.344681 80.932740 0.763690 -2.956293 -9.814681 0.000000 0.000000 0.000000 1.426272 4.578218 -22.693227 1.911608 13.539496 66.559733 -2.920617 -9.019475 4.359425 0.000000 0.000000 0.000000 -5.545022 4.869995 -36.001109 -5.096315 6.228753 21.487131 21.611099 -0.439630 45.285379 4.038694 -8.317790 39.753972 0.000000 0.000000 0.000000 -29.989272 -7.803446 8.960043 -28.084126 10.526295 -8.856963 165.597776 -83.942860 -160.220858 0.000000 0.000000 0.000000 27.237750 -2.152157 -4.880409 43.118190 1.057963 -8.736492 45.081781 54.030048 26.144696 0.000000 0.000000 0.000000
0.478914 0.166393 -0.458540 -2.861464 -34.704876 -84.895607 7.577168 4.149238 -30.459333 6.109273 1.653434 80.293737 0.195682 -3.327645 -8.218593 0.000000 0.000000 0.000000 1.401975 4.371291 -21.885031 1.348908 13.531709 65.114205 -2.611446 -8.373953 4.369563 0.000000 0.000000 0.000000 -5.173316 5.067777 -36.007851 -3.766900 4.545849 18.236346 18.790133 -1.971373 45.779700 5.258299 -9.116037 35.703541 0.000000 0.000000 0.000000 -27.464062 -7.403416 9.242828 -30.567315 8.354998 -9.420799 140.235096 -85.666273 -132.418953 0.000000 0.000000 0.000000 24.224162 -2.912930 -6.011842 44.994550 -0.564154 -9.350753 45.411319 51.326858 23.745250 0.000000 0.000000 0.000000
0.478173 0.162759 -0.457825 -3.188729 -34.531444 -84.780069 7.649923 4.154123 -30.407749 5.653812 1.635563 79.965603 0.274060 -2.975421 -7.846859 0.000000 0.000000 0.000000 0.159297 4.101817 -22.074840 2.104227 12.883419 65.400470 -2.168245 -7.314656 4.237145 0.000000 0.000000 0.000000 -5.463757 5.233547 -37.068470 -2.839287 3.670046 17.426555 17.811846 -3.453319 45.231222 4.776544 -7.168475 32.960892 0.000000 0.000000 0.000000 -25.558375 -7.530435 9.496799 -32.876749 4.791588 -9.484050 92.216178 -84.454753 -80.407397 0.000000 0.000000 0.000000 20.543222 -3.887420 -6.368776 46.915173 -1.805893 -10.130096 46.188371 50.213753 22.860220 0.000000 0.000000 0.000000
0.477547 0.158502 -0.457366 -3.351570 -34.209634 -85.058329 8.598763 4.400233 -29.564897 4.072010 2.614640 76.845346 -0.613661 -2.819700 -4.180504 0.000000 0.000000 0.000000 0.032538 3.835558 -21.224269 0.623449 13.218391 63.209009 -0.696626 -5.128915 6.355688 0.000000 0.000000 0.000000 -5.218571 5.111419 -36.685054 -2.379865 2.844396 14.472375 16.410747 -4.275659 45.795398 5.145948 -7.203009 25.761244 0.000000 0.000000 0.000000 -21.989401 -7.947606 9.292889 -35.688025 2.982794 -9.648404 73.337330 -83.885543 -60.316083 0.000000 0.000000 0.000000 15.892440 -5.885746 -6.810971 50.584162 -2.737984 -11.444764 48.724077 48.252950 22.398818 0.000000 0.000000 0.000000
0.476677 0.155694 -0.457056 -3.828283 -33.514491 -84.858473 8.345141 4.128265 -29.253919 2.867728 3.158557 75.653954 0.584753 -0.470408 -4.281637 0.000000 0.000000 0.000000 -0.919440 3.665960 -21.592154 1.588750 11.925591 62.743621 -0.192226 -5.125412 8.656515 0.000000 0.000000 0.000000 -5.476573 4.936356 -37.046640 -1.782909 2.266463 13.623706 15.331560 -4.988559 45.383136 4.364412 -5.859926 21.856729 0.000000 0.000000 0.000000 -19.068664 -6.733068 7.937037 -38.832573 0.930347 -9.711997 59.841604 -85.116453 -46.898405 0.000000 0.000000 0.000000 13.631479 -6.787135 -6.888034 52.796441 -4.265188 -12.649202 50.805168 48.896033 23.466050 0.000000 0.000000 0.000000
0.475727 0.154121 -0.456763 -3.905321 -32.426895 -84.973885 8.148039 3.863189 -28.943524 1.094122 4.099891 73.551076 1.377892 2.057692 -1.802297 0.000000 0.000000 0.000000 -1.603645 3.455551 -21.569919 1.108569 11.769089 62.259526 0.229915 -5.071739 10.502663 0.000000 0.000000 0.000000 -5.084717 5.074104 -37.579831 -1.519722 1.754773 11.464135 14.137603 -5.067232 45.881672 3.704512 -5.163614 14.113450 0.000000 0.000000 0.000000 -13.630577 -5.965941 6.086680 -44.211848 1.027553 -10.285448 11.622635 -85.258337 -0.918431 0.000000 0.000000 0.000000 9.044837 -9.484321 -6.954141 57.863404 -6.241217 -15.291899 52.009827 46.480846 22.823186 0.000000 0.000000 0.000000
0.474886 0.154432 -0.456918 -3.647256 -31.865155 -84.622076 9.169898 4.583004 -30.881721 -0.494819 4.865291 72.313685 0.380518 2.990252 6.042301 0.000000 0.000000 0.000000 -1.568883 3.808511 -23.086944 1.181637 11.383895 61.828836 0.902088 -5.893618 15.498647 0.000000 0.000000 0.000000 -5.692571 5.313407 -39.950512 0.169343 0.672401 10.977651 11.988521 -5.353194 45.288980 3.074065 -4.358029 8.297104 0.000000 0.000000 0.000000 -6.912689 -4.122888 3.632833 -50.307786 3.335394 -11.121099 -45.881008 -81.845830 51.045896 0.000000 0.000000 0.000000 4.249300 -8.618264 -5.282631 63.230416 -8.949871 -18.657682 52.933864 47.079497 23.352965 0.000000 0.000000 0.000000
0.474122 0.155275 -0.457488 -4.220540 -30.918179 -85.255895 9.613114 4.288062 -28.495424 -5.140090 8.061497 68.783526 4.281106 9.143649 6.304641 0.000000 0.000000 0.000000 -1.388617 3.446093 -21.507994 0.770017 10.864638 60.690499 0.854343 -6.280094 16.442390 0.000000 0.000000 0.000000 -5.253150 4.686521 -37.834929 -1.830252 1.549812 8.452517 14.751565 -4.142703 45.709263 3.601300 -4.806910 -3.489075 0.000000 0.000000 0.000000 -4.288108 -6.891398 4.129307 -52.957892 4.486030 -11.853609 -36.803829 -79.577713 40.031235 0.000000 0.000000 0.000000 -0.711828 -14.832986 -6.330616 66.529986 -9.712918 -20.329514 55.113787 40.343203 21.289508 0.000000 0.000000 0.000000
0.473143 0.156098 -0.458540 -2.282771 -30.442646 -86.421153 10.019799 4.260758 -26.217813 -8.079896 10.176857 62.822432 3.198833 8.308045 10.780141 0.000000 0.000000 0.000000 -1.816017 3.223002 -21.041164 0.894416 10.837602 59.292676 1.375767 -5.297385 15.703688 0.000000 0.000000 0.000000 -3.817252 5.707908 -38.476727 -1.283928 1.359023 9.674133 10.870432 -4.121626 44.862843 -1.006701 -0.411500 -3.184917 0.000000 0.000000 0.000000 0.701853 -0.841579 0.509686 -57.026579 7.809409 -12.991801 -45.494609 -74.962609 45.110826 0.000000 0.000000 0.000000 -0.275909 -12.507936 -5.536090 68.317776 -11.624267 -22.090223 53.967394 44.016864 22.682609 0.000000 0.000000 0.000000
0.471740 0.159025 -0.459906 -3.891520 -30.200086 -85.086476 10.471717 3.984961 -23.662625 -11.485708 10.842725 55.354616 3.043066 8.788589 14.867866 0.000000 0.000000 0.000000 -1.146434 2.996059 -19.256997 -1.021476 10.181321 54.110521 2.172771 -5.507191 19.107116 0.000000 0.000000 0.000000 -5.837333 4.390553 -38.221417 -0.215458 0.480348 6.493714 11.369712 -4.237582 45.501236 -0.082457 -1.403422 -5.710322 0.000000 0.000000 0.000000 2.604168 -1.473442 0.465253 -58.155430 10.375159 -13.954399 -43.222010 -70.678440 39.620569 0.000000 0.000000 0.000000 -1.537028 -13.532996 -5.554883 67.008216 -14.403362 -23.257986 59.903764 41.899440 23.490357 0.000000 0.000000 0.000000
0.469603 0.158220 -0.461505 -3.810410 -30.065291 -84.897100 10.708205 3.852085 -21.694891 -12.452460 10.317030 49.801138 3.010198 9.068424 17.259121 0.000000 0.000000 0.000000 -0.909818 2.802471 -18.020529 -1.375540 9.648359 51.551960 1.407200 -6.711917 18.598600 0.000000 0.000000 0.000000 -5.678238 4.426425 -37.943221 -0.178424 0.442957 6.255042 10.908193 -4.677305 44.663229 -1.277434 -0.443238 -7.178402 0.000000 0.000000 0.000000 2.130239 -0.533197 0.180036 -57.329924 11.857588 -14.303583 -43.894893 -66.698662 37.329600 0.000000 0.000000 0.000000 -2.152911 -13.254869 -5.260063 66.585377 -14.714142 -23.291515 59.851863 39.404850 21.544150 0.000000 0.000000 0.000000
0.467430 0.155149 -0.463166 -3.768002 -30.047059 -84.647209 11.021735 3.892200 -21.010826 -12.320506 9.569269 46.692007 1.153223 7.257757 20.482384 0.000000 0.000000 0.000000 -0.889761 2.736617 -17.706887 -1.554122 9.198155 49.540315 1.643880 -6.733350 19.312854 0.000000 0.000000 0.000000 -5.754581 4.293147 -37.545662 -0.186223 0.405412 5.546347 10.969997 -4.734508 45.085586 -2.091654 0.273953 -6.985459 0.000000 0.000000 0.000000 2.640169 -0.311558 -0.004681 -58.154409 11.706519 -14.299524 -41.714757 -62.837512 33.330953 0.000000 0.000000 0.000000 -1.928648 -12.921649 -5.201898 66.865926 -14.764486 -23.518726 58.096597 38.813953 20.407816 0.000000 0.000000 0.000000
0.465807 0.154507 -0.465041 -3.495808 -30.115101 -84.845267 10.442257 3.692364 -20.935854 -11.556542 8.987273 45.800411 0.307583 7.000570 24.693088 0.000000 0.000000 0.000000 -0.915290 2.412369 -16.127102 -2.381650 8.926778 46.551068 3.403728 -3.573827 18.124876 0.000000 0.000000 0.000000 -5.753970 4.352893 -37.655118 -0.059198 0.357279 5.788921 11.048964 -4.637897 45.097018 -2.799558 0.828419 -8.440965 0.000000 0.000000 0.000000 2.161210 -1.311304 0.488227 -58.470177 11.126360 -14.232581 -39.791434 -60.993295 30.661127 0.000000 0.000000 0.000000 -2.403318 -12.451982 -4.847561 67.056396 -15.440859 -24.058946 57.690977 38.550257 20.075820 0.000000 0.000000 0.000000
0.464839 0.155268 -0.466685 -3.900500 -29.916272 -84.715598 9.439617 3.294692 -21.358091 -10.296189 8.242578 46.504533 0.797128 7.661093 25.318968 0.000000 0.000000 0.000000 -0.611594 2.226395 -14.838839 -4.055355 8.944861 43.671755 4.197584 -2.235574 17.928363 0.000000 0.000000 0.000000 -6.441511 3.969599 -37.831592 0.129753 0.291077 6.500764 11.578861 -4.286520 44.725174 -4.161604 2.111000 -9.066908 0.000000 0.000000 0.000000 1.405354 -1.403006 0.649669 -58.656581 10.570455 -14.242237 -39.664882 -58.261294 28.825023 0.000000 0.000000 0.000000 -2.089636 -12.609052 -4.985639 67.719833 -16.196174 -24.616561 55.830484 38.595516 19.612344 0.000000 0.000000 0.000000
0.464495 0.156808 -0.467623 -4.869540 -29.854952 -84.254216 9.366313 3.308087 -22.411602 -9.711338 7.879897 48.010345 -0.913779 6.266557 27.207887 0.000000 0.000000 0.000000 -0.711206 1.828250 -12.827811 -5.810264 8.414022 38.984650 6.832289 0.384049 20.972940 0.000000 0.000000 0.000000 -6.601874 3.575119 -36.983973 0.336018 0.126861 5.891216 11.663737 -4.445520 44.152173 -3.755334 1.647410 -10.425996 0.000000 0.000000 0.000000 1.620998 -1.631175 0.718638 -59.956794 10.105044 -14.137909 -36.543656 -56.360407 25.764573 0.000000 0.000000 0.000000 -2.214616 -12.540747 -4.879920 67.414233 -17.601805 -25.169558 55.319771 37.553756 18.601201 0.000000 0.000000 0.000000
0.464550 0.157574 -0.467873 -5.381894 -30.038946 -83.265896 9.796557 3.808521 -25.272834 -9.935804 8.387742 51.240378 -2.758234 4.251680 26.597017 0.000000 0.000000 0.000000 -0.492495 1.973357 -13.306699 -6.457349 8.237316 37.348195 7.530426 0.542504 22.682716 0.000000 0.000000 0.000000 -7.378734 3.732617 -39.355015 1.581989 -0.491112 6.725722 10.560085 -5.337126 44.271950 -3.370214 1.486463 -6.742754 0.000000 0.000000 0.000000 4.028849 -1.666813 0.346617 -63.478809 10.882565 -14.688356 -33.490119 -55.422339 23.492500 0.000000 0.000000 0.000000 -1.845201 -9.758156 -3.968434 68.393545 -17.725269 -25.885511 50.746519 38.350277 17.104584 0.000000 0.000000 0.000000
0.464271 0.158256 -0.467714 -6.143979 -29.839234 -84.224085 9.268416 3.283693 -22.941898 -11.208255 8.933155 50.256036 -0.209165 6.396287 23.213171 0.000000 0.000000 0.000000 -0.515525 1.543369 -10.925147 -6.896420 7.872298 35.701363 7.626521 0.223392 23.667934 0.000000 0.000000 0.000000 -6.610958 3.213171 -36.260927 -1.355961 0.856990 3.596006 14.695435 -4.760246 45.515390 -3.406814 1.290030 -12.981898 0.000000 0.000000 0.000000 2.793723 -5.010618 1.885144 -63.568268 8.614095 -14.371201 -26.303237 -55.110182 18.727192 0.000000 0.000000 0.000000 -2.124900 -15.137297 -5.963541 65.911261 -17.220594 -24.223711 50.610858 33.377523 14.708814 0.000000 0.000000 0.000000
0.463529 0.161993 -0.467424 -4.764580 -29.883456 -85.321561 9.803679 3.440765 -21.182987 -11.766832 9.228255 48.287474 -1.939345 5.272093 27.279461 0.000000 0.000000 0.000000 -0.476963 1.412462 -10.120045 -7.858837 8.146118 34.534199 9.201271 3.770265 21.482599 0.000000 0.000000 0.000000 -5.484195 4.148056 -37.348939 -0.000446 0.251333 5.254745 10.446725 -3.725430 44.645143 -4.683014 2.454616 -12.217865 0.000000 0.000000 0.000000 7.661429 -1.818068 -0.103875 -67.941614 10.064363 -14.991189 -25.364630 -54.080818 17.835008 0.000000 0.000000 0.000000 -2.527695 -12.685510 -4.866971 68.925669 -17.302108 -25.514272 46.487207 34.383375 14.024100 0.000000 0.000000 0.000000
0.462440 0.165336 -0.467587 -6.174300 -29.536571 -83.747611 9.714192 3.196837 -19.977229 -11.452520 8.315351 45.913073 -2.000426 4.571382 24.626578 0.000000 0.000000 0.000000 -0.638407 1.249823 -9.267516 -8.718712 7.424056 31.132719 9.916669 3.592728 23.787671 0.000000 0.000000 0.000000 -7.507251 3.122214 -38.029472 0.137400 0.097311 3.851002 11.771505 -3.435728 45.000404 -3.174185 1.260523 -14.096128 0.000000 0.000000 0.000000 8.957350 -3.194735 0.230558 -68.322996 9.934375 -15.142112 -25.848824 -53.451528 17.554956 0.000000 0.000000 0.000000 -0.081934 -12.332281 -5.396358 65.218627 -17.645305 -23.584047 46.825146 33.531226 13.556479 0.000000 0.000000 0.000000
0.461183 0.163052 -0.468174 -6.288157 -29.544572 -83.550013 9.796360 3.156588 -19.031944 -11.472965 7.969303 43.743335 -2.561202 3.733658 24.051787 0.000000 0.000000 0.000000 -0.584331 1.137815 -8.502404 -8.671742 6.762734 28.827117 8.505581 1.229313 23.733825 0.000000 0.000000 0.000000 -7.487360 3.050946 -37.551150 -0.171916 0.255058 3.869228 12.305008 -3.036139 44.296737 -3.518609 1.611642 -14.242120 0.000000 0.000000 0.000000 10.077110 -3.076059 0.081896 -69.687245 8.744123 -14.525309 -23.228676 -52.613004 15.804381 0.000000 0.000000 0.000000 0.829614 -11.794659 -5.379843 65.019809 -17.773119 -23.277190 46.654877 32.070643 12.844021 0.000000 0.000000 0.000000
0.459915 0.159396 -0.469297 -5.552794 -29.574136 -83.763275 9.509568 3.012146 -18.280909 -11.044399 7.618660 41.961167 -1.989883 3.646140 21.460651 0.000000 0.000000 0.000000 -0.517059 1.073180 -8.089051 -9.179596 6.415071 26.629681 8.588140 0.412612 25.029916 0.000000 0.000000 0.000000 -7.277417 3.260553 -37.659911 -1.100642 0.695346 3.074490 13.113729 -2.315919 45.422047 -3.384170 1.652280 -13.664340 0.000000 0.000000 0.000000 11.871097 -3.065488 -0.139213 -71.048659 8.531982 -14.678750 -25.387756 -53.810220 17.381344 0.000000 0.000000 0.000000 2.912689 -11.973018 -6.011603 64.847366 -17.230125 -22.753261 44.709339 32.410309 12.648880 0.000000 0.000000 0.000000
0.459030 0.159954 -0.470655 -4.708043 -29.753874 -83.859937 9.605758 2.977956 -16.833917 -10.760522 7.404768 40.033239 -1.395222 3.193745 17.079710 0.000000 0.000000 0.000000 -0.610053 0.860158 -6.872932 -9.087456 5.350121 22.537260 8.764595 -1.071237 27.584933 0.000000 0.000000 0.000000 -7.359497 3.442037 -38.054630 -0.965653 0.696816 4.061523 13.684064 -1.899147 44.945713 -3.077383 1.446622 -13.577190 0.000000 0.000000 0.000000 11.460911 -2.052612 -0.398705 -70.394110 8.754319 -14.681646 -30.240112 -54.260630 20.419562 0.000000 0.000000 0.000000 4.189639 -12.013247 -6.368659 64.947634 -16.534758 -22.317040 44.082003 32.486028 12.567297 0.000000 0.000000 0.000000
0.458622 0.158645 -0.471607 -3.755346 -29.769939 -84.143755 9.502062 2.916669 -15.995510 -10.597142 7.354635 38.984881 -0.757452 3.261561 14.146953 0.000000 0.000000 0.000000 -0.389829 0.736700 -5.882431 -9.661624 4.698045 19.055944 8.363258 -2.870512 29.483840 0.000000 0.000000 0.000000 -7.530129 3.518563 -38.348777 -1.553778 1.009033 3.984159 14.914848 -0.929014 45.519434 -2.689135 1.368186 -11.685736 0.000000 0.000000 0.000000 10.777127 -2.209336 -0.239642 -69.763197 9.083403 -15.203130 -34.552161 -54.540845 22.932067 0.000000 0.000000 0.000000 6.882078 -11.317953 -6.679249 64.669476 -17.354402 -22.481950 44.817903 34.287475 13.834652 0.000000 0.000000 0.000000
0.458753 0.159880 -0.472321 -3.309316 -29.337540 -84.305855 9.104935 2.792095 -16.419928 -10.471565 7.474917 39.967807 -0.837448 2.988279 13.462992 0.000000 0.000000 0.000000 -0.694810 0.565248 -4.978823 -9.220055 4.015241 16.744575 8.100161 -3.778316 30.473343 0.000000 0.000000 0.000000 -7.914974 3.361675 -38.728455 -1.642989 1.065630 4.131905 15.387053 -0.439872 45.990720 -2.592393 1.454560 -10.219881 0.000000 0.000000 0.000000 10.915382 -1.862732 -0.344670 -69.116081 9.082995 -15.330864 -40.387947 -53.610779 25.897955 0.000000 0.000000 0.000000 8.985458 -11.346071 -7.200212 64.225835 -17.553349 -22.303926 44.293963 34.459488 13.894727 0.000000 0.000000 0.000000
0.459145 0.162420 -0.472791 -2.325871 -29.278195 -84.571624 8.630463 2.665383 -16.565957 -10.408729 7.727594 40.383494 -0.810470 3.390390 15.231490 0.000000 0.000000 0.000000 -0.839220 0.469590 -4.470468 -9.055969 3.611637 15.111162 8.443300 -4.213728 32.101526 0.000000 0.000000 0.000000 -7.184025 3.918428 -39.053597 -2.243061 1.400480 4.316742 15.684199 0.177760 46.120360 -0.817888 0.079356 -8.526783 0.000000 0.000000 0.000000 9.826259 -1.900092 -0.196494 -67.359438 8.844693 -15.248008 -43.502915 -51.853183 26.690197 0.000000 0.000000 0.000000 10.347519 -11.098621 -7.324964 63.657857 -17.358814 -21.874470 42.363656 33.803036 13.178982 0.000000 0.000000 0.000000
0.459652 0.163226 -0.473124 -1.665265 -29.009258 -84.785315 8.625599 2.599772 -15.680489 -10.985705 7.958993 39.391507 -0.741791 3.203332 14.139409 0.000000 0.000000 0.000000 -1.241862 0.393363 -4.288038 -8.579257 3.219554 13.872449 9.320835 -4.085565 34.388917 0.000000 0.000000 0.000000 -6.911278 4.019234 -38.870821 -2.207867 1.434585 4.855078 15.675383 0.454303 45.909443 -0.664190 0.001685 -6.399487 0.000000 0.000000 0.000000 6.858029 -1.222605 -0.143625 -64.828482 9.696877 -15.546262 -47.488470 -49.953869 27.947665 0.000000 0.000000 0.000000 11.079747 -11.578684 -7.748760 62.847718 -17.380689 -21.537027 42.341225 34.152177 13.366301 0.000000 0.000000 0.000000
0.460139 0.164322 -0.473522 -0.500534 -28.987909 -85.162362 8.411706 2.490917 -14.865467 -11.419272 8.004194 37.257575 -0.740639 2.900840 13.192375 0.000000 0.000000 0.000000 -2.059764 0.254504 -3.969224 -7.257528 2.591827 12.383334 8.541554 -5.818328 35.665078 0.000000 0.000000 0.000000 -6.088830 4.585167 -38.983287 -2.513199 1.686999 5.648160 15.657377 1.811421 45.640120 0.761568 -1.124642 -5.109952 0.000000 0.000000 0.000000 4.669418 -1.914170 0.337121 -62.266277 9.111819 -15.228111 -47.122481 -48.020253 26.247034 0.000000 0.000000 0.000000 13.689734 -11.313433 -8.042052 61.033158 -16.106602 -19.999832 40.020710 34.118488 12.901487 0.000000 0.000000 0.000000
0.460587 0.162580 -0.473981 0.316855 -28.835689 -85.201110 7.735981 2.206419 -13.946462 -11.628632 7.722958 34.515584 -0.352385 2.896028 11.027763 0.000000 0.000000 0.000000 -2.015160 0.180582 -3.323760 -7.644395 2.101478 9.196805 8.958212 -6.226376 37.878324 0.000000 0.000000 0.000000 -5.907918 5.022117 -39.905861 -3.380262 2.184444 5.907438 16.615039 2.246961 47.100674 1.504204 -1.820133 -1.826277 0.000000 0.000000 0.000000 1.298898 -3.395381 1.244794 -60.883053 7.863494 -15.102062 -39.688397 -48.633573 22.351717 0.000000 0.000000 0.000000 16.206441 -11.311171 -8.439790 59.628837 -14.658456 -18.916383 35.630666 34.566764 12.004156 0.000000 0.000000 0.000000
0.460871 0.163477 -0.474343 0.564073 -28.672299 -84.656659 6.738190 1.805243 -13.173509 -10.566546 6.674039 31.611830 2.003139 6.010162 9.832702 0.000000 0.000000 0.000000 -3.422384 -0.044211 -2.358968 -5.234311 1.116282 5.761846 8.935220 -7.040661 39.886225 0.000000 0.000000 0.000000 -6.002521 4.995340 -40.099170 -3.310037 2.240714 6.689691 16.051009 1.666315 46.931987 0.774814 -1.224117 2.183810 0.000000 0.000000 0.000000 -4.624084 -3.751664 2.153224 -56.379114 7.316441 -14.295949 -33.749785 -49.699221 19.701185 0.000000 0.000000 0.000000 16.043347 -10.017192 -7.843237 59.081190 -12.829563 -17.981957 33.117178 34.047093 10.938665 0.000000 0.000000 0.000000
0.461052 0.166670 -0.474588 0.657524 -29.447934 -84.612839 8.546361 2.383936 -11.950754 -10.646878 6.354396 29.344883 0.102132 3.160762 9.356159 0.000000 0.000000 0.000000 -4.122760 -0.127205 -1.921036 -2.625223 0.557330 4.364015 9.326742 -7.342552 41.901342 0.000000 0.000000 0.000000 -5.646841 5.221289 -39.581975 -2.543026 1.897914 7.134964 15.506376 1.989580 45.979811 4.236538 -5.088106 3.896859 0.000000 0.000000 0.000000 -7.596209 -5.101314 3.259700 -54.962675 8.251137 -14.490525 -28.798880 -51.222243 17.659355 0.000000 0.000000 0.000000 15.728285 -10.622757 -8.224667 57.800783 -12.423562 -17.218108 33.234767 33.290082 10.544547 0.000000 0.000000 0.000000
0.460786 0.167020 -0.474395 -0.858190 -29.208972 -82.493237 6.525404 1.641810 -13.132911 -8.702917 5.060687 27.849263 4.155802 9.100642 10.483892 0.000000 0.000000 0.000000 -4.629170 -0.045198 -3.021916 -0.259438 0.178561 3.226752 5.174042 -11.512520 42.226279 0.000000 0.000000 0.000000 -6.554259 4.432784 -39.637197 -2.401019 1.842489 7.484964 15.472572 -0.174666 45.425091 3.536036 -4.814290 16.709765 0.000000 0.000000 0.000000 -16.115881 -4.547033 4.928375 -49.663228 8.418093 -14.017397 -20.761281 -54.187268 14.752520 0.000000 0.000000 0.000000 20.447655 -8.427343 -8.964761 50.518072 -11.994226 -14.369484 35.595315 31.970385 10.183637 0.000000 0.000000 0.000000
0.460443 0.171107 -0.474414 2.827216 -33.017694 -83.823758 10.604605 3.237119 -11.571772 -7.052052 4.178930 23.782125 -4.598146 -1.243966 19.301414 0.000000 0.000000 0.000000 -1.322104 0.266348 -3.186065 0.175356 0.009838 1.145562 5.780274 -12.140167 43.932626 0.000000 0.000000 0.000000 -2.603030 7.534531 -39.145174 0.296867 0.980376 11.096822 11.339203 1.977648 43.575788 4.738555 -6.359726 11.177916 0.000000 0.000000 0.000000 -18.694090 -3.266633 4.678586 -43.623262 8.629942 -12.553448 -31.445497 -56.698183 21.454694 0.000000 0.000000 0.000000 19.173834 -9.913046 -9.720053 54.046122 -13.830434 -16.344155 30.319283 34.358554 9.608920 0.000000 0.000000 0.000000
0.459443 0.166515 -0.474484 -1.117511 -30.386622 -80.801970 5.443367 1.347607 -14.509164 -2.402746 2.043115 25.273845 -3.165104 -0.178746 16.875818 0.000000 0.000000 0.000000 -4.294373 0.314588 -6.549244 0.302656 0.217014 4.789511 1.266750 -14.992125 37.985972 0.000000 0.000000 0.000000 -5.930776 4.455693 -38.279788 3.675214 -0.943280 13.547834 7.995828 2.895413 39.276922 1.948551 -2.715358 16.565777 0.000000 0.000000 0.000000 -23.958202 -4.486661 5.634466 -38.046658 12.000062 -11.605226 -29.088703 -55.584959 18.343763 0.000000 0.000000 0.000000 21.727222 -12.287961 -11.667414 52.386131 -15.069447 -15.784889 26.657003 35.817516 9.163350 0.000000 0.000000 0.000000
