HIERARCHY
ROOT Hips
{
	OFFSET -0.001795 -0.223333 0.028219
	CHANNELS 6 Xposition Yposition Zposition Zrotation Yrotation Xrotation
	JOINT LeftUpLeg
	{
		OFFSET 0.069520 -0.091406 -0.006815
		CHANNELS 3 Zrotation Yrotation Xrotation
		JOINT LeftLeg
		{
			OFFSET 0.034277 -0.375199 -0.004496
			CHANNELS 3 Zrotation Yrotation Xrotation
			JOINT LeftFoot
			{
				OFFSET -0.013596 -0.397961 -0.043693
				CHANNELS 3 Zrotation Yrotation Xrotation
				JOINT LeftToe
				{
					OFFSET 0.026358 -0.055791 0.119288
					CHANNELS 3 Zrotation Yrotation Xrotation
					End Site
					{
						OFFSET 0.000000 0.000000 0.000000
					}
				}
			}
		}
	}
	JOINT RightUpLeg
	{
		OFFSET -0.067670 -0.090522 -0.004320
		CHANNELS 3 Zrotation Yrotation Xrotation
		JOINT RightLeg
		{
			OFFSET -0.038290 -0.382569 -0.008850
			CHANNELS 3 Zrotation Yrotation Xrotation
			JOINT RightFoot
			{
				OFFSET 0.015774 -0.398415 -0.042312
				CHANNELS 3 Zrotation Yrotation Xrotation
				JOINT RightToe
				{
					OFFSET -0.025372 -0.048144 0.123348
					CHANNELS 3 Zrotation Yrotation Xrotation
					End Site
					{
						OFFSET 0.000000 0.000000 0.000000
					}
				}
			}
		}
	}
	JOINT Spine
	{
		OFFSET -0.002533 0.108963 -0.026696
		CHANNELS 3 Zrotation Yrotation Xrotation
		JOINT Spine1
		{
			OFFSET 0.005487 0.135180 0.001092
			CHANNELS 3 Zrotation Yrotation Xrotation
			JOINT Spine2
			{
				OFFSET 0.001457 0.052922 0.025425
				CHANNELS 3 Zrotation Yrotation Xrotation
				JOINT Neck
				{
					OFFSET -0.002778 0.213870 -0.042857
					CHANNELS 3 Zrotation Yrotation Xrotation
					JOINT Head
					{
						OFFSET 0.005152 0.064970 0.051349
						CHANNELS 3 Zrotation Yrotation Xrotation
						End Site
						{
							OFFSET 0.000000 0.000000 0.000000
						}
					}
				}
				JOINT LeftShoulder
				{
					OFFSET 0.078845 0.121749 -0.034090
					CHANNELS 3 Zrotation Yrotation Xrotation
					JOINT LeftArm
					{
						OFFSET 0.090977 0.030469 -0.008868
						CHANNELS 3 Zrotation Yrotation Xrotation
						JOINT LeftForeArm
						{
							OFFSET 0.259612 -0.012772 -0.027456
							CHANNELS 3 Zrotation Yrotation Xrotation
							JOINT LeftHand
							{
								OFFSET 0.249234 0.008986 -0.001171
								CHANNELS 3 Zrotation Yrotation Xrotation
								End Site
								{
									OFFSET 0.000000 0.000000 0.000000
								}
							}
						}
					}
				}
				JOINT RightShoulder
				{
					OFFSET -0.081759 0.118833 -0.038615
					CHANNELS 3 Zrotation Yrotation Xrotation
					JOINT RightArm
					{
						OFFSET -0.096012 0.032551 -0.009143
						CHANNELS 3 Zrotation Yrotation Xrotation
						JOINT RightForeArm
						{
							OFFSET -0.253742 -0.013329 -0.021401
							CHANNELS 3 Zrotation Yrotation Xrotation
							JOINT RightHand
							{
								OFFSET -0.255298 0.007772 -0.005559
								CHANNELS 3 Zrotation Yrotation Xrotation
								End Site
								{
									OFFSET 0.000000 0.000000 0.000000
								}
							}
						}
					}
				}
			}
		}
	}
}
MOTION
Frames: 76
Frame Time: 0.050000
0.000000 0.019514 0.000000 15.667012 35.213824 -63.995467 100.795316 -5.607022 -23.270703 -15.268933 -24.720720 119.976149 23.257930 -23.524146 -94.120506 0.000000 0.000000 0.000000 -178.144026 -52.878609 -20.289361 -92.986247 46.927757 6.439814 -8.285481 -24.581275 -110.184327 0.000000 0.000000 0.000000 157.931494 -12.149770 -14.402010 7.576006 -13.685164 135.389729 149.895021 26.209857 160.134104 -5.493380 6.956346 115.574590 0.000000 0.000000 0.000000 -49.773982 -36.505707 -59.099009 61.029353 -11.152425 7.167511 -154.932056 6.918468 117.630611 0.000000 0.000000 0.000000 28.767111 -9.295449 67.482505 -18.787352 -33.090998 6.796474 -172.025230 5.437806 -98.005083 0.000000 0.000000 0.000000
0.000316 0.011066 0.000604 11.927691 27.159575 -70.863583 106.208393 -1.966400 -23.080614 -5.383113 -31.319930 111.401960 28.651262 -25.543401 -102.291689 0.000000 0.000000 0.000000 165.292656 16.536256 -14.808842 18.777299 -8.660237 95.844843 -13.953350 -5.168524 -104.573737 0.000000 0.000000 0.000000 149.592396 13.501169 -19.356910 -13.733524 37.942878 122.351994 -150.194332 -51.113812 135.386994 17.585818 -21.738069 100.538663 0.000000 0.000000 0.000000 -56.304722 -9.953561 60.423939 9.766090 37.705796 -2.271659 -178.128132 -37.636907 114.339098 0.000000 0.000000 0.000000 33.966831 32.960828 -33.563475 -64.076981 5.484941 -6.217226 179.793078 8.563352 -151.192609 0.000000 0.000000 0.000000
0.001502 0.008828 0.002108 11.645172 24.037704 -74.232819 95.810593 10.303496 -33.185330 -5.992640 -32.846572 126.972357 23.397332 -18.013850 -98.238628 0.000000 0.000000 0.000000 7.650583 29.907510 -150.109791 97.682150 47.391094 -48.846644 -8.550107 -9.653791 -92.002280 0.000000 0.000000 0.000000 119.960146 44.508445 -40.167544 -17.416535 37.898789 128.868781 -66.261278 -63.953389 62.610401 6.345179 -11.946454 101.521428 0.000000 0.000000 0.000000 -54.325571 -13.346010 39.032333 24.100091 29.190554 8.588892 -169.477773 -39.412457 96.949948 0.000000 0.000000 0.000000 28.398758 19.415818 -0.791996 -27.369469 -3.510455 2.215324 -174.978358 10.683741 -101.071657 0.000000 0.000000 0.000000
0.002849 0.007440 0.006577 10.995839 21.172770 -75.466537 97.601262 12.858390 -34.828524 -10.603571 -18.764340 129.064985 21.760691 -18.158750 -94.810099 0.000000 0.000000 0.000000 16.280217 38.413661 -139.701698 118.656612 35.204881 -31.844232 -10.881683 -7.373730 -95.463839 0.000000 0.000000 0.000000 107.067341 48.301966 -49.668618 -32.963078 57.208516 111.463989 -24.739549 -37.976708 29.591992 2.677277 -5.231831 90.295465 0.000000 0.000000 0.000000 -51.122265 -19.004170 29.356346 22.182620 24.988865 9.458308 -168.585032 -37.179820 118.114099 0.000000 0.000000 0.000000 22.837715 13.830479 7.894811 -8.828186 4.857967 4.662956 -169.199875 15.044902 -102.567767 0.000000 0.000000 0.000000
0.004135 0.012371 0.012561 10.367854 18.738651 -78.712871 86.248398 18.424572 -42.962838 -9.410465 -25.904827 137.847081 22.970503 -23.318640 -94.485247 0.000000 0.000000 0.000000 5.648338 13.002749 -130.219248 89.371547 58.960967 -74.067393 -10.052526 -8.060975 -86.258536 0.000000 0.000000 0.000000 73.751120 48.255206 -71.537458 -34.388205 59.409031 107.629601 -2.259498 -20.535253 18.192527 0.729032 -0.569305 77.792567 0.000000 0.000000 0.000000 -47.489362 -17.236822 18.403223 17.300781 16.408333 6.411877 -172.463636 -40.250392 147.522507 0.000000 0.000000 0.000000 9.620848 9.814114 6.257768 12.865699 18.680874 1.339089 -163.034729 18.341575 -89.046527 0.000000 0.000000 0.000000
0.004668 0.013963 0.018277 9.369068 19.982446 -80.162745 83.277240 19.180099 -47.479259 -12.112198 -13.046497 140.103853 20.641559 -27.070731 -88.190952 0.000000 0.000000 0.000000 6.887002 11.809461 -124.670933 71.368793 60.644864 -93.529872 -13.807021 -0.968971 -86.307717 0.000000 0.000000 0.000000 58.704312 42.982095 -81.754918 -38.770986 63.316823 102.344212 5.314546 -7.134608 16.918626 -2.940375 -1.768640 73.384250 0.000000 0.000000 0.000000 -44.121950 -18.736393 13.000334 9.925539 13.520238 3.336579 179.342950 -38.560597 -178.755377 0.000000 0.000000 0.000000 10.953409 6.174173 4.781143 15.093643 24.028567 1.132813 -163.638046 19.704237 -87.564108 0.000000 0.000000 0.000000
0.005129 0.021619 0.022898 8.381449 18.162548 -81.255212 71.041918 20.969075 -55.938056 -9.646014 -23.730795 145.155179 23.761992 -43.295416 -85.347532 0.000000 0.000000 0.000000 2.543122 5.254703 -116.424906 35.164242 55.217199 -135.038784 -9.563718 -6.163706 -73.041856 0.000000 0.000000 0.000000 43.499580 36.289506 -88.758679 -28.697649 54.816751 110.931218 7.440474 -2.931505 10.077328 -3.415339 0.050397 65.670198 0.000000 0.000000 0.000000 -38.389571 -16.852590 9.045567 5.175128 9.365111 1.488140 175.013294 -37.245671 -163.282003 0.000000 0.000000 0.000000 8.220613 5.600772 3.430316 22.904434 27.452036 1.267580 -161.930725 23.347109 -93.005919 0.000000 0.000000 0.000000
0.005414 0.024198 0.027244 6.820290 18.429520 -80.722528 76.068090 22.536125 -58.006864 -8.091994 -24.535884 146.017557 29.489421 -47.065795 -92.500534 0.000000 0.000000 0.000000 1.834157 3.478716 -116.959740 12.722978 29.235514 -155.361634 -17.848559 -0.251784 -83.502324 0.000000 0.000000 0.000000 36.975309 32.689030 -97.284401 -34.780509 61.132891 102.363552 10.808858 8.828786 14.005638 -7.316837 -0.506593 66.959359 0.000000 0.000000 0.000000 -36.176386 -18.613688 6.497376 4.662680 7.954697 1.767340 168.726582 -29.072502 -133.158090 0.000000 0.000000 0.000000 10.062180 6.791978 4.220681 20.581445 29.444474 1.069831 -158.378943 22.476932 -72.472254 0.000000 0.000000 0.000000
0.005456 0.023448 0.031510 5.988556 16.927796 -80.623671 85.931715 24.883271 -55.730323 -5.286755 -31.339576 142.367963 44.444438 -46.098849 -114.891504 0.000000 0.000000 0.000000 -0.472557 0.668510 -124.203829 5.263558 9.546590 -157.323478 -11.949835 -12.043895 -98.845103 0.000000 0.000000 0.000000 34.039617 33.635730 -104.184436 -35.253588 66.130883 103.822666 13.704221 16.025171 14.706606 -9.088801 6.412289 70.577244 0.000000 0.000000 0.000000 -32.643671 -20.149693 5.529592 3.218681 4.535969 1.600396 168.580517 -19.809401 -113.094568 0.000000 0.000000 0.000000 11.743132 8.305075 4.520865 15.883417 27.566250 0.292470 -155.566891 21.115982 -63.031238 0.000000 0.000000 0.000000
0.005303 0.018173 0.034499 5.187178 14.879659 -81.335620 97.925636 24.706959 -48.855812 -2.671326 -34.424620 135.215241 39.760259 -30.849081 -118.672500 0.000000 0.000000 0.000000 -3.190270 -3.258503 -124.308189 -5.908631 -23.413789 -155.295638 -13.832895 -11.562433 -85.802821 0.000000 0.000000 0.000000 27.145657 30.543724 -112.015895 -26.321195 62.342736 113.306643 12.459072 19.322717 14.341939 -8.982147 7.506752 63.711950 0.000000 0.000000 0.000000 -26.572797 -21.416382 5.569755 5.612785 1.220294 2.177738 165.256332 -13.656681 -82.254916 0.000000 0.000000 0.000000 7.676031 9.953057 3.627282 16.755899 26.778828 0.441926 -149.214782 21.634932 -53.865866 0.000000 0.000000 0.000000
0.005167 0.011494 0.034529 4.723954 12.092848 -82.861655 113.120178 24.190909 -42.463318 6.034391 -39.388663 115.618585 30.235239 -10.450814 -120.742232 0.000000 0.000000 0.000000 -8.669125 -11.318557 -130.442910 -29.587455 -51.221975 -132.516062 -11.284939 -20.306561 -91.863978 0.000000 0.000000 0.000000 22.583446 30.041153 -120.515310 -24.013553 65.430434 119.562204 15.121056 26.535062 16.310235 -11.717640 9.553124 78.620757 0.000000 0.000000 0.000000 -26.540163 -22.910976 6.338857 11.638065 2.468170 3.579880 167.669412 -12.582537 -87.173902 0.000000 0.000000 0.000000 12.627742 11.172222 5.730327 4.087318 22.826755 0.142282 -147.411254 17.623065 -48.509361 0.000000 0.000000 0.000000
0.005188 0.014620 0.030925 3.485948 11.700574 -83.408071 119.859734 21.338348 -39.223165 7.863415 -36.358394 106.447951 28.656848 -8.038608 -120.517365 0.000000 0.000000 0.000000 -9.747049 -14.081323 -133.445610 -52.425592 -56.914732 -107.622511 -9.947932 -23.406058 -88.512598 0.000000 0.000000 0.000000 18.429557 25.311156 -128.625632 -46.389469 77.639074 97.221577 27.064119 44.483865 24.429671 -15.158295 17.213604 88.102526 0.000000 0.000000 0.000000 -28.222052 -23.503130 6.586495 19.938282 1.732444 5.836043 177.721055 -10.123480 -130.475020 0.000000 0.000000 0.000000 23.118625 12.123793 12.818192 -14.555879 16.470213 1.423462 -147.547915 17.264394 -63.615101 0.000000 0.000000 0.000000
0.006103 0.016402 0.025736 2.346975 9.001832 -85.508049 122.067628 22.624833 -40.135796 16.930192 -40.226765 89.970493 23.620433 1.237324 -121.760339 0.000000 0.000000 0.000000 -12.253321 -16.585343 -132.558017 -80.397781 -56.085427 -76.453813 -8.148026 -28.025280 -86.560410 0.000000 0.000000 0.000000 13.276865 18.371309 -133.993352 -140.023646 76.540362 4.641939 66.890300 61.295747 51.651373 -16.442265 18.544971 95.960142 0.000000 0.000000 0.000000 -37.140624 -27.022926 13.557126 33.656109 8.509524 16.586097 -173.934926 -8.016544 118.887687 0.000000 0.000000 0.000000 31.126130 15.716260 12.118672 -28.239810 7.810954 4.342181 -155.504231 22.706564 -115.549748 0.000000 0.000000 0.000000
0.007718 0.021409 0.019945 1.241024 8.317589 -86.316167 124.844422 20.879438 -39.265536 18.429369 -38.506048 82.974789 25.500776 -0.959122 -124.158260 0.000000 0.000000 0.000000 -14.052026 -20.185979 -130.639798 -102.909168 -50.567388 -54.585445 -5.113938 -32.982094 -89.164017 0.000000 0.000000 0.000000 11.814764 13.806417 -136.780390 -165.100845 27.411080 -26.508815 149.773553 35.023995 106.225690 -31.023636 34.468424 95.446280 0.000000 0.000000 0.000000 -52.376201 -26.002463 27.303572 47.856923 11.687716 13.038138 -167.090194 -4.557041 32.057037 0.000000 0.000000 0.000000 19.344936 36.922180 -79.211282 -20.715190 18.981353 3.007757 160.815117 13.711437 8.777849 0.000000 0.000000 0.000000
0.009820 0.022934 0.014241 0.609582 8.068650 -87.028341 122.619857 19.910565 -40.120845 21.106475 -41.642791 78.323033 27.043642 -2.725087 -125.485077 0.000000 0.000000 0.000000 -12.925104 -19.712789 -130.817646 -83.546184 -51.647075 -69.640580 -6.345358 -30.995810 -86.827854 0.000000 0.000000 0.000000 13.586027 15.689297 -139.887742 -107.961907 -49.610407 -75.259267 176.484430 -64.900597 90.759258 -74.678194 57.192336 67.446803 0.000000 0.000000 0.000000 -63.532613 -15.975423 66.653022 47.397921 26.694984 4.894360 -157.197237 -6.766614 -64.922434 0.000000 0.000000 0.000000 16.963929 -3.750922 98.538187 -24.925172 -24.880361 1.141618 -158.997193 12.304822 -165.104729 0.000000 0.000000 0.000000
0.011425 0.021923 0.008496 0.225513 6.501157 -87.809474 110.687594 25.522567 -47.850816 47.924434 -51.848887 54.492761 27.183193 1.453736 -132.492318 0.000000 0.000000 0.000000 -16.971503 -21.327917 -122.050390 -79.305295 -54.154687 -76.087016 -3.877862 -32.505545 -89.503656 0.000000 0.000000 0.000000 11.182585 12.393038 -139.656577 -50.080721 -19.922367 -84.782195 26.471439 -44.804476 -130.122502 -61.534440 49.709534 79.745018 0.000000 0.000000 0.000000 -62.832012 -21.072330 54.176057 56.904380 25.869631 12.716739 -157.737115 -10.326535 -80.708796 0.000000 0.000000 0.000000 -5.475417 -10.390277 70.990264 -35.321959 -18.331393 5.263307 -164.299544 11.330669 164.957227 0.000000 0.000000 0.000000
0.012058 0.028658 0.002921 -1.611064 5.336490 -88.924372 97.730775 30.445706 -58.694582 80.222696 -51.130939 26.222485 26.936730 3.630995 -133.374012 0.000000 0.000000 0.000000 -19.527446 -20.652282 -116.201039 -81.883922 -55.066491 -74.936917 -3.596677 -31.601601 -87.945984 0.000000 0.000000 0.000000 2.822266 -2.373705 -139.978364 -33.675861 -4.319895 -56.518655 16.208231 -30.227486 -137.614538 -54.701541 46.283005 83.281507 0.000000 0.000000 0.000000 -44.597232 -24.711787 34.150932 61.598146 23.759280 19.077299 -164.369514 -13.963340 -72.996433 0.000000 0.000000 0.000000 2.268501 -9.587227 54.900389 -40.433351 -19.591897 7.643463 -165.361372 9.061538 -159.633804 0.000000 0.000000 0.000000
0.011522 0.031154 -0.001950 -3.390180 0.266154 -88.910816 79.140406 34.216426 -75.759213 103.922218 -31.458270 -2.437514 6.630663 28.655602 -138.514265 0.000000 0.000000 0.000000 -26.078949 -20.650976 -103.665690 -101.842246 -55.481717 -58.958750 1.543365 -35.210776 -97.302110 0.000000 0.000000 0.000000 -5.208645 -13.332186 -137.950764 -45.398696 -4.805007 -50.862230 9.560911 -43.199526 -138.313159 -47.193770 38.400693 89.380970 0.000000 0.000000 0.000000 -48.068469 -30.497063 18.794499 67.086146 11.851891 19.096721 -165.726020 -9.774728 -108.965793 0.000000 0.000000 0.000000 4.647890 1.208074 28.758418 -42.911258 -8.494492 6.635406 -165.300982 14.398314 -171.222668 0.000000 0.000000 0.000000
0.009092 0.034079 -0.004726 -4.056232 -3.172076 -90.206721 53.757810 30.470092 -92.619944 115.017301 -0.505012 -21.507939 -9.397308 43.658075 -140.954279 0.000000 0.000000 0.000000 -28.012437 -15.249718 -92.026345 -129.280242 -53.126805 -39.651649 11.968504 -42.060519 -112.544368 0.000000 0.000000 0.000000 -14.724119 -21.473761 -129.569038 -145.547717 52.140972 -11.315595 156.909809 6.211584 80.568647 17.419178 -48.364275 107.557499 0.000000 0.000000 0.000000 -78.034097 -27.990057 17.370653 60.642386 -11.112280 18.401058 -154.981909 -1.038956 -57.949420 0.000000 0.000000 0.000000 28.299762 -4.908338 99.505247 -17.909095 -24.552524 2.354169 -154.356935 15.692737 -142.143899 0.000000 0.000000 0.000000
0.003767 0.038204 -0.006650 -2.221715 -2.662658 -93.003151 39.367242 20.354807 -91.080788 124.215820 12.645235 -27.526293 -15.140735 48.651879 -139.061277 0.000000 0.000000 0.000000 -23.194498 -9.166819 -82.122625 -148.055330 -60.220661 -30.207928 5.495861 -34.444647 -115.407772 0.000000 0.000000 0.000000 -7.759431 -6.804372 -125.127935 -5.965654 50.934735 143.626815 51.216344 53.061518 27.930452 10.802553 -27.364928 103.443405 0.000000 0.000000 0.000000 -57.569180 -18.558435 35.792223 51.979341 23.964455 11.644673 -170.768736 -30.448286 -55.209423 0.000000 0.000000 0.000000 48.463611 20.290122 4.858813 -36.696207 1.549421 13.551993 -164.432381 31.009504 94.364427 0.000000 0.000000 0.000000
-0.004562 0.047427 -0.010577 -1.282169 0.406628 -91.387124 35.008654 15.466346 -84.286045 149.238622 -14.404651 -15.508289 23.411367 15.845486 -132.125501 0.000000 0.000000 0.000000 -15.816981 -4.392515 -75.342481 26.346453 76.869543 -162.806364 -20.298120 1.280604 -93.356030 0.000000 0.000000 0.000000 -1.341150 1.991351 -121.805913 -4.706435 7.972305 144.166645 4.849938 11.593460 9.438168 -7.769092 -6.732290 98.650352 0.000000 0.000000 0.000000 -45.952671 -20.030502 23.987882 26.816255 15.468213 11.281774 172.492369 -31.470173 148.578832 0.000000 0.000000 0.000000 37.801015 10.779949 17.508364 -13.238361 15.286421 6.295206 -154.179894 28.776975 -132.332782 0.000000 0.000000 0.000000
-0.016810 0.056742 -0.017952 -1.811103 1.349511 -89.625976 29.893374 11.051086 -80.441012 44.036879 -79.308429 102.991503 30.603675 -28.741417 -94.582145 0.000000 0.000000 0.000000 -12.168244 -1.965953 -69.472187 7.030888 -32.940562 156.884610 -4.684713 -24.240894 -91.269844 0.000000 0.000000 0.000000 1.722681 6.077580 -113.758216 -4.970085 3.752010 140.386853 0.925395 3.561653 12.174579 -7.858512 -12.592889 88.571969 0.000000 0.000000 0.000000 -33.540206 -21.743234 10.725004 0.240270 4.740948 0.567988 166.653566 -38.866103 -148.903837 0.000000 0.000000 0.000000 30.018503 11.761504 7.324786 10.821718 28.831231 1.146490 -158.127041 35.457802 -120.098685 0.000000 0.000000 0.000000
-0.031297 0.067293 -0.026927 -0.951955 5.198855 -87.442228 27.317046 7.494133 -71.955358 -5.947498 -17.023599 131.947287 8.733514 2.297969 -56.452195 0.000000 0.000000 0.000000 -8.902633 -0.917731 -62.869057 9.168762 -19.513789 131.094460 -7.997461 -19.764957 -83.839256 0.000000 0.000000 0.000000 8.490281 12.062134 -101.560237 -7.077395 17.068718 132.949643 6.615860 4.682136 7.215084 -5.210031 -11.972294 73.465604 0.000000 0.000000 0.000000 -28.300305 -18.556883 7.795113 -16.569427 -4.646276 -2.271247 160.691973 -44.709082 -135.725229 0.000000 0.000000 0.000000 21.474556 8.622174 3.932624 45.024055 38.034849 6.010272 -167.288162 44.871427 -139.648268 0.000000 0.000000 0.000000
-0.045705 0.074576 -0.035702 -1.152385 6.887349 -86.256561 24.509753 5.075513 -67.141999 -8.490183 -6.831220 108.493355 8.106329 14.041954 -29.549064 0.000000 0.000000 0.000000 -7.673694 -0.638461 -57.864219 6.652281 -9.600279 114.007128 -9.305804 -16.580535 -69.638915 0.000000 0.000000 0.000000 11.165031 12.551349 -89.610774 -8.368636 19.642620 126.868411 7.839772 3.828772 3.173803 -2.218514 -15.275649 57.909917 0.000000 0.000000 0.000000 -22.887357 -16.740458 6.349386 -27.527615 -9.505456 -3.163050 153.949970 -50.003975 -125.609679 0.000000 0.000000 0.000000 23.186931 6.677944 2.529776 59.135180 38.446723 9.343926 -171.722074 48.378456 -150.641204 0.000000 0.000000 0.000000
-0.058313 0.084454 -0.042433 -1.480687 10.152123 -85.794278 21.421323 2.298735 -59.593700 -9.824843 -3.707494 86.337754 4.558087 8.673675 0.145512 0.000000 0.000000 0.000000 -8.452381 -2.233443 -52.363382 2.743924 -2.400284 99.024494 -9.490208 -4.956317 -50.660140 0.000000 0.000000 0.000000 12.632264 9.801536 -74.226783 -13.770449 29.530323 113.164613 17.058024 8.942522 -0.529380 -1.562535 -13.810478 54.656946 0.000000 0.000000 0.000000 -25.501821 -14.695499 5.860582 -28.787179 -12.455219 -2.245133 154.098845 -50.133099 -125.798602 0.000000 0.000000 0.000000 23.168459 3.634567 1.292800 72.683995 36.670771 12.249636 176.846579 54.976552 -170.809802 0.000000 0.000000 0.000000
-0.067604 0.090631 -0.045843 0.087917 9.905724 -82.767513 19.770330 2.093194 -56.536267 -5.117766 -5.442355 70.940555 -3.179573 3.119073 20.648873 0.000000 0.000000 0.000000 -7.173317 -0.886292 -50.362412 2.777546 -2.002000 88.643460 -8.212199 -5.592488 -41.446401 0.000000 0.000000 0.000000 11.993303 9.138275 -68.522329 -10.824296 13.614007 106.268869 3.829903 0.470680 -9.743907 -0.343654 -13.448510 54.998726 0.000000 0.000000 0.000000 -23.507032 -11.928635 4.762621 -34.120924 -11.223916 -2.704641 156.353377 -53.451140 -128.551714 0.000000 0.000000 0.000000 31.365189 3.705494 0.447148 70.336659 27.990634 7.521237 166.076003 57.031090 166.049549 0.000000 0.000000 0.000000
-0.072501 0.095049 -0.047043 -0.480972 10.665133 -82.070417 17.140009 0.371906 -54.717343 -4.467947 -4.612810 64.180891 -0.560127 7.788735 25.540849 0.000000 0.000000 0.000000 -9.188534 -2.376989 -47.421636 2.470482 -0.967963 79.422381 -8.081468 -4.625290 -41.413647 0.000000 0.000000 0.000000 9.521049 5.767394 -63.106048 -14.167232 15.817340 88.321174 11.162443 6.582229 -4.499637 0.995970 -14.417180 48.341140 0.000000 0.000000 0.000000 -28.156197 -13.821044 6.277318 -31.724745 -8.457479 -3.005948 160.724470 -55.595213 -135.583362 0.000000 0.000000 0.000000 25.654610 -0.123395 0.389131 71.118530 25.038990 6.515959 161.968715 56.815980 167.181373 0.000000 0.000000 0.000000
-0.074414 0.097122 -0.047763 -1.116670 10.188294 -82.783585 14.778305 -0.583731 -52.095592 -2.151587 -6.577314 63.564025 -4.249633 3.521691 25.191547 0.000000 0.000000 0.000000 -11.303481 -3.357303 -43.714285 1.669043 -0.175368 75.924269 -8.768058 -8.415647 -44.774156 0.000000 0.000000 0.000000 9.015425 5.379190 -58.884843 -10.888822 5.989471 71.531585 3.197490 1.885077 5.896503 2.919639 -14.500226 41.876442 0.000000 0.000000 0.000000 -24.194097 -12.606213 6.224126 -36.049078 -9.880137 -4.099287 164.896748 -58.263255 -140.886790 0.000000 0.000000 0.000000 27.362336 0.909351 1.698046 68.471131 26.099391 5.875791 159.359281 61.037552 168.920948 0.000000 0.000000 0.000000
-0.074612 0.100232 -0.050257 -0.574222 10.314405 -83.234199 12.303930 -1.525819 -49.388127 -2.464964 -6.056791 64.502592 -1.358373 5.512636 20.720855 0.000000 0.000000 0.000000 -11.672957 -3.299098 -39.043412 0.100219 1.655627 65.236896 -7.831223 -6.070844 -38.431440 0.000000 0.000000 0.000000 10.237553 6.260402 -56.262749 -11.792657 6.732866 56.064574 5.322652 -0.480479 17.336464 3.571479 -8.866847 25.560260 0.000000 0.000000 0.000000 -21.799363 -10.123938 5.166111 -40.737457 -12.185003 -5.017740 167.307214 -64.858588 -147.656777 0.000000 0.000000 0.000000 19.778697 2.210441 1.890895 73.641616 22.523556 3.441755 160.314313 61.489325 172.469780 0.000000 0.000000 0.000000
-0.075162 0.105793 -0.053688 -0.909870 9.998122 -82.551773 12.723719 -1.152133 -48.432362 -4.366420 -5.000991 65.453564 -2.798883 5.554197 26.496608 0.000000 0.000000 0.000000 -11.108781 -2.756750 -36.181495 -4.153726 4.155863 57.242151 -6.452147 0.102403 -37.888047 0.000000 0.000000 0.000000 9.604027 5.741174 -58.245447 -9.180658 4.061424 41.001721 2.420122 -0.571607 32.564118 5.195386 -8.040817 11.597504 0.000000 0.000000 0.000000 -15.229395 -12.402723 6.071587 -48.390952 -14.103558 -6.452958 161.506266 -67.989485 -139.877541 0.000000 0.000000 0.000000 14.986838 -0.646708 0.464451 74.605170 21.955366 1.669982 153.469217 66.764249 166.935422 0.000000 0.000000 0.000000
-0.077003 0.107548 -0.056876 -2.010027 9.792582 -84.434743 9.842797 -1.920062 -43.067990 -3.122054 -6.231420 63.581388 -2.706061 6.229898 27.873786 0.000000 0.000000 0.000000 -9.895872 -2.063952 -31.153580 -6.435808 4.845156 50.526583 -4.560393 -1.655504 -25.548611 0.000000 0.000000 0.000000 7.100232 3.869746 -52.821943 -5.881610 1.297252 33.072923 0.259580 -0.749426 35.824660 4.796013 -5.718216 4.084044 0.000000 0.000000 0.000000 -7.467939 -11.736860 5.091663 -57.296142 -15.160796 -6.528123 166.325900 -73.821140 -148.820132 0.000000 0.000000 0.000000 12.456901 0.177454 0.752290 75.967518 19.190292 0.142142 161.598556 68.103303 178.894262 0.000000 0.000000 0.000000
-0.079828 0.112634 -0.059661 -2.651104 9.630729 -84.850370 8.519493 -2.049580 -39.562168 -1.902210 -6.754176 60.157328 -3.482146 6.018591 29.535146 0.000000 0.000000 0.000000 -10.119075 -2.122834 -27.663459 -7.790377 5.278942 45.579092 -0.700008 4.758372 -16.378385 0.000000 0.000000 0.000000 5.054312 2.423552 -50.512100 -5.784175 1.645129 26.954045 2.840757 -1.799241 40.088251 2.031697 -1.845433 -1.365940 0.000000 0.000000 0.000000 -3.467405 -9.258151 3.815072 -61.200119 -15.364414 -6.962093 -174.011574 -81.375817 -174.462261 0.000000 0.000000 0.000000 8.447828 -1.573977 -0.439894 74.254916 16.603489 -2.521977 155.399611 70.951910 169.056900 0.000000 0.000000 0.000000
-0.082709 0.119884 -0.061901 -3.120354 7.940699 -86.364543 8.583147 -0.752934 -32.159639 1.477309 -6.997955 49.388873 -6.074046 4.924664 33.707504 0.000000 0.000000 0.000000 -7.022917 -0.640122 -24.170461 -8.109336 5.022632 41.054296 2.515139 1.305588 7.759509 0.000000 0.000000 0.000000 4.199136 2.473565 -46.402217 -2.222238 -0.324250 19.968443 0.832430 -0.600181 42.156218 3.813622 -2.933248 -4.988175 0.000000 0.000000 0.000000 0.339755 -10.913954 4.154061 -63.575440 -12.216449 -8.821356 -126.250438 -84.067591 131.383662 0.000000 0.000000 0.000000 6.413694 -3.724637 -1.495468 71.543392 10.723580 -6.085688 149.102987 73.047631 159.498474 0.000000 0.000000 0.000000
-0.084678 0.123455 -0.063802 -4.260619 8.617617 -88.036322 5.260268 -0.961127 -22.786972 6.951556 -7.000628 35.358473 -9.664480 2.939221 37.047204 0.000000 0.000000 0.000000 -7.631497 -1.090247 -19.491554 -5.685368 3.317573 35.722006 3.225137 0.287619 14.707343 0.000000 0.000000 0.000000 0.667675 -0.036549 -42.544753 -2.341391 0.207778 14.114244 3.629748 -1.296840 45.512746 1.928414 -0.343581 -11.187400 0.000000 0.000000 0.000000 0.267865 -6.189430 2.302811 -62.947588 -10.582400 -10.031603 -87.245129 -78.850176 85.448508 0.000000 0.000000 0.000000 6.191255 -3.071090 -1.084764 66.628504 10.032059 -7.249760 136.049842 80.714256 145.989579 0.000000 0.000000 0.000000
-0.085233 0.129162 -0.065579 -3.675607 8.002203 -87.600628 5.753318 -0.135869 -16.525481 9.118552 -5.652130 25.733690 -11.824695 0.151255 35.206278 0.000000 0.000000 0.000000 -6.229779 -0.582168 -17.864183 -5.301030 2.935896 29.779804 4.958514 1.386371 19.348643 0.000000 0.000000 0.000000 0.889227 0.134417 -45.051721 -2.739387 0.425696 16.210804 4.836287 -0.415249 44.175035 -0.450974 1.643304 -9.489949 0.000000 0.000000 0.000000 2.231152 -3.525724 1.182967 -63.291415 -7.467413 -11.539509 -77.936894 -73.338892 69.824458 0.000000 0.000000 0.000000 5.549323 -3.587780 -1.340131 64.193827 7.408295 -8.703308 95.603218 82.845337 102.227614 0.000000 0.000000 0.000000
-0.085190 0.132401 -0.066714 -5.486156 7.029493 -86.635747 7.366223 0.570672 -12.692062 9.146661 -3.759043 16.430053 -12.577744 0.559048 37.138564 0.000000 0.000000 0.000000 -4.071668 0.162816 -15.370922 -7.882568 3.279246 22.140417 5.669221 0.121609 27.927434 0.000000 0.000000 0.000000 -1.042095 -1.283330 -46.202301 -0.393871 -0.663541 11.464721 4.318107 -1.345383 47.900798 1.344925 0.139479 -12.837850 0.000000 0.000000 0.000000 3.628869 -3.700040 1.254368 -63.423929 -4.996394 -12.844977 -67.754943 -69.918915 57.410863 0.000000 0.000000 0.000000 7.138529 -2.865076 -1.024338 59.150228 6.104329 -9.561706 21.853000 78.176577 27.216789 0.000000 0.000000 0.000000
-0.085172 0.132119 -0.067240 -5.755051 6.873301 -86.349306 8.938434 1.087497 -8.687448 7.433056 -2.080666 9.053921 -14.491331 -1.051522 37.506197 0.000000 0.000000 0.000000 -3.718851 0.215067 -13.878677 -9.381804 3.540733 19.176056 7.771644 2.014291 30.800234 0.000000 0.000000 0.000000 -1.962782 -1.955081 -46.965829 -1.208611 -0.134399 11.021303 5.205010 -1.568882 47.291165 1.824165 -0.038971 -15.304637 0.000000 0.000000 0.000000 6.502872 -2.169036 0.691004 -64.846516 -1.480044 -14.582050 -70.737771 -65.830104 55.460370 0.000000 0.000000 0.000000 4.486053 -2.153799 -0.773289 59.991603 3.121436 -10.598841 14.785610 67.088864 16.165841 0.000000 0.000000 0.000000
-0.085290 0.133246 -0.067671 -5.554426 6.046661 -85.579276 10.952631 1.479175 -5.539048 5.796342 -0.939821 2.120728 -13.478565 0.578297 38.867810 0.000000 0.000000 0.000000 -1.899358 0.700435 -12.032272 -11.518204 3.817486 15.621057 7.925409 1.653738 32.883445 0.000000 0.000000 0.000000 -1.973829 -1.669986 -47.399817 -0.060743 -0.592113 8.734269 3.792152 -0.528686 47.504383 4.037525 -1.465234 -16.958624 0.000000 0.000000 0.000000 9.066184 -2.652151 0.893178 -65.996083 0.423516 -15.967443 -62.547367 -61.143988 44.283073 0.000000 0.000000 0.000000 4.356598 -4.075555 -1.635302 60.510680 -0.679982 -12.212042 15.932463 60.467241 14.423898 0.000000 0.000000 0.000000
-0.085188 0.133524 -0.068319 -5.388728 5.514213 -85.434615 11.576278 1.582761 -4.072800 5.344936 -0.620603 -0.819233 -13.338254 1.103387 40.149388 0.000000 0.000000 0.000000 -1.832464 0.590764 -10.408500 -11.076871 3.588407 14.450302 7.309031 0.756690 33.052316 0.000000 0.000000 0.000000 -2.554539 -1.829683 -46.722105 0.306181 -0.653005 7.235947 3.861834 -0.273825 47.281737 5.009315 -2.167098 -17.260782 0.000000 0.000000 0.000000 10.263402 -2.299999 0.780363 -66.470676 2.777017 -17.138168 -59.692417 -56.882619 38.550418 0.000000 0.000000 0.000000 3.279720 -4.146060 -1.679232 60.243609 -3.312487 -13.226068 16.252574 54.948574 12.382686 0.000000 0.000000 0.000000
-0.085107 0.135234 -0.068984 -5.246015 4.769551 -84.474647 12.278959 1.699000 -4.372869 6.223540 -0.685888 -1.457819 -13.730514 1.097034 41.723304 0.000000 0.000000 0.000000 -1.876362 0.502576 -9.394665 -10.461816 3.285456 13.219050 5.537269 -1.157460 31.697418 0.000000 0.000000 0.000000 -3.042623 -1.960470 -46.979219 1.202347 -1.041339 6.405030 3.550600 0.061875 46.827832 5.816167 -2.961382 -16.574529 0.000000 0.000000 0.000000 10.118754 -1.608807 0.505891 -66.700637 4.401990 -17.774956 -54.985807 -51.772221 31.841828 0.000000 0.000000 0.000000 3.982777 -4.428986 -1.834905 60.430193 -5.426916 -14.343942 16.863101 51.037393 11.308737 0.000000 0.000000 0.000000
-0.084934 0.137511 -0.069563 -5.390775 4.126089 -83.965250 12.643890 1.761498 -4.188177 6.998654 -0.722472 -2.204112 -14.136118 0.744229 42.180027 0.000000 0.000000 0.000000 -1.983397 0.443299 -8.917516 -9.000609 2.961157 13.773399 4.724852 -2.424272 32.096777 0.000000 0.000000 0.000000 -3.515170 -2.143030 -47.001758 1.664258 -1.277730 6.521356 3.845333 0.061013 45.878175 6.555623 -3.627247 -16.435787 0.000000 0.000000 0.000000 9.832898 -1.670716 0.494201 -67.657087 5.100396 -18.054802 -48.273528 -47.980464 25.595149 0.000000 0.000000 0.000000 3.053609 -4.574795 -1.924864 62.069119 -7.265171 -15.510969 15.430886 49.217417 10.000141 0.000000 0.000000 0.000000
-0.084647 0.139957 -0.070285 -5.238292 3.391725 -83.370219 13.518356 1.906283 -4.191304 7.068215 -0.733958 -2.203895 -13.944960 0.860892 42.315371 0.000000 0.000000 0.000000 -1.507558 0.570676 -8.825496 -9.004673 2.965591 13.787752 4.582850 -2.348030 30.748728 0.000000 0.000000 0.000000 -3.665435 -2.017008 -47.131308 2.390915 -1.590394 5.832553 3.445852 0.217779 45.287330 6.947266 -4.075064 -15.883386 0.000000 0.000000 0.000000 9.190920 -1.428896 0.390305 -67.762803 5.829670 -18.235614 -44.718704 -44.290019 21.669146 0.000000 0.000000 0.000000 3.686882 -4.574822 -1.967761 63.055423 -8.332829 -16.316192 13.038088 46.814106 8.262291 0.000000 0.000000 0.000000
-0.084374 0.141997 -0.070931 -5.229924 3.341089 -83.040266 13.684161 1.932605 -4.398533 6.858318 -0.754696 -1.668544 -14.021203 0.700667 42.086532 0.000000 0.000000 0.000000 -1.526712 0.575643 -8.920532 -8.181611 2.805424 14.411966 3.760724 -2.632698 27.926954 0.000000 0.000000 0.000000 -3.656676 -2.018290 -47.550751 2.299961 -1.569758 6.217378 3.462380 0.356580 44.504860 7.319139 -4.415467 -15.380306 0.000000 0.000000 0.000000 8.256023 -1.358687 0.382415 -68.089430 6.141025 -18.477612 -41.696522 -41.796759 18.885093 0.000000 0.000000 0.000000 3.623087 -5.007069 -2.171294 64.156354 -9.731674 -17.214001 12.992631 44.844594 7.773328 0.000000 0.000000 0.000000
-0.084145 0.143287 -0.071371 -4.780739 3.388112 -82.560967 13.629530 1.914572 -4.743714 6.642323 -0.767731 -1.188627 -13.527810 1.113231 42.078843 0.000000 0.000000 0.000000 -1.585916 0.595167 -9.311375 -7.713758 2.684995 14.603581 3.938063 -2.355566 27.513488 0.000000 0.000000 0.000000 -3.359237 -1.751454 -47.872410 2.015614 -1.352479 5.450781 3.436230 0.971912 44.503146 7.253697 -4.201695 -15.492551 0.000000 0.000000 0.000000 8.456272 -0.734264 0.215729 -68.620394 6.491084 -18.980945 -39.507047 -38.669547 16.306441 0.000000 0.000000 0.000000 3.801799 -5.533987 -2.371335 65.282735 -10.459749 -17.699484 12.395462 43.741291 7.368229 0.000000 0.000000 0.000000
-0.083918 0.145045 -0.071588 -4.408591 3.529198 -82.167853 13.788710 1.925823 -4.539009 5.960950 -0.659283 -1.392605 -12.948546 1.503223 41.597391 0.000000 0.000000 0.000000 -1.955968 0.482575 -9.103604 -6.983419 2.475843 14.491474 3.308543 -2.046488 23.250351 0.000000 0.000000 0.000000 -2.870759 -1.430887 -48.875583 1.675306 -1.223927 6.176666 3.158195 1.377682 44.431689 6.975926 -3.993767 -14.959450 0.000000 0.000000 0.000000 7.466086 -0.477304 0.128549 -67.951667 6.525504 -19.020612 -37.770935 -36.620930 14.575333 0.000000 0.000000 0.000000 4.446475 -5.850318 -2.514073 65.614708 -9.971756 -17.490693 11.037556 41.299336 6.436180 0.000000 0.000000 0.000000
-0.083782 0.146617 -0.071754 -4.158549 3.811213 -81.827593 13.606767 1.867214 -4.468096 5.550658 -0.587390 -1.575433 -12.752134 1.794428 41.904725 0.000000 0.000000 0.000000 -2.289052 0.399243 -9.134786 -6.492086 2.313493 14.321759 2.576111 -2.862500 22.418036 0.000000 0.000000 0.000000 -2.598972 -1.288296 -49.184828 1.202326 -0.950702 5.825631 3.189093 1.907530 44.353366 6.712082 -3.594066 -15.238731 0.000000 0.000000 0.000000 8.012747 0.315744 -0.094553 -68.510792 7.462478 -19.914007 -36.589203 -35.078731 13.354612 0.000000 0.000000 0.000000 4.941241 -6.270743 -2.665896 65.979714 -10.445273 -17.662598 11.124753 39.240811 6.116915 0.000000 0.000000 0.000000
-0.083728 0.146951 -0.071965 -3.987889 4.231557 -81.803649 13.667288 1.854140 -4.243188 4.640315 -0.457243 -1.762854 -12.226817 2.340461 41.843278 0.000000 0.000000 0.000000 -2.967197 0.219619 -9.131536 -5.997079 2.182824 14.438109 1.340145 -4.459007 21.738606 0.000000 0.000000 0.000000 -2.438291 -1.278433 -49.316686 0.788669 -0.741499 5.886517 3.286095 2.586185 44.360298 6.713729 -3.395627 -15.379728 0.000000 0.000000 0.000000 8.397410 0.716911 -0.179492 -68.704553 7.957060 -20.551426 -36.391346 -34.486534 12.891669 0.000000 0.000000 0.000000 4.969544 -6.442131 -2.663295 66.900650 -11.061070 -18.042085 11.021779 38.859716 6.095687 0.000000 0.000000 0.000000
-0.083759 0.147983 -0.072465 -3.890190 4.609917 -81.568273 13.359682 1.776837 -4.075427 3.997886 -0.331815 -2.443502 -11.643554 3.237417 42.814600 0.000000 0.000000 0.000000 -3.331057 0.109240 -8.935849 -5.728346 2.060081 13.917731 0.671535 -5.651019 22.862306 0.000000 0.000000 0.000000 -2.234851 -1.230205 -49.406924 0.321766 -0.479730 5.503451 3.345121 3.104864 43.952607 7.121419 -3.467182 -15.848812 0.000000 0.000000 0.000000 9.490312 0.694200 -0.053555 -69.138597 8.692758 -21.330284 -35.398794 -34.097497 12.216412 0.000000 0.000000 0.000000 4.611604 -6.842118 -2.792503 67.103284 -12.373307 -18.490973 12.654074 38.608524 6.603319 0.000000 0.000000 0.000000
-0.083775 0.146552 -0.073056 -3.786565 4.843053 -81.355966 13.408341 1.761368 -3.816990 3.356103 -0.196205 -3.573989 -11.251594 3.726277 43.135302 0.000000 0.000000 0.000000 -3.732472 -0.023384 -8.537061 -5.036337 1.801985 12.946983 -1.127871 -8.144715 22.721107 0.000000 0.000000 0.000000 -2.026048 -1.157906 -49.797077 0.155214 -0.427372 6.031103 3.286541 3.650757 43.444659 7.188272 -3.408462 -15.753240 0.000000 0.000000 0.000000 9.519334 0.572247 0.032384 -68.685712 8.953780 -21.473000 -34.194404 -33.641976 11.489204 0.000000 0.000000 0.000000 4.319263 -7.163431 -2.902709 67.266341 -13.726061 -19.033760 14.513742 39.525173 7.460820 0.000000 0.000000 0.000000
-0.083810 0.145280 -0.073719 -3.588317 5.012966 -81.048163 13.208697 1.703826 -3.505936 2.666856 -0.067444 -4.900309 -10.547766 4.522216 43.689082 0.000000 0.000000 0.000000 -4.397825 -0.221952 -7.963693 -3.964326 1.401577 11.149133 -1.777194 -9.462108 24.867360 0.000000 0.000000 0.000000 -1.740564 -0.975530 -50.016736 -0.171380 -0.250693 5.904510 3.322934 3.825333 43.352454 7.211879 -3.398457 -15.567991 0.000000 0.000000 0.000000 9.608696 0.247329 0.172538 -68.659706 9.286314 -21.768234 -31.798877 -32.960765 10.402162 0.000000 0.000000 0.000000 4.124302 -7.404808 -2.997739 66.626447 -14.907457 -19.357578 16.287315 39.956608 8.170489 0.000000 0.000000 0.000000
-0.083790 0.143278 -0.074295 -3.495642 5.007047 -80.988579 13.225575 1.687271 -2.833133 2.342136 0.017599 -6.448701 -10.335033 4.828728 44.136997 0.000000 0.000000 0.000000 -4.688923 -0.334472 -7.281178 -3.152897 1.099339 9.440573 -1.510444 -9.479726 26.773947 0.000000 0.000000 0.000000 -1.747900 -0.956862 -50.093402 -0.027476 -0.330041 5.969100 3.104995 4.077648 43.073669 7.427967 -3.591988 -15.172110 0.000000 0.000000 0.000000 9.525275 -0.048362 0.280377 -67.481100 10.104473 -21.811494 -31.078902 -32.604082 9.889731 0.000000 0.000000 0.000000 3.713083 -7.536930 -3.051350 65.777286 -16.238858 -19.693234 19.038132 40.249749 9.159608 0.000000 0.000000 0.000000
-0.083793 0.140700 -0.074749 -3.403429 5.080248 -80.814901 12.795736 1.613329 -2.509425 2.227392 0.064476 -7.566094 -9.652906 5.509736 44.528779 0.000000 0.000000 0.000000 -4.722406 -0.382871 -6.580996 -2.583947 0.829749 7.121332 -1.934346 -10.546689 29.815074 0.000000 0.000000 0.000000 -1.737913 -0.945267 -49.845129 -0.098229 -0.253230 5.302818 2.979458 3.854815 43.016885 6.957593 -3.155749 -15.727431 0.000000 0.000000 0.000000 10.932179 0.654434 0.159523 -67.251327 10.914981 -22.027170 -31.201323 -31.369006 9.459900 0.000000 0.000000 0.000000 2.635573 -7.839774 -3.209463 65.116581 -17.652610 -20.092451 22.413226 39.334635 9.985282 0.000000 0.000000 0.000000
-0.083801 0.137499 -0.075182 -3.429516 4.982092 -80.671415 12.462217 1.559457 -2.154314 2.165823 0.104877 -8.878933 -9.211064 5.840497 44.415346 0.000000 0.000000 0.000000 -4.767816 -0.421834 -6.007723 -1.672005 0.522225 4.928032 -2.172321 -11.311104 32.642495 0.000000 0.000000 0.000000 -1.863136 -1.003801 -49.949278 0.148058 -0.354310 4.876848 2.719313 3.661693 43.062990 6.878102 -2.984713 -16.577516 0.000000 0.000000 0.000000 11.906057 0.676646 0.223704 -66.397528 11.942969 -22.110547 -31.958001 -30.076522 9.132878 0.000000 0.000000 0.000000 0.526286 -8.182887 -3.364819 65.244428 -18.751927 -20.495027 23.867090 38.031994 9.963187 0.000000 0.000000 0.000000
-0.083815 0.135836 -0.075675 -3.554571 4.888920 -80.373063 12.423696 1.543911 -2.246895 2.056948 0.132151 -9.698897 -8.782053 6.356811 45.035049 0.000000 0.000000 0.000000 -4.705955 -0.448182 -5.229041 -1.178939 0.299297 2.279960 -1.987199 -11.540349 35.440829 0.000000 0.000000 0.000000 -1.758804 -0.928383 -49.931828 0.355262 -0.442868 4.575479 2.201200 2.871981 42.491585 6.595772 -2.854218 -16.972660 0.000000 0.000000 0.000000 12.681037 1.428421 0.016417 -65.802735 13.389988 -22.246520 -33.523280 -29.458353 9.330662 0.000000 0.000000 0.000000 -0.835395 -8.052988 -3.311256 64.452283 -19.849897 -20.752793 25.502528 37.295334 10.062195 0.000000 0.000000 0.000000
-0.083919 0.133559 -0.076160 -3.523206 4.769702 -80.491962 12.298412 1.522399 -1.674279 1.868500 0.164809 -10.866714 -8.653343 6.462564 45.122260 0.000000 0.000000 0.000000 -4.682346 -0.476925 -4.671444 -0.591511 0.124782 0.596031 -2.317305 -12.192551 36.963865 0.000000 0.000000 0.000000 -1.669992 -0.813817 -49.723319 0.445716 -0.401704 3.123089 2.045159 2.520133 43.200055 6.524418 -2.659210 -18.220972 0.000000 0.000000 0.000000 14.523313 1.685958 0.046671 -65.319062 14.833611 -22.721720 -35.652103 -28.523836 9.459753 0.000000 0.000000 0.000000 -3.307795 -8.120681 -3.285144 64.086930 -21.239295 -21.208339 27.603465 35.051759 9.850545 0.000000 0.000000 0.000000
-0.084297 0.133078 -0.076647 -3.475295 4.625373 -80.384877 12.266642 1.511149 -1.268295 2.160538 0.172600 -11.670982 -8.959967 6.068820 44.757865 0.000000 0.000000 0.000000 -5.213622 -0.642732 -3.698346 0.735004 -0.171880 -2.050485 -2.407445 -12.621606 38.537558 0.000000 0.000000 0.000000 -1.291663 -0.525586 -50.260558 0.598047 -0.471924 3.045468 1.607068 2.242897 43.467433 6.575465 -2.743701 -18.321318 0.000000 0.000000 0.000000 15.325800 2.562362 -0.175008 -64.410227 16.453599 -23.095173 -38.610845 -28.342052 10.101732 0.000000 0.000000 0.000000 -4.472189 -8.118564 -3.263647 63.488728 -22.533343 -21.647746 29.254855 34.715152 10.124512 0.000000 0.000000 0.000000
-0.085010 0.134051 -0.077160 -3.391168 4.486113 -80.544655 12.201038 1.516173 -0.933188 2.754109 0.158252 -11.612701 -9.225190 5.696958 44.333522 0.000000 0.000000 0.000000 -5.358547 -0.703687 -3.216275 1.302000 -0.273827 -2.927880 -2.192233 -12.574040 39.260835 0.000000 0.000000 0.000000 -0.933032 -0.211550 -49.996539 0.319871 -0.315367 2.744802 1.618442 2.138655 43.252974 6.606001 -2.742705 -18.475738 0.000000 0.000000 0.000000 16.654163 3.146096 -0.234187 -64.092910 17.387067 -23.385931 -40.184013 -28.073151 10.316913 0.000000 0.000000 0.000000 -4.755265 -7.850256 -3.151431 62.425321 -23.525938 -21.686128 30.863004 34.218836 10.344956 0.000000 0.000000 0.000000
-0.086233 0.134537 -0.077752 -3.181405 4.562455 -80.578802 11.682875 1.467767 -1.122980 3.614692 0.112421 -10.885248 -9.485435 5.234106 43.650733 0.000000 0.000000 0.000000 -5.574044 -0.754258 -3.065935 1.705338 -0.336499 -3.413911 -2.412493 -12.978131 40.251117 0.000000 0.000000 0.000000 -0.721360 -0.077273 -50.355266 0.259445 -0.286561 2.778425 1.520646 2.447551 43.704724 6.763494 -2.856169 -18.251865 0.000000 0.000000 0.000000 16.677883 3.366968 -0.302462 -63.543526 17.568764 -23.367021 -39.932422 -27.076255 9.788104 0.000000 0.000000 0.000000 -4.605410 -7.476641 -3.035129 62.843993 -24.215084 -22.237295 30.370575 34.361782 10.253187 0.000000 0.000000 0.000000
-0.087880 0.135363 -0.078628 -2.877267 4.309945 -80.389953 11.786236 1.499485 -1.301856 4.271725 0.061145 -10.234353 -9.588206 4.792045 42.663927 0.000000 0.000000 0.000000 -5.569780 -0.749088 -2.947519 2.493852 -0.437144 -3.827287 -2.637365 -13.368381 40.601012 0.000000 0.000000 0.000000 -0.326089 0.323499 -50.486330 0.221847 -0.289094 3.246919 1.383036 2.637238 43.552810 6.771520 -2.967352 -17.644177 0.000000 0.000000 0.000000 15.777888 3.358975 -0.381156 -63.245977 16.650242 -22.779694 -37.788106 -26.719430 9.154076 0.000000 0.000000 0.000000 -3.710046 -7.347442 -3.010827 62.344934 -24.318161 -22.182914 29.927438 35.123898 10.361917 0.000000 0.000000 0.000000
-0.089562 0.134897 -0.079675 -2.933282 4.425477 -80.297045 11.973397 1.527879 -1.741866 4.257178 0.039099 -9.734172 -9.255671 5.065288 42.395161 0.000000 0.000000 0.000000 -5.579468 -0.748477 -3.012304 2.839352 -0.479633 -4.049107 -3.121154 -13.924055 41.424515 0.000000 0.000000 0.000000 -0.352077 0.243742 -50.862554 0.023286 -0.228572 3.952960 1.464675 2.608860 43.780281 6.849179 -3.299777 -16.160366 0.000000 0.000000 0.000000 14.299661 2.970846 -0.430849 -62.813050 15.309125 -22.020344 -36.183705 -25.646583 8.426027 0.000000 0.000000 0.000000 -1.779403 -7.000074 -2.911444 62.224043 -22.956662 -21.739528 26.412777 35.275430 9.367901 0.000000 0.000000 0.000000
-0.091100 0.134831 -0.080752 -2.878450 4.353000 -80.203718 12.484036 1.590828 -1.645470 3.635541 0.073816 -9.851915 -9.600329 4.975222 43.213417 0.000000 0.000000 0.000000 -5.912341 -0.801743 -3.108731 3.367801 -0.537297 -3.919118 -2.183777 -13.107070 42.123526 0.000000 0.000000 0.000000 -0.342871 0.279092 -50.981055 0.012531 -0.254149 4.551774 1.520426 2.153366 43.842271 6.777006 -3.389234 -16.076495 0.000000 0.000000 0.000000 12.475791 2.677297 -0.540060 -62.951826 14.150600 -21.399759 -33.766945 -26.168518 8.203579 0.000000 0.000000 0.000000 -0.908925 -6.728867 -2.824235 62.783323 -21.473246 -21.491150 23.552871 35.245274 8.489541 0.000000 0.000000 0.000000
-0.092272 0.134248 -0.081653 -2.858002 4.447178 -80.149867 12.390702 1.565833 -1.484797 3.629069 0.097784 -10.506537 -9.134143 5.513744 43.581917 0.000000 0.000000 0.000000 -6.678832 -0.954813 -3.045244 4.285758 -0.645832 -4.298838 -2.024823 -13.102095 43.079364 0.000000 0.000000 0.000000 -0.261168 0.304443 -51.566906 -0.330360 -0.113773 5.190184 1.633371 2.221983 44.121128 6.412849 -3.290124 -14.884101 0.000000 0.000000 0.000000 11.183344 2.319540 -0.511133 -63.238674 13.032524 -21.137370 -31.712088 -27.011331 8.053050 0.000000 0.000000 0.000000 0.746963 -6.458531 -2.723249 62.162963 -19.644319 -20.534197 20.584843 33.713690 7.226771 0.000000 0.000000 0.000000
-0.093099 0.133941 -0.082353 -3.007341 4.642286 -80.228430 12.746594 1.582878 -0.919456 2.985694 0.144733 -11.357154 -9.027436 5.877679 44.339914 0.000000 0.000000 0.000000 -7.179644 -1.075174 -2.742964 4.356253 -0.657369 -4.508296 -1.282592 -12.431288 43.642088 0.000000 0.000000 0.000000 -0.338292 0.156014 -51.711731 -0.482933 -0.090265 6.142477 1.721308 1.859280 43.837934 6.532928 -3.574268 -14.146882 0.000000 0.000000 0.000000 9.053703 1.605869 -0.424440 -63.142479 11.597983 -20.379883 -28.967088 -27.840972 7.730412 0.000000 0.000000 0.000000 2.073954 -6.368963 -2.713005 62.104011 -17.642659 -19.722173 17.559632 32.367281 6.095131 0.000000 0.000000 0.000000
-0.093710 0.132780 -0.082747 -3.046038 4.718875 -80.166338 12.654168 1.557889 -0.977003 2.572190 0.162374 -11.573284 -8.738511 6.242598 44.729993 0.000000 0.000000 0.000000 -7.394710 -1.102950 -3.002723 4.491620 -0.673089 -4.117115 -0.762689 -11.898466 43.594661 0.000000 0.000000 0.000000 -0.371044 0.104481 -51.639465 -0.632847 -0.009982 6.031917 1.768285 1.695122 43.660279 5.835857 -3.101087 -13.750956 0.000000 0.000000 0.000000 8.437568 1.488161 -0.414248 -63.957766 10.957688 -20.338757 -27.443011 -27.734782 7.418086 0.000000 0.000000 0.000000 3.917474 -5.860373 -2.487993 60.782569 -15.855018 -18.561847 15.707381 30.543110 5.204147 0.000000 0.000000 0.000000
-0.094055 0.130890 -0.082984 -3.051975 5.093309 -80.081759 12.444553 1.513684 -1.040927 1.802207 0.180692 -11.728763 -7.841172 7.022061 44.433724 0.000000 0.000000 0.000000 -7.768634 -1.175440 -3.281012 4.363534 -0.661237 -3.810626 -1.026409 -12.045373 43.240038 0.000000 0.000000 0.000000 -0.371024 -0.020659 -51.731225 -1.004351 0.173353 6.098023 1.974621 1.622846 43.539821 5.515806 -2.824659 -13.675926 0.000000 0.000000 0.000000 8.499291 1.482426 -0.389913 -64.546423 10.489393 -20.346388 -26.865589 -27.775638 7.312214 0.000000 0.000000 0.000000 4.077910 -5.696771 -2.396570 60.721881 -15.436673 -18.302912 15.505310 29.277341 4.892368 0.000000 0.000000 0.000000
-0.094318 0.129548 -0.083413 -3.033207 5.023776 -79.985630 12.947528 1.570107 -1.321825 1.011173 0.190766 -11.344682 -7.616705 7.180995 44.133370 0.000000 0.000000 0.000000 -7.594464 -1.122069 -3.668249 4.038903 -0.619479 -3.115272 -1.281503 -12.158966 42.446388 0.000000 0.000000 0.000000 -0.365389 0.051895 -51.109995 -1.050537 0.202212 5.977191 1.926183 1.308147 42.712163 5.399036 -2.790785 -13.490073 0.000000 0.000000 0.000000 8.269016 1.531117 -0.400546 -65.178367 10.179269 -20.221257 -26.549736 -27.886885 7.323883 0.000000 0.000000 0.000000 4.094607 -5.809060 -2.481560 60.639430 -15.282997 -18.085432 15.013838 28.529174 4.600071 0.000000 0.000000 0.000000
-0.094362 0.127865 -0.083821 -2.930654 5.284187 -79.858769 12.836314 1.562283 -2.004756 0.284774 0.201984 -10.420562 -7.135187 7.347322 42.863210 0.000000 0.000000 0.000000 -7.979444 -1.172075 -4.378737 3.961787 -0.602295 -2.187832 -2.130224 -12.858305 41.547336 0.000000 0.000000 0.000000 -0.438735 -0.060658 -51.044835 -1.247595 0.325231 5.466812 1.955142 1.491956 43.203455 5.215266 -2.593892 -13.520074 0.000000 0.000000 0.000000 8.306188 1.201242 -0.275703 -65.803325 10.181519 -20.604614 -26.702236 -28.045623 7.425525 0.000000 0.000000 0.000000 4.837233 -5.605812 -2.350667 60.530074 -14.743433 -17.867726 14.204674 27.687027 4.267315 0.000000 0.000000 0.000000
-0.094249 0.127796 -0.084352 -2.836046 5.241735 -79.740822 12.688708 1.558862 -2.804339 -0.444347 0.219784 -8.695632 -6.227161 7.899762 41.750024 0.000000 0.000000 0.000000 -7.411801 -1.009524 -5.239159 3.192153 -0.483498 -0.991563 -2.927771 -13.573658 41.524043 0.000000 0.000000 0.000000 -0.177174 0.165172 -50.762727 -1.269689 0.336841 5.495449 1.621517 1.443182 42.872424 5.136572 -2.509486 -13.643773 0.000000 0.000000 0.000000 8.631638 1.247546 -0.253975 -66.551505 10.248965 -20.829325 -26.641987 -28.144192 7.462760 0.000000 0.000000 0.000000 4.183132 -5.687794 -2.401590 61.174241 -14.886276 -17.987499 14.272986 27.009650 4.155614 0.000000 0.000000 0.000000
-0.094123 0.127943 -0.084799 -2.846547 5.094350 -79.661441 12.855856 1.589951 -3.248011 -1.106400 0.244666 -7.414456 -5.547203 8.123597 40.006528 0.000000 0.000000 0.000000 -7.375424 -0.961732 -5.973179 3.712940 -0.546146 0.517772 -3.507174 -14.057273 40.627488 0.000000 0.000000 0.000000 -0.081164 0.305065 -50.109185 -1.395996 0.422978 5.065295 1.543913 1.539781 42.607737 5.208323 -2.503006 -13.817961 0.000000 0.000000 0.000000 8.370811 1.488770 -0.329791 -66.932914 10.584495 -21.139237 -27.626506 -28.659881 7.887269 0.000000 0.000000 0.000000 4.387710 -5.687608 -2.389769 61.191278 -14.450602 -17.683130 13.757605 26.825408 4.022682 0.000000 0.000000 0.000000
-0.093951 0.124541 -0.085059 -2.488319 4.941397 -79.631707 13.228586 1.675140 -3.770793 -2.359411 0.315632 -6.491183 -5.245776 8.239788 39.559202 0.000000 0.000000 0.000000 -7.565905 -0.959042 -6.904985 4.335636 -0.634957 2.026593 -5.093204 -15.685302 40.084651 0.000000 0.000000 0.000000 -0.034694 0.451517 -49.624991 -1.200325 0.323717 5.278818 1.666011 2.715406 42.277010 6.440556 -3.134349 -14.722939 0.000000 0.000000 0.000000 8.485709 0.960346 -0.112157 -67.283582 10.129265 -21.195646 -27.949503 -28.386267 7.838253 0.000000 0.000000 0.000000 4.704889 -6.342164 -2.610302 61.580365 -13.658871 -17.217003 13.308562 26.251782 3.903957 0.000000 0.000000 0.000000
-0.093823 0.119801 -0.085334 -2.177707 4.628721 -79.524073 13.322413 1.709558 -4.112919 -2.997821 0.348243 -6.858274 -4.523367 8.806526 39.453567 0.000000 0.000000 0.000000 -6.899108 -0.772437 -7.403065 3.833169 -0.547185 2.037000 -6.003664 -16.641324 40.856372 0.000000 0.000000 0.000000 0.035480 0.667195 -49.851061 -1.257328 0.403395 4.182614 1.595882 3.111629 43.039428 5.977454 -2.692298 -14.833764 0.000000 0.000000 0.000000 9.097012 1.458083 -0.234075 -68.459122 10.690743 -22.133368 -27.550343 -28.303793 7.712944 0.000000 0.000000 0.000000 5.373684 -6.448995 -2.625119 61.307074 -14.487651 -17.585016 13.920217 28.070914 4.392226 0.000000 0.000000 0.000000
-0.093717 0.118252 -0.085598 -2.029281 4.129739 -79.686602 13.806768 1.798087 -3.309365 -4.200562 0.371859 -8.744129 -2.644589 10.755792 41.122928 0.000000 0.000000 0.000000 -7.035970 -0.841158 -6.519901 4.751500 -0.695764 0.651293 -7.340728 -18.040945 40.452650 0.000000 0.000000 0.000000 0.236932 0.987525 -49.629907 -1.321946 0.423640 4.666919 1.626042 3.109171 42.595888 6.955183 -3.448164 -15.061450 0.000000 0.000000 0.000000 8.111760 0.862441 -0.124898 -67.532309 10.065172 -21.289793 -25.280088 -30.303548 7.637812 0.000000 0.000000 0.000000 3.149810 -5.964984 -2.426004 63.057670 -15.375072 -18.368890 15.526474 28.472856 4.842100 0.000000 0.000000 0.000000
-0.093549 0.118583 -0.086273 -1.571686 3.272987 -79.367452 14.252221 1.899765 -3.379458 -3.859400 0.342806 -9.904939 -5.672338 8.894898 46.143406 0.000000 0.000000 0.000000 -6.202261 -0.659178 -6.009480 4.324871 -0.623904 -1.212584 -7.622824 -18.565487 41.250450 0.000000 0.000000 0.000000 1.110323 1.959164 -49.522827 -1.241945 0.377406 5.308084 1.055842 3.760733 41.092384 8.499822 -4.255560 -16.384986 0.000000 0.000000 0.000000 10.517552 0.432699 0.267516 -67.733717 10.089898 -21.316384 -27.048569 -27.978105 7.338747 0.000000 0.000000 0.000000 2.539634 -6.046724 -2.451943 63.315452 -16.583461 -18.622101 17.928029 29.612959 5.643478 0.000000 0.000000 0.000000
-0.093216 0.116754 -0.087674 -2.606927 3.797415 -79.518757 13.458731 1.805033 -4.773445 -4.756322 0.439275 -6.934867 -5.040604 9.157950 44.029978 0.000000 0.000000 0.000000 -7.852685 -1.039437 -5.618478 6.264464 -0.885260 -1.070027 -6.976123 -17.937885 43.488209 0.000000 0.000000 0.000000 0.186479 0.943574 -50.126469 -2.617598 0.988868 7.887160 2.913605 3.412268 40.554356 7.853902 -4.680255 -11.882225 0.000000 0.000000 0.000000 8.242828 -1.695424 0.748891 -66.231797 8.573631 -19.973174 -21.736012 -30.334904 6.537931 0.000000 0.000000 0.000000 7.299988 -5.194231 -1.961913 57.511130 -16.397016 -17.285064 21.069550 29.365344 6.335426 0.000000 0.000000 0.000000
-0.092985 0.117370 -0.090779 -0.741376 -0.051321 -80.353575 17.150253 2.473846 -1.938858 -3.494884 0.357607 -9.475375 -6.644981 8.002939 46.960805 0.000000 0.000000 0.000000 -6.003340 -0.623942 -5.102348 9.090383 -1.193230 -1.450110 -8.457241 -19.885358 39.960987 0.000000 0.000000 0.000000 2.936170 4.735366 -51.588792 0.297747 -0.563922 8.620904 -0.098370 1.604333 43.394804 7.069033 -4.579123 -12.260305 0.000000 0.000000 0.000000 4.812855 -2.463916 0.936445 -61.894346 11.862710 -20.188115 -30.291071 -32.022869 9.390068 0.000000 0.000000 0.000000 1.248699 -4.655443 -2.042525 63.710414 -18.649889 -20.889271 18.267981 29.169782 5.388409 0.000000 0.000000 0.000000
-0.092926 0.114616 -0.094884 -1.849745 1.994938 -82.069717 12.618624 1.895748 -7.018081 -0.040050 -0.086520 2.502584 -12.334645 1.928730 42.675613 0.000000 0.000000 0.000000 -9.254394 -1.267767 -8.116367 8.685238 -1.501920 7.442450 -6.983465 -17.929513 38.924918 0.000000 0.000000 0.000000 0.976664 2.175830 -46.878513 -0.709163 0.096965 5.490684 1.736741 2.032321 46.026298 4.689920 -2.909328 -9.152633 0.000000 0.000000 0.000000 7.020496 -2.239486 0.798046 -65.002197 9.854398 -20.525095 -25.791456 -30.855760 8.001674 0.000000 0.000000 0.000000 -0.171475 -6.514418 -2.769608 65.547576 -14.849840 -19.495037 15.187908 29.095489 5.005990 0.000000 0.000000 0.000000
