HIERARCHY
ROOT Hips
{
	OFFSET -0.001795 -0.223333 0.028219
	CHANNELS 6 Xposition Yposition Zposition Zrotation Yrotation Xrotation
	JOINT LeftUpLeg
	{
		OFFSET 0.069520 -0.091406 -0.006815
		CHANNELS 3 Zrotation Yrotation Xrotation
		JOINT LeftLeg
		{
			OFFSET 0.034277 -0.375199 -0.004496
			CHANNELS 3 Zrotation Yrotation Xrotation
			JOINT LeftFoot
			{
				OFFSET -0.013596 -0.397961 -0.043693
				CHANNELS 3 Zrotation Yrotation Xrotation
				JOINT LeftToe
				{
					OFFSET 0.026358 -0.055791 0.119288
					CHANNELS 3 Zrotation Yrotation Xrotation
					End Site
					{
						OFFSET 0.000000 0.000000 0.000000
					}
				}
			}
		}
	}
	JOINT RightUpLeg
	{
		OFFSET -0.067670 -0.090522 -0.004320
		CHANNELS 3 Zrotation Yrotation Xrotation
		JOINT RightLeg
		{
			OFFSET -0.038290 -0.382569 -0.008850
			CHANNELS 3 Zrotation Yrotation Xrotation
			JOINT RightFoot
			{
				OFFSET 0.015774 -0.398415 -0.042312
				CHANNELS 3 Zrotation Yrotation Xrotation
				JOINT RightToe
				{
					OFFSET -0.025372 -0.048144 0.123348
					CHANNELS 3 Zrotation Yrotation Xrotation
					End Site
					{
						OFFSET 0.000000 0.000000 0.000000
					}
				}
			}
		}
	}
	JOINT Spine
	{
		OFFSET -0.002533 0.108963 -0.026696
		CHANNELS 3 Zrotation Yrotation Xrotation
		JOINT Spine1
		{
			OFFSET 0.005487 0.135180 0.001092
			CHANNELS 3 Zrotation Yrotation Xrotation
			JOINT Spine2
			{
				OFFSET 0.001457 0.052922 0.025425
				CHANNELS 3 Zrotation Yrotation Xrotation
				JOINT Neck
				{
					OFFSET -0.002778 0.213870 -0.042857
					CHANNELS 3 Zrotation Yrotation Xrotation
					JOINT Head
					{
						OFFSET 0.005152 0.064970 0.051349
						CHANNELS 3 Zrotation Yrotation Xrotation
						End Site
						{
							OFFSET 0.000000 0.000000 0.000000
						}
					}
				}
				JOINT LeftShoulder
				{
					OFFSET 0.078845 0.121749 -0.034090
					CHANNELS 3 Zrotation Yrotation Xrotation
					JOINT LeftArm
					{
						OFFSET 0.090977 0.030469 -0.008868
						CHANNELS 3 Zrotation Yrotation Xrotation
						JOINT LeftForeArm
						{
							OFFSET 0.259612 -0.012772 -0.027456
							CHANNELS 3 Zrotation Yrotation Xrotation
							JOINT LeftHand
							{
								OFFSET 0.249234 0.008986 -0.001171
								CHANNELS 3 Zrotation Yrotation Xrotation
								End Site
								{
									OFFSET 0.000000 0.000000 0.000000
								}
							}
						}
					}
				}
				JOINT RightShoulder
				{
					OFFSET -0.081759 0.118833 -0.038615
					CHANNELS 3 Zrotation Yrotation Xrotation
					JOINT RightArm
					{
						OFFSET -0.096012 0.032551 -0.009143
						CHANNELS 3 Zrotation Yrotation Xrotation
						JOINT RightForeArm
						{
							OFFSET -0.253742 -0.013329 -0.021401
							CHANNELS 3 Zrotation Yrotation Xrotation
							JOINT RightHand
							{
								OFFSET -0.255298 0.007772 -0.005559
								CHANNELS 3 Zrotation Yrotation Xrotation
								End Site
								{
									OFFSET 0.000000 0.000000 0.000000
								}
							}
						}
					}
				}
			}
		}
	}
}
MOTION
Frames: 76
Frame Time: 0.050000
0.000000 0.703823 0.000000 1.368985 5.510312 -77.414410 57.073588 -45.003317 74.492430 14.744576 -41.918161 104.948211 18.052973 -1.526091 -95.901941 0.000000 0.000000 0.000000 -20.735470 -5.439431 3.711374 40.353578 -48.526906 101.723429 -3.232070 -36.254565 -90.984248 0.000000 0.000000 0.000000 8.933314 10.852185 -101.547929 -5.332245 1.739846 36.709038 -14.523416 9.891758 36.490787 -5.248285 -35.720654 71.941445 0.000000 0.000000 0.000000 -31.372829 5.249767 -10.644463 75.151224 65.012740 56.656866 -47.909882 11.446881 -12.804216 0.000000 0.000000 0.000000 11.834563 -4.491918 -0.322390 -47.086304 -54.435215 34.402502 19.532229 -14.063088 -6.785245 0.000000 0.000000 0.000000
-0.002182 0.693349 0.076967 0.196213 10.459278 -78.301688 83.563026 -42.491733 41.044546 96.289365 -53.922234 21.942343 24.459628 -9.541756 -103.934468 0.000000 0.000000 0.000000 -31.857339 -5.801560 13.004519 37.575521 -45.521321 105.245735 -4.126954 -32.917208 -93.387474 0.000000 0.000000 0.000000 7.934348 4.211789 -85.857882 -11.326898 6.282982 30.380927 -3.671560 8.098314 30.325689 15.113326 -12.493317 -2.358952 0.000000 0.000000 0.000000 6.710830 9.127696 -4.683709 23.867223 64.186492 16.508792 -46.251643 44.366699 -31.298588 0.000000 0.000000 0.000000 -12.027447 -9.575212 -5.188668 -28.392642 -40.656092 18.505057 25.271417 -29.987889 -10.729509 0.000000 0.000000 0.000000
-0.004670 0.651668 0.149862 4.236431 10.173333 -78.485138 99.380174 -29.910182 21.302998 119.719182 -7.375662 -21.278666 29.114550 -5.630819 -117.948346 0.000000 0.000000 0.000000 -33.802568 -3.790233 16.836397 28.049778 -38.016460 117.293757 1.890828 -41.922423 -97.524663 0.000000 0.000000 0.000000 8.888222 6.883792 -71.420375 -8.865729 4.102603 10.647269 -6.558504 4.771507 44.748678 8.279114 -1.301354 -28.066706 0.000000 0.000000 0.000000 27.952021 18.224674 -2.273436 -6.525009 54.397528 -4.797990 -50.744227 49.351320 -33.843016 0.000000 0.000000 0.000000 -25.223180 -11.745519 -4.906184 -11.668888 -39.227130 8.407836 18.271426 -20.572624 -4.969410 0.000000 0.000000 0.000000
-0.009475 0.620450 0.206315 8.550177 12.165471 -81.504568 96.849029 -9.968764 7.045029 112.142703 27.199584 -48.040172 12.726514 24.086223 -123.566025 0.000000 0.000000 0.000000 -40.279519 -3.501262 17.629557 22.801201 -29.211860 125.318940 -0.550651 -37.349992 -96.198741 0.000000 0.000000 0.000000 10.899262 8.342984 -59.762787 -7.602768 3.399593 1.013124 -7.918176 7.158405 45.311106 6.550145 0.822473 -33.260681 0.000000 0.000000 0.000000 48.002758 14.660030 4.065493 -14.338402 48.879835 -10.455199 -48.061086 57.392110 -35.332199 0.000000 0.000000 0.000000 -43.565175 -13.017998 -3.118446 -5.954935 -32.536449 4.863028 18.191747 -19.522839 -3.948004 0.000000 0.000000 0.000000
-0.016690 0.582105 0.245500 12.703311 7.799002 -84.198150 64.527049 9.490675 -1.672886 138.570278 8.971791 -31.361425 17.533919 23.071232 -130.869054 0.000000 0.000000 0.000000 -30.659822 -2.856860 11.111068 21.065438 -24.507865 126.661140 0.596738 -38.893446 -92.816405 0.000000 0.000000 0.000000 14.964058 12.264417 -47.871226 -3.344977 1.569528 -5.402678 -14.030576 3.035893 46.152764 4.831939 0.683675 -35.032473 0.000000 0.000000 0.000000 52.885197 14.947361 3.495545 -17.792580 53.343680 -11.038234 -47.998339 45.724361 -25.642880 0.000000 0.000000 0.000000 -48.000251 -12.922438 -0.114339 3.178143 -33.527678 0.669499 20.228597 -5.256949 -1.958911 0.000000 0.000000 0.000000
-0.026482 0.545652 0.266513 15.627875 8.814603 -83.871236 16.296170 3.601314 -18.079259 123.598678 -51.416679 12.015659 50.560409 -18.912061 -136.344944 0.000000 0.000000 0.000000 -29.959245 -4.141035 -0.974736 22.725004 -22.053275 121.296534 -1.825697 -34.969309 -85.573735 0.000000 0.000000 0.000000 14.888279 11.721415 -44.562847 -3.783844 1.722976 -7.038008 -13.336723 0.376356 47.480310 1.839766 1.175172 -33.277483 0.000000 0.000000 0.000000 53.596868 16.100947 2.376547 -27.636586 57.910303 -15.980386 -67.315315 36.857930 -28.897473 0.000000 0.000000 0.000000 -49.336583 -12.779532 1.388876 17.097997 -31.246147 -5.227404 25.601003 7.901812 0.508058 0.000000 0.000000 0.000000
-0.036227 0.487235 0.272621 20.120179 6.519842 -81.605269 5.042550 -0.402204 -22.765956 56.744373 -50.390952 72.034782 43.282617 -77.761205 -90.627423 0.000000 0.000000 0.000000 -21.629042 -3.181452 -14.024096 27.170332 -22.911051 111.225080 -2.127411 -35.675721 -75.443999 0.000000 0.000000 0.000000 20.431753 15.493283 -41.949998 -5.095158 2.233961 -6.168159 -13.293928 2.036340 47.026425 2.359919 0.692740 -31.417561 0.000000 0.000000 0.000000 48.473501 12.308762 1.151710 -67.868003 58.561952 -44.726949 -78.049964 21.687382 -20.682854 0.000000 0.000000 0.000000 -48.975180 -11.957769 1.111336 31.756843 -35.615923 -11.899973 44.326565 29.356832 10.361915 0.000000 0.000000 0.000000
-0.045880 0.421913 0.270589 22.699292 3.192726 -79.757614 -2.301019 -2.948367 -24.603910 42.687789 -33.042162 72.897072 -37.218734 -54.106589 14.216440 0.000000 0.000000 0.000000 -13.516430 -1.082150 -18.428989 28.461492 -16.839150 97.881768 -4.760423 -32.806815 -63.146003 0.000000 0.000000 0.000000 26.335433 19.819540 -40.255419 -5.774064 2.638875 -2.692829 -18.995608 1.280100 49.282917 2.331115 -0.959047 -20.986614 0.000000 0.000000 0.000000 37.827442 10.937710 -2.048726 -93.760266 41.490284 -49.313937 -82.982170 -17.820386 18.419797 0.000000 0.000000 0.000000 -41.374244 -9.603893 0.201771 54.595232 -30.735998 -21.799514 37.508068 57.420603 20.190320 0.000000 0.000000 0.000000
-0.054447 0.351424 0.269100 24.223052 0.279975 -78.699604 -5.269917 -3.760364 -23.652686 38.988845 -19.536209 52.427153 -37.694255 -32.708500 32.378581 0.000000 0.000000 0.000000 -3.482685 1.751913 -22.379012 23.936017 -7.223498 82.918171 -8.503692 -33.739355 -44.560759 0.000000 0.000000 0.000000 30.625175 24.131050 -40.420573 -7.238721 4.274413 10.420051 -21.604387 -5.973678 44.685717 5.389767 -5.086108 -16.164254 0.000000 0.000000 0.000000 12.534618 -0.308783 -1.397705 -86.862309 16.642776 -23.416759 -82.690849 -60.161686 67.370790 0.000000 0.000000 0.000000 -36.272779 -8.448233 1.092705 63.705011 -22.073724 -24.319294 34.093031 79.987469 28.870394 0.000000 0.000000 0.000000
-0.059372 0.279923 0.275508 24.651747 -2.610171 -76.362095 -5.888169 -3.576489 -21.170750 42.472830 -14.242612 32.127370 -43.804714 -28.761986 42.998601 0.000000 0.000000 0.000000 1.754999 4.273451 -27.068855 24.608064 -6.972337 75.059468 -10.126417 -41.687461 -39.242329 0.000000 0.000000 0.000000 35.657425 29.843073 -42.079150 -6.499542 5.171272 26.030283 -31.810685 -21.525864 43.269285 4.424670 -7.108321 0.891705 0.000000 0.000000 0.000000 -5.675219 -8.387494 6.178415 -74.879509 -2.136203 -7.625526 120.491710 -84.760842 -89.494606 0.000000 0.000000 0.000000 -24.457613 -0.518906 3.667500 63.541449 -5.362603 -18.375802 -95.844500 77.347363 -90.015824 0.000000 0.000000 0.000000
-0.060914 0.224997 0.289793 23.893192 -4.555497 -76.443533 -7.198111 -3.855933 -20.067877 50.020542 -12.718623 23.322149 -44.093546 -27.222385 45.611030 0.000000 0.000000 0.000000 4.287895 5.349455 -27.788083 28.280608 -9.226307 69.623127 -10.942704 -47.602827 -38.259809 0.000000 0.000000 0.000000 37.118117 31.792870 -41.741496 -4.151692 4.224584 40.555857 -30.167459 -37.467764 34.906626 4.741085 -3.461908 15.291206 0.000000 0.000000 0.000000 -20.991471 -14.565107 19.895213 -57.649523 -18.115263 -3.041105 109.866574 -62.812479 -55.880376 0.000000 0.000000 0.000000 -22.287635 -0.641139 5.801350 54.689542 2.452688 -11.709320 -116.270435 64.129369 -110.134952 0.000000 0.000000 0.000000
-0.060349 0.188769 0.307982 23.720590 -6.011185 -75.166288 -10.397033 -5.105342 -24.779294 61.829288 -14.155345 23.144261 -52.349797 -29.028139 51.918267 0.000000 0.000000 0.000000 7.131394 6.316934 -27.591660 28.535160 -8.867557 65.132301 -8.402968 -49.489683 -47.461746 0.000000 0.000000 0.000000 38.013098 34.559217 -43.694806 -0.659506 0.773470 51.634121 -32.192272 -49.415015 29.651818 6.524884 -0.073871 21.151330 0.000000 0.000000 0.000000 -24.509749 -20.629741 28.446849 -48.025060 -22.529255 -1.921602 108.440726 -50.300375 -45.621722 0.000000 0.000000 0.000000 -20.347469 4.711641 8.278311 52.684899 9.718085 -7.707223 -115.339304 54.892075 -108.751529 0.000000 0.000000 0.000000
-0.057574 0.161616 0.323592 23.767749 -5.881324 -75.119269 -13.544637 -6.548958 -29.599036 69.131458 -16.924047 26.386776 -53.357265 -26.811448 56.155804 0.000000 0.000000 0.000000 7.030147 6.111782 -27.184589 31.100571 -9.635054 59.584217 -6.857610 -48.660906 -53.497725 0.000000 0.000000 0.000000 38.182445 33.516842 -42.214231 1.788181 -1.774314 48.802657 -37.533454 -54.403689 34.919229 1.235959 5.246043 16.463074 0.000000 0.000000 0.000000 -23.560096 -18.256140 28.571888 -44.320739 -29.442704 0.491897 105.104223 -45.538546 -36.577484 0.000000 0.000000 0.000000 -22.638598 3.454190 9.679249 48.644321 17.317567 -5.541662 -113.376306 49.346519 -106.011816 0.000000 0.000000 0.000000
-0.053302 0.146678 0.334187 25.192688 -6.985828 -74.994495 -13.869252 -6.872062 -35.654422 74.266215 -19.622597 30.080792 -53.605340 -19.943254 64.782903 0.000000 0.000000 0.000000 8.778282 6.743942 -27.214331 28.555598 -6.959827 55.942813 -9.484141 -46.875472 -46.684147 0.000000 0.000000 0.000000 42.695585 35.366852 -38.665562 1.805164 -1.494810 44.645535 -41.156403 -55.545920 39.744396 -1.218907 3.932801 8.452470 0.000000 0.000000 0.000000 -23.401845 -19.510196 29.949258 -40.194841 -30.923161 0.715878 102.095135 -38.867443 -29.295270 0.000000 0.000000 0.000000 -25.503683 0.879457 10.624691 46.366123 21.356547 -5.833600 -110.795157 47.289921 -101.638493 0.000000 0.000000 0.000000
-0.049082 0.140237 0.339924 26.607170 -5.854058 -74.935718 -16.102621 -7.915954 -39.116530 75.527749 -21.957105 33.148169 -51.985571 -15.145281 69.300079 0.000000 0.000000 0.000000 10.011692 6.679744 -25.855223 25.890083 -5.319710 52.730167 -10.385198 -45.123499 -45.506837 0.000000 0.000000 0.000000 43.648149 33.632761 -35.770143 3.518312 -2.701158 36.152870 -50.266696 -51.465621 46.198139 -3.478353 1.571716 -0.382658 0.000000 0.000000 0.000000 -20.257935 -16.768714 25.654055 -42.523468 -28.967447 1.117330 97.837329 -42.989725 -29.867927 0.000000 0.000000 0.000000 -28.576236 5.474664 12.159824 50.442976 27.581416 -7.581683 -106.352573 46.850386 -94.297973 0.000000 0.000000 0.000000
-0.045906 0.133410 0.343185 28.040694 -3.685993 -74.015986 -14.736691 -7.613403 -41.682952 70.297182 -22.826862 36.201476 -53.116697 -14.837119 70.264621 0.000000 0.000000 0.000000 9.855732 6.211979 -24.927645 22.667901 -3.858187 48.111124 -11.800295 -39.817685 -41.954070 0.000000 0.000000 0.000000 47.163957 31.956527 -31.393892 -0.652983 1.071910 31.175389 -46.697089 -48.531247 45.196781 -5.703121 1.092624 -5.618684 0.000000 0.000000 0.000000 -18.618602 -14.206200 22.037180 -45.079096 -27.621438 1.273714 92.390778 -45.012970 -27.778960 0.000000 0.000000 0.000000 -30.262771 7.566037 12.806505 52.038513 28.876978 -7.801403 -106.857124 45.076340 -90.772205 0.000000 0.000000 0.000000
-0.044206 0.128990 0.347021 27.158654 -0.800602 -72.913252 -13.662320 -7.797813 -41.633168 62.106149 -23.120030 38.840995 -51.233965 -18.623910 64.006462 0.000000 0.000000 0.000000 9.562077 6.275560 -25.778937 17.182913 -2.497668 43.323907 -13.160081 -34.909339 -32.686609 0.000000 0.000000 0.000000 47.822022 30.316089 -31.350369 -2.696360 2.183203 28.955106 -42.144912 -43.584647 40.983501 -5.586466 1.195789 -5.302594 0.000000 0.000000 0.000000 -17.677410 -18.304437 21.764643 -46.801494 -22.021414 -0.280874 87.664186 -45.361848 -27.717257 0.000000 0.000000 0.000000 -29.209368 8.193474 11.489747 55.166087 26.350680 -7.692609 -111.639642 47.484013 -92.440801 0.000000 0.000000 0.000000
-0.043526 0.126951 0.352539 25.288247 3.149364 -72.803389 -12.815209 -8.476026 -41.181353 53.726125 -24.330024 44.167244 -46.937947 -19.818462 58.656164 0.000000 0.000000 0.000000 8.546945 5.303949 -24.059417 15.009745 -2.718399 36.485413 -13.227629 -31.506873 -27.149682 0.000000 0.000000 0.000000 45.034375 27.493145 -33.610031 -3.344030 2.076175 24.303255 -39.595176 -38.007291 40.220015 -5.839309 -0.141973 -12.555871 0.000000 0.000000 0.000000 -17.954608 -17.811554 20.112281 -47.034583 -19.050425 -1.776139 78.590701 -52.303738 -29.573861 0.000000 0.000000 0.000000 -33.388945 8.908388 11.033892 56.790073 28.208197 -8.006772 -110.381747 48.409093 -84.426982 0.000000 0.000000 0.000000
-0.043596 0.117874 0.361306 23.411936 6.581948 -73.214875 -7.516739 -6.931591 -41.046871 40.027474 -22.801907 51.760793 -36.263491 -15.884604 52.172256 0.000000 0.000000 0.000000 8.525110 5.247077 -24.271995 11.347079 -2.080712 32.644829 -12.787330 -27.947775 -16.942398 0.000000 0.000000 0.000000 42.681791 24.911631 -34.820050 -5.413825 3.202548 21.108851 -34.803891 -31.390353 39.248151 -3.990856 -1.039102 -15.437830 0.000000 0.000000 0.000000 -10.927495 -20.673865 15.595332 -54.494616 -14.744672 -1.569973 72.918994 -58.549394 -30.761543 0.000000 0.000000 0.000000 -33.570934 7.210670 8.849668 62.075876 26.763997 -7.122315 -112.541097 50.427933 -79.870934 0.000000 0.000000 0.000000
-0.044334 0.108870 0.370566 20.097148 12.183573 -73.355049 -5.082362 -7.342238 -41.818249 29.770481 -22.181832 58.663307 -28.127392 -13.564714 45.202881 0.000000 0.000000 0.000000 5.094575 3.877528 -24.411759 9.881570 -2.406530 28.122714 -13.772715 -29.520677 -9.463093 0.000000 0.000000 0.000000 36.406572 20.069981 -38.243447 -7.580799 4.113515 19.075124 -28.191287 -26.843081 38.717689 -4.200050 -0.151811 -17.639013 0.000000 0.000000 0.000000 -4.118384 -18.319507 10.035228 -61.322827 -14.422089 -0.256729 68.322982 -60.177204 -28.662659 0.000000 0.000000 0.000000 -33.744604 7.655059 7.111724 65.912492 25.606033 -5.692977 -116.595850 47.007444 -73.240398 0.000000 0.000000 0.000000
-0.044865 0.103771 0.377700 18.045457 16.012921 -74.459053 -0.829284 -5.918200 -40.353694 20.115548 -19.446514 63.444657 -23.726948 -15.673526 34.582386 0.000000 0.000000 0.000000 5.304631 3.557646 -23.006693 3.918019 -0.648081 25.077327 -11.348433 -22.449868 7.395384 0.000000 0.000000 0.000000 33.886425 16.655767 -36.694462 -6.062415 2.808249 12.508544 -27.295700 -15.553291 40.419756 -1.070297 -0.329026 -18.839504 0.000000 0.000000 0.000000 8.520351 -20.560530 5.301779 -69.284314 -12.207474 -0.602750 49.557356 -61.940129 -21.480649 0.000000 0.000000 0.000000 -30.576431 5.152347 3.394821 71.769196 17.470920 -4.187194 -125.588152 48.822010 -75.787902 0.000000 0.000000 0.000000
-0.045162 0.101145 0.380840 15.615005 20.949340 -74.837838 -0.071793 -7.037218 -41.596499 13.400246 -16.681893 65.287056 -19.265783 -9.491647 36.973254 0.000000 0.000000 0.000000 2.202344 2.152840 -23.345428 2.986376 -0.691021 22.929394 -9.941487 -19.093466 21.607941 0.000000 0.000000 0.000000 29.904098 13.053145 -36.959344 -7.822232 3.519012 12.919833 -20.236604 -9.568431 37.479180 -0.102955 0.655325 -19.591711 0.000000 0.000000 0.000000 8.306548 -17.096899 5.070504 -67.876121 -12.204511 -3.619840 47.193596 -68.493945 -25.239533 0.000000 0.000000 0.000000 -25.838659 4.668167 1.217362 73.708272 11.206539 -3.494866 -129.400562 47.884899 -73.338414 0.000000 0.000000 0.000000
-0.044596 0.089363 0.382814 12.416863 25.840505 -76.731731 -3.080693 -9.855873 -42.170380 11.398563 -17.595701 66.755505 -15.571847 -7.581341 32.693638 0.000000 0.000000 0.000000 -1.426222 0.461567 -20.425407 0.993467 -0.211081 17.001168 -3.680228 -12.018444 39.659096 0.000000 0.000000 0.000000 25.958100 9.858895 -37.462228 -8.099065 3.354607 10.832873 -17.342953 -4.233387 41.085616 1.896489 0.401221 -17.568255 0.000000 0.000000 0.000000 12.921887 -10.886584 3.516175 -66.847450 -10.883809 -7.531192 1.679926 -78.560981 4.162804 0.000000 0.000000 0.000000 -16.724470 6.588671 0.474171 74.792409 7.119665 -3.590687 -134.369847 56.559392 -85.029561 0.000000 0.000000 0.000000
-0.043454 0.085527 0.384301 10.187069 30.606636 -77.639973 -4.758907 -12.598457 -43.741405 6.174497 -15.270851 70.324486 -10.758721 -2.760067 30.939357 0.000000 0.000000 0.000000 -6.070894 -1.707865 -20.210773 0.574540 -0.254602 16.409404 0.357484 -8.409886 44.007097 0.000000 0.000000 0.000000 22.241073 6.825931 -39.533472 -12.836093 5.499065 14.820635 -7.376946 -0.716918 41.033918 0.283806 2.601243 -18.521822 0.000000 0.000000 0.000000 14.470230 -4.349617 2.570369 -68.123924 -8.959083 -11.378752 -52.657694 -79.043539 48.148724 0.000000 0.000000 0.000000 -10.122011 4.072035 -0.069308 72.911688 8.123092 -2.189485 -138.185421 71.392366 -102.644531 0.000000 0.000000 0.000000
-0.041869 0.082148 0.385505 5.756739 33.049089 -79.899847 -3.800640 -13.417126 -44.922723 2.360456 -14.510156 71.992818 -9.552597 -2.586654 27.572760 0.000000 0.000000 0.000000 -5.761046 -1.780741 -19.033530 -2.237372 0.485104 13.921933 -0.686109 -9.439337 49.839710 0.000000 0.000000 0.000000 18.950698 4.235960 -40.412274 -12.745557 4.900776 16.817873 -3.236367 4.502410 41.238286 4.729894 -0.235497 -12.293166 0.000000 0.000000 0.000000 19.278419 -2.497505 3.515981 -68.451154 -7.382298 -15.531691 -90.669665 -75.192275 76.370251 0.000000 0.000000 0.000000 1.780011 3.593962 2.105335 68.460994 8.632377 -2.740561 -114.848013 81.661635 -84.304054 0.000000 0.000000 0.000000
-0.040467 0.078622 0.385817 3.682637 34.473208 -82.033693 -1.332595 -12.850543 -45.646427 -4.816401 -9.826279 75.136217 -5.794797 0.643008 23.457996 0.000000 0.000000 0.000000 -4.455802 -1.603293 -20.899957 -5.118906 1.148753 19.909531 -2.356890 -10.355492 48.374396 0.000000 0.000000 0.000000 15.947325 2.789027 -38.023335 -12.923494 4.391538 20.696152 0.811194 7.486713 40.402647 6.914282 -2.432409 -8.022228 0.000000 0.000000 0.000000 16.891900 0.937359 2.675278 -65.329530 -3.744481 -17.527713 -112.615773 -68.424578 89.289941 0.000000 0.000000 0.000000 11.118740 2.297692 4.598766 59.905266 13.407009 -3.010608 -86.141448 81.959234 -54.558399 0.000000 0.000000 0.000000
-0.039986 0.081423 0.385931 2.485546 34.624013 -82.169182 2.061793 -12.061717 -47.931978 -9.756598 -6.252950 77.625311 -4.755027 1.941949 23.414799 0.000000 0.000000 0.000000 -4.205583 -1.928574 -25.371602 -4.360615 0.414763 28.211495 -3.093686 -11.092783 47.625431 0.000000 0.000000 0.000000 16.674939 3.035900 -37.395949 -15.015457 4.548485 30.726474 1.972670 11.541074 31.534202 8.888831 -5.702733 -2.858148 0.000000 0.000000 0.000000 15.502661 1.733642 2.618669 -58.527134 -0.618476 -15.776462 -127.522947 -67.163465 100.960372 0.000000 0.000000 0.000000 17.902384 1.329345 6.411628 54.830408 14.036991 -3.734641 -124.847201 82.402682 -93.328699 0.000000 0.000000 0.000000
-0.039328 0.085457 0.387237 2.049231 33.222894 -82.597357 5.441728 -10.196271 -48.521313 -11.907751 -4.583966 81.483411 -5.098396 1.434006 24.070899 0.000000 0.000000 0.000000 -2.619933 -1.269289 -27.226401 -3.218957 -0.344114 32.994154 -3.768002 -12.089661 47.970238 0.000000 0.000000 0.000000 15.402707 3.048275 -35.348206 -14.539179 3.879862 34.814145 3.732938 14.283376 28.648138 10.358220 -9.169517 2.004592 0.000000 0.000000 0.000000 8.785459 3.062720 0.435536 -52.438171 5.487165 -14.983470 -140.584204 -61.242603 109.657230 0.000000 0.000000 0.000000 21.873205 0.240023 7.116413 52.248056 14.365509 -4.314337 -136.288628 79.458134 -102.490682 0.000000 0.000000 0.000000
-0.038467 0.095111 0.390262 1.357685 33.344902 -81.982853 7.909671 -8.872487 -48.145789 -14.561607 -3.098522 83.064791 -4.681807 1.096423 21.857586 0.000000 0.000000 0.000000 -3.910878 -2.293458 -30.797471 -1.592639 -1.830641 39.902822 -3.490547 -12.107704 47.015397 0.000000 0.000000 0.000000 13.235952 1.959680 -35.967560 -17.205155 5.164344 42.231031 5.270688 17.824902 20.005961 9.037586 -9.491931 6.035611 0.000000 0.000000 0.000000 5.352126 5.497419 -1.247033 -48.636358 12.302959 -14.974461 -143.378807 -52.334337 102.716619 0.000000 0.000000 0.000000 24.511221 2.678403 9.358367 52.776233 13.211756 -4.267943 -121.536592 77.901033 -86.856329 0.000000 0.000000 0.000000
-0.036357 0.100133 0.394695 -0.173341 32.781687 -82.119283 9.072306 -8.086146 -47.277468 -14.460704 -3.917192 82.662280 -4.296778 1.185182 20.499579 0.000000 0.000000 0.000000 -3.755819 -2.365522 -31.746614 -4.366047 -0.886279 44.151732 -2.389764 -10.968923 44.273221 0.000000 0.000000 0.000000 11.201903 0.806081 -36.901024 -15.390757 3.956473 39.317945 5.991638 18.715509 22.404282 7.227970 -10.250011 11.355718 0.000000 0.000000 0.000000 5.623835 5.141626 -1.171407 -51.576884 18.024128 -19.117019 -140.851594 -44.000222 87.204279 0.000000 0.000000 0.000000 24.353335 2.263725 9.380175 54.817139 11.974098 -4.678253 -109.009530 77.273333 -73.372123 0.000000 0.000000 0.000000
-0.032551 0.109538 0.398939 -0.593513 31.568730 -82.216420 11.187318 -6.395480 -45.741236 -14.315208 -4.624098 82.764095 -5.519638 0.064337 22.044736 0.000000 0.000000 0.000000 -4.378755 -2.435344 -30.973429 -5.672131 -0.393697 48.299477 -1.510948 -9.383824 37.170561 0.000000 0.000000 0.000000 11.666246 0.987842 -38.715501 -13.767097 2.968530 39.450935 3.265841 18.395873 22.631103 9.915803 -10.420088 5.706138 0.000000 0.000000 0.000000 6.310684 7.687147 -1.737069 -55.933852 21.591447 -23.305917 -140.934515 -34.040180 71.524442 0.000000 0.000000 0.000000 21.699455 1.263043 7.717635 59.876211 9.913444 -4.731111 -95.623911 77.588463 -60.779021 0.000000 0.000000 0.000000
-0.027486 0.115094 0.403127 -0.399228 30.483954 -81.926658 10.601640 -5.927423 -43.964496 -11.326706 -7.516161 82.885073 -6.070501 -2.096342 18.759933 0.000000 0.000000 0.000000 -3.713084 -1.912746 -30.497401 -5.705033 -0.311464 49.844616 -4.473796 -12.144847 33.551807 0.000000 0.000000 0.000000 12.264704 1.203716 -40.810434 -13.088952 3.183118 37.549269 3.349841 18.579707 25.561927 11.243756 -11.185685 4.283628 0.000000 0.000000 0.000000 6.960998 5.737525 -1.009260 -65.335640 20.754899 -28.772907 -134.117742 -28.616839 52.648419 0.000000 0.000000 0.000000 20.197434 -1.113343 5.889876 61.920186 7.287658 -5.724810 -97.012759 77.669310 -61.619575 0.000000 0.000000 0.000000
-0.022292 0.120300 0.406881 0.617755 29.481592 -81.595645 9.475684 -5.713121 -42.486632 -8.568054 -9.964288 83.732322 -6.348580 -3.331350 17.076288 0.000000 0.000000 0.000000 -4.508882 -1.964550 -29.260733 -3.754999 -1.211033 51.307073 -7.319422 -15.128341 25.923055 0.000000 0.000000 0.000000 12.779086 1.934384 -40.136400 -10.992532 2.771906 30.107258 2.374754 16.681287 31.191782 12.739989 -11.650855 1.684032 0.000000 0.000000 0.000000 5.805796 4.053066 -0.987066 -72.298423 19.605665 -32.948264 -125.485067 -26.270991 40.803785 0.000000 0.000000 0.000000 17.347465 -2.493867 4.169182 65.194084 3.558950 -7.107021 -90.855555 76.685144 -55.254374 0.000000 0.000000 0.000000
-0.018045 0.123707 0.411271 1.749040 28.075614 -81.100944 7.910507 -5.771096 -41.464123 -4.775810 -13.426773 85.401253 -7.468143 -6.231336 14.997981 0.000000 0.000000 0.000000 -4.285448 -1.678927 -29.965032 -3.563679 -1.032057 54.903342 -6.633863 -14.481709 20.263980 0.000000 0.000000 0.000000 13.329343 2.718246 -39.554892 -8.777573 2.129186 24.710943 0.768893 14.571853 34.457846 12.623633 -11.066873 0.485129 0.000000 0.000000 0.000000 4.544595 1.767904 -0.673537 -78.673244 16.498054 -34.670652 -116.104789 -27.056229 37.021801 0.000000 0.000000 0.000000 14.321137 -1.229993 3.830332 67.893271 0.321199 -8.458795 -75.469609 76.898736 -43.288241 0.000000 0.000000 0.000000
-0.014843 0.126596 0.416015 3.261966 26.917703 -80.417854 6.662615 -5.980325 -41.439013 -2.520457 -15.169470 87.461607 -9.229293 -8.086069 16.951616 0.000000 0.000000 0.000000 -3.739662 -1.203395 -30.398505 -1.985174 -1.787762 57.455708 -7.956818 -16.460540 16.793658 0.000000 0.000000 0.000000 14.725050 3.861455 -38.362785 -7.337812 1.975250 19.336998 -0.347686 12.649435 38.208032 14.301737 -11.557440 -2.678475 0.000000 0.000000 0.000000 2.202264 -1.012997 -0.346788 -81.831212 12.766877 -33.576381 -106.527205 -31.815187 38.871989 0.000000 0.000000 0.000000 10.233492 -2.425929 1.753341 69.564234 -3.452602 -9.965226 -64.998306 75.723158 -34.908026 0.000000 0.000000 0.000000
-0.012294 0.129048 0.420562 4.966123 25.802482 -80.129236 5.313959 -5.927000 -40.417188 -0.365299 -16.773210 87.976634 -10.291073 -8.956971 18.366257 0.000000 0.000000 0.000000 -3.638254 -0.872810 -30.750540 -0.620691 -2.302984 59.269082 -7.926078 -16.621855 15.241671 0.000000 0.000000 0.000000 16.130766 5.022150 -37.585697 -5.537367 1.291170 16.400439 -2.510158 11.003939 39.787022 14.495126 -11.535095 -3.725726 0.000000 0.000000 0.000000 0.030723 -3.389545 0.100444 -82.921550 10.493583 -31.740266 -100.079357 -36.581626 41.618148 0.000000 0.000000 0.000000 6.613319 -2.864857 0.407956 69.828782 -6.040191 -11.005842 -49.037950 74.722077 -23.287853 0.000000 0.000000 0.000000
-0.010312 0.131828 0.425176 6.773874 25.112640 -79.793023 4.216492 -6.098536 -40.205254 1.171892 -17.390623 88.857406 -12.626813 -10.867225 21.216471 0.000000 0.000000 0.000000 -3.152183 -0.458181 -30.990225 0.864208 -2.935629 61.156159 -7.717933 -16.534896 15.688167 0.000000 0.000000 0.000000 18.229220 6.257936 -36.529066 -4.810036 1.278848 13.274348 -4.448338 8.627272 42.247361 15.738972 -11.330313 -7.869947 0.000000 0.000000 0.000000 -2.938828 -4.481031 0.091980 -83.541182 10.229640 -30.807490 -95.138132 -42.050505 45.745647 0.000000 0.000000 0.000000 1.725347 -3.528255 -1.084349 71.510250 -8.624146 -12.279900 -32.052045 75.363077 -12.088104 0.000000 0.000000 0.000000
-0.009252 0.137178 0.430534 8.658336 24.366540 -79.348319 3.641249 -5.795612 -39.175362 2.246666 -17.596724 88.907336 -13.059864 -11.363734 21.437492 0.000000 0.000000 0.000000 -3.008637 -0.152467 -30.764337 1.434457 -2.825568 62.730941 -7.397548 -16.014705 11.191235 0.000000 0.000000 0.000000 20.338536 7.538899 -36.211819 -4.304816 1.305294 10.560516 -6.199073 7.621716 44.356895 16.120089 -11.458910 -9.051381 0.000000 0.000000 0.000000 -4.610929 -3.949788 -0.304937 -83.188586 11.067433 -30.842073 -88.476707 -43.711466 43.310308 0.000000 0.000000 0.000000 -2.217535 -4.812678 -2.290654 72.960740 -11.971095 -14.072079 -13.919320 76.322969 0.597969 0.000000 0.000000 0.000000
-0.009481 0.142949 0.437444 9.955460 23.757262 -79.181661 4.263457 -5.008553 -37.823013 2.979500 -17.551783 88.005871 -13.898197 -11.904147 22.499783 0.000000 0.000000 0.000000 -2.804858 0.092854 -30.020040 1.606904 -2.364597 62.605472 -6.788259 -15.025155 9.143416 0.000000 0.000000 0.000000 21.611603 8.354212 -35.860250 -2.935643 0.724658 9.018688 -7.954028 5.983723 44.905487 16.184090 -10.732998 -11.748212 0.000000 0.000000 0.000000 -5.062454 -2.434063 -0.705141 -82.989588 11.992179 -30.771156 -83.358033 -45.263278 42.118069 0.000000 0.000000 0.000000 -6.401399 -5.904466 -3.095741 73.583496 -13.580810 -15.099039 1.937242 76.882365 11.811787 0.000000 0.000000 0.000000
-0.011555 0.149674 0.445949 10.451546 23.489677 -79.146054 4.648940 -4.370393 -35.959375 4.727317 -18.851264 85.557479 -14.335711 -11.869661 23.459573 0.000000 0.000000 0.000000 -2.811657 0.151381 -27.399347 1.241924 -1.826834 60.322601 -5.963127 -12.952224 2.756518 0.000000 0.000000 0.000000 22.025474 8.629110 -36.000896 -2.372029 0.573374 7.405124 -8.587600 5.227851 44.910472 15.713171 -9.356442 -14.556125 0.000000 0.000000 0.000000 -2.991290 -0.079204 -1.127134 -83.193440 13.823078 -32.182540 -79.735817 -44.531860 39.213836 0.000000 0.000000 0.000000 -8.390952 -7.130679 -3.596283 72.029157 -14.956170 -15.560135 19.152392 78.239851 25.483899 0.000000 0.000000 0.000000
-0.014311 0.149077 0.454901 10.184456 23.187113 -79.916670 4.957928 -3.701087 -33.383629 7.643751 -20.869525 80.997319 -14.645991 -14.293970 20.025774 0.000000 0.000000 0.000000 -2.668414 0.223551 -25.650064 1.546766 -1.960206 59.275184 -5.894680 -12.257881 -2.203672 0.000000 0.000000 0.000000 21.524516 8.483659 -35.325479 -1.527335 0.328669 5.064671 -8.131169 4.950664 45.407045 14.863762 -7.906875 -16.811523 0.000000 0.000000 0.000000 1.395857 2.743661 -1.256701 -84.510345 15.452976 -34.753865 -76.850517 -40.613463 34.255269 0.000000 0.000000 0.000000 -10.511237 -8.504896 -4.105650 71.030823 -16.449966 -15.888777 23.389139 76.318722 27.368021 0.000000 0.000000 0.000000
-0.017062 0.148878 0.462501 8.778197 23.908172 -80.522385 4.463072 -3.734425 -31.658800 9.925346 -23.045385 77.673516 -12.754094 -15.069367 14.383155 0.000000 0.000000 0.000000 -3.925332 -0.395344 -23.966710 2.728354 -3.093599 56.737040 -6.373366 -12.890760 -5.445094 0.000000 0.000000 0.000000 19.592976 7.391978 -36.029504 -1.319483 0.297007 3.940553 -6.500981 4.031576 45.796801 13.506059 -6.239920 -18.973410 0.000000 0.000000 0.000000 5.609511 5.198479 -1.244722 -85.256154 16.159996 -36.077862 -74.872043 -38.329891 31.523074 0.000000 0.000000 0.000000 -11.322309 -9.466098 -4.389067 67.623883 -16.382350 -15.129840 25.185744 72.802735 26.561706 0.000000 0.000000 0.000000
-0.018186 0.145999 0.468011 6.900705 24.711074 -81.589284 3.636972 -3.793393 -29.454420 13.680483 -26.461526 74.042045 -12.810631 -18.037418 10.538174 0.000000 0.000000 0.000000 -4.254907 -0.679661 -23.227700 2.880404 -3.727980 55.913685 -5.694145 -11.393473 -5.384576 0.000000 0.000000 0.000000 17.524628 6.116341 -36.523869 -1.134739 0.220355 3.565083 -4.761296 3.963974 45.664366 13.083443 -5.415220 -20.283655 0.000000 0.000000 0.000000 10.292032 6.303278 -0.577290 -86.166975 16.769673 -37.807672 -73.253958 -36.625727 29.266373 0.000000 0.000000 0.000000 -12.704575 -10.189749 -4.672501 66.048367 -15.161894 -13.661917 7.062408 69.793351 12.188243 0.000000 0.000000 0.000000
-0.017631 0.140242 0.471098 4.632164 25.829220 -82.375282 2.803209 -4.217966 -29.184577 14.941426 -28.557911 72.762163 -12.414341 -19.957277 7.443420 0.000000 0.000000 0.000000 -5.263198 -1.339783 -25.223515 3.312579 -4.979413 57.781949 -5.238985 -11.016397 -0.107717 0.000000 0.000000 0.000000 15.894703 4.930992 -36.697834 -1.274605 0.210646 4.050497 -3.792898 3.198649 45.629290 11.466475 -3.950701 -21.306820 0.000000 0.000000 0.000000 12.588257 8.376998 -0.676506 -85.722799 15.582419 -37.003149 -72.397819 -37.215066 29.459053 0.000000 0.000000 0.000000 -12.381191 -10.174611 -4.775926 63.421309 -11.144067 -11.103859 -9.658038 64.394234 1.000650 0.000000 0.000000 0.000000
-0.015818 0.138927 0.472212 2.953870 26.677652 -82.620461 2.973597 -4.290757 -29.214386 14.791796 -30.123777 73.555526 -11.061866 -20.269394 4.180217 0.000000 0.000000 0.000000 -5.754434 -1.832805 -27.062632 2.881658 -5.468433 59.416243 -4.056609 -9.322439 4.134176 0.000000 0.000000 0.000000 14.898409 4.093947 -37.458967 -1.396409 0.123238 5.162609 -2.194480 4.043965 45.477162 10.952516 -3.271296 -21.327469 0.000000 0.000000 0.000000 13.565287 8.143183 -0.281548 -84.973699 12.958279 -35.524909 -72.440729 -40.263436 31.705988 0.000000 0.000000 0.000000 -11.097371 -10.868326 -5.183880 59.975605 -7.510914 -8.670034 -29.086583 61.611144 -9.185921 0.000000 0.000000 0.000000
-0.013068 0.138254 0.472379 1.060498 27.838715 -83.408160 3.402094 -4.256305 -29.187730 12.901307 -30.230625 74.233605 -9.219187 -20.697316 -0.330273 0.000000 0.000000 0.000000 -6.258878 -2.358750 -28.038682 1.544246 -5.457445 60.512241 -2.489532 -7.303466 8.758387 0.000000 0.000000 0.000000 13.495145 3.067506 -37.239955 -0.700785 -0.399364 6.010158 -1.629656 3.634460 44.732268 10.123690 -2.541716 -21.540237 0.000000 0.000000 0.000000 13.202131 8.539471 -0.447165 -84.239538 11.074641 -33.806709 -75.257321 -44.043722 36.411016 0.000000 0.000000 0.000000 -9.491879 -11.027050 -5.285104 57.310934 -3.463471 -6.814135 -42.489926 61.807753 -15.889881 0.000000 0.000000 0.000000
-0.010182 0.139455 0.473071 0.378539 28.310518 -83.307882 5.023777 -3.965825 -30.064422 10.685808 -29.565774 75.889395 -7.616847 -20.062504 -3.384244 0.000000 0.000000 0.000000 -6.212416 -2.603688 -29.655379 -0.672259 -4.420895 63.607059 -0.273064 -3.847848 9.647421 0.000000 0.000000 0.000000 13.534587 2.845720 -37.781167 -0.931151 -0.564353 7.858262 -0.670977 4.479104 44.028645 10.460208 -2.863414 -20.228994 0.000000 0.000000 0.000000 11.421549 7.872719 -0.692885 -81.873527 9.254033 -31.328443 -80.398182 -47.055750 41.600406 0.000000 0.000000 0.000000 -7.736312 -10.011658 -4.937043 54.389278 -1.211527 -5.910087 -49.961994 62.311762 -19.862757 0.000000 0.000000 0.000000
-0.007788 0.141805 0.474581 -0.746742 29.345936 -83.970632 6.215271 -3.720147 -30.269015 9.273406 -28.510699 74.477042 -9.832160 -19.595085 2.420879 0.000000 0.000000 0.000000 -6.913211 -3.169920 -29.806885 -2.188607 -4.044068 65.222326 0.412912 -3.156227 11.332669 0.000000 0.000000 0.000000 12.460409 2.111574 -37.253713 -0.217148 -1.094091 8.325758 -0.303033 4.799503 43.971878 9.119942 -1.657852 -20.501237 0.000000 0.000000 0.000000 12.556363 7.623135 -0.217993 -80.545721 8.958186 -31.043842 -90.683853 -46.196151 47.460623 0.000000 0.000000 0.000000 -5.260357 -10.233846 -4.888857 52.495971 0.521646 -5.360377 -52.375376 62.376246 -20.771202 0.000000 0.000000 0.000000
-0.006319 0.147643 0.477459 -1.574176 30.036859 -84.442007 7.315648 -3.568504 -30.762435 7.683803 -27.917023 75.009540 -11.250494 -20.380794 4.853075 0.000000 0.000000 0.000000 -6.451937 -3.030060 -29.377771 -6.103312 -1.640333 66.219123 2.997479 0.666710 12.464543 0.000000 0.000000 0.000000 11.843068 1.538177 -37.791852 -0.886437 -0.814369 8.671242 1.193025 5.615876 43.014954 8.477184 -0.902986 -20.562308 0.000000 0.000000 0.000000 15.895202 8.007374 0.732077 -78.947964 10.930259 -32.531320 -99.116654 -39.565880 45.022792 0.000000 0.000000 0.000000 -3.344516 -9.820276 -4.585651 52.044484 -0.741839 -5.866151 -43.536633 65.770790 -16.534638 0.000000 0.000000 0.000000
-0.005463 0.152959 0.480373 -2.943539 31.283639 -84.743236 7.544826 -3.931405 -31.688490 6.445673 -26.572045 73.181045 -13.238150 -18.484143 11.326227 0.000000 0.000000 0.000000 -6.464632 -3.220905 -28.852919 -9.113932 -0.229868 65.512561 5.909653 4.473209 14.685536 0.000000 0.000000 0.000000 10.645274 0.404099 -38.526197 -1.426081 -0.615156 8.867804 2.998436 5.622677 42.944709 5.996057 0.898918 -20.364173 0.000000 0.000000 0.000000 18.282394 8.608989 1.261482 -76.417238 14.226270 -34.028802 -107.510087 -34.049000 43.150441 0.000000 0.000000 0.000000 0.662066 -8.836728 -3.665376 48.418601 -0.796225 -6.382226 -38.076426 67.623927 -13.894890 0.000000 0.000000 0.000000
-0.004596 0.161583 0.482296 -3.517144 32.521504 -84.047338 6.526509 -4.318586 -31.345429 6.988907 -26.952997 71.368689 -13.799942 -19.888053 11.055092 0.000000 0.000000 0.000000 -6.271566 -3.210152 -28.311162 -11.142386 0.432816 64.297499 6.984231 5.607533 16.295756 0.000000 0.000000 0.000000 11.013763 0.004049 -39.347042 -2.360006 -0.212951 9.184170 4.251818 6.710993 42.024572 4.087754 2.416268 -19.869222 0.000000 0.000000 0.000000 21.186919 9.538535 2.143243 -74.887043 19.502110 -37.650351 -111.120529 -25.970260 32.431296 0.000000 0.000000 0.000000 6.059460 -8.445450 -2.535469 46.697667 -1.284010 -7.113381 -24.241141 70.737854 -5.043065 0.000000 0.000000 0.000000
-0.003646 0.169646 0.483672 -3.891708 33.683753 -83.619448 5.421614 -4.578379 -30.608850 7.728211 -26.997002 68.870851 -15.387321 -20.999957 13.143289 0.000000 0.000000 0.000000 -6.221099 -3.281020 -27.982377 -14.537112 2.183400 63.453115 9.813306 9.087729 17.912030 0.000000 0.000000 0.000000 11.482285 -0.356500 -40.291597 -3.597279 0.483394 8.638884 6.177334 7.711622 43.044812 3.214451 3.366911 -19.679888 0.000000 0.000000 0.000000 22.935007 10.251354 2.701140 -73.684330 22.698021 -40.145507 -112.265160 -19.781127 22.006336 0.000000 0.000000 0.000000 10.074553 -8.181459 -1.341348 48.578014 -0.121899 -7.577762 -24.218466 71.321428 -3.860075 0.000000 0.000000 0.000000
-0.002340 0.178190 0.484930 -3.800667 34.839014 -82.952021 4.338327 -4.710173 -29.605249 6.832835 -26.377733 68.429712 -13.464637 -20.364780 10.059903 0.000000 0.000000 0.000000 -6.745110 -3.643438 -27.835985 -16.083934 2.859695 62.746129 12.444064 11.678182 20.300343 0.000000 0.000000 0.000000 12.504153 -0.354855 -40.758520 -4.722419 0.984315 8.882198 6.633246 8.857377 42.282211 2.010351 4.149376 -17.887839 0.000000 0.000000 0.000000 23.665356 11.042158 3.051628 -71.828244 28.612087 -43.228097 -113.584489 -14.473190 12.207953 0.000000 0.000000 0.000000 15.768658 -6.982601 1.209498 49.349528 2.823057 -7.683413 -26.814273 67.109820 -4.623837 0.000000 0.000000 0.000000
-0.000726 0.182898 0.487522 -3.528818 35.412013 -82.687796 3.672705 -4.600407 -28.452415 6.982453 -26.281194 67.667451 -12.811918 -20.955805 8.225725 0.000000 0.000000 0.000000 -6.520400 -3.650019 -28.135952 -17.619745 3.786000 62.788125 13.284351 11.902523 22.294841 0.000000 0.000000 0.000000 12.789163 -0.381713 -40.812399 -5.187167 1.148181 9.318632 7.516190 9.385166 41.962030 1.647609 4.587051 -18.658752 0.000000 0.000000 0.000000 24.691795 10.781914 3.557053 -72.955751 32.637116 -47.095623 -113.311759 -10.126067 5.196097 0.000000 0.000000 0.000000 17.440024 -5.296086 2.984596 52.532260 6.106411 -6.841303 -28.319599 60.630632 -4.499798 0.000000 0.000000 0.000000
0.001069 0.184607 0.491449 -3.608412 36.359329 -82.454504 3.388688 -4.822207 -28.668871 4.501582 -25.414737 69.744592 -10.378919 -19.930660 4.357507 0.000000 0.000000 0.000000 -7.521718 -4.252688 -28.007858 -18.368735 4.046176 62.530581 15.681450 14.838467 22.378853 0.000000 0.000000 0.000000 12.939420 -0.775700 -41.561298 -5.741029 1.357980 9.548759 7.767927 10.080284 42.606804 0.912628 5.158912 -18.145452 0.000000 0.000000 0.000000 24.490470 10.994082 3.596896 -75.891532 34.360835 -51.175300 -111.324975 -7.520642 1.711904 0.000000 0.000000 0.000000 19.272051 -4.289394 4.634453 55.158401 9.404166 -5.894718 -29.382127 53.053321 -3.890818 0.000000 0.000000 0.000000
0.002747 0.184851 0.495826 -2.704721 36.344452 -81.744503 4.209890 -4.632699 -28.945246 3.237897 -24.233176 70.337168 -9.428375 -18.621329 3.561929 0.000000 0.000000 0.000000 -7.690114 -4.220956 -27.837189 -17.130865 3.505305 61.103886 16.135294 14.215076 24.685488 0.000000 0.000000 0.000000 13.151388 -0.489449 -41.282523 -5.311671 1.215417 9.225431 7.351365 10.031249 42.115396 1.584749 4.736819 -18.746664 0.000000 0.000000 0.000000 24.043205 10.236698 3.668625 -79.094556 36.142287 -55.008559 -108.819963 -6.602143 1.567222 0.000000 0.000000 0.000000 15.028109 -2.721474 3.915127 60.791991 8.929666 -4.296980 -29.258250 45.172144 -3.497024 0.000000 0.000000 0.000000
0.004104 0.182003 0.499708 -1.694949 36.177644 -81.541867 4.770118 -4.678293 -29.743380 0.481048 -22.477968 73.434879 -7.550393 -16.836036 1.014467 0.000000 0.000000 0.000000 -8.005477 -4.142110 -26.984217 -14.774472 2.478300 58.388737 15.512865 13.233103 24.925916 0.000000 0.000000 0.000000 13.641791 0.002961 -40.585965 -5.062868 1.124056 9.206529 6.832058 9.482687 42.879066 2.398251 4.181372 -18.985438 0.000000 0.000000 0.000000 20.952847 9.905394 2.599083 -82.236891 33.388359 -54.855999 -102.045971 -10.433850 7.231749 0.000000 0.000000 0.000000 13.786330 -0.915509 4.359468 62.857155 9.125732 -3.786440 -30.029107 39.757456 -3.434990 0.000000 0.000000 0.000000
0.005177 0.181266 0.502246 -0.121344 35.899995 -80.644009 5.527081 -4.703018 -30.813583 -1.785318 -20.400174 75.783385 -5.877626 -13.125793 0.613129 0.000000 0.000000 0.000000 -8.113828 -3.909870 -26.059611 -12.531419 1.723612 55.398548 14.616139 12.623350 23.721221 0.000000 0.000000 0.000000 14.478056 0.718850 -39.930000 -4.491613 1.051781 8.017153 5.527744 9.005748 43.510528 3.400690 3.406177 -18.970544 0.000000 0.000000 0.000000 18.440783 10.076403 1.643225 -83.820316 31.746271 -54.204564 -96.522824 -13.271043 10.301539 0.000000 0.000000 0.000000 10.412839 -0.826693 2.999447 65.704720 7.108624 -3.592946 -24.882938 37.875005 -2.461606 0.000000 0.000000 0.000000
0.006030 0.181304 0.504115 0.228620 35.623001 -80.539887 7.068748 -4.567484 -32.078645 -4.954187 -17.411246 77.596160 -4.016581 -8.791495 0.576734 0.000000 0.000000 0.000000 -8.765649 -3.970610 -24.730731 -9.661568 0.537694 51.634063 12.468471 9.585429 24.581887 0.000000 0.000000 0.000000 14.608373 0.881434 -40.057379 -4.045559 0.638023 9.473996 4.928734 8.509131 42.971752 4.572765 2.181639 -17.570291 0.000000 0.000000 0.000000 14.540443 8.043531 0.689401 -84.490832 26.794736 -49.639577 -88.893617 -22.447721 18.716753 0.000000 0.000000 0.000000 9.769080 -0.457880 2.776761 63.823271 4.323243 -5.422523 -22.564615 39.337376 -2.341445 0.000000 0.000000 0.000000
0.006700 0.179513 0.505726 1.572563 35.062564 -79.819841 8.956816 -4.147270 -33.132319 -8.663929 -13.545350 79.935607 -1.122698 -3.566780 -1.539689 0.000000 0.000000 0.000000 -8.944667 -3.783109 -23.857912 -6.899268 -0.262867 47.460587 11.528892 7.096880 28.567650 0.000000 0.000000 0.000000 16.153917 1.926576 -39.263330 -3.700664 0.336255 10.549801 3.322155 8.260842 43.629201 5.883266 0.662850 -15.267918 0.000000 0.000000 0.000000 9.013607 7.321842 -1.118131 -82.659960 21.620897 -42.810757 -80.205248 -31.470894 23.808580 0.000000 0.000000 0.000000 10.093103 -0.820568 2.496209 60.568054 2.599756 -6.776675 -18.854544 40.870743 -1.678656 0.000000 0.000000 0.000000
0.007384 0.180287 0.507720 2.358670 34.641333 -79.116288 10.702706 -3.707946 -33.931995 -10.239884 -11.296346 79.144409 -0.809499 -0.702071 2.100320 0.000000 0.000000 0.000000 -8.198737 -3.413311 -24.065260 -5.386206 -0.658999 44.537530 10.469786 4.042661 34.143219 0.000000 0.000000 0.000000 16.538459 2.336960 -38.932221 -3.597662 -0.014531 12.593467 2.566808 8.554564 42.552375 7.917126 -1.399813 -13.568189 0.000000 0.000000 0.000000 3.929182 5.140617 -2.230294 -80.183585 17.344225 -36.461970 -71.913433 -40.632572 27.112568 0.000000 0.000000 0.000000 8.983918 -1.496973 1.731304 58.266797 -1.319493 -8.351567 -14.447473 44.632498 -0.538999 0.000000 0.000000 0.000000
0.008476 0.177669 0.510500 3.292425 33.909714 -78.847370 12.260457 -3.090669 -34.127312 -11.373921 -9.603500 79.134339 0.314846 1.081013 1.002660 0.000000 0.000000 0.000000 -7.727497 -3.080197 -23.879852 -3.006416 -1.395001 41.985299 8.289221 0.997925 36.940438 0.000000 0.000000 0.000000 17.558242 3.167980 -38.507972 -3.666258 -0.352684 15.189463 0.941463 8.025267 41.845897 8.373558 -2.690434 -11.326862 0.000000 0.000000 0.000000 -2.818306 3.844656 -4.023479 -75.697457 14.355128 -29.833411 -61.009996 -46.212560 25.842359 0.000000 0.000000 0.000000 8.759810 -2.247598 1.087751 55.951757 -3.586864 -9.415573 -6.821423 45.801849 1.975417 0.000000 0.000000 0.000000
0.010455 0.175635 0.514525 4.150693 33.244408 -77.862098 14.259518 -2.350603 -34.260178 -11.818785 -8.506077 77.689819 0.144682 0.726792 1.057452 0.000000 0.000000 0.000000 -6.567401 -2.609412 -24.952342 -1.350243 -1.909354 40.278060 6.172888 -1.844823 39.597503 0.000000 0.000000 0.000000 18.257192 3.803542 -38.042813 -4.304100 -0.558356 18.851581 -0.487464 8.263697 39.975573 9.639556 -5.251542 -7.333567 0.000000 0.000000 0.000000 -10.624685 -0.111291 -4.674227 -69.475830 12.270816 -23.542965 -49.430801 -53.907657 24.460173 0.000000 0.000000 0.000000 11.998601 -1.809476 1.946305 52.030307 -3.805583 -9.784751 -4.079846 46.986599 2.813880 0.000000 0.000000 0.000000
0.013916 0.171830 0.520214 4.514912 32.504998 -77.630442 14.621355 -2.172138 -34.694368 -12.104122 -8.061457 78.958677 1.481911 1.740127 -2.714814 0.000000 0.000000 0.000000 -5.975145 -2.329330 -25.493106 -0.285950 -2.232534 39.551734 4.806081 -3.438383 40.426223 0.000000 0.000000 0.000000 18.544751 4.232161 -37.535416 -4.589304 -1.104860 23.006324 -1.874077 7.316637 37.524034 9.702496 -7.350748 -2.632126 0.000000 0.000000 0.000000 -17.829009 -2.046458 -5.232210 -63.518897 10.631635 -18.560761 -37.125605 -56.920681 19.876965 0.000000 0.000000 0.000000 13.378726 -1.806192 1.895481 50.603438 -5.677305 -10.561704 -1.663229 50.869866 4.097820 0.000000 0.000000 0.000000
0.018581 0.168840 0.527598 5.172726 31.803446 -77.278508 15.716367 -1.571872 -34.198621 -12.628060 -7.101663 78.042804 2.823120 3.709870 -4.874915 0.000000 0.000000 0.000000 -5.426031 -1.986708 -25.430401 1.053933 -2.598929 38.053371 3.436402 -4.934117 41.020171 0.000000 0.000000 0.000000 19.084539 4.848477 -35.941930 -4.171365 -2.030513 26.078323 -4.406035 6.687849 35.287964 9.599590 -9.347205 2.200500 0.000000 0.000000 0.000000 -25.329902 -3.737058 -5.766179 -57.173950 9.624194 -14.560443 -30.502056 -58.615513 17.458743 0.000000 0.000000 0.000000 14.604611 -2.431302 1.500690 50.067823 -7.392243 -11.156242 1.595588 55.324249 6.351784 0.000000 0.000000 0.000000
0.023872 0.166707 0.535997 5.388723 31.847047 -77.138796 15.819321 -1.600510 -34.638537 -14.197518 -5.741843 79.293954 4.186189 5.340089 -8.808152 0.000000 0.000000 0.000000 -6.171004 -2.216066 -24.365135 1.715504 -2.715768 36.218569 1.205388 -6.261974 37.120554 0.000000 0.000000 0.000000 19.075485 4.883030 -35.450800 -4.657462 -2.304109 28.772025 -5.543720 6.355174 34.377318 8.392641 -10.687115 8.289066 0.000000 0.000000 0.000000 -29.604545 -5.500559 -5.248838 -51.832959 7.340075 -11.501887 -24.293344 -60.046421 14.847543 0.000000 0.000000 0.000000 16.180043 -4.031818 0.662046 49.449246 -9.734596 -12.003420 6.175128 63.712318 10.886826 0.000000 0.000000 0.000000
0.028792 0.165373 0.544087 6.374017 31.386147 -76.286076 15.897781 -1.504357 -34.974553 -15.935470 -3.734573 80.821723 5.375913 7.591347 -11.472541 0.000000 0.000000 0.000000 -6.195034 -2.065036 -23.566402 1.817053 -2.394488 34.000055 -0.757630 -7.827165 34.537091 0.000000 0.000000 0.000000 19.685548 5.294108 -35.394200 -5.624797 -2.141847 32.052074 -6.337829 5.716458 32.665402 6.318071 -10.951615 14.759680 0.000000 0.000000 0.000000 -36.544474 -6.734804 -5.163671 -46.780738 5.794113 -9.112967 -22.727963 -62.198315 15.454661 0.000000 0.000000 0.000000 17.846911 -3.943715 0.683579 48.715673 -12.122664 -12.825913 11.865249 71.293963 16.761040 0.000000 0.000000 0.000000
0.033072 0.164690 0.550822 7.254791 31.315473 -74.949041 16.122624 -1.526515 -35.682784 -17.422713 -1.934525 80.906669 5.747525 8.134825 -13.100231 0.000000 0.000000 0.000000 -7.217342 -2.338579 -22.680696 2.326499 -2.297846 31.416864 -3.202379 -9.911198 30.110335 0.000000 0.000000 0.000000 20.836179 5.711465 -35.144393 -7.084884 -1.286929 33.951903 -7.619860 4.687803 32.390180 3.717178 -11.733163 24.483805 0.000000 0.000000 0.000000 -41.043262 -7.721622 -4.355906 -42.747429 2.957384 -7.275640 -22.202119 -65.190643 16.905530 0.000000 0.000000 0.000000 21.868110 -4.554554 0.589151 45.473051 -14.776369 -13.230608 13.200609 78.351423 19.757964 0.000000 0.000000 0.000000
0.036017 0.165587 0.555617 7.629185 31.417217 -73.747079 15.008747 -1.960109 -35.956502 -18.326137 -0.848724 80.630195 5.925162 9.222165 -11.684700 0.000000 0.000000 0.000000 -7.872420 -2.499732 -22.108748 2.762462 -2.194648 28.690317 -4.862430 -11.629436 28.537573 0.000000 0.000000 0.000000 21.042532 5.682895 -34.575464 -8.892433 -0.723214 38.522045 -7.439785 3.565696 28.892400 0.776162 -10.179932 33.311370 0.000000 0.000000 0.000000 -46.867589 -9.729572 -2.004490 -37.957782 -0.748994 -5.235853 -19.410984 -68.239617 16.952729 0.000000 0.000000 0.000000 24.158301 -3.720573 0.720415 42.053124 -19.334615 -13.287448 -9.728757 84.715628 -0.424248 0.000000 0.000000 0.000000
0.037839 0.163902 0.559080 8.603921 30.969360 -72.360574 15.340158 -1.631567 -35.311893 -20.056641 1.067574 78.614124 6.275294 9.190860 -14.156924 0.000000 0.000000 0.000000 -8.249464 -2.502633 -22.143283 1.929101 -1.624371 27.536544 -4.164313 -10.594012 24.923416 0.000000 0.000000 0.000000 22.025206 6.170906 -33.534425 -10.799746 0.398978 42.284418 -7.814594 2.003112 26.588953 -0.567157 -10.680732 42.368278 0.000000 0.000000 0.000000 -52.424167 -11.935942 1.424840 -32.164689 -4.202851 -3.756390 -21.279492 -69.466607 19.548301 0.000000 0.000000 0.000000 26.842863 -3.972469 0.186562 36.635992 -23.717104 -12.327007 -34.417935 86.808347 -25.423651 0.000000 0.000000 0.000000
0.037848 0.163608 0.561908 8.753390 30.693041 -71.185828 15.000023 -1.724462 -35.154463 -19.330230 0.555476 77.460783 5.944940 6.253102 -18.091030 0.000000 0.000000 0.000000 -8.044337 -2.389113 -22.540243 0.983009 -1.204117 27.317134 -4.122677 -10.144454 19.134030 0.000000 0.000000 0.000000 22.733575 6.365712 -33.869352 -13.499972 1.971722 49.858165 -6.565407 0.697334 20.283944 -1.397943 -7.948410 45.875879 0.000000 0.000000 0.000000 -54.466199 -13.396635 5.290698 -30.822256 -8.678599 -2.772992 -15.375620 -71.242051 16.279180 0.000000 0.000000 0.000000 25.742744 -3.248874 -0.583627 34.446170 -29.698781 -12.183605 -71.400817 84.769227 -60.500447 0.000000 0.000000 0.000000
0.036106 0.160592 0.564546 9.123691 30.458718 -69.785684 17.069012 -1.055752 -35.130849 -21.916248 2.632336 73.730815 6.104858 6.676429 -17.329836 0.000000 0.000000 0.000000 -8.299800 -2.514537 -24.047293 0.117197 -0.918608 28.409702 -2.612647 -7.737541 16.130486 0.000000 0.000000 0.000000 22.063369 6.249940 -32.401147 -17.413654 5.205724 59.513509 -1.311358 0.469827 9.881768 -1.200552 -5.964527 46.618024 0.000000 0.000000 0.000000 -56.687813 -13.555186 7.559865 -27.474218 -11.565264 -1.763585 -13.750549 -73.534613 15.640499 0.000000 0.000000 0.000000 26.003921 -4.131840 -2.462856 30.295549 -32.971800 -10.539747 -74.226802 82.853223 -61.800415 0.000000 0.000000 0.000000
0.033369 0.161054 0.566521 7.577059 30.204669 -69.693016 15.684490 -1.645719 -35.829449 -19.198940 0.213978 73.324072 4.617690 1.252249 -17.589428 0.000000 0.000000 0.000000 -9.222340 -3.164898 -26.153073 0.637659 -1.440038 31.659295 1.106662 -2.878022 18.530287 0.000000 0.000000 0.000000 20.384184 5.624454 -33.719149 -19.445363 7.546115 64.538262 3.068246 3.501434 6.814750 -3.024998 -3.063951 50.808805 0.000000 0.000000 0.000000 -52.608091 -14.570408 7.824253 -30.875313 -14.312272 -1.056657 -20.247386 -72.448486 19.873204 0.000000 0.000000 0.000000 24.116021 -5.025665 -3.058792 31.785631 -36.165709 -11.713936 -91.868776 79.820986 -75.796780 0.000000 0.000000 0.000000
0.031214 0.159661 0.567965 6.323242 30.333222 -69.211230 16.336335 -1.793888 -36.817457 -20.152530 0.764234 72.078234 5.795371 3.901895 -19.389738 0.000000 0.000000 0.000000 -9.024990 -3.441882 -28.526266 0.783725 -1.951521 34.939966 4.569406 1.313444 20.578809 0.000000 0.000000 0.000000 18.948567 4.918524 -34.145891 -23.319653 15.462281 80.377259 10.820276 7.355077 -8.823794 -0.381150 -6.188876 52.261098 0.000000 0.000000 0.000000 -49.400366 -16.199271 10.625089 -31.300372 -15.810672 -0.127422 -22.329271 -78.024122 22.694761 0.000000 0.000000 0.000000 22.297817 -4.034319 -4.131558 32.714816 -35.774249 -11.445308 -70.467650 73.137707 -50.453884 0.000000 0.000000 0.000000
0.029919 0.163825 0.568482 4.797085 28.970039 -69.955737 19.298080 -0.753826 -35.727418 -22.739726 2.878731 71.953473 7.872434 7.852888 -26.561857 0.000000 0.000000 0.000000 -10.956889 -4.589992 -30.575348 4.455844 -4.191453 39.499563 7.524535 4.533033 21.607300 0.000000 0.000000 0.000000 14.582540 3.455233 -32.886645 -17.761146 8.515212 96.584698 4.349275 7.457989 -22.840378 0.514385 -3.760164 40.964420 0.000000 0.000000 0.000000 -43.402871 -14.871410 9.308350 -35.960096 -17.100057 0.958148 -51.429694 -78.485326 46.864884 0.000000 0.000000 0.000000 20.141527 -2.665285 -4.443621 38.622493 -35.942893 -13.414246 -73.239336 72.469826 -53.795242 0.000000 0.000000 0.000000
0.029354 0.170713 0.568792 1.916569 30.986188 -69.301097 17.803872 -1.890548 -36.032417 -22.724509 1.497238 68.940901 8.966806 7.221997 -32.371876 0.000000 0.000000 0.000000 -14.284355 -7.470118 -33.379602 6.240512 -6.215257 43.214782 6.380643 1.746138 25.807674 0.000000 0.000000 0.000000 13.134258 2.046841 -32.970754 -19.337572 13.213045 103.677751 9.344036 11.115376 -30.056741 7.774008 -10.849407 37.835698 0.000000 0.000000 0.000000 -44.304945 -18.656985 14.192131 -32.115643 -17.863153 0.947039 -9.921726 -78.895573 11.729755 0.000000 0.000000 0.000000 17.263426 -4.949461 -6.010942 42.709698 -31.488533 -12.999762 -82.203681 66.056510 -58.322485 0.000000 0.000000 0.000000
