HIERARCHY
ROOT Hips
{
	OFFSET -0.001795 -0.223333 0.028219
	CHANNELS 6 Xposition Yposition Zposition Zrotation Yrotation Xrotation
	JOINT LeftUpLeg
	{
		OFFSET 0.069520 -0.091406 -0.006815
		CHANNELS 3 Zrotation Yrotation Xrotation
		JOINT LeftLeg
		{
			OFFSET 0.034277 -0.375199 -0.004496
			CHANNELS 3 Zrotation Yrotation Xrotation
			JOINT LeftFoot
			{
				OFFSET -0.013596 -0.397961 -0.043693
				CHANNELS 3 Zrotation Yrotation Xrotation
				JOINT LeftToe
				{
					OFFSET 0.026358 -0.055791 0.119288
					CHANNELS 3 Zrotation Yrotation Xrotation
					End Site
					{
						OFFSET 0.000000 0.000000 0.000000
					}
				}
			}
		}
	}
	JOINT RightUpLeg
	{
		OFFSET -0.067670 -0.090522 -0.004320
		CHANNELS 3 Zrotation Yrotation Xrotation
		JOINT RightLeg
		{
			OFFSET -0.038290 -0.382569 -0.008850
			CHANNELS 3 Zrotation Yrotation Xrotation
			JOINT RightFoot
			{
				OFFSET 0.015774 -0.398415 -0.042312
				CHANNELS 3 Zrotation Yrotation Xrotation
				JOINT RightToe
				{
					OFFSET -0.025372 -0.048144 0.123348
					CHANNELS 3 Zrotation Yrotation Xrotation
					End Site
					{
						OFFSET 0.000000 0.000000 0.000000
					}
				}
			}
		}
	}
	JOINT Spine
	{
		OFFSET -0.002533 0.108963 -0.026696
		CHANNELS 3 Zrotation Yrotation Xrotation
		JOINT Spine1
		{
			OFFSET 0.005487 0.135180 0.001092
			CHANNELS 3 Zrotation Yrotation Xrotation
			JOINT Spine2
			{
				OFFSET 0.001457 0.052922 0.025425
				CHANNELS 3 Zrotation Yrotation Xrotation
				JOINT Neck
				{
					OFFSET -0.002778 0.213870 -0.042857
					CHANNELS 3 Zrotation Yrotation Xrotation
					JOINT Head
					{
						OFFSET 0.005152 0.064970 0.051349
						CHANNELS 3 Zrotation Yrotation Xrotation
						End Site
						{
							OFFSET 0.000000 0.000000 0.000000
						}
					}
				}
				JOINT LeftShoulder
				{
					OFFSET 0.078845 0.121749 -0.034090
					CHANNELS 3 Zrotation Yrotation Xrotation
					JOINT LeftArm
					{
						OFFSET 0.090977 0.030469 -0.008868
						CHANNELS 3 Zrotation Yrotation Xrotation
						JOINT LeftForeArm
						{
							OFFSET 0.259612 -0.012772 -0.027456
							CHANNELS 3 Zrotation Yrotation Xrotation
							JOINT LeftHand
							{
								OFFSET 0.249234 0.008986 -0.001171
								CHANNELS 3 Zrotation Yrotation Xrotation
								End Site
								{
									OFFSET 0.000000 0.000000 0.000000
								}
							}
						}
					}
				}
				JOINT RightShoulder
				{
					OFFSET -0.081759 0.118833 -0.038615
					CHANNELS 3 Zrotation Yrotation Xrotation
					JOINT RightArm
					{
						OFFSET -0.096012 0.032551 -0.009143
						CHANNELS 3 Zrotation Yrotation Xrotation
						JOINT RightForeArm
						{
							OFFSET -0.253742 -0.013329 -0.021401
							CHANNELS 3 Zrotation Yrotation Xrotation
							JOINT RightHand
							{
								OFFSET -0.255298 0.007772 -0.005559
								CHANNELS 3 Zrotation Yrotation Xrotation
								End Site
								{
									OFFSET 0.000000 0.000000 0.000000
								}
							}
						}
					}
				}
			}
		}
	}
}
MOTION
Frames: 76
Frame Time: 0.050000
0.000000 0.953492 0.000000 -0.449393 -4.203203 0.846459 -0.108207 0.545035 5.572414 -0.261004 0.213366 -5.645287 6.959312 15.677944 16.000480 0.000000 0.000000 0.000000 -1.090238 -0.200745 2.745059 2.246228 -0.305043 -4.706710 -3.972431 -13.164158 13.309076 0.000000 0.000000 0.000000 7.935226 -0.742858 6.167468 -9.033739 2.552253 -26.531321 0.797372 6.541526 26.058207 10.224641 -5.493231 -17.768162 0.000000 0.000000 0.000000 -30.060798 -7.451166 1.594476 -40.543842 5.032278 -7.879245 -4.935333 -29.067285 2.455255 0.000000 0.000000 0.000000 38.781899 -4.071409 -4.283124 45.749682 -3.652438 -8.395495 4.941269 29.484756 2.810965 0.000000 0.000000 0.000000
0.000162 0.952348 -0.000811 -0.506383 -4.598011 1.326814 0.349684 0.499336 5.340592 -1.082137 0.284929 -6.166130 7.156373 15.916604 15.849799 0.000000 0.000000 0.000000 -1.031797 -0.117134 1.757993 2.196683 -0.287874 -4.036692 -3.921114 -13.020633 12.780630 0.000000 0.000000 0.000000 8.570604 -0.745376 5.775541 -9.663004 2.695542 -26.191100 0.461574 6.911830 25.582137 10.878684 -5.811991 -18.228693 0.000000 0.000000 0.000000 -29.353055 -7.135561 1.382941 -42.023039 4.497162 -7.996790 -2.692297 -29.687591 1.949618 0.000000 0.000000 0.000000 39.089538 -4.517553 -4.677585 46.810504 -4.330114 -8.768272 5.153353 30.468861 3.005674 0.000000 0.000000 0.000000
0.000372 0.952053 -0.001879 -0.101157 -4.468358 1.569432 0.666289 0.403203 4.502519 -2.415624 0.358381 -5.361469 7.071002 15.789886 15.668676 0.000000 0.000000 0.000000 -1.288031 -0.099981 1.714864 1.877360 -0.280656 -4.598497 -4.008686 -13.161503 12.777308 0.000000 0.000000 0.000000 8.645938 -0.702207 5.305228 -10.523423 2.852415 -26.908191 0.846702 5.760112 26.983288 10.059683 -5.209537 -19.571079 0.000000 0.000000 0.000000 -29.565629 -7.620158 2.228728 -42.339266 3.344479 -7.944278 -2.297538 -27.896534 1.789441 0.000000 0.000000 0.000000 37.979499 -3.685468 -4.370081 47.703121 -3.859272 -8.720808 4.292407 28.795230 2.563908 0.000000 0.000000 0.000000
0.000515 0.952792 -0.002987 0.137353 -4.759232 1.956079 0.266358 0.386916 4.126691 -2.250748 0.351799 -5.590942 7.170858 15.924640 16.146254 0.000000 0.000000 0.000000 -1.567470 -0.028921 1.050381 1.862244 -0.273759 -4.402060 -3.886868 -13.004649 12.886398 0.000000 0.000000 0.000000 8.973275 -0.686050 4.961131 -10.932398 2.879258 -27.830261 0.684048 5.924888 28.036338 10.649922 -5.583904 -19.981232 0.000000 0.000000 0.000000 -30.393435 -8.192681 2.665325 -42.236006 3.292614 -7.982457 -0.522073 -27.778767 1.365286 0.000000 0.000000 0.000000 39.185266 -3.535887 -4.390222 46.864110 -3.539991 -8.555006 4.287714 28.348211 2.518106 0.000000 0.000000 0.000000
0.000613 0.953687 -0.004072 0.294667 -5.088881 2.034810 0.131545 0.346814 3.642744 -2.388009 0.353908 -5.013462 7.330831 16.135906 16.477840 0.000000 0.000000 0.000000 -1.688906 -0.017363 1.000503 1.718931 -0.270097 -4.695275 -3.679200 -12.735319 13.161904 0.000000 0.000000 0.000000 8.772085 -0.683338 5.026396 -10.070205 2.751757 -26.721123 -0.209038 6.061036 26.724886 10.557988 -5.628129 -19.115674 0.000000 0.000000 0.000000 -30.671984 -8.056808 2.510464 -42.241766 3.080464 -7.785998 -0.601132 -26.724238 1.313495 0.000000 0.000000 0.000000 39.139510 -3.251888 -4.259860 47.010010 -3.165961 -8.305461 3.691864 27.594546 2.276136 0.000000 0.000000 0.000000
0.000684 0.954365 -0.004712 0.321266 -5.242949 1.908251 0.025083 0.356852 3.695132 -2.281142 0.344966 -4.928184 7.382772 16.205313 16.721828 0.000000 0.000000 0.000000 -1.655822 -0.025508 1.086804 1.579528 -0.262636 -4.717504 -3.568164 -12.597402 13.338631 0.000000 0.000000 0.000000 8.837741 -0.724987 5.395740 -10.318021 2.772038 -27.314532 0.038148 5.886896 27.392585 10.397607 -5.585016 -19.139989 0.000000 0.000000 0.000000 -30.617092 -8.458732 2.946455 -42.717258 2.610173 -7.825235 -0.934839 -26.238594 1.381896 0.000000 0.000000 0.000000 38.959532 -2.954455 -4.103784 46.993327 -2.660010 -8.154239 3.610020 26.996081 2.192632 0.000000 0.000000 0.000000
0.000749 0.954697 -0.005009 0.342130 -5.429945 1.561062 0.072592 0.374679 3.883904 -2.438017 0.353404 -4.603333 7.462988 16.309587 16.804024 0.000000 0.000000 0.000000 -1.544610 -0.040554 1.205703 1.303888 -0.238362 -4.325791 -3.491454 -12.471033 13.265983 0.000000 0.000000 0.000000 8.825753 -0.781842 5.985845 -9.955482 2.708762 -27.055519 -0.292192 5.844542 27.082215 10.271871 -5.552785 -18.925260 0.000000 0.000000 0.000000 -31.204567 -8.463975 2.977013 -42.276093 2.714375 -7.756587 -1.452647 -26.109532 1.486751 0.000000 0.000000 0.000000 39.433811 -2.386611 -3.808859 46.215415 -2.435260 -7.898205 3.880178 27.210831 2.243634 0.000000 0.000000 0.000000
0.000812 0.955064 -0.005024 0.239379 -5.236385 1.222405 0.386154 0.372599 3.997960 -2.742746 0.372035 -4.158287 7.352909 16.169906 16.717299 0.000000 0.000000 0.000000 -1.479408 -0.051771 1.282587 1.473363 -0.234043 -3.693095 -3.665534 -12.725865 13.141979 0.000000 0.000000 0.000000 9.093882 -0.919959 7.110622 -10.269870 2.750555 -27.644873 0.088917 5.683625 27.344429 10.096345 -5.395882 -19.246326 0.000000 0.000000 0.000000 -31.496285 -8.750321 3.188849 -42.112666 2.656070 -7.736662 -2.088006 -26.202108 1.635917 0.000000 0.000000 0.000000 40.114428 -2.288234 -3.819350 45.556850 -1.996238 -7.668260 4.194309 27.797680 2.368059 0.000000 0.000000 0.000000
0.000934 0.955393 -0.005053 0.139960 -5.663111 0.850399 0.439052 0.418924 4.471971 -2.736803 0.374816 -4.199058 7.540239 16.412891 16.902396 0.000000 0.000000 0.000000 -1.495076 -0.056754 1.364336 1.614277 -0.225691 -3.013157 -3.413058 -12.232433 12.695689 0.000000 0.000000 0.000000 9.430361 -1.016002 7.854044 -10.098377 2.704180 -27.716144 0.053956 6.030889 27.329668 10.011308 -5.352642 -19.135505 0.000000 0.000000 0.000000 -31.805751 -8.898462 3.241389 -41.782635 2.860199 -7.732350 -2.891229 -26.164998 1.804446 0.000000 0.000000 0.000000 41.124240 -1.943394 -3.626222 44.744936 -1.689693 -7.461825 4.513506 28.585053 2.513476 0.000000 0.000000 0.000000
0.001118 0.955834 -0.005190 -0.057622 -6.056474 0.532703 0.529711 0.466110 4.970521 -2.609012 0.368564 -4.384233 7.712550 16.635143 17.106747 0.000000 0.000000 0.000000 -1.490183 -0.054893 1.347526 1.896212 -0.229961 -2.402122 -3.193790 -11.875455 12.638385 0.000000 0.000000 0.000000 9.736574 -1.150123 8.913168 -10.087862 2.685422 -28.002192 0.173849 6.105980 26.986061 9.881406 -5.107917 -20.027084 0.000000 0.000000 0.000000 -31.986986 -9.308518 3.571534 -41.962251 3.128531 -7.835801 -2.755106 -25.728550 1.739728 0.000000 0.000000 0.000000 41.608343 -1.788742 -3.689864 44.493601 -1.817010 -7.395578 4.789418 29.167294 2.618716 0.000000 0.000000 0.000000
0.001316 0.956337 -0.005443 -0.024902 -6.170560 0.489816 0.254123 0.497700 5.150613 -2.229170 0.341252 -4.649604 7.745209 16.676923 17.352220 0.000000 0.000000 0.000000 -1.610161 -0.030720 1.123354 2.215300 -0.240036 -1.783877 -3.367598 -12.098538 12.223533 0.000000 0.000000 0.000000 10.174113 -1.254866 9.524050 -10.221916 2.678295 -28.660261 0.312458 5.883586 27.482248 9.989048 -5.210809 -20.298390 0.000000 0.000000 0.000000 -32.264371 -9.745781 4.033519 -41.866897 2.880951 -7.819636 -2.866984 -25.365671 1.742492 0.000000 0.000000 0.000000 41.788638 -1.590823 -3.694099 44.637766 -1.406720 -7.285913 5.548243 29.687437 2.860438 0.000000 0.000000 0.000000
0.001496 0.957405 -0.005905 -0.202569 -6.245335 0.156115 0.150103 0.490190 5.023773 -1.728251 0.281937 -3.805584 7.840860 16.810644 17.506206 0.000000 0.000000 0.000000 -1.744466 -0.017250 1.022797 2.438778 -0.241850 -0.956631 -2.836948 -11.209287 12.423240 0.000000 0.000000 0.000000 10.416104 -1.399702 10.631237 -9.720160 2.586256 -28.387894 0.186665 5.818492 26.861943 9.724014 -5.016981 -20.332818 0.000000 0.000000 0.000000 -32.105529 -10.214636 4.363297 -42.787801 2.977485 -7.994486 -2.110716 -25.133296 1.566511 0.000000 0.000000 0.000000 42.100499 -1.212145 -3.505064 45.104518 -0.995520 -7.148895 5.126738 29.646168 2.740585 0.000000 0.000000 0.000000
0.001617 0.958770 -0.007117 -0.090537 -6.071753 -0.012238 -0.059372 0.462808 4.670947 -1.531966 0.247679 -3.074180 7.742255 16.690171 17.795222 0.000000 0.000000 0.000000 -2.015626 0.007705 0.844241 2.491697 -0.233136 -0.193329 -2.494415 -10.535867 12.273432 0.000000 0.000000 0.000000 10.593859 -1.540120 11.665444 -9.226819 2.484158 -28.408256 -0.040522 5.913285 26.583715 9.888220 -5.105771 -20.249736 0.000000 0.000000 0.000000 -31.803907 -10.978414 4.762487 -43.420479 2.937193 -8.052109 -1.596722 -24.753843 1.420767 0.000000 0.000000 0.000000 42.450333 -0.948044 -3.208444 45.564046 -1.127390 -7.276775 4.505669 29.416055 2.572094 0.000000 0.000000 0.000000
0.001842 0.960541 -0.009519 -0.091560 -6.015649 -0.278857 0.071786 0.375230 3.858347 -1.823038 0.240630 -1.101140 7.624243 16.504733 17.208626 0.000000 0.000000 0.000000 -2.189387 0.027606 0.665070 2.534224 -0.223652 0.527969 -2.032441 -9.750902 12.467976 0.000000 0.000000 0.000000 10.653959 -1.720172 13.149354 -8.641693 2.362475 -28.444348 -0.134304 5.628475 26.365428 9.692265 -4.897563 -20.856234 0.000000 0.000000 0.000000 -32.359122 -10.464554 4.482045 -43.763951 2.495971 -7.984476 -1.537419 -25.456207 1.469719 0.000000 0.000000 0.000000 43.311134 -0.779495 -3.354197 45.465615 -1.291155 -7.244474 3.920242 29.045661 2.367727 0.000000 0.000000 0.000000
0.002629 0.962697 -0.013364 -0.151048 -5.651034 -0.411332 0.708838 0.141067 1.577526 -3.030432 0.364089 3.245100 7.470146 16.263268 15.839156 0.000000 0.000000 0.000000 -2.351952 0.020966 0.811215 2.304063 -0.214427 0.036417 -1.163976 -8.512318 13.700484 0.000000 0.000000 0.000000 10.785653 -1.960074 14.954765 -8.579277 2.346238 -28.682550 0.183533 5.278554 26.144298 9.799025 -5.029079 -20.631657 0.000000 0.000000 0.000000 -32.748503 -11.059218 4.915573 -43.876467 1.717508 -7.733854 -1.812972 -25.814291 1.552467 0.000000 0.000000 0.000000 43.721431 -0.234032 -3.000988 45.644411 -1.414024 -7.279486 2.996535 28.192389 2.057088 0.000000 0.000000 0.000000
0.005124 0.964279 -0.017635 -0.036658 -4.709934 -0.219534 1.756392 -0.113779 -1.404592 -4.736506 0.696194 8.204111 5.937055 13.936855 14.128678 0.000000 0.000000 0.000000 -3.127158 0.111698 -0.107532 2.203329 -0.196526 0.636127 0.061659 -6.703326 15.261247 0.000000 0.000000 0.000000 10.457155 -2.152200 16.646744 -8.546901 2.349207 -28.768159 0.518616 4.132329 26.205485 8.992787 -4.511214 -21.112059 0.000000 0.000000 0.000000 -33.909560 -10.949524 5.097321 -43.548994 0.456056 -7.322348 -3.181076 -27.234302 1.992847 0.000000 0.000000 0.000000 43.516399 0.264674 -2.854599 45.135947 -0.644658 -6.859315 2.424496 26.371709 1.744492 0.000000 0.000000 0.000000
0.010196 0.964851 -0.021239 -0.047656 -5.024096 0.443151 2.738522 -0.291721 -4.192345 -5.987477 1.092498 12.306018 4.094267 10.832478 12.602378 0.000000 0.000000 0.000000 -4.611045 0.266271 -1.753900 2.837437 -0.243569 1.393564 2.427888 -3.186149 16.805201 0.000000 0.000000 0.000000 10.773726 -2.323894 17.609995 -9.001089 2.424099 -29.012503 1.018817 3.716319 26.372422 6.382120 -2.724175 -21.979654 0.000000 0.000000 0.000000 -34.018950 -10.462877 5.076600 -43.782496 0.343281 -7.414368 -6.214374 -29.776560 3.041187 0.000000 0.000000 0.000000 41.966407 0.480630 -2.821054 45.382540 -0.487695 -6.751950 3.505192 25.382898 1.863509 0.000000 0.000000 0.000000
0.018507 0.965490 -0.023342 0.234308 -4.843271 1.994194 5.049088 -0.337611 -6.776069 -7.519987 1.604942 15.290824 -2.177051 -0.244891 10.185654 0.000000 0.000000 0.000000 -6.150662 0.429370 -4.158347 2.906854 -0.225977 2.782586 4.105085 -0.124134 16.664178 0.000000 0.000000 0.000000 10.939918 -2.413319 17.682892 -9.075303 2.424212 -28.798243 0.891938 3.395232 26.310351 4.605015 -1.557308 -22.183670 0.000000 0.000000 0.000000 -35.125179 -10.150650 5.000045 -42.458741 0.529560 -7.256064 -9.499938 -32.944417 4.376511 0.000000 0.000000 0.000000 41.304784 0.812993 -2.590466 45.156695 0.194540 -6.441746 4.250466 24.472509 1.917636 0.000000 0.000000 0.000000
0.030818 0.965186 -0.024686 0.382418 -6.183853 2.534144 8.481066 -0.112044 -7.136780 -8.172164 1.969544 16.917710 -7.499988 -9.366884 10.820109 0.000000 0.000000 0.000000 -7.777608 0.555016 -6.428141 3.094915 -0.184137 5.365619 5.887502 2.985307 16.399346 0.000000 0.000000 0.000000 10.486326 -2.473575 19.165753 -9.339115 2.421599 -29.466564 0.854779 3.890533 26.310654 4.845472 -1.607483 -23.396085 0.000000 0.000000 0.000000 -34.639021 -10.438391 5.387812 -41.863656 0.584246 -7.203427 -10.236868 -33.497985 4.683586 0.000000 0.000000 0.000000 40.098706 0.762212 -2.661918 44.938235 0.829603 -6.143597 5.655896 23.457280 2.073117 0.000000 0.000000 0.000000
0.048487 0.963760 -0.026407 0.180822 -6.716593 3.798620 12.509912 0.185141 -7.685909 -7.927781 1.930443 16.855981 -9.191503 -11.467441 12.357957 0.000000 0.000000 0.000000 -8.502393 0.649925 -8.481151 2.367218 -0.055388 6.153424 4.731479 0.532341 16.941824 0.000000 0.000000 0.000000 9.898149 -2.695257 22.150694 -10.073617 2.438859 -31.537863 0.619882 2.456866 28.058586 3.916585 -1.521441 -21.828069 0.000000 0.000000 0.000000 -35.716493 -9.992535 6.080167 -38.846416 -1.905668 -6.391913 -8.683788 -33.130676 4.192255 0.000000 0.000000 0.000000 40.686178 2.452239 -2.263288 42.148003 2.464048 -5.141382 5.642873 24.292769 2.087880 0.000000 0.000000 0.000000
0.072909 0.961003 -0.030019 0.227796 -8.005824 5.696834 16.684658 0.578371 -7.992476 -7.848417 1.806589 14.266332 -3.200142 0.171760 17.419948 0.000000 0.000000 0.000000 -10.845478 0.744840 -11.507818 3.140891 -0.127097 6.980513 3.502058 -2.219698 17.796583 0.000000 0.000000 0.000000 8.336398 -2.564631 24.727138 -9.466847 2.377792 -28.996953 -1.213012 2.676480 25.806097 6.795684 -3.428284 -21.622950 0.000000 0.000000 0.000000 -33.653307 -10.770077 6.651439 -37.498196 -3.940118 -5.493448 -5.794128 -31.719913 3.134437 0.000000 0.000000 0.000000 41.453455 4.366796 -1.126803 39.471487 5.416818 -3.684607 3.632175 23.397834 1.567950 0.000000 0.000000 0.000000
0.105727 0.953680 -0.036302 0.093331 -8.494533 8.490161 19.669203 1.026473 -10.294113 -7.033855 1.523662 12.780002 7.604331 16.184769 23.937689 0.000000 0.000000 0.000000 -13.833562 0.742505 -15.741325 3.893048 -0.207908 8.037343 1.771003 -6.049214 20.134846 0.000000 0.000000 0.000000 5.734839 -2.163126 28.480266 -10.410425 2.580160 -27.571945 0.049022 1.097498 23.222696 2.922545 -1.053994 -21.741477 0.000000 0.000000 0.000000 -34.141824 -12.290473 8.436838 -33.297295 -6.301773 -4.307975 -3.540732 -30.938736 2.347059 0.000000 0.000000 0.000000 41.282933 5.267620 -1.451468 36.139639 6.960401 -2.506283 2.610812 24.727749 1.388920 0.000000 0.000000 0.000000
0.147169 0.945275 -0.045062 -1.445768 -7.027280 11.588721 22.584535 1.514301 -13.460617 -5.866827 1.098300 11.021383 7.683563 16.481096 25.971854 0.000000 0.000000 0.000000 -15.472851 0.589799 -19.668541 4.351027 -0.308445 7.877509 -1.003590 -10.835811 22.865313 0.000000 0.000000 0.000000 5.416409 -2.426347 31.872791 -9.608576 2.399163 -27.061065 -1.172099 -0.731443 22.924743 4.467084 -2.043649 -22.997223 0.000000 0.000000 0.000000 -32.368142 -12.970126 9.231577 -31.262003 -9.629357 -3.479474 -2.663351 -32.487006 2.258322 0.000000 0.000000 0.000000 42.488621 7.663158 -0.055155 32.017970 7.637236 -1.950863 1.730476 24.572318 1.177789 0.000000 0.000000 0.000000
0.198030 0.932788 -0.055417 -2.826006 -5.464547 13.614605 25.176887 2.228143 -17.539738 -8.598418 1.843131 13.610802 6.876819 15.618293 24.017650 0.000000 0.000000 0.000000 -17.338460 0.266838 -22.397529 4.243260 -0.313531 8.658273 -2.075498 -12.373790 24.216933 0.000000 0.000000 0.000000 1.792983 -1.561087 37.951926 -6.790295 1.786358 -29.375517 -0.963735 0.824519 23.970902 4.789504 -1.549571 -25.681646 0.000000 0.000000 0.000000 -31.525294 -17.505960 11.317423 -26.387444 -13.983793 -2.171265 0.264595 -33.104329 1.300242 0.000000 0.000000 0.000000 41.285485 7.716985 1.812750 30.852630 9.552101 -1.989375 -0.062088 25.534053 0.925845 0.000000 0.000000 0.000000
0.257186 0.920617 -0.066184 -4.816018 -1.171770 14.161978 26.503106 2.705004 -23.310267 -13.770931 3.493287 19.274402 7.722804 17.097125 18.007720 0.000000 0.000000 0.000000 -19.213644 -0.369204 -21.946424 3.971268 -0.361827 6.728676 -2.635819 -12.910648 28.252102 0.000000 0.000000 0.000000 -0.621061 -1.437737 44.658337 -3.547420 1.305678 -28.804274 0.142652 -0.134859 22.413761 5.494951 -1.613291 -26.545474 0.000000 0.000000 0.000000 -28.390844 -22.343514 13.625538 -24.454036 -17.647572 -1.309512 6.741376 -34.998045 -0.644333 0.000000 0.000000 0.000000 37.751112 8.801939 3.485834 30.924559 9.784515 -1.986663 -1.665493 25.261613 0.592458 0.000000 0.000000 0.000000
0.321063 0.905833 -0.074800 -7.583771 -0.560948 15.369061 26.864484 3.461035 -28.096835 -18.955896 5.902721 24.736725 9.065851 19.013678 8.223721 0.000000 0.000000 0.000000 -21.154969 -0.814209 -24.233091 5.372063 -0.616208 9.087225 -2.823933 -13.385972 30.880518 0.000000 0.000000 0.000000 -4.190642 0.131960 49.889597 -0.919516 0.915558 -31.591221 1.638098 1.988103 25.449052 6.728370 -1.866901 -27.607578 0.000000 0.000000 0.000000 -25.146255 -27.609409 15.716613 -19.059469 -20.952156 -1.061400 13.739251 -38.060434 -3.220285 0.000000 0.000000 0.000000 37.894404 10.017573 6.048877 28.280339 10.049738 -2.357362 -5.155251 27.124847 -0.082459 0.000000 0.000000 0.000000
0.384767 0.889191 -0.080302 -9.668638 0.281807 16.415800 27.236763 4.418836 -34.097645 -24.311572 8.949385 30.226321 10.640706 21.955907 4.166724 0.000000 0.000000 0.000000 -22.489484 -1.416470 -27.778547 7.937090 -1.429676 17.944993 -6.600654 -18.148035 32.080492 0.000000 0.000000 0.000000 -6.570390 1.281008 53.171504 -0.802891 0.913940 -31.390356 2.849726 1.605782 25.368702 6.366616 -1.570293 -28.584061 0.000000 0.000000 0.000000 -19.056907 -32.129067 17.031624 -14.746565 -23.786889 -1.081967 24.627934 -37.300061 -6.892734 0.000000 0.000000 0.000000 37.005537 12.396998 7.950438 26.498101 8.842261 -2.425326 -7.340529 27.054956 -0.603487 0.000000 0.000000 0.000000
0.446368 0.864451 -0.083153 -11.463145 1.562766 15.719988 25.225210 4.288177 -38.759027 -26.916933 11.858722 38.565705 12.243313 25.913045 -4.535846 0.000000 0.000000 0.000000 -21.753653 -2.019154 -33.078761 9.717948 -3.106140 34.996929 -8.323689 -20.161171 30.345524 0.000000 0.000000 0.000000 -8.655171 2.212897 57.415927 0.971059 0.688774 -31.834332 3.678594 2.563174 24.613266 6.921326 -1.398414 -30.555873 0.000000 0.000000 0.000000 -15.007407 -34.125186 16.605018 -10.590127 -26.594375 -1.271601 32.672826 -39.116220 -10.318660 0.000000 0.000000 0.000000 38.021200 12.092952 8.627058 22.631117 6.395782 -2.597039 -8.070786 29.625078 -0.895140 0.000000 0.000000 0.000000
0.505588 0.832771 -0.083038 -12.436350 2.621617 14.794049 23.474044 3.804526 -41.292311 -29.830072 14.510165 43.846159 12.314963 27.355188 -12.473137 0.000000 0.000000 0.000000 -20.255606 -2.493642 -39.362268 11.799806 -6.207913 53.282360 -11.691057 -24.807856 24.911848 0.000000 0.000000 0.000000 -11.164222 3.498909 60.674862 4.575283 0.286499 -33.426710 1.969722 3.528413 24.273271 8.891208 -2.556783 -28.120993 0.000000 0.000000 0.000000 -8.415419 -36.565705 15.579824 -6.907571 -29.767440 -1.692619 38.066243 -34.077302 -10.819954 0.000000 0.000000 0.000000 39.246903 12.086843 9.462439 19.811879 4.896593 -2.574100 -9.509587 28.421747 -1.252801 0.000000 0.000000 0.000000
0.563731 0.793170 -0.080337 -13.216903 3.566062 11.891107 22.839551 3.508720 -42.719415 -36.170704 19.578715 49.369012 13.520266 31.123281 -15.541505 0.000000 0.000000 0.000000 -18.990083 -2.983468 -44.744145 16.265976 -12.373844 68.219610 -14.262174 -29.673516 16.091361 0.000000 0.000000 0.000000 -12.164523 3.869917 65.547191 5.446490 0.276840 -34.849454 2.476228 4.036682 23.878024 9.251364 -2.897757 -26.730503 0.000000 0.000000 0.000000 -6.186136 -40.315100 16.255543 -1.083221 -30.228823 -2.414857 39.217922 -32.970084 -11.055410 0.000000 0.000000 0.000000 38.127909 11.680332 9.262685 19.286146 2.760835 -2.733697 -9.942279 30.182527 -1.495926 0.000000 0.000000 0.000000
0.620742 0.745081 -0.075084 -13.255005 5.704310 8.485779 19.869061 1.987916 -43.461901 -39.512196 23.200848 56.167698 12.571896 30.175976 -21.283996 0.000000 0.000000 0.000000 -17.569312 -4.000433 -51.551893 23.831106 -22.324002 75.919709 -15.987229 -36.263007 1.593012 0.000000 0.000000 0.000000 -11.942626 2.664147 68.871922 5.627160 0.313937 -35.718012 1.669190 1.043546 22.483470 11.618890 -4.522492 -27.951002 0.000000 0.000000 0.000000 -1.177469 -42.104558 15.389321 1.447700 -32.465528 -2.782511 39.253099 -27.896907 -9.224637 0.000000 0.000000 0.000000 38.257765 10.772854 6.831891 19.415715 2.108383 -2.573685 -11.460056 28.321391 -1.747726 0.000000 0.000000 0.000000
0.675731 0.685058 -0.067215 -14.463094 4.767741 3.339890 19.243416 1.914031 -41.911551 -44.093263 28.727760 61.435060 12.244610 29.128804 -21.804809 0.000000 0.000000 0.000000 -15.993135 -4.306736 -61.487458 38.582036 -33.029929 70.729035 -21.677642 -45.753029 3.381458 0.000000 0.000000 0.000000 -13.597164 4.005390 72.221968 8.844283 0.262766 -39.810625 1.936481 1.806704 23.598257 10.643650 -5.202155 -22.739500 0.000000 0.000000 0.000000 -2.954943 -45.010784 16.596096 4.163777 -33.400034 -3.220653 38.486406 -27.950323 -9.244017 0.000000 0.000000 0.000000 41.400733 12.342606 8.514300 17.497509 0.773520 -2.583702 -16.211250 24.190611 -2.445796 0.000000 0.000000 0.000000
0.729768 0.617837 -0.055974 -14.881776 5.996743 -1.695667 18.252551 1.209622 -39.323425 -52.135816 34.340851 62.741221 11.406476 26.163789 -18.442114 0.000000 0.000000 0.000000 -11.812887 -3.478161 -70.222854 46.707530 -37.026043 65.344996 -24.148361 -49.734441 3.449167 0.000000 0.000000 0.000000 -15.451990 4.365385 73.249727 8.351496 -0.073711 -36.069569 5.892075 -1.067873 17.495173 6.623309 -4.460292 -13.121433 0.000000 0.000000 0.000000 -7.609747 -49.905084 20.991342 6.779026 -31.945413 -3.089569 36.557311 -26.187496 -8.022713 0.000000 0.000000 0.000000 42.066701 11.057794 5.077931 15.964083 1.673053 -1.894629 -16.436011 20.351415 -2.036809 0.000000 0.000000 0.000000
0.783545 0.544512 -0.040736 -15.935060 6.312922 -8.350329 19.424101 1.480706 -37.888212 -66.603771 42.125814 58.738081 16.798014 29.611076 15.962430 0.000000 0.000000 0.000000 -8.203424 -1.991683 -77.142339 50.397195 -37.182213 60.956511 -31.753968 -58.079058 8.013736 0.000000 0.000000 0.000000 -14.941024 3.208442 75.103622 14.069002 0.029928 -44.264855 1.562766 -0.030082 22.542976 0.409197 -0.344569 0.493459 0.000000 0.000000 0.000000 -17.998366 -49.065052 24.391282 7.586270 -33.456594 -3.459842 39.457845 -27.796177 -9.759525 0.000000 0.000000 0.000000 46.089928 13.493267 9.109220 12.830244 1.772856 -1.965738 -18.492148 17.851630 -2.067036 0.000000 0.000000 0.000000
0.836158 0.475177 -0.019929 -18.140406 4.892088 -15.133691 24.385801 3.054493 -35.597477 -80.225290 50.168704 55.239522 11.217865 20.873874 34.912010 0.000000 0.000000 0.000000 -6.943301 -0.969383 -79.276913 49.952480 -36.250710 60.244772 -33.132618 -62.732084 3.924749 0.000000 0.000000 0.000000 -15.245081 2.913248 71.991302 42.260298 3.349735 -66.227190 -12.242531 27.448780 55.428234 13.022572 1.956260 -29.490224 0.000000 0.000000 0.000000 -5.169024 -49.729178 15.632914 7.420567 -36.613504 -7.899349 47.064574 -27.849093 -15.242308 0.000000 0.000000 0.000000 57.006950 8.746077 28.070521 -0.424602 18.068966 -4.003147 -27.784412 5.194753 -1.164894 0.000000 0.000000 0.000000
0.884136 0.416187 0.004745 -21.263217 4.239420 -22.432899 39.181915 4.574982 -24.580040 -67.937115 59.587475 79.381348 -4.158270 1.308798 25.866910 0.000000 0.000000 0.000000 -9.575883 -3.677786 -77.181304 51.559399 -39.104367 62.430696 -23.266193 -61.906495 -13.944017 0.000000 0.000000 0.000000 -14.339016 1.214709 69.173294 116.187610 -3.356037 -67.342332 -137.927876 62.742075 -48.396123 11.938926 23.617288 -60.011424 0.000000 0.000000 0.000000 26.596343 -31.803297 18.117555 26.269071 -48.495932 -51.255914 41.951675 -31.250539 -33.245073 0.000000 0.000000 0.000000 43.220136 -1.730616 75.836466 -32.202730 37.166760 -23.177795 -35.749021 -17.924117 2.546352 0.000000 0.000000 0.000000
0.926175 0.364804 0.028644 -22.118449 -2.591514 -29.082110 59.182936 1.929994 -4.090416 -21.865139 37.809964 129.567286 -32.585421 -25.466296 38.223043 0.000000 0.000000 0.000000 -12.099198 -2.298540 -73.242183 55.514816 -39.323138 59.696908 -14.583107 -66.647328 -33.077402 0.000000 0.000000 0.000000 -17.131654 3.414305 62.031262 -168.798396 -69.035486 -71.605112 -119.140246 -15.611392 -86.685458 11.237357 -1.466836 -31.794625 0.000000 0.000000 0.000000 22.981937 -30.259794 23.180742 19.766826 -51.745280 -39.678991 45.112377 -22.269419 -35.050044 0.000000 0.000000 0.000000 28.766099 -0.035184 76.796438 -35.632687 47.920024 -26.965014 -46.888052 -15.956159 4.258351 0.000000 0.000000 0.000000
0.961465 0.328035 0.046139 -22.112669 -4.966396 -32.049620 70.492974 -30.160287 47.125572 -21.988284 22.135399 101.451726 -96.865220 -59.201711 70.830699 0.000000 0.000000 0.000000 -15.246171 -3.527990 -70.031028 61.540857 -44.495682 61.562342 3.604493 -61.106540 -69.443035 0.000000 0.000000 0.000000 -21.617622 5.620119 62.400870 -81.017313 -76.342766 -144.966012 -107.093022 -25.099696 -109.911119 -27.418411 -33.182495 4.344238 0.000000 0.000000 0.000000 9.674628 -39.340611 12.481698 -3.410843 -42.239971 -11.656363 49.875047 -24.170706 -40.125811 0.000000 0.000000 0.000000 22.580370 5.986334 84.797581 -40.865330 46.248498 -26.116388 -54.161708 -19.113795 4.594241 0.000000 0.000000 0.000000
0.991323 0.308525 0.048837 -23.374973 -10.652463 -33.526350 35.858568 -33.842051 107.657600 -31.413779 13.685199 47.445444 23.968470 -19.344630 -91.997410 0.000000 0.000000 0.000000 -22.352651 -5.722275 -68.364616 84.715757 -51.229794 49.351140 9.156878 -54.322727 -88.008675 0.000000 0.000000 0.000000 -35.324220 13.135550 66.763135 -94.489862 -78.608980 -130.802518 -128.639731 -9.200060 -111.576663 -99.103870 -22.053895 38.974333 0.000000 0.000000 0.000000 -3.440433 -51.912771 -8.120372 -12.847886 -16.390260 2.585459 44.458803 -37.233953 -40.755160 0.000000 0.000000 0.000000 20.205744 8.025022 102.979514 -53.993461 30.230227 -23.561803 -49.627127 -24.284794 1.242802 0.000000 0.000000 0.000000
1.019946 0.307170 0.033743 -27.554750 -9.751135 -29.598459 23.984397 -25.637499 123.109264 -19.333019 5.268238 27.112712 13.507559 3.299508 -72.002649 0.000000 0.000000 0.000000 -33.542162 -12.285651 -61.429429 97.052272 -43.140946 31.792305 8.564124 -52.578397 -89.598816 0.000000 0.000000 0.000000 -46.383508 24.389129 73.041051 -66.204631 -75.571821 -156.172916 -138.885413 -4.395478 -127.052110 -154.688702 -20.364375 53.041005 0.000000 0.000000 0.000000 6.536642 -55.221015 -37.853524 -12.022626 2.394853 2.456579 18.935655 -54.345949 -37.243231 0.000000 0.000000 0.000000 7.622385 10.266198 141.757609 -68.066216 1.679452 -11.406405 -32.960815 -55.181494 1.380234 0.000000 0.000000 0.000000
1.051570 0.321196 0.003619 -34.988154 -13.607250 -22.130004 22.813789 -18.784626 123.494459 -19.631343 4.754126 23.247359 9.808637 12.079149 -47.077950 0.000000 0.000000 0.000000 -33.902502 -9.619159 -57.897778 95.610416 -32.224789 22.181034 3.326808 -47.260423 -83.178832 0.000000 0.000000 0.000000 -56.173363 38.039262 76.135345 -63.289653 -80.248140 -163.028831 -157.100712 3.005405 -142.278435 170.899180 -13.847676 42.572464 0.000000 0.000000 0.000000 16.566854 -57.072160 -59.327830 -7.981669 19.571676 2.798998 -16.203012 -61.535886 -21.158521 0.000000 0.000000 0.000000 14.784353 15.539912 162.594359 -60.098466 -11.366841 -8.146821 -26.464120 -66.793889 -9.485021 0.000000 0.000000 0.000000
1.088068 0.342641 -0.034960 -41.570725 -8.276218 -9.159708 30.301787 -29.021244 113.673626 -27.314410 8.490228 24.392628 11.039240 9.966948 -63.829332 0.000000 0.000000 0.000000 -34.947243 -8.410942 -47.409581 93.876346 -26.021126 13.541877 -0.580306 -37.254616 -87.856363 0.000000 0.000000 0.000000 -57.888601 44.984184 79.119653 169.927044 -68.043190 -45.686259 178.891833 25.179705 -145.917136 -98.309662 34.431924 36.696957 0.000000 0.000000 0.000000 0.852150 -55.470896 -41.222739 -4.764015 14.583724 5.034498 -0.475628 -82.322956 -26.570360 0.000000 0.000000 0.000000 54.330786 7.122471 88.525572 -46.429895 16.438806 -14.273944 -71.019383 9.034724 -39.176555 0.000000 0.000000 0.000000
1.128829 0.358897 -0.077611 -42.152895 7.699034 24.977592 43.182672 -33.372955 75.779804 -43.387148 22.407131 30.586515 13.049701 6.822546 -81.208453 0.000000 0.000000 0.000000 -42.952507 -14.583503 -52.033823 57.217794 -49.361411 70.295448 -6.007315 -23.798340 -88.807284 0.000000 0.000000 0.000000 -37.293598 33.365893 92.015625 143.346452 7.865889 -43.713552 113.892762 62.059074 157.711558 -49.432126 31.479550 73.090781 0.000000 0.000000 0.000000 -8.028077 -38.387642 -3.355361 -18.376854 -12.589713 5.321677 112.726511 -63.618923 -123.739569 0.000000 0.000000 0.000000 60.118938 9.189171 58.068983 -44.520376 25.837445 -13.279628 -83.101394 36.096880 -58.043975 0.000000 0.000000 0.000000
1.172139 0.370023 -0.126113 -26.939835 15.001348 52.075282 65.391959 -31.994422 32.530150 -33.441187 41.225913 69.139668 17.913015 3.180580 -90.351666 0.000000 0.000000 0.000000 -58.167227 -22.220349 -47.775420 -23.768680 23.302953 102.296332 -20.074368 6.715632 -85.354118 0.000000 0.000000 0.000000 -25.497437 17.278388 83.721214 101.524308 40.289721 -67.441367 37.304469 64.918792 97.172240 -28.214184 16.703960 93.199046 0.000000 0.000000 0.000000 -9.775077 -24.081941 -1.908586 -25.214012 -35.884382 3.137149 146.764749 -68.805226 -162.692797 0.000000 0.000000 0.000000 56.710744 9.974313 41.416536 -56.314664 26.356244 -13.253673 -93.245071 29.073772 -54.497610 0.000000 0.000000 0.000000
1.215218 0.374339 -0.181787 -12.470317 13.192204 65.895034 78.900098 -19.854519 2.622118 -0.208921 26.588548 115.237036 28.156498 -4.123493 -97.276497 0.000000 0.000000 0.000000 -74.089518 -19.453613 -34.538233 -34.937065 26.391708 92.820065 -26.689014 22.891470 -82.831461 0.000000 0.000000 0.000000 -14.530834 5.496048 73.866794 42.959773 24.263075 -88.158973 3.410640 41.484487 58.818121 -19.018643 -24.376410 81.551836 0.000000 0.000000 0.000000 -16.487126 -22.339822 -0.646394 -31.216508 -38.382633 3.253355 -166.222572 -71.189037 151.760581 0.000000 0.000000 0.000000 49.740951 8.911887 32.281548 -56.827673 28.191192 -15.484465 -99.877204 27.660847 -40.790823 0.000000 0.000000 0.000000
1.255229 0.376068 -0.237865 -8.176013 9.883612 73.024572 78.388362 -10.055892 -9.796391 7.773587 9.895927 128.575917 135.487994 -50.692673 -113.453515 0.000000 0.000000 0.000000 -75.160188 -14.219625 -31.057909 -42.151267 27.418235 84.036291 -27.670030 42.060303 -68.427004 0.000000 0.000000 0.000000 -8.477432 1.453549 59.452741 22.095713 7.599437 -67.531801 -4.876747 28.161102 36.963522 38.224962 -41.809858 7.446610 0.000000 0.000000 0.000000 -8.482958 -21.310330 3.610927 -43.134379 -39.247931 5.869746 -149.352881 -66.689222 135.127731 0.000000 0.000000 0.000000 40.638424 8.089359 25.742652 -45.347977 32.133097 -15.236380 -110.833527 29.585276 -32.875691 0.000000 0.000000 0.000000
1.291167 0.377672 -0.286178 -6.528224 7.915936 72.591254 77.545608 -2.645500 -14.952156 9.019705 3.436581 131.140895 -37.335567 -34.454560 46.188363 0.000000 0.000000 0.000000 -77.152625 -16.775270 -34.563877 -48.015244 31.418818 78.092525 9.524863 69.356794 -9.312982 0.000000 0.000000 0.000000 -5.893708 0.173220 57.356400 9.795806 2.478412 -53.344224 -4.648934 18.084280 27.194620 41.669546 -10.355470 -32.353503 0.000000 0.000000 0.000000 1.316831 -15.445598 4.606424 -55.445996 -42.537707 11.155223 -150.495139 -66.379809 143.653492 0.000000 0.000000 0.000000 25.308453 5.529090 12.523937 -26.944278 43.609989 -14.762660 -111.605909 32.937942 -24.382093 0.000000 0.000000 0.000000
1.323954 0.378007 -0.322320 -6.791182 8.960404 72.264307 70.085071 3.676560 -25.518677 4.176638 15.016279 129.591418 -18.669201 -25.179383 16.077373 0.000000 0.000000 0.000000 -65.549368 -17.467650 -42.966326 -53.363537 37.904199 77.247125 40.231828 59.681335 30.575720 0.000000 0.000000 0.000000 -4.633457 -1.031553 55.493921 9.621554 2.176805 -50.796020 -5.518134 17.592028 24.859501 33.916318 -11.359881 -24.563309 0.000000 0.000000 0.000000 4.543014 -16.284734 5.533129 -52.451395 -42.154975 10.049573 -166.805478 -68.811177 168.149581 0.000000 0.000000 0.000000 17.762151 7.038431 10.898796 -11.871472 40.572981 -8.393662 -105.270045 29.155662 -16.557524 0.000000 0.000000 0.000000
1.357404 0.379702 -0.350570 -8.953142 8.705071 68.868521 57.057958 3.016153 -26.471996 -6.538725 29.124799 111.226748 -0.176461 -7.946497 -9.952601 0.000000 0.000000 0.000000 -57.468188 -14.772409 -45.994845 -38.206284 31.819389 87.770285 0.796807 51.184322 -23.044216 0.000000 0.000000 0.000000 -3.902251 -1.187246 56.260209 8.325763 1.806183 -48.027862 -6.783123 15.471572 22.581064 36.547433 -14.072037 -21.257571 0.000000 0.000000 0.000000 1.125091 -16.451035 5.390216 -40.273836 -41.481234 6.655020 153.516190 -71.411416 -135.153857 0.000000 0.000000 0.000000 20.285054 7.377180 10.620866 -13.593950 39.635474 -9.044023 -95.575425 31.531923 -17.150285 0.000000 0.000000 0.000000
1.393470 0.381280 -0.384500 -11.991068 9.436874 63.692092 48.179169 1.128013 -22.921496 -20.047839 30.905107 83.358653 7.700306 12.468047 -21.240757 0.000000 0.000000 0.000000 -52.463474 -14.325546 -48.467162 -18.846638 15.541441 95.791656 -1.438255 32.385381 -25.225583 0.000000 0.000000 0.000000 -2.502412 -2.252656 57.583528 3.851046 1.224847 -43.804840 -3.594460 13.397347 20.544509 33.265819 -9.830177 -28.506612 0.000000 0.000000 0.000000 -0.417123 -14.062523 4.409857 -34.051798 -48.104111 6.338697 103.855516 -70.881698 -75.411703 0.000000 0.000000 0.000000 17.132864 5.921481 7.671860 -12.194522 43.080347 -8.978046 -82.812256 34.052181 -15.655759 0.000000 0.000000 0.000000
1.431050 0.384757 -0.431039 -13.411918 9.133085 61.623498 41.466591 1.481585 -25.151041 -22.868390 26.992130 72.657705 7.021422 11.978968 -18.925333 0.000000 0.000000 0.000000 -46.688932 -14.870989 -55.403599 -7.208108 2.511492 98.408752 -0.945484 18.904773 -20.538313 0.000000 0.000000 0.000000 -1.422029 -2.721702 55.542404 1.669658 1.114578 -42.832219 -2.713574 11.598056 23.481374 27.071150 -5.743514 -35.144804 0.000000 0.000000 0.000000 2.291249 -18.072488 6.674802 -23.935984 -50.993298 2.496014 84.972155 -55.651293 -43.066696 0.000000 0.000000 0.000000 10.215338 5.508224 5.364411 -8.783770 45.342911 -7.681788 -71.912336 27.115847 -8.850057 0.000000 0.000000 0.000000
1.467796 0.385935 -0.485212 -13.797465 8.904457 59.367911 36.958419 2.727424 -31.335775 -19.403470 25.235127 80.194981 1.031102 3.937916 4.407008 0.000000 0.000000 0.000000 -43.055713 -15.514994 -60.405213 1.358836 -8.584346 99.608138 2.016467 6.715582 -1.699629 0.000000 0.000000 0.000000 -0.348781 -3.414465 54.345156 -0.030824 1.003819 -39.580798 -3.125946 10.005502 24.157930 23.049320 -2.462170 -44.023505 0.000000 0.000000 0.000000 8.254438 -17.597606 6.583208 -19.671812 -54.772787 1.251492 80.173840 -43.007475 -29.145597 0.000000 0.000000 0.000000 -0.262779 6.406813 4.105208 -2.270977 44.625732 -4.722182 -65.908588 19.036371 -3.707822 0.000000 0.000000 0.000000
1.498954 0.385897 -0.536604 -14.183264 10.117704 56.300152 34.323363 3.407046 -36.448983 -15.734338 23.335820 91.620268 -1.307371 2.409268 11.601175 0.000000 0.000000 0.000000 -38.227779 -14.509377 -62.140900 4.132723 -11.966913 103.467370 2.806049 1.570849 9.074928 0.000000 0.000000 0.000000 0.584986 -4.512348 54.930474 -2.088175 1.063328 -37.235291 -3.590148 8.580228 24.503414 21.409815 -1.593890 -47.817857 0.000000 0.000000 0.000000 12.692053 -18.825561 6.753204 -12.247518 -56.493546 -1.666501 77.452428 -33.950909 -21.561089 0.000000 0.000000 0.000000 -8.151621 5.646676 2.629153 1.761420 44.824278 -2.529882 -56.190606 13.757245 -1.542272 0.000000 0.000000 0.000000
1.524021 0.380601 -0.581684 -17.366607 9.099205 53.974298 32.909879 4.258012 -38.404969 -14.776608 24.682601 98.043126 -2.833827 3.711620 21.541841 0.000000 0.000000 0.000000 -34.113049 -10.687091 -60.625864 7.487692 -14.577699 99.417876 1.496826 -3.082680 13.877657 0.000000 0.000000 0.000000 -0.692992 -3.104397 55.655801 -2.766609 1.131385 -40.016405 -2.932837 7.727772 27.266403 18.199831 -1.163938 -47.722810 0.000000 0.000000 0.000000 13.238172 -20.947508 7.231497 -2.979003 -54.952961 -5.783784 73.259997 -29.119213 -16.737981 0.000000 0.000000 0.000000 -12.274381 5.835814 2.240952 4.219157 45.493417 -1.593083 -51.784293 11.191217 -0.850787 0.000000 0.000000 0.000000
1.545000 0.374026 -0.620562 -22.109349 9.911522 52.224108 36.446899 5.591166 -38.894006 -16.273582 27.891798 99.011206 -1.627460 5.445298 21.458578 0.000000 0.000000 0.000000 -33.123241 -8.549203 -56.227578 12.843961 -18.990750 89.999468 -1.487490 -8.372956 13.247861 0.000000 0.000000 0.000000 -2.144181 -1.966853 54.096214 -1.321325 1.050973 -38.868121 -1.641930 7.595175 25.520053 17.560640 -1.623397 -44.496294 0.000000 0.000000 0.000000 15.214597 -20.273005 6.962853 -2.729114 -54.351364 -5.641257 68.541659 -26.770773 -14.382861 0.000000 0.000000 0.000000 -11.848089 9.862310 3.600728 4.883967 44.177736 -1.380483 -51.323054 14.331243 -2.371360 0.000000 0.000000 0.000000
1.564595 0.364938 -0.659806 -27.054360 10.089683 48.617451 37.351592 6.605006 -40.342332 -18.527427 30.294711 97.495543 -3.961724 2.232313 21.618104 0.000000 0.000000 0.000000 -31.512520 -6.637901 -52.961428 16.913280 -21.865926 85.852069 -4.343735 -12.707127 6.459374 0.000000 0.000000 0.000000 -5.455368 0.413384 54.831060 1.353556 0.830374 -36.261527 0.475336 4.849938 20.859056 15.070035 -2.022835 -39.378367 0.000000 0.000000 0.000000 17.436581 -18.601725 6.381851 -1.688829 -51.764472 -4.695731 63.054373 -23.824554 -11.632488 0.000000 0.000000 0.000000 -11.209922 12.795887 4.599051 6.280677 46.874819 -0.875920 -50.029232 14.532167 -2.700247 0.000000 0.000000 0.000000
1.583145 0.352844 -0.701345 -33.751616 8.516784 44.962645 41.792405 8.819285 -38.598909 -20.300642 33.368258 96.178355 -10.196223 -4.612317 25.447250 0.000000 0.000000 0.000000 -30.743656 -4.473132 -49.152934 20.683787 -21.686752 78.548775 -6.535213 -17.063204 -4.972950 0.000000 0.000000 0.000000 -8.308834 2.912285 51.248106 5.153693 0.269952 -32.805530 1.604521 6.884184 20.795011 14.134536 -2.218703 -37.085799 0.000000 0.000000 0.000000 25.055115 -17.918023 5.783925 2.662883 -51.029502 -6.330063 51.886495 -12.857977 -5.545183 0.000000 0.000000 0.000000 -7.984633 11.927481 4.490795 4.627752 51.807752 -1.195301 -47.189326 15.630682 -2.953410 0.000000 0.000000 0.000000
1.600008 0.335382 -0.744774 -40.944074 7.217401 39.365474 44.261995 11.089345 -39.728264 -20.079283 36.544886 102.867085 -7.706163 -0.264179 27.115234 0.000000 0.000000 0.000000 -29.362890 -3.510353 -48.742360 19.189649 -17.738952 74.958215 -6.671868 -17.479189 -12.806972 0.000000 0.000000 0.000000 -9.631666 3.938687 51.038576 5.829647 0.085865 -31.937139 5.012738 9.526234 21.119610 13.581179 -2.618139 -33.183165 0.000000 0.000000 0.000000 27.593867 -18.948774 6.010893 7.410404 -51.260723 -8.847885 46.958589 -9.477358 -4.135926 0.000000 0.000000 0.000000 -5.749343 11.454092 4.474612 13.480317 50.928014 2.759563 -52.376850 21.298840 -5.522812 0.000000 0.000000 0.000000
1.615000 0.313701 -0.787740 -46.557090 4.909020 33.730461 44.745961 14.376266 -44.149991 -19.901798 39.636921 110.891994 -0.043716 11.656145 38.987699 0.000000 0.000000 0.000000 -28.353943 -3.084537 -49.999474 17.819180 -14.961826 74.329352 -6.595276 -17.171672 -14.822751 0.000000 0.000000 0.000000 -11.501147 5.206069 50.161949 8.404323 -0.489749 -30.030552 6.258164 11.939779 21.777359 13.002689 -2.468083 -32.314748 0.000000 0.000000 0.000000 29.641971 -19.027987 6.010368 9.926800 -52.687363 -10.833002 40.079594 -6.268141 -2.699468 0.000000 0.000000 0.000000 -4.360145 11.071445 4.376033 17.511607 48.247314 4.138095 -52.856075 24.905106 -7.201692 0.000000 0.000000 0.000000
1.629640 0.289169 -0.829348 -52.291513 -0.732321 27.749859 45.369760 22.325133 -53.897474 -21.252357 47.733458 122.493489 9.058807 20.157548 49.871496 0.000000 0.000000 0.000000 -25.472068 -1.371070 -53.471697 16.400314 -10.922506 73.070697 -6.946051 -18.551727 -23.314778 0.000000 0.000000 0.000000 -14.796242 8.147934 50.821676 11.329215 -0.864506 -30.840932 8.305285 15.290559 20.690770 13.375038 -3.373163 -27.417913 0.000000 0.000000 0.000000 28.496654 -23.333229 6.805372 2.620024 -51.212464 -8.110392 40.080132 -7.161449 -3.151035 0.000000 0.000000 0.000000 2.310356 12.108476 5.984666 17.286590 44.140047 2.940106 -52.705360 29.464663 -9.175089 0.000000 0.000000 0.000000
1.646054 0.268788 -0.869209 -55.348433 -5.138212 19.095907 33.429245 23.380940 -72.729504 -36.585661 62.248966 114.487874 22.680451 26.419939 73.064597 0.000000 0.000000 0.000000 -25.168094 -1.619874 -55.615649 16.852465 -10.964512 73.920105 -6.103564 -15.073868 -13.328354 0.000000 0.000000 0.000000 -16.954911 9.917344 54.859004 10.797050 -0.807338 -31.852034 10.684536 14.835062 20.404163 11.874210 -3.490303 -23.701366 0.000000 0.000000 0.000000 24.105523 -23.000324 6.717683 -5.247934 -49.422979 -4.411447 38.634506 -15.734866 -5.798543 0.000000 0.000000 0.000000 5.889037 12.228231 6.402774 17.528554 38.852581 1.897297 -45.147073 33.211080 -9.503348 0.000000 0.000000 0.000000
1.664719 0.250845 -0.905631 -59.660141 -11.047142 12.009484 21.578607 19.639822 -85.267521 -63.578786 67.257125 86.546535 33.212917 29.130913 87.938192 0.000000 0.000000 0.000000 -20.714018 0.853937 -60.003670 15.318965 -9.297956 81.557849 -3.556535 -8.899409 -2.839600 0.000000 0.000000 0.000000 -19.112805 11.856087 56.278488 12.881389 -1.261453 -32.233955 12.585161 18.639558 16.655220 13.646410 -6.388033 -15.045057 0.000000 0.000000 0.000000 12.863919 -26.606001 8.125200 -13.588119 -43.627355 -0.994281 34.650840 -25.622406 -8.217323 0.000000 0.000000 0.000000 10.435246 10.809652 6.559147 14.943747 34.693636 0.862158 -32.352526 34.246988 -6.844359 0.000000 0.000000 0.000000
1.684520 0.243108 -0.937558 -60.476397 -16.875201 -1.115615 15.253670 11.972465 -82.366638 -53.075216 57.161382 88.152885 71.055562 48.907234 80.830221 0.000000 0.000000 0.000000 -15.037297 2.764180 -58.345978 10.675753 -3.648246 84.712993 -3.582726 -11.372335 8.316981 0.000000 0.000000 0.000000 -23.121812 14.399576 61.015105 19.819567 -2.550318 -34.100582 13.995921 27.810128 17.077047 10.781817 -10.755187 3.870495 0.000000 0.000000 0.000000 -2.851612 -29.533630 8.438921 -19.679156 -32.586200 1.209775 32.922807 -39.570039 -14.106169 0.000000 0.000000 0.000000 17.166345 6.986741 7.311040 14.219245 29.734461 -0.177469 -27.710692 36.656146 -6.105950 0.000000 0.000000 0.000000
1.702286 0.239646 -0.964891 -59.077068 -22.494139 -10.516596 13.333627 10.299951 -78.894338 -36.866687 44.096134 95.840948 41.082997 57.468285 21.982295 0.000000 0.000000 0.000000 -10.407374 5.287798 -57.498809 5.249018 3.804761 88.890607 -2.279869 -6.133285 0.565492 0.000000 0.000000 0.000000 -28.466895 16.988469 60.803990 31.714961 -5.125743 -37.487095 15.786335 39.672295 18.019499 4.577325 -23.213364 30.418797 0.000000 0.000000 0.000000 -17.586617 -35.293253 6.761273 -22.430354 -13.298679 2.000604 18.967973 -51.949569 -13.271318 0.000000 0.000000 0.000000 23.100036 4.659515 10.216438 11.117918 24.055992 -1.507626 -23.667206 35.688974 -5.038405 0.000000 0.000000 0.000000
1.715548 0.235386 -0.987434 -56.896800 -25.368946 -21.819695 11.611634 6.295057 -71.628699 -27.639181 32.892436 96.775778 27.272217 54.957107 -5.013177 0.000000 0.000000 0.000000 -6.322308 5.612558 -51.015881 0.344035 8.760477 84.733631 -2.701309 -4.329415 -6.173931 0.000000 0.000000 0.000000 -31.541934 15.026609 57.760106 40.400885 -12.066010 -34.068920 13.356837 51.079626 17.682349 -12.467610 -21.275205 53.131137 0.000000 0.000000 0.000000 -24.168040 -33.910525 -2.737297 -22.437780 0.459749 1.722700 -1.790407 -63.304899 -4.779579 0.000000 0.000000 0.000000 30.699676 3.059292 16.630965 7.520958 20.903202 -2.479475 -20.642068 29.868350 -4.034773 0.000000 0.000000 0.000000
1.724145 0.224838 -1.005549 -55.860225 -27.506764 -28.633502 12.187517 5.939568 -69.570241 -22.469872 25.802958 97.435964 20.576909 51.562285 -18.766225 0.000000 0.000000 0.000000 -2.479255 6.225983 -45.386282 -2.373848 11.053377 81.805208 -3.560215 -3.152712 -13.523406 0.000000 0.000000 0.000000 -33.559320 11.490687 49.885924 53.883548 -26.177776 -23.700070 -14.128104 68.066896 -2.701597 -26.179402 -20.258313 60.918659 0.000000 0.000000 0.000000 -17.411107 -32.727841 -12.681241 -27.341903 8.618157 1.436572 -14.675345 -71.053384 -3.227542 0.000000 0.000000 0.000000 34.579942 0.854854 29.241255 4.889470 22.906173 -3.520750 -28.130375 23.699056 -5.202760 0.000000 0.000000 0.000000
1.731811 0.207551 -1.018475 -54.307508 -27.952347 -36.789675 10.886298 3.152865 -68.018699 -21.358080 24.106199 99.761246 18.483675 53.853554 -26.577118 0.000000 0.000000 0.000000 -0.932723 5.118942 -37.800894 -5.370463 12.581555 80.676233 -1.922964 3.103638 -14.158370 0.000000 0.000000 0.000000 -36.575332 8.622799 44.428182 54.837540 -31.675259 -19.750706 -7.519608 72.577193 8.101491 -30.561274 -16.688634 63.368325 0.000000 0.000000 0.000000 -14.954322 -30.674188 -13.360082 -35.072400 6.714654 0.231636 -10.767770 -77.979925 -10.458907 0.000000 0.000000 0.000000 36.468283 -1.019419 30.813223 2.337513 20.753833 -3.731688 -29.945105 21.549498 -5.412046 0.000000 0.000000 0.000000
1.741672 0.189025 -1.027244 -52.246528 -29.553793 -44.057943 10.044723 1.872657 -65.084024 -25.012863 30.943321 104.383108 9.597261 63.428444 -48.899557 0.000000 0.000000 0.000000 0.088403 4.844973 -33.713672 -9.434295 16.859541 83.393900 1.164235 13.378866 -13.633822 0.000000 0.000000 0.000000 -40.207094 5.925000 38.262765 46.742965 -37.004995 0.225467 -35.094239 69.090127 -25.015997 -36.148131 -9.630594 62.597860 0.000000 0.000000 0.000000 -7.146764 -25.009509 -6.108363 -45.338251 -0.597363 -1.904425 53.902177 -82.200485 -75.488496 0.000000 0.000000 0.000000 38.977769 1.411835 37.589788 3.577769 16.432411 -3.130088 -32.939421 18.026539 -5.746827 0.000000 0.000000 0.000000
1.753608 0.171986 -1.033318 -51.195326 -29.563103 -47.735403 5.912908 -1.808645 -66.170012 -30.216155 40.862450 106.763761 -11.885906 67.025667 -85.757125 0.000000 0.000000 0.000000 -1.660754 3.786729 -31.435408 -10.982427 17.895808 82.940737 1.332491 16.478899 -16.000131 0.000000 0.000000 0.000000 -40.433058 2.873702 32.733093 36.650081 -35.294203 12.658439 -26.477521 65.274879 -24.315371 -34.962937 -7.519026 64.021926 0.000000 0.000000 0.000000 -7.633397 -25.202112 -3.710983 -50.324577 -1.490423 -2.549334 93.090009 -82.562003 -113.707418 0.000000 0.000000 0.000000 41.213276 -0.884922 34.635084 2.568581 11.232226 -2.101819 -36.612467 21.720363 -7.787559 0.000000 0.000000 0.000000
1.765361 0.163813 -1.037515 -52.919043 -30.780714 -47.103082 4.468727 -2.778171 -67.181214 -36.013503 45.239638 100.700703 -27.829764 68.376806 -108.341197 0.000000 0.000000 0.000000 -4.068941 2.815545 -30.714225 -8.559158 15.015572 79.425228 0.957526 14.576406 -15.543839 0.000000 0.000000 0.000000 -34.446348 0.917810 27.786091 32.681646 -32.194352 18.276765 -22.446229 54.517343 -25.855129 -30.205819 -8.029553 64.328987 0.000000 0.000000 0.000000 -8.061620 -24.585943 -1.746207 -49.956579 0.202208 -1.947746 128.202078 -79.589134 -147.822493 0.000000 0.000000 0.000000 40.730135 0.430761 28.907126 4.985315 4.519916 -1.181552 -33.167511 26.833271 -7.994618 0.000000 0.000000 0.000000
1.776259 0.153033 -1.038188 -53.781908 -30.773777 -45.506787 -0.504924 -6.621292 -70.120538 -41.924982 51.015248 96.161199 -28.492323 65.930294 -111.694619 0.000000 0.000000 0.000000 -8.334759 1.232915 -29.803343 -8.235781 15.568387 78.173555 -1.643014 10.406474 -20.772669 0.000000 0.000000 0.000000 -34.774372 0.723297 26.179984 30.035370 -30.802182 23.504930 -17.871869 51.669826 -30.888695 -29.826801 -6.037213 65.222160 0.000000 0.000000 0.000000 -11.753088 -25.390247 -2.777241 -45.835728 5.892021 -1.227825 165.897124 -76.919295 170.937564 0.000000 0.000000 0.000000 40.176851 0.311864 26.264719 4.864559 -2.937448 -0.211544 -34.367173 32.475699 -9.899446 0.000000 0.000000 0.000000
1.787074 0.148795 -1.036494 -54.021752 -31.293089 -43.002994 -1.017464 -6.227348 -71.248126 -53.215999 57.025832 86.907897 -76.306379 75.936501 -149.957477 0.000000 0.000000 0.000000 -11.969646 0.161051 -29.165697 -3.165294 11.939848 78.060064 -5.773003 1.017064 -30.903109 0.000000 0.000000 0.000000 -32.549792 0.260601 23.495887 32.967910 -36.254683 29.385431 -29.517305 44.964385 -42.847286 -30.545665 -4.366777 65.287758 0.000000 0.000000 0.000000 -9.691757 -18.207046 -2.593885 -44.864417 3.480431 -0.994719 177.445195 -76.504076 159.541994 0.000000 0.000000 0.000000 41.053758 1.433856 27.068414 5.373908 -4.675129 0.058648 -29.694585 31.647932 -8.272072 0.000000 0.000000 0.000000
1.796931 0.152684 -1.034530 -54.966801 -32.037006 -40.934171 0.981507 -3.516625 -67.214145 -56.063114 59.843924 86.543882 -141.651608 76.272220 158.635662 0.000000 0.000000 0.000000 -12.640791 -0.014384 -26.809622 1.817663 7.222709 73.486059 -7.846004 -6.161408 -37.334421 0.000000 0.000000 0.000000 -30.083974 -0.075266 21.393231 34.934911 -37.734798 28.880425 -31.690520 41.597369 -45.480742 -31.710238 -0.609564 67.407509 0.000000 0.000000 0.000000 -7.767838 -18.662394 -0.771919 -47.077850 3.822420 -1.887901 -177.702292 -74.229207 151.787985 0.000000 0.000000 0.000000 40.865133 0.320979 24.584282 5.249213 -9.463696 0.600022 -27.500329 34.444616 -8.416265 0.000000 0.000000 0.000000
1.806556 0.161713 -1.035147 -51.597588 -31.802265 -42.997736 1.234453 -2.837022 -62.444844 -55.296265 61.286317 89.052591 -97.660182 82.323570 -159.309575 0.000000 0.000000 0.000000 -12.363758 0.109596 -26.880917 2.435477 7.250887 75.926948 -8.539489 -5.032419 -43.669640 0.000000 0.000000 0.000000 -31.563664 -0.926717 18.293234 28.736265 -38.161858 49.717353 -35.451067 33.373809 -58.845602 -26.867141 -7.464588 66.829913 0.000000 0.000000 0.000000 -5.799550 -15.485361 0.978349 -50.850231 3.975276 -2.384967 176.390002 -72.791217 159.316446 0.000000 0.000000 0.000000 34.873967 -0.212055 19.965100 9.806649 -10.571051 -0.160428 -29.105154 48.804720 -10.711612 0.000000 0.000000 0.000000
1.816115 0.176749 -1.038230 -49.928965 -34.821266 -39.454163 4.226763 1.653019 -59.119474 -46.943459 59.814030 96.924862 -9.610247 78.950002 -67.933800 0.000000 0.000000 0.000000 -12.249839 1.085571 -30.470202 8.060907 4.237157 73.772297 -8.505590 -4.688493 -41.101520 0.000000 0.000000 0.000000 -27.409812 -0.730680 15.479114 29.407157 -35.397730 51.859862 -37.249774 26.869444 -61.252124 -26.026492 -8.564722 64.975968 0.000000 0.000000 0.000000 -3.681916 -17.388269 2.407568 -49.820839 9.399638 -4.959069 175.587889 -66.255231 161.363857 0.000000 0.000000 0.000000 28.424334 -3.375369 12.399361 12.940527 -16.573504 -0.239641 -16.170673 57.508768 -3.931004 0.000000 0.000000 0.000000
1.825863 0.194021 -1.043235 -46.704333 -34.250479 -37.934568 3.827676 1.682899 -54.875306 -41.421392 56.203531 98.331015 -8.583454 71.092408 -75.368444 0.000000 0.000000 0.000000 -16.428542 0.211719 -31.561235 12.098463 1.532151 70.451476 -8.442430 -5.866786 -38.209968 0.000000 0.000000 0.000000 -25.515199 0.029424 18.231020 35.098849 -48.321143 57.643163 -54.252144 13.505889 -72.467523 -30.781821 -13.505101 60.967936 0.000000 0.000000 0.000000 4.065423 -8.477828 7.740391 -48.397367 3.129382 -5.542091 -171.848440 -66.409097 140.038304 0.000000 0.000000 0.000000 37.983746 -5.696690 17.688790 5.848627 -15.781251 1.002441 -28.780035 57.902781 -13.756780 0.000000 0.000000 0.000000
