HIERARCHY
ROOT Hips
{
	OFFSET -0.001795 -0.223333 0.028219
	CHANNELS 6 Xposition Yposition Zposition Zrotation Yrotation Xrotation
	JOINT LeftUpLeg
	{
		OFFSET 0.069520 -0.091406 -0.006815
		CHANNELS 3 Zrotation Yrotation Xrotation
		JOINT LeftLeg
		{
			OFFSET 0.034277 -0.375199 -0.004496
			CHANNELS 3 Zrotation Yrotation Xrotation
			JOINT LeftFoot
			{
				OFFSET -0.013596 -0.397961 -0.043693
				CHANNELS 3 Zrotation Yrotation Xrotation
				JOINT LeftToe
				{
					OFFSET 0.026358 -0.055791 0.119288
					CHANNELS 3 Zrotation Yrotation Xrotation
					End Site
					{
						OFFSET 0.000000 0.000000 0.000000
					}
				}
			}
		}
	}
	JOINT RightUpLeg
	{
		OFFSET -0.067670 -0.090522 -0.004320
		CHANNELS 3 Zrotation Yrotation Xrotation
		JOINT RightLeg
		{
			OFFSET -0.038290 -0.382569 -0.008850
			CHANNELS 3 Zrotation Yrotation Xrotation
			JOINT RightFoot
			{
				OFFSET 0.015774 -0.398415 -0.042312
				CHANNELS 3 Zrotation Yrotation Xrotation
				JOINT RightToe
				{
					OFFSET -0.025372 -0.048144 0.123348
					CHANNELS 3 Zrotation Yrotation Xrotation
					End Site
					{
						OFFSET 0.000000 0.000000 0.000000
					}
				}
			}
		}
	}
	JOINT Spine
	{
		OFFSET -0.002533 0.108963 -0.026696
		CHANNELS 3 Zrotation Yrotation Xrotation
		JOINT Spine1
		{
			OFFSET 0.005487 0.135180 0.001092
			CHANNELS 3 Zrotation Yrotation Xrotation
			JOINT Spine2
			{
				OFFSET 0.001457 0.052922 0.025425
				CHANNELS 3 Zrotation Yrotation Xrotation
				JOINT Neck
				{
					OFFSET -0.002778 0.213870 -0.042857
					CHANNELS 3 Zrotation Yrotation Xrotation
					JOINT Head
					{
						OFFSET 0.005152 0.064970 0.051349
						CHANNELS 3 Zrotation Yrotation Xrotation
						End Site
						{
							OFFSET 0.000000 0.000000 0.000000
						}
					}
				}
				JOINT LeftShoulder
				{
					OFFSET 0.078845 0.121749 -0.034090
					CHANNELS 3 Zrotation Yrotation Xrotation
					JOINT LeftArm
					{
						OFFSET 0.090977 0.030469 -0.008868
						CHANNELS 3 Zrotation Yrotation Xrotation
						JOINT LeftForeArm
						{
							OFFSET 0.259612 -0.012772 -0.027456
							CHANNELS 3 Zrotation Yrotation Xrotation
							JOINT LeftHand
							{
								OFFSET 0.249234 0.008986 -0.001171
								CHANNELS 3 Zrotation Yrotation Xrotation
								End Site
								{
									OFFSET 0.000000 0.000000 0.000000
								}
							}
						}
					}
				}
				JOINT RightShoulder
				{
					OFFSET -0.081759 0.118833 -0.038615
					CHANNELS 3 Zrotation Yrotation Xrotation
					JOINT RightArm
					{
						OFFSET -0.096012 0.032551 -0.009143
						CHANNELS 3 Zrotation Yrotation Xrotation
						JOINT RightForeArm
						{
							OFFSET -0.253742 -0.013329 -0.021401
							CHANNELS 3 Zrotation Yrotation Xrotation
							JOINT RightHand
							{
								OFFSET -0.255298 0.007772 -0.005559
								CHANNELS 3 Zrotation Yrotation Xrotation
								End Site
								{
									OFFSET 0.000000 0.000000 0.000000
								}
							}
						}
					}
				}
			}
		}
	}
}
MOTION
Frames: 76
Frame Time: 0.050000
0.000000 1.012536 0.000000 -18.175405 21.311998 157.292962 8.711365 2.537547 -68.935199 -24.058840 17.987476 63.582526 6.733444 13.874881 -95.091669 0.000000 0.000000 0.000000 -14.552414 9.877359 14.810465 8.983487 -2.017048 21.515124 0.699117 0.971240 1.887786 0.000000 0.000000 0.000000 -9.922745 10.165666 9.600500 -0.044752 0.856794 -22.341582 3.018438 2.240243 17.110606 12.213354 -0.437872 -22.462496 0.000000 0.000000 0.000000 52.257089 -3.258987 9.470701 33.890738 -11.982168 -0.328263 21.619364 16.921783 3.290295 0.000000 0.000000 0.000000 -12.904485 25.319436 18.005931 -47.521798 6.442818 -6.133839 -33.024190 -27.412420 12.591593 0.000000 0.000000 0.000000
0.007162 1.030600 0.009788 -20.476171 23.182242 161.823541 25.828590 -1.090497 -66.923021 -59.976286 -7.329674 20.901756 -1.439724 18.657874 -102.830834 0.000000 0.000000 0.000000 -20.656877 15.912219 19.130793 16.592266 -3.471233 10.860966 -10.857750 -11.178352 22.592438 0.000000 0.000000 0.000000 -12.660003 13.788970 3.667468 1.636618 0.934587 -23.673356 2.990282 -3.256098 19.112362 9.978790 0.209653 -19.936559 0.000000 0.000000 0.000000 40.705174 -7.882683 10.443708 42.095530 -1.403500 2.926861 25.880605 8.890344 2.512863 0.000000 0.000000 0.000000 -6.272281 24.533765 18.053701 -59.863323 6.455029 -5.664958 -32.853565 -24.710106 12.679700 0.000000 0.000000 0.000000
0.014495 1.046458 0.015872 -17.058212 16.781539 165.447553 30.510206 -3.298667 -67.672675 -81.219280 -16.253340 6.992336 5.908791 15.562921 -101.439741 0.000000 0.000000 0.000000 -20.529023 10.261123 26.046842 15.160240 -6.644456 20.076779 -12.060306 -25.994781 -16.410539 0.000000 0.000000 0.000000 -10.483391 11.904484 7.409453 4.764130 2.247388 -44.496797 -0.494053 -2.403665 32.650974 -8.366625 1.121685 -25.713949 0.000000 0.000000 0.000000 18.372975 -15.325308 14.565091 60.344498 -5.072185 -2.914112 29.374133 20.286770 5.468888 0.000000 0.000000 0.000000 8.745837 14.475535 13.428468 -78.647198 16.272360 -11.166967 -33.192956 -15.005855 10.994197 0.000000 0.000000 0.000000
0.020141 1.049475 0.020908 -16.116242 13.334201 173.618136 -127.889272 -4.060673 -112.374827 109.960013 -26.597169 3.839176 13.359156 13.255850 -111.822544 0.000000 0.000000 0.000000 -27.987489 -5.145704 26.695619 16.579228 3.192879 41.120511 -61.965051 -31.850396 -3.608873 0.000000 0.000000 0.000000 -14.271148 -13.374714 4.442134 26.648193 6.583110 -53.660012 0.019141 21.742641 45.496406 -145.147460 -2.711913 -28.980936 0.000000 0.000000 0.000000 15.289454 -13.354262 11.580756 61.982367 -5.174763 0.726503 30.670516 20.171215 8.055844 0.000000 0.000000 0.000000 18.722887 18.780526 7.571199 -97.462825 19.952995 -45.136711 -28.602391 2.371394 4.300372 0.000000 0.000000 0.000000
0.022878 1.037549 0.025328 -14.627983 11.309751 -179.265614 172.762030 -23.634647 -95.328754 143.505493 8.172788 -36.249636 10.617167 18.658683 -106.890213 0.000000 0.000000 0.000000 -33.872467 -18.721904 30.919479 8.239226 4.976220 63.074466 -29.264492 -33.170714 -46.095379 0.000000 0.000000 0.000000 -0.815786 -48.455951 -11.424712 71.212233 5.761283 -46.921029 33.786843 66.365983 128.974704 -84.787134 -46.117545 -133.828885 0.000000 0.000000 0.000000 8.370478 2.028870 -19.019599 70.239117 -16.993290 -34.618124 34.729417 2.453943 -2.421915 0.000000 0.000000 0.000000 18.427331 -14.738502 38.904961 -105.076999 -37.739617 34.962122 10.009525 -37.094383 -10.782723 0.000000 0.000000 0.000000
0.023966 1.027876 0.027913 -10.541410 6.375376 -164.600618 90.007060 -1.640536 -69.190071 26.976889 23.803814 -153.122652 8.921878 16.901063 -99.392468 0.000000 0.000000 0.000000 -9.986445 -1.273022 39.699049 29.270677 -25.741044 49.053853 -25.325427 -48.798022 -64.079406 0.000000 0.000000 0.000000 -0.839857 -15.091772 -28.373533 153.646171 -8.830948 -53.047401 -168.897149 26.160526 -46.630798 -77.598708 -35.972563 -146.543610 0.000000 0.000000 0.000000 31.530960 6.583959 13.584900 47.959476 -5.728700 5.021521 20.170472 30.863689 -0.027195 0.000000 0.000000 0.000000 -10.900876 9.190948 -29.228940 -68.961067 36.217631 -21.514703 -33.582838 -14.115392 6.868559 0.000000 0.000000 0.000000
0.024676 1.015141 0.028555 -8.104645 6.318541 -144.079977 63.191104 37.926343 -44.423004 17.498305 13.033326 -166.696992 -16.272807 22.791126 -71.004793 0.000000 0.000000 0.000000 -8.639137 -4.116631 45.707879 43.212381 -42.847251 34.946588 -21.543910 -37.702452 -77.027333 0.000000 0.000000 0.000000 10.343990 -8.289801 -70.245154 -7.523630 -50.959065 146.723436 -60.153389 -40.520008 -102.233338 -29.397335 -33.592300 165.206221 0.000000 0.000000 0.000000 27.592412 5.664428 35.483918 54.598680 0.033356 -10.340213 19.928012 28.321140 -0.186579 0.000000 0.000000 0.000000 -14.653831 -0.430742 31.701121 -76.127903 -5.513031 -13.426735 -19.854817 -30.747227 5.470071 0.000000 0.000000 0.000000
0.025067 1.007363 0.028956 -5.251555 1.881796 -123.971050 51.408692 28.436048 7.321212 -8.012375 -72.595631 -173.666317 48.576685 -63.808513 -39.900483 0.000000 0.000000 0.000000 6.543130 -2.645528 39.648090 52.702918 -49.984735 28.865609 -16.863131 -32.075729 -82.950487 0.000000 0.000000 0.000000 7.845330 1.315008 -94.521039 -2.896048 -18.133463 142.290807 -22.375934 -20.076534 -121.998120 -16.201972 -11.575449 149.855309 0.000000 0.000000 0.000000 21.989582 3.845538 49.763570 64.189414 13.923470 -24.917344 14.832288 27.793627 0.618776 0.000000 0.000000 0.000000 -17.127232 -3.862507 43.439131 -77.605931 -14.599288 -24.734323 -22.166582 -24.239036 4.815992 0.000000 0.000000 0.000000
0.024962 0.997220 0.032379 -5.274145 0.057557 -102.081986 23.209052 11.527253 -9.663351 -164.380656 20.663375 2.500637 -135.095704 43.685471 141.859548 0.000000 0.000000 0.000000 3.909730 0.018864 14.744490 47.144474 -35.846917 45.611936 -10.267751 -33.291718 -81.934233 0.000000 0.000000 0.000000 -2.747195 -3.780588 -116.033590 156.763710 -38.018680 -16.854512 -142.565691 -27.098668 -18.595220 -12.418041 -5.311056 142.671514 0.000000 0.000000 0.000000 14.284775 -1.099989 21.061491 73.084106 -3.611088 -3.823148 15.409020 27.110290 -1.222748 0.000000 0.000000 0.000000 0.978596 14.757306 10.914884 -89.888129 13.268487 -22.151447 -24.266297 -13.679896 1.439100 0.000000 0.000000 0.000000
0.024379 0.967866 0.039157 -4.876898 -5.039121 -88.141940 21.245257 9.051473 -21.974548 -82.265618 67.001593 78.975031 -10.274887 60.699244 -84.577406 0.000000 0.000000 0.000000 3.050204 2.185174 -4.447197 48.278224 -32.388585 53.157705 -7.035370 -35.459957 -80.233167 0.000000 0.000000 0.000000 -10.096850 -11.232193 -127.192587 22.643306 87.373278 -173.700011 130.791463 73.680721 -31.629920 -8.894755 6.207181 141.337030 0.000000 0.000000 0.000000 -14.754713 9.368651 63.556872 93.651689 50.380763 73.498527 -29.683178 27.904804 7.884812 0.000000 0.000000 0.000000 15.737842 3.375885 43.152244 -115.198096 -22.300818 15.586270 -14.497885 -24.033294 0.800936 0.000000 0.000000 0.000000
0.023977 0.915431 0.047785 -4.699185 -7.098190 -76.851132 17.938141 6.377924 -32.960215 -36.694026 45.223068 110.431332 3.457986 43.052957 -71.603769 0.000000 0.000000 0.000000 0.102883 2.432326 -17.230601 42.659066 -24.527437 52.308760 -6.758671 -34.897788 -72.763456 0.000000 0.000000 0.000000 -13.764027 -19.123141 -131.274321 -174.604433 -41.687519 -37.584605 -104.880696 -42.182265 -16.162843 -8.646445 -10.053348 138.213951 0.000000 0.000000 0.000000 -71.782878 -3.822467 -17.286120 102.425911 24.617565 67.817741 -29.190122 33.096588 -7.423139 0.000000 0.000000 0.000000 34.296790 -7.027065 -12.786295 -134.178929 -33.980067 115.781153 31.156685 2.076859 2.495070 0.000000 0.000000 0.000000
0.025072 0.862468 0.060001 -2.917065 -9.094480 -74.463600 14.397163 4.666747 -34.230791 -24.802783 29.681411 108.245232 7.797093 31.416155 -70.478158 0.000000 0.000000 0.000000 -0.639958 2.115872 -17.429309 32.715390 -18.401340 61.092422 -8.902926 -27.177863 -64.031134 0.000000 0.000000 0.000000 -14.179938 -15.282870 -123.779918 -8.628306 -30.163983 159.725889 -6.595141 -1.244055 25.579609 -9.430143 -6.678373 118.636355 0.000000 0.000000 0.000000 -80.103111 -20.437553 7.962953 -0.192769 10.491186 -0.240443 -23.684705 -10.753661 1.589268 0.000000 0.000000 0.000000 61.318442 10.362229 1.736526 15.852205 -10.536390 -5.463438 25.405905 15.906543 2.517574 0.000000 0.000000 0.000000
0.027629 0.802583 0.074683 0.671637 -10.181624 -73.897641 9.903527 2.525213 -36.745132 -15.370552 18.350292 102.517365 10.035497 24.431069 -65.627256 0.000000 0.000000 0.000000 1.924825 2.867149 -16.786364 18.772478 -8.263529 73.932428 -9.547927 -17.934063 -56.009494 0.000000 0.000000 0.000000 -4.039296 13.904809 -79.238167 -7.299411 -26.210358 152.067851 -5.203028 -15.088286 5.002048 -8.020640 -15.009626 117.043648 0.000000 0.000000 0.000000 -62.726387 -25.515564 17.020193 -5.163358 -10.990385 -1.307318 -13.612056 -22.205403 1.890698 0.000000 0.000000 0.000000 50.520210 20.744633 4.256371 25.406945 10.690158 -2.232016 16.378435 23.426876 2.633452 0.000000 0.000000 0.000000
0.030969 0.752793 0.092242 3.995074 -10.115990 -72.192332 6.389433 0.811828 -39.306767 -11.536062 13.857693 90.948358 10.726755 17.909889 -46.878881 0.000000 0.000000 0.000000 2.517190 2.829446 -16.129000 14.570971 -3.259958 83.106905 -8.786331 -14.745980 -46.241509 0.000000 0.000000 0.000000 14.076794 10.943163 -12.802186 -3.462204 -16.932777 143.167645 -4.930650 -14.680569 -77.405159 -1.715105 -20.472419 103.358349 0.000000 0.000000 0.000000 -69.599310 -18.230467 14.984738 -0.866949 2.770828 -0.300888 -18.194334 -22.138979 5.028597 0.000000 0.000000 0.000000 57.654404 11.991550 2.139257 15.766278 -2.217690 -0.589268 21.723684 24.794872 5.875220 0.000000 0.000000 0.000000
0.034393 0.692601 0.112015 7.551163 -11.153263 -73.370302 5.244424 0.677421 -38.397490 -8.983403 11.554428 79.106130 8.340688 12.174425 -21.707443 0.000000 0.000000 0.000000 2.682480 2.241362 -12.786696 15.790899 -2.048621 92.629044 -7.825202 -15.937027 -38.874978 0.000000 0.000000 0.000000 16.086210 5.498578 2.366469 0.850040 -13.216347 129.799053 -9.706523 -18.973132 -103.733981 7.887553 -18.154474 63.875155 0.000000 0.000000 0.000000 -48.248047 -15.360976 1.063977 -18.866193 17.346138 -0.730690 -35.202928 -21.870892 8.988814 0.000000 0.000000 0.000000 32.396368 -1.416726 -5.179069 36.611764 -16.041639 -1.719071 32.227217 25.382197 7.887230 0.000000 0.000000 0.000000
0.036561 0.620715 0.130338 10.065441 -11.528124 -72.841621 5.565270 1.301590 -40.570815 -5.754306 7.985637 71.236886 1.693121 5.395348 7.425006 0.000000 0.000000 0.000000 2.832931 2.311449 -13.303921 18.085301 -4.629857 105.351982 -7.364961 -23.557604 -34.802664 0.000000 0.000000 0.000000 16.379928 3.388301 10.135895 6.854501 13.466793 87.018530 0.664191 -14.394208 -81.451798 11.233972 -12.800278 45.570995 0.000000 0.000000 0.000000 -37.946651 -14.834239 1.496654 -28.213381 23.920504 -1.611530 -47.468384 -31.667496 15.964328 0.000000 0.000000 0.000000 17.466299 -8.552565 -4.206492 42.628123 -20.631971 -4.341927 43.360752 23.576035 10.137260 0.000000 0.000000 0.000000
0.037760 0.533069 0.140258 10.204377 -9.942323 -75.261028 3.286355 -0.288274 -37.417907 -0.665788 2.588097 57.502308 -4.952781 0.617572 23.859679 0.000000 0.000000 0.000000 2.573647 2.562533 -15.515871 21.041751 -12.650390 112.983920 -7.169650 -25.457524 -31.836114 0.000000 0.000000 0.000000 14.999881 2.377346 12.603191 -9.706760 11.671053 15.996706 0.519746 -4.213899 -7.655930 6.068485 -11.236377 50.603113 0.000000 0.000000 0.000000 -45.589557 -14.752176 6.813528 -21.104898 12.109666 -1.286814 -35.567390 -41.371220 14.179430 0.000000 0.000000 0.000000 34.527903 3.042704 -5.285007 33.692452 -11.147649 -1.999608 29.014867 28.615108 6.716339 0.000000 0.000000 0.000000
0.037264 0.461741 0.141448 10.799793 -9.778310 -75.616943 3.791425 -0.036151 -35.204378 2.445860 -0.219517 45.895219 -6.757469 -0.211463 28.675639 0.000000 0.000000 0.000000 4.254136 4.911354 -24.461325 22.978597 -23.323903 121.192027 -7.905609 -31.021254 -27.114594 0.000000 0.000000 0.000000 15.233071 1.950750 15.392266 -7.632316 5.428325 2.434513 -5.599944 0.974477 9.247509 8.519380 -13.252101 34.420401 0.000000 0.000000 0.000000 -38.078723 -17.884863 8.857812 -27.502767 4.672855 -2.650700 -26.845096 -53.106013 13.701882 0.000000 0.000000 0.000000 40.074518 4.485504 -3.625454 30.578343 -2.228099 -1.632516 22.542619 35.400812 6.802824 0.000000 0.000000 0.000000
0.035131 0.404867 0.139870 10.259125 -8.490746 -76.999470 4.977166 0.298291 -32.490910 2.832699 -1.071626 35.951920 -7.941447 -1.373307 29.097364 0.000000 0.000000 0.000000 2.739308 6.436117 -33.303330 30.367008 -41.020553 119.440438 -10.711382 -42.359854 -22.491248 0.000000 0.000000 0.000000 14.631769 1.774870 16.382937 -7.751968 5.869546 2.065866 -4.221273 -2.523113 11.730005 8.599798 -10.814531 28.755026 0.000000 0.000000 0.000000 -36.163630 -14.073437 7.555161 -31.250154 -1.335199 -2.718325 -17.847694 -62.949022 11.648700 0.000000 0.000000 0.000000 38.632238 4.358846 -5.109159 33.096978 -0.335933 -1.542003 20.783862 44.188161 7.810076 0.000000 0.000000 0.000000
0.031558 0.383844 0.141492 10.589370 -8.986645 -77.347843 5.939519 0.875223 -32.900356 3.597792 -1.418834 34.782193 -9.389852 -1.385595 33.490257 0.000000 0.000000 0.000000 0.786534 7.082841 -38.978387 40.154135 -52.763276 112.763820 -19.091139 -52.367921 -5.794267 0.000000 0.000000 0.000000 14.310382 1.782119 15.438117 -3.099276 0.730332 -1.051785 -9.814726 3.203514 16.528883 11.510935 -14.749513 21.091301 0.000000 0.000000 0.000000 -30.869887 -15.021852 7.183739 -34.202601 -5.577924 -2.752434 1.873614 -75.925157 0.408842 0.000000 0.000000 0.000000 38.819407 5.975841 -1.144207 35.209787 4.822262 -1.853033 8.919760 60.007552 5.708587 0.000000 0.000000 0.000000
0.026479 0.381602 0.147909 13.339587 -8.608512 -78.475455 7.409731 1.805807 -32.213115 1.478772 -0.291023 36.372660 -10.731477 -1.421658 37.237537 0.000000 0.000000 0.000000 1.078905 7.080301 -37.688184 60.470001 -62.378130 94.544535 -45.274475 -61.092035 33.872182 0.000000 0.000000 0.000000 14.867428 1.812183 16.141623 -0.959411 -0.724862 -11.024843 -10.805590 8.642125 25.466197 12.556578 -14.151155 7.717317 0.000000 0.000000 0.000000 -24.845746 -18.794696 8.816112 -37.259638 -8.967097 -3.192327 77.710140 -83.351692 -67.675758 0.000000 0.000000 0.000000 26.132379 3.688702 0.540933 48.070651 12.642924 -1.919284 -24.006539 76.059782 -14.118565 0.000000 0.000000 0.000000
0.020091 0.392833 0.155912 14.197762 -8.411920 -78.790653 8.500925 2.411608 -32.170211 0.680226 0.154009 37.915290 -11.110286 -1.110511 39.024579 0.000000 0.000000 0.000000 1.467217 5.243891 -30.129284 78.237439 -64.864273 77.683869 -53.355663 -50.521394 64.850739 0.000000 0.000000 0.000000 16.074059 2.030413 15.748060 -2.878268 0.611037 -15.317581 -8.406410 5.803559 28.946384 10.732965 -11.243973 3.041621 0.000000 0.000000 0.000000 -19.696341 -18.672112 9.197061 -42.899093 -15.222171 -2.104895 113.673827 -73.688905 -90.422490 0.000000 0.000000 0.000000 11.517071 4.434332 1.068057 61.971496 19.026296 1.481667 -114.859682 73.793763 -91.282358 0.000000 0.000000 0.000000
0.012420 0.408215 0.162241 15.263292 -8.049940 -78.295482 8.073679 2.184534 -31.517305 -0.510923 0.988938 38.967424 -7.647340 1.590838 37.767193 0.000000 0.000000 0.000000 0.115916 2.182413 -17.655616 60.395077 -58.247666 93.886615 -41.992363 -49.866517 46.320753 0.000000 0.000000 0.000000 15.709287 1.972614 14.713000 -0.167601 -0.808626 -14.521974 -11.086584 7.261130 27.084732 12.971186 -10.376091 -7.659165 0.000000 0.000000 0.000000 -11.148616 -18.908254 7.975366 -45.893243 -23.182548 1.209062 105.043420 -67.144919 -74.316634 0.000000 0.000000 0.000000 1.094111 4.937526 1.422240 71.523137 31.853445 11.779032 -114.587139 60.407828 -75.181889 0.000000 0.000000 0.000000
0.003504 0.428367 0.166694 16.980858 -9.818077 -76.770846 7.735259 2.335496 -31.585862 -1.374676 2.267664 41.707760 -2.377260 4.544899 30.266566 0.000000 0.000000 0.000000 1.253097 1.405677 -10.338678 53.292298 -53.002097 99.960304 -39.502491 -49.704142 42.324739 0.000000 0.000000 0.000000 15.993504 1.835351 15.407565 1.234932 -1.402324 -18.206411 -11.370455 9.954206 29.219872 12.347528 -9.393788 -10.162196 0.000000 0.000000 0.000000 -9.095305 -23.199450 9.378859 -40.988147 -27.740934 2.312900 94.853358 -57.659052 -55.740277 0.000000 0.000000 0.000000 -4.667365 5.283897 1.342771 76.637207 43.532495 22.817541 -100.069962 52.193034 -51.788194 0.000000 0.000000 0.000000
-0.006465 0.454489 0.170047 16.417582 -12.217565 -73.535830 6.235565 2.037369 -34.743380 -1.771471 3.484402 47.473884 2.882090 8.946557 22.783319 0.000000 0.000000 0.000000 0.905003 0.622370 -3.710168 43.460842 -45.095494 108.156401 -33.573649 -51.099654 28.319517 0.000000 0.000000 0.000000 18.351649 2.177802 15.388577 0.976263 -1.689425 -17.072859 -12.524287 9.356877 25.830244 14.168874 -12.256632 -3.744577 0.000000 0.000000 0.000000 -13.366679 -27.958871 12.458517 -30.694163 -26.406654 1.174597 95.845606 -50.217027 -50.623545 0.000000 0.000000 0.000000 -5.260685 10.210918 2.599808 73.260159 52.863639 29.223914 -88.946932 42.616287 -36.028162 0.000000 0.000000 0.000000
-0.017420 0.485987 0.174928 17.056402 -13.455191 -69.868806 4.437051 1.329350 -35.724939 -7.004324 6.702587 44.507210 7.100703 13.690168 24.465595 0.000000 0.000000 0.000000 1.575465 0.393166 -0.416391 38.716021 -37.607844 109.844443 -32.288555 -52.906876 22.945042 0.000000 0.000000 0.000000 18.856387 2.403061 12.767965 -0.143522 -1.213494 -16.496116 -11.624270 11.822098 25.851571 13.620024 -12.548618 -0.950741 0.000000 0.000000 0.000000 -11.997482 -29.677479 12.647319 -29.100763 -27.753182 1.323915 92.881283 -46.063162 -44.989311 0.000000 0.000000 0.000000 -2.952992 11.772640 3.204469 65.052314 58.257957 29.237498 -83.334249 36.745751 -27.122890 0.000000 0.000000 0.000000
-0.031581 0.532981 0.185165 17.565076 -17.015171 -65.757175 4.318748 1.835104 -36.547664 -9.558521 9.148994 44.791725 9.697736 16.172878 14.119717 0.000000 0.000000 0.000000 -2.034141 -0.012576 4.071090 32.698761 -25.948531 113.435585 -21.742553 -44.964193 12.580771 0.000000 0.000000 0.000000 21.128133 2.579850 13.167873 -3.042536 -0.256083 -17.708885 -10.364141 14.645415 24.955775 13.688363 -14.947904 6.708077 0.000000 0.000000 0.000000 -13.841577 -28.632210 12.191849 -25.497960 -24.656860 0.511311 92.739171 -50.671912 -51.087942 0.000000 0.000000 0.000000 3.027704 15.230485 4.935648 47.935296 61.058737 21.391951 -79.146127 30.585061 -20.519236 0.000000 0.000000 0.000000
-0.048805 0.582669 0.203102 17.450667 -20.393025 -59.428244 5.547701 2.919483 -36.959449 -13.668995 10.996550 40.102053 12.129538 19.118692 12.176268 0.000000 0.000000 0.000000 -2.904018 0.068895 6.188408 30.180705 -16.189291 109.380315 -21.253206 -40.422203 19.976888 0.000000 0.000000 0.000000 21.904817 2.613840 10.868094 -4.279771 0.235184 -17.818613 -9.304147 19.296146 22.538018 11.910547 -16.556463 14.905407 0.000000 0.000000 0.000000 -11.834763 -26.553459 10.227577 -31.216613 -19.499466 -0.092325 106.627816 -55.890886 -69.840181 0.000000 0.000000 0.000000 8.238427 18.114044 7.285181 35.494367 57.791725 13.371638 -84.876151 34.171704 -24.830346 0.000000 0.000000 0.000000
-0.070080 0.630462 0.229092 15.698684 -23.499273 -52.764381 4.075014 2.608257 -38.461996 -10.813935 10.243104 42.601141 9.279846 15.656435 3.670243 0.000000 0.000000 0.000000 -5.937278 0.514794 10.520146 25.382342 -5.323011 103.486087 -19.448816 -37.570023 19.643204 0.000000 0.000000 0.000000 21.775379 2.387658 9.714765 -6.866287 1.118443 -20.499125 -6.197820 25.234095 22.925206 10.822709 -18.937964 20.576516 0.000000 0.000000 0.000000 -10.101474 -22.162233 7.246852 -37.422151 -13.735369 -1.350087 128.179353 -64.284347 -106.068878 0.000000 0.000000 0.000000 14.633591 17.962387 9.674573 25.284214 52.663763 6.603291 -93.570220 36.055457 -29.004077 0.000000 0.000000 0.000000
-0.095720 0.669676 0.261786 13.494020 -25.714366 -47.430570 5.121900 3.016324 -36.800849 -8.794300 8.983661 42.213674 6.197955 11.119159 4.219385 0.000000 0.000000 0.000000 -5.568855 0.875991 15.732561 20.279582 1.786544 93.962711 -16.313676 -33.730633 15.536095 0.000000 0.000000 0.000000 21.608981 2.161702 8.994989 -11.673322 3.612577 -19.331865 -5.565571 28.478206 18.398742 10.262644 -21.064426 23.786164 0.000000 0.000000 0.000000 -9.013712 -18.615867 5.026438 -40.282495 -4.564359 -3.759611 154.416546 -74.987966 -151.001515 0.000000 0.000000 0.000000 12.335739 13.362515 7.622685 34.395469 50.681075 10.237216 -110.385828 44.667908 -47.132081 0.000000 0.000000 0.000000
-0.127145 0.700800 0.298281 10.793126 -28.498562 -38.980534 5.114717 3.170628 -36.644938 -6.210784 7.395530 40.906855 3.744507 6.736870 -2.511294 0.000000 0.000000 0.000000 -4.138589 1.109416 19.222470 14.615898 6.676851 82.235149 -10.854535 -25.755525 2.245860 0.000000 0.000000 0.000000 18.526590 1.410765 7.710559 -14.786492 4.530720 -20.808598 -5.380509 32.962865 15.000547 11.668757 -22.708655 22.210577 0.000000 0.000000 0.000000 -10.296377 -11.212980 0.991841 -41.509251 -0.189237 -4.527960 -169.905738 -76.667929 160.004389 0.000000 0.000000 0.000000 15.890035 11.918002 8.622588 34.766516 45.670029 8.108915 -131.974530 54.229122 -79.787894 0.000000 0.000000 0.000000
-0.163681 0.721663 0.336825 8.038664 -28.527428 -31.049191 3.002976 1.631105 -34.511419 -6.380259 5.251303 31.178539 4.147893 7.936593 5.123043 0.000000 0.000000 0.000000 -0.242200 0.574771 24.460939 6.503187 9.207354 67.640508 -8.094926 -15.776663 -11.372973 0.000000 0.000000 0.000000 10.639852 -0.078957 9.397464 -23.885530 7.739713 -25.488148 2.869518 31.454742 12.582516 9.062982 -22.403801 28.312512 0.000000 0.000000 0.000000 -19.160791 -10.732849 -1.248480 -33.439325 6.434471 -4.370865 -139.114792 -79.853837 127.109605 0.000000 0.000000 0.000000 25.707279 7.987270 8.470277 27.353750 42.683971 3.985764 -161.533745 62.824809 -135.486970 0.000000 0.000000 0.000000
-0.204645 0.740278 0.378054 3.847736 -28.426807 -23.144704 3.437247 1.875221 -35.920772 -5.136230 3.952314 28.696873 3.724143 8.013551 15.939072 0.000000 0.000000 0.000000 4.620778 -0.605560 28.433114 1.832181 8.306156 54.722611 -7.111478 -9.847983 -14.077352 0.000000 0.000000 0.000000 0.599707 -0.429991 13.170300 -24.177385 3.614184 -44.531148 16.343598 33.893249 32.735760 10.092638 -23.301444 24.483026 0.000000 0.000000 0.000000 -30.352290 -9.306822 -4.038184 -21.970354 3.167519 -2.687075 63.901355 -86.627131 -61.742489 0.000000 0.000000 0.000000 28.715519 6.413582 8.973923 19.611938 36.570968 -0.236732 163.948223 69.502267 168.351403 0.000000 0.000000 0.000000
-0.245432 0.748763 0.424769 -0.165776 -27.261004 -17.072255 2.652184 1.334958 -35.930325 -1.764426 1.848294 25.342596 5.447646 10.554214 17.287899 0.000000 0.000000 0.000000 7.759186 -1.713563 29.011955 0.049877 7.300708 47.960896 -1.431270 0.213155 -5.160441 0.000000 0.000000 0.000000 -9.312124 1.215436 17.835438 -37.518959 8.674291 -36.006250 13.144789 25.377248 9.824325 10.573877 -18.794565 22.543428 0.000000 0.000000 0.000000 -35.182263 -7.899988 -4.184850 -14.372225 3.793382 -1.222134 52.639750 -76.024284 -40.673010 0.000000 0.000000 0.000000 27.682368 4.935355 4.883582 31.118303 25.489284 1.355341 94.064864 70.705091 81.325961 0.000000 0.000000 0.000000
-0.281568 0.756888 0.479223 -2.448117 -21.767498 -11.907030 2.573916 0.806341 -39.856543 -1.214539 1.251598 27.456524 3.294837 8.260424 16.634028 0.000000 0.000000 0.000000 6.848179 -2.245742 27.278066 3.748726 4.230265 46.941010 6.130038 10.092420 5.051178 0.000000 0.000000 0.000000 -19.490838 4.346980 22.672354 -24.983455 2.948423 -45.416947 8.892209 29.059221 26.658061 16.490333 -17.472790 2.989561 0.000000 0.000000 0.000000 -41.723739 -7.819712 -7.638648 -5.855247 -3.235775 -0.470065 52.952628 -68.452767 -35.008746 0.000000 0.000000 0.000000 34.220158 7.444205 11.322141 28.214935 23.882009 -1.898872 36.050898 69.272250 31.272816 0.000000 0.000000 0.000000
-0.310930 0.766985 0.537100 -4.408883 -16.199122 -7.202437 0.503369 -0.963007 -40.928788 -0.367461 0.353938 25.997252 5.645691 11.856199 10.731630 0.000000 0.000000 0.000000 6.366828 -2.524958 22.672455 7.363191 2.010946 51.866616 7.795187 8.892337 11.936685 0.000000 0.000000 0.000000 -24.062669 6.964890 28.765859 -28.525983 3.594174 -43.175427 5.775369 23.267099 22.279814 13.987410 -10.833578 -4.285919 0.000000 0.000000 0.000000 -43.235640 -9.723158 -5.463541 -4.754058 -6.545235 -0.408495 55.375332 -64.251417 -33.599319 0.000000 0.000000 0.000000 29.345154 6.807246 8.922653 33.427192 20.280225 -1.674335 26.577059 58.899460 20.188522 0.000000 0.000000 0.000000
-0.337082 0.781589 0.591428 -5.515418 -10.542447 -5.042847 2.607251 -1.118953 -40.548029 -3.843832 1.146162 24.406254 3.988513 9.805926 11.446290 0.000000 0.000000 0.000000 6.085525 -2.454993 18.062897 11.348751 -1.462881 63.424310 3.211775 0.328389 12.773389 0.000000 0.000000 0.000000 -28.301060 9.025861 33.598132 -21.785938 2.571886 -44.074553 0.457863 24.519725 26.741807 14.571284 -7.907637 -12.336788 0.000000 0.000000 0.000000 -42.664703 -12.588718 -4.900924 -3.901455 -9.850850 -0.412912 51.537737 -61.445941 -29.287346 0.000000 0.000000 0.000000 28.374093 11.918090 13.562333 28.534038 23.653205 -1.623286 13.500477 49.317796 9.173899 0.000000 0.000000 0.000000
-0.363287 0.799361 0.641126 -7.251277 -4.316181 -3.491329 2.206185 -2.334919 -40.204952 -3.392818 0.540814 25.855715 4.589961 11.028493 8.681006 0.000000 0.000000 0.000000 6.549162 -2.070838 12.637858 14.248124 -7.346772 74.316426 2.266433 -1.951936 15.117018 0.000000 0.000000 0.000000 -32.111686 10.222381 37.429790 -17.344068 1.930821 -45.534706 -0.041477 24.698867 29.387302 12.372030 -6.440987 -10.471639 0.000000 0.000000 0.000000 -40.782332 -14.098498 -4.535733 -3.725722 -12.456310 -0.443790 46.336487 -58.681695 -24.799742 0.000000 0.000000 0.000000 27.364748 13.224183 14.841431 26.724639 24.814738 -1.626849 10.557688 41.444615 5.871775 0.000000 0.000000 0.000000
-0.390142 0.813573 0.687091 -7.465571 0.003882 -4.409072 3.953936 -2.182893 -36.493912 -4.864175 0.684027 24.424191 1.615225 6.188801 7.968599 0.000000 0.000000 0.000000 5.538511 -1.043951 6.342661 14.780669 -13.109494 87.044698 0.677143 -5.052853 15.996368 0.000000 0.000000 0.000000 -34.801042 10.561002 39.587271 -17.359595 1.724265 -47.466759 1.720366 22.557774 31.100996 10.237208 -6.151367 -6.507313 0.000000 0.000000 0.000000 -39.207711 -15.634611 -2.271458 -2.661163 -11.217357 -0.461286 42.291898 -55.096368 -21.185681 0.000000 0.000000 0.000000 25.737216 15.143994 14.986120 26.156508 28.413373 -0.800948 7.594651 36.584662 3.920185 0.000000 0.000000 0.000000
-0.417798 0.831082 0.729576 -9.143449 1.375433 -6.765192 6.258888 -1.400182 -32.009633 -4.432444 0.401816 23.358673 3.165355 10.131757 12.527669 0.000000 0.000000 0.000000 5.445632 -0.049610 0.138049 15.874823 -17.583098 93.111206 -1.279697 -9.461678 19.852433 0.000000 0.000000 0.000000 -37.878123 10.033217 36.819679 -14.535597 1.509712 -48.334574 3.718059 25.298453 32.702501 9.641581 -7.383873 -1.559825 0.000000 0.000000 0.000000 -35.012920 -16.203810 -2.078035 -3.456131 -10.288865 -0.428399 37.419831 -50.954770 -17.654492 0.000000 0.000000 0.000000 29.475900 17.386677 18.402439 21.102522 30.487656 -1.407599 1.609228 29.778737 1.121611 0.000000 0.000000 0.000000
-0.446024 0.847847 0.767375 -11.947514 2.865742 -10.545657 9.620074 -0.471926 -26.654242 -3.575269 -0.045808 22.978223 5.015044 14.126048 17.825061 0.000000 0.000000 0.000000 5.055947 0.901409 -5.827548 17.412525 -21.494647 92.612625 -2.685411 -11.913706 20.355027 0.000000 0.000000 0.000000 -39.769554 8.946184 34.942467 -10.927329 1.101935 -51.039649 7.757316 26.263679 37.877419 6.444896 -7.507341 6.973694 0.000000 0.000000 0.000000 -33.484917 -18.129941 -0.551332 -1.605520 -6.814351 -0.296612 28.566447 -45.557954 -11.957062 0.000000 0.000000 0.000000 32.310415 19.095535 20.987404 15.344533 33.425356 -2.349586 -2.844038 28.833057 -0.228305 0.000000 0.000000 0.000000
-0.476350 0.862888 0.799731 -15.090175 3.722652 -15.114402 14.088987 0.426979 -22.509440 -2.668909 -0.512627 23.399415 9.023865 20.376885 36.259447 0.000000 0.000000 0.000000 5.431385 1.500775 -9.273833 18.872884 -23.026418 87.011527 -6.177548 -17.316915 21.461352 0.000000 0.000000 0.000000 -42.803328 7.338722 30.868121 -1.330909 0.551034 -42.752091 2.964972 32.357050 32.206797 5.887182 -7.815325 8.513207 0.000000 0.000000 0.000000 -26.584334 -18.501559 -1.704202 -4.580800 -6.267164 -0.270257 25.668670 -39.255149 -9.767416 0.000000 0.000000 0.000000 34.112722 19.909723 24.262292 13.338602 36.212157 -2.547341 -5.943666 25.857003 -1.001304 0.000000 0.000000 0.000000
-0.509498 0.870993 0.825208 -18.900793 5.274591 -18.776410 18.037048 0.910265 -21.298249 -2.170401 -1.056129 25.687828 13.349344 24.497796 39.409108 0.000000 0.000000 0.000000 6.826356 2.042560 -11.507928 20.284190 -22.969838 76.326171 -7.620418 -19.222204 19.339564 0.000000 0.000000 0.000000 -42.042411 5.268833 28.426320 -3.293148 1.219531 -33.283889 1.695783 28.267699 23.096149 -0.245619 -4.311839 15.411598 0.000000 0.000000 0.000000 -22.845634 -19.833682 0.808032 -5.344325 -4.945587 -0.273951 19.384911 -35.464182 -6.550129 0.000000 0.000000 0.000000 33.577470 18.598044 21.975587 16.421247 37.024008 -1.314847 -6.166311 23.580734 -0.833056 0.000000 0.000000 0.000000
-0.546838 0.871121 0.842470 -23.602589 8.020097 -23.087228 20.864846 0.903479 -20.990581 0.059538 -2.600077 29.057058 8.687614 20.728477 27.284314 0.000000 0.000000 0.000000 11.566653 2.750260 -12.039944 21.599029 -22.916317 64.255742 -10.216958 -22.817200 18.735845 0.000000 0.000000 0.000000 -41.967859 3.800903 28.426012 6.005933 -0.816896 -33.397354 -2.757296 30.076294 28.198299 -1.233481 0.713820 8.367915 0.000000 0.000000 0.000000 -16.734555 -19.051128 1.114476 -7.723417 -8.192750 -0.377639 20.397904 -30.558739 -6.706887 0.000000 0.000000 0.000000 29.658124 20.143992 22.362660 19.937198 35.696845 -0.706506 -9.699620 23.348597 -1.571482 0.000000 0.000000 0.000000
-0.584530 0.863937 0.852372 -27.085077 11.496895 -25.089438 20.436871 0.419079 -24.721036 0.786401 -4.093631 33.578261 7.276635 18.117823 14.892022 0.000000 0.000000 0.000000 17.875374 3.555696 -12.908671 20.354689 -20.780539 54.806846 -11.964776 -25.949762 12.521639 0.000000 0.000000 0.000000 -43.986697 2.859433 28.665896 8.621282 -1.730085 -26.703587 -3.719426 29.375418 25.722957 0.622596 3.571550 -5.909771 0.000000 0.000000 0.000000 -11.062963 -19.614035 2.480943 -9.816495 -16.190255 -0.354605 17.759547 -28.195617 -5.735142 0.000000 0.000000 0.000000 21.240076 15.932734 16.234392 28.319825 31.583136 1.024658 -9.984322 28.412063 -1.536950 0.000000 0.000000 0.000000
-0.619690 0.856508 0.855003 -29.177090 11.423425 -27.034660 21.241554 0.454407 -25.576578 3.816836 -6.322916 36.879299 0.549885 5.502762 7.701397 0.000000 0.000000 0.000000 23.757866 4.118387 -13.224647 19.572985 -18.424143 49.496029 -12.726047 -27.134729 13.139530 0.000000 0.000000 0.000000 -45.258005 2.390142 28.080520 12.044304 -2.840941 -25.703626 -4.193674 31.828052 27.672373 1.993514 3.746714 -8.819060 0.000000 0.000000 0.000000 -9.095466 -22.975074 3.848644 -10.032036 -18.167670 -0.410952 18.383140 -24.553692 -5.360918 0.000000 0.000000 0.000000 17.523674 14.242819 13.990031 31.914338 28.707227 1.352954 -8.085654 30.454408 -0.987657 0.000000 0.000000 0.000000
-0.649208 0.849799 0.851798 -30.825874 12.556648 -27.666442 21.593615 0.231136 -27.416394 4.459073 -7.241478 38.377817 -2.381615 -1.291659 5.396755 0.000000 0.000000 0.000000 27.697731 4.184308 -13.210444 18.640936 -16.939319 45.994542 -12.580071 -26.326865 15.777993 0.000000 0.000000 0.000000 -42.828130 2.129280 29.314055 7.667248 -1.368127 -26.641329 -1.113862 29.113344 28.362422 2.015038 4.499315 -13.648088 0.000000 0.000000 0.000000 -8.670241 -24.860281 4.845667 -10.921999 -20.230449 -0.399268 16.478338 -24.481215 -4.669086 0.000000 0.000000 0.000000 13.460503 12.206777 10.644685 36.668254 22.262314 0.680800 -1.021991 33.483159 1.111937 0.000000 0.000000 0.000000
-0.671917 0.854242 0.842975 -30.196879 12.707353 -27.319104 21.384115 0.206217 -27.939636 5.136495 -7.140879 36.947574 -4.564559 -3.165814 8.624912 0.000000 0.000000 0.000000 29.051790 4.517712 -14.328889 16.632538 -15.442535 46.426802 -11.972073 -24.372636 21.351899 0.000000 0.000000 0.000000 -43.201023 2.526442 30.399596 7.205219 -1.207658 -27.057791 -1.134325 29.523490 26.665300 2.612995 4.576225 -16.384334 0.000000 0.000000 0.000000 -5.957977 -23.617029 4.893895 -15.552327 -22.144297 -0.212405 16.528145 -26.386657 -5.267876 0.000000 0.000000 0.000000 12.950273 9.306467 8.987761 43.849525 22.793519 2.085482 -1.633990 30.892785 1.056589 0.000000 0.000000 0.000000
-0.685842 0.865154 0.829663 -29.161685 14.795213 -26.630165 20.385682 -0.148085 -27.921221 4.511721 -6.608026 35.461519 -4.762338 -3.143715 8.984378 0.000000 0.000000 0.000000 29.755485 4.401130 -14.358686 15.258369 -13.596880 43.029445 -10.851070 -22.170475 22.824194 0.000000 0.000000 0.000000 -42.293172 2.559050 32.037177 7.214823 -1.090815 -28.439382 -1.620639 30.740313 25.159278 4.577200 3.522099 -17.142879 0.000000 0.000000 0.000000 -6.127758 -24.437654 4.804870 -17.952974 -20.072426 0.025898 16.782394 -28.208679 -5.937730 0.000000 0.000000 0.000000 15.951821 7.011722 9.542746 48.327691 20.330364 0.963379 -1.999140 31.231808 1.303271 0.000000 0.000000 0.000000
-0.693027 0.882794 0.814140 -26.565207 16.237996 -24.312118 19.380277 -0.338405 -27.558073 3.028451 -6.418116 37.337493 -2.551278 0.332199 8.092093 0.000000 0.000000 0.000000 29.858436 3.901577 -13.088588 12.014687 -9.964437 38.738703 -9.657122 -20.232451 21.031102 0.000000 0.000000 0.000000 -42.260362 2.763882 32.268364 8.524929 -1.265521 -30.680767 -3.579403 30.558404 24.916995 5.579309 2.726490 -16.415283 0.000000 0.000000 0.000000 -6.655679 -20.812999 3.381918 -21.108969 -17.369945 -0.059145 16.408095 -31.522587 -6.720155 0.000000 0.000000 0.000000 23.395954 6.946122 13.193919 44.842302 21.249865 -1.017038 0.263276 28.838338 1.392390 0.000000 0.000000 0.000000
-0.695137 0.899172 0.796398 -23.318544 18.556914 -22.519738 16.690988 -0.788222 -26.368455 0.803810 -7.392157 44.284833 2.187211 6.158029 3.035764 0.000000 0.000000 0.000000 27.564836 3.230416 -11.392196 10.657236 -7.663881 32.672819 -11.027186 -22.164807 20.325574 0.000000 0.000000 0.000000 -41.709572 2.903479 33.603208 6.767037 -0.694096 -32.651078 -2.940906 29.397169 25.995676 5.274094 2.936959 -16.474233 0.000000 0.000000 0.000000 -8.343996 -20.487715 2.863970 -21.524316 -14.864056 -0.190341 17.786953 -31.911093 -7.164103 0.000000 0.000000 0.000000 27.321415 6.088693 14.437229 45.628001 19.571045 -2.701113 1.239104 28.493883 1.760342 0.000000 0.000000 0.000000
-0.694024 0.913743 0.777166 -20.474273 20.952471 -20.114916 15.222806 -1.005297 -24.109554 -0.796673 -9.180173 52.521473 3.948809 8.409520 0.737166 0.000000 0.000000 0.000000 24.838683 2.912305 -10.880837 9.877277 -6.077658 27.207973 -7.488419 -15.936757 19.356248 0.000000 0.000000 0.000000 -40.455536 3.108481 35.676279 6.913132 -0.494061 -36.646966 -3.328397 28.520007 28.878573 5.520729 3.039707 -17.008958 0.000000 0.000000 0.000000 -9.198682 -18.495345 1.942707 -22.487427 -13.040717 -0.486530 16.763781 -34.153097 -7.341390 0.000000 0.000000 0.000000 31.891171 4.599724 15.520881 41.621602 19.489992 -4.063244 5.454608 26.900466 2.350806 0.000000 0.000000 0.000000
-0.690687 0.924808 0.756620 -18.086217 24.339176 -18.781575 15.133256 -0.961236 -18.413242 -0.614382 -10.212974 52.935591 6.289127 15.569631 9.748528 0.000000 0.000000 0.000000 22.585482 2.676336 -10.709950 9.768626 -5.140930 21.844848 -10.094753 -19.298133 22.251861 0.000000 0.000000 0.000000 -40.104063 3.198859 39.153895 5.717235 -0.151920 -38.564076 -2.192423 27.324923 31.493588 5.775117 3.351583 -18.518157 0.000000 0.000000 0.000000 -8.118862 -19.673999 2.746132 -23.730167 -12.883776 -0.670984 23.643161 -35.008740 -10.373789 0.000000 0.000000 0.000000 35.281387 4.598537 17.114547 39.260596 18.470256 -5.306695 3.708571 26.731729 1.895852 0.000000 0.000000 0.000000
-0.684828 0.932837 0.735755 -15.329986 27.292557 -17.477110 15.278497 -0.984523 -13.150802 0.049165 -9.968868 49.345922 11.221381 23.714165 29.227956 0.000000 0.000000 0.000000 20.154959 2.286442 -9.558553 9.542666 -4.163677 16.464201 -13.226935 -23.598872 23.531267 0.000000 0.000000 0.000000 -37.891317 2.796533 42.041719 -0.269709 0.879670 -38.379668 -1.285751 21.499674 30.679336 4.672578 2.877765 -17.141434 0.000000 0.000000 0.000000 -7.839621 -17.759419 2.890727 -25.116086 -14.329761 -0.746134 25.376582 -34.929456 -10.451686 0.000000 0.000000 0.000000 35.375677 6.017802 15.814069 41.655984 16.863455 -5.126929 3.439355 25.956475 1.824696 0.000000 0.000000 0.000000
-0.676692 0.938025 0.713048 -13.659320 29.630406 -14.620590 16.374100 -1.205539 -9.727133 0.751877 -8.307809 42.695845 12.320780 24.692226 35.004960 0.000000 0.000000 0.000000 18.113454 2.586826 -11.847741 9.144240 -3.610042 13.775650 -12.856366 -21.702692 26.642039 0.000000 0.000000 0.000000 -33.705629 1.884032 42.750770 -4.019680 1.487959 -38.001916 -1.200852 16.492056 30.986272 4.273815 2.320222 -16.041957 0.000000 0.000000 0.000000 -10.102934 -18.910213 3.326183 -26.201198 -12.899296 -1.004201 27.557095 -34.578252 -10.560176 0.000000 0.000000 0.000000 35.939654 5.799682 14.399200 40.637472 16.180587 -5.025066 3.144111 24.228424 1.607061 0.000000 0.000000 0.000000
-0.667186 0.939810 0.687547 -11.279006 32.421912 -12.759171 16.440877 -1.500039 -6.005011 0.535434 -6.400080 36.232897 12.209032 24.629256 33.850414 0.000000 0.000000 0.000000 15.223413 2.470790 -12.427253 9.347233 -3.363051 11.001584 -13.064103 -20.981804 28.708904 0.000000 0.000000 0.000000 -31.053047 1.042863 44.999522 -5.601059 1.715118 -38.622906 -2.061863 13.419165 31.273136 3.763404 1.778143 -13.396611 0.000000 0.000000 0.000000 -13.910134 -19.630783 3.380032 -24.186573 -12.819282 -0.851517 27.803209 -33.503468 -9.779227 0.000000 0.000000 0.000000 36.870106 5.436525 13.518224 38.131631 14.122663 -5.451025 3.521240 23.700951 1.577430 0.000000 0.000000 0.000000
-0.656986 0.939722 0.659864 -9.250117 34.732158 -11.605275 15.886750 -1.712435 -3.074198 -0.912905 -4.259312 29.949272 13.971456 25.891814 31.949005 0.000000 0.000000 0.000000 11.909499 2.255689 -12.932432 9.546310 -3.353130 9.767664 -12.849971 -20.011439 29.475800 0.000000 0.000000 0.000000 -27.346554 -0.189875 45.797967 -9.161192 2.383871 -36.629857 -1.674963 9.872096 30.328212 4.355811 0.640353 -12.758922 0.000000 0.000000 0.000000 -16.521179 -21.276992 4.189380 -23.920377 -13.359066 -0.655615 26.594031 -30.588237 -8.099332 0.000000 0.000000 0.000000 33.913333 5.170651 11.451777 40.665308 12.018786 -5.588457 1.833655 23.545507 1.353016 0.000000 0.000000 0.000000
-0.646223 0.939032 0.631044 -7.741560 36.669183 -10.570058 15.942389 -1.969360 -1.243360 -3.937913 -2.368010 24.952257 11.103479 23.126862 23.628478 0.000000 0.000000 0.000000 9.193826 1.960451 -12.980645 9.391069 -3.050127 7.601502 -14.408950 -21.831527 29.543980 0.000000 0.000000 0.000000 -24.753973 -1.164792 46.331116 -8.763067 2.635348 -34.475657 -3.813675 8.728390 28.771181 5.142172 -0.239779 -12.466025 0.000000 0.000000 0.000000 -17.087675 -21.742569 4.193962 -24.412745 -14.151015 -0.353100 24.605894 -28.840428 -7.011010 0.000000 0.000000 0.000000 33.920606 3.651070 10.376523 41.377084 10.891589 -5.855719 0.724647 25.580045 1.404265 0.000000 0.000000 0.000000
-0.635090 0.938551 0.601915 -6.455711 38.021533 -10.354767 14.286034 -1.846619 0.349073 -5.109671 -1.605797 21.625292 10.181522 21.447397 18.216128 0.000000 0.000000 0.000000 6.939776 1.678816 -13.073665 9.080919 -2.913040 7.020802 -16.681470 -24.942036 29.397226 0.000000 0.000000 0.000000 -23.394784 -1.795113 46.738535 -8.939716 2.618853 -34.658793 -4.249026 7.991244 29.479615 5.329781 -0.371894 -12.659606 0.000000 0.000000 0.000000 -17.849268 -22.217533 4.334306 -23.827587 -14.483354 -0.275506 22.166496 -27.006055 -5.801304 0.000000 0.000000 0.000000 33.033137 2.708157 9.545605 41.999052 10.315982 -6.053210 -0.082474 26.864168 1.412494 0.000000 0.000000 0.000000
-0.623528 0.938484 0.573301 -5.538207 38.572891 -10.540107 12.760481 -1.695086 1.800393 -5.786962 -1.179393 19.374846 8.481204 18.715630 13.948181 0.000000 0.000000 0.000000 5.313023 1.440324 -12.918907 8.563663 -2.666906 6.358370 -17.830411 -26.224341 30.183377 0.000000 0.000000 0.000000 -21.422038 -2.296077 45.799418 -8.566056 2.803358 -33.253651 -5.280251 7.814214 28.734867 5.720881 -0.902654 -11.735828 0.000000 0.000000 0.000000 -19.130597 -22.352344 3.982404 -24.182051 -14.452153 -0.076956 19.593432 -26.816929 -5.045428 0.000000 0.000000 0.000000 34.242314 2.286844 9.762927 41.714999 9.037796 -6.542043 -1.154380 29.628855 1.408443 0.000000 0.000000 0.000000
-0.611939 0.938503 0.545383 -4.797503 39.277850 -11.035994 10.833632 -1.413607 2.638902 -6.199711 -1.042509 18.517324 7.947983 17.123266 10.703175 0.000000 0.000000 0.000000 3.681847 1.167762 -12.403032 7.864977 -2.422285 6.028344 -17.516836 -25.615510 30.189371 0.000000 0.000000 0.000000 -19.851788 -2.807814 45.477151 -9.677397 2.940550 -33.246939 -4.593768 7.499358 29.109268 6.182316 -1.081663 -12.417870 0.000000 0.000000 0.000000 -20.641642 -22.216729 3.644643 -23.642610 -14.831218 0.076258 17.665677 -27.476520 -4.589595 0.000000 0.000000 0.000000 33.546338 1.344062 9.011985 43.302218 7.538885 -7.140384 -0.952219 30.873033 1.675586 0.000000 0.000000 0.000000
-0.599972 0.939141 0.518388 -4.422159 39.609430 -11.710654 8.773036 -1.114367 3.476803 -6.704620 -0.948991 18.154696 8.891941 17.156037 7.645487 0.000000 0.000000 0.000000 2.335628 0.941861 -12.466879 7.154921 -2.234156 6.258345 -15.894177 -23.117352 30.181195 0.000000 0.000000 0.000000 -17.445664 -3.382083 44.586687 -9.995286 3.008866 -33.106273 -5.038152 7.270205 29.678270 6.652461 -1.374534 -12.535990 0.000000 0.000000 0.000000 -20.789337 -22.236852 3.456321 -24.611643 -15.307013 0.198729 16.209331 -27.164513 -4.170190 0.000000 0.000000 0.000000 33.543457 0.380174 8.542498 44.582640 6.287501 -7.738918 -0.230329 32.561359 2.131173 0.000000 0.000000 0.000000
-0.587365 0.939796 0.493044 -3.503336 39.891862 -12.291122 6.703441 -0.827252 4.471313 -6.963141 -0.880837 17.778192 8.025814 15.422499 5.950810 0.000000 0.000000 0.000000 1.347910 0.756638 -12.084076 6.412023 -2.029859 6.457341 -15.324444 -22.546113 28.996471 0.000000 0.000000 0.000000 -16.293224 -3.600414 43.860660 -10.270004 3.067998 -33.213744 -4.289223 7.455494 30.152663 6.844205 -1.355704 -12.862942 0.000000 0.000000 0.000000 -22.427065 -22.316648 3.094637 -23.838059 -14.702087 0.199976 13.314755 -28.020694 -3.460298 0.000000 0.000000 0.000000 33.717310 -0.529443 8.116622 44.885380 4.584989 -8.448642 0.720705 32.646649 2.434260 0.000000 0.000000 0.000000
-0.573753 0.940838 0.470364 -2.771015 40.004789 -12.793740 4.358180 -0.529831 5.631860 -6.839006 -0.786716 16.793404 8.121729 15.229573 5.285216 0.000000 0.000000 0.000000 1.169809 0.716860 -11.808233 5.677399 -1.924624 7.418156 -13.653486 -20.490906 27.266510 0.000000 0.000000 0.000000 -13.767723 -4.024201 42.540201 -11.096423 3.295011 -32.687234 -4.254309 6.390103 30.164954 6.058395 -0.884526 -12.407229 0.000000 0.000000 0.000000 -23.367268 -21.322516 2.586269 -24.041809 -14.546568 0.164053 11.204805 -27.396415 -2.755229 0.000000 0.000000 0.000000 34.325128 -1.187178 7.529971 44.831880 2.883757 -9.005463 1.371447 32.806977 2.632361 0.000000 0.000000 0.000000
-0.559312 0.942471 0.450591 -1.046971 39.997724 -13.100727 1.502287 -0.188808 7.112281 -6.447254 -0.727841 15.963782 6.803813 13.936778 6.200664 0.000000 0.000000 0.000000 0.638998 0.608044 -10.916318 5.804075 -2.053060 8.161237 -14.235519 -22.020147 25.622829 0.000000 0.000000 0.000000 -11.370412 -4.342463 41.278847 -13.020226 3.452978 -33.076752 -3.313003 5.479693 31.211662 5.684506 -0.795063 -11.813828 0.000000 0.000000 0.000000 -25.056028 -21.090446 2.485915 -23.550275 -13.381485 -0.088549 9.082117 -27.388282 -2.093753 0.000000 0.000000 0.000000 34.982355 -2.316250 6.625451 44.334188 0.729677 -9.748528 2.107889 34.107595 3.042332 0.000000 0.000000 0.000000
-0.544572 0.944263 0.433861 -0.510752 40.851411 -13.598897 -0.392753 -0.026708 8.693674 -6.009795 -0.557142 13.669491 5.901319 13.290532 7.516646 0.000000 0.000000 0.000000 0.236089 0.497969 -9.806678 6.043400 -2.173056 8.166967 -13.568826 -21.145921 24.886100 0.000000 0.000000 0.000000 -8.949510 -4.742076 39.719767 -12.726319 3.750779 -31.327118 -3.818905 4.799289 30.572503 4.943579 -0.482288 -10.513129 0.000000 0.000000 0.000000 -25.113430 -20.203193 1.762817 -24.357104 -12.299166 -0.186497 7.155407 -28.436641 -1.712149 0.000000 0.000000 0.000000 35.743321 -3.665518 5.829148 43.602075 -0.115331 -9.920360 2.935256 34.387740 3.360945 0.000000 0.000000 0.000000
-0.530230 0.946542 0.420176 0.597447 41.072686 -13.386186 -2.454074 0.183622 9.857322 -5.720667 -0.418468 11.924847 4.566989 12.423960 9.275221 0.000000 0.000000 0.000000 0.361113 0.492790 -8.940218 5.991429 -2.173680 8.230241 -12.916290 -20.269114 24.519195 0.000000 0.000000 0.000000 -6.913083 -4.802781 37.858630 -12.810134 3.824665 -30.897450 -3.670670 4.125716 30.648749 4.662562 -1.160718 -7.419676 0.000000 0.000000 0.000000 -25.642854 -19.470288 1.247013 -25.335969 -10.405652 -0.547515 6.148250 -30.204800 -1.558274 0.000000 0.000000 0.000000 36.246728 -4.320482 5.408755 42.686365 -1.640940 -10.266382 3.231251 34.991341 3.505019 0.000000 0.000000 0.000000
-0.517067 0.948240 0.409543 0.753404 42.612185 -12.861538 -3.636269 0.264453 10.262633 -5.150020 -0.373712 10.300225 2.878154 10.514710 9.634934 0.000000 0.000000 0.000000 0.788409 0.538070 -9.162694 6.004148 -2.337344 8.814361 -12.371180 -19.202727 24.205129 0.000000 0.000000 0.000000 -4.887375 -5.031482 36.087475 -12.600459 3.961608 -29.854407 -3.269700 3.019482 29.942303 4.267727 -1.237312 -5.978587 0.000000 0.000000 0.000000 -25.930682 -18.579532 0.482857 -26.299415 -7.930319 -0.974952 4.232491 -32.023097 -1.142192 0.000000 0.000000 0.000000 37.326688 -5.770520 4.554541 41.737473 -2.584278 -10.435748 3.185444 34.492177 3.448319 0.000000 0.000000 0.000000
-0.505923 0.949546 0.401363 0.766936 43.234546 -12.518819 -4.077059 0.286876 10.638648 -5.245146 -0.279263 8.941812 1.136375 8.782871 10.460026 0.000000 0.000000 0.000000 1.895289 0.728591 -9.897922 5.401707 -2.423856 10.506552 -12.235239 -18.958630 23.920110 0.000000 0.000000 0.000000 -3.931998 -5.011073 34.877469 -10.536967 3.601744 -30.347801 -3.527421 3.779044 29.850832 5.249034 -2.594635 -4.365064 0.000000 0.000000 0.000000 -26.257675 -17.494322 -0.960701 -26.991735 -5.644836 -1.264705 3.026300 -33.673966 -0.977913 0.000000 0.000000 0.000000 38.811308 -7.135929 4.428092 39.517765 -3.442399 -10.482833 3.845614 33.421530 3.382643 0.000000 0.000000 0.000000
-0.496888 0.950792 0.395316 0.801246 44.144071 -11.995681 -4.779526 0.339133 10.619437 -4.840215 -0.289042 8.429882 -0.035457 7.257962 10.317912 0.000000 0.000000 0.000000 3.412372 0.962350 -10.241936 4.971858 -2.502545 11.552685 -10.588075 -16.297114 23.150432 0.000000 0.000000 0.000000 -3.100076 -5.107898 34.131759 -9.177601 3.375467 -30.507542 -3.412914 3.962355 29.830155 5.893675 -3.096799 -4.440297 0.000000 0.000000 0.000000 -25.818139 -16.893700 -1.732063 -27.973448 -4.018446 -1.543766 1.300486 -33.561838 -0.557665 0.000000 0.000000 0.000000 39.383777 -8.811771 3.593753 38.558393 -3.370809 -10.375525 3.740128 32.385955 3.254816 0.000000 0.000000 0.000000
-0.489382 0.952532 0.391385 -0.271181 45.467232 -12.704573 -4.810329 0.265802 11.391042 -3.976550 -0.315535 7.848067 -0.782723 5.675052 9.277025 0.000000 0.000000 0.000000 4.386134 1.102746 -10.575570 4.366588 -2.720375 13.474969 -7.749547 -11.344274 23.763458 0.000000 0.000000 0.000000 -2.737496 -5.241720 33.713493 -7.005905 3.184532 -29.617042 -4.073559 4.638571 29.639162 6.784437 -4.329258 -3.344995 0.000000 0.000000 0.000000 -25.310799 -17.117496 -2.249156 -27.046096 -2.534309 -1.554749 0.720916 -33.876120 -0.517737 0.000000 0.000000 0.000000 39.681588 -9.728821 3.633087 38.850006 -2.570664 -10.388988 5.208388 31.522050 3.578699 0.000000 0.000000 0.000000
-0.481484 0.953248 0.389265 -1.152528 46.186904 -12.803495 -4.467403 0.219171 10.922811 -4.586193 -0.325624 8.203903 -0.173921 6.374030 9.085252 0.000000 0.000000 0.000000 6.191647 1.321107 -10.034608 4.777161 -2.827788 12.913324 -5.760148 -7.801424 26.896991 0.000000 0.000000 0.000000 -2.289057 -5.375907 33.452274 -6.713099 3.009612 -30.301475 -3.300654 3.845216 29.892864 6.955679 -3.592471 -5.404411 0.000000 0.000000 0.000000 -25.756680 -16.228401 -2.888349 -26.893663 -1.250077 -1.786388 0.543776 -34.917303 -0.474860 0.000000 0.000000 0.000000 37.824306 -10.014845 3.119820 40.592043 -3.406680 -10.745754 7.832495 29.319013 3.966537 0.000000 0.000000 0.000000
-0.471424 0.953486 0.388794 -1.026720 46.092586 -11.912381 -5.065850 0.335839 9.567192 -4.626143 -0.609332 11.466729 0.284421 4.986321 6.039758 0.000000 0.000000 0.000000 8.145010 1.482752 -9.235630 5.427541 -2.930974 12.113455 -6.466600 -8.839835 27.481374 0.000000 0.000000 0.000000 -2.199579 -5.321314 33.321749 -7.804412 2.865259 -32.019996 -1.827022 3.479108 31.257414 7.200402 -3.853809 -5.425410 0.000000 0.000000 0.000000 -25.116389 -15.049195 -3.192781 -27.700391 -1.673393 -1.975776 -0.517009 -34.953066 -0.189060 0.000000 0.000000 0.000000 36.619014 -10.281193 2.704007 41.721705 -3.341075 -10.973432 9.091110 27.569019 4.012163 0.000000 0.000000 0.000000
-0.457640 0.953585 0.389241 -0.080534 47.236825 -9.618740 -5.870640 0.424517 7.448069 -5.621344 -0.762751 13.165587 0.109861 5.214806 6.650941 0.000000 0.000000 0.000000 7.664214 1.328604 -8.272322 4.734936 -2.420939 10.405495 -6.925886 -9.528968 24.747753 0.000000 0.000000 0.000000 -1.801272 -4.738305 30.797338 -5.504116 2.809237 -29.827623 -3.533793 2.667320 28.439029 6.860613 -3.683147 -5.068032 0.000000 0.000000 0.000000 -24.738963 -13.303915 -4.447628 -29.853800 -0.529130 -2.231354 -1.536094 -36.098734 -0.053270 0.000000 0.000000 0.000000 35.866619 -9.682292 3.229811 43.744855 -3.687031 -11.109226 5.905305 25.407459 2.945338 0.000000 0.000000 0.000000
-0.441173 0.953245 0.390649 -1.180187 45.846750 -9.276437 -5.147002 0.368799 5.059960 -7.799991 -1.142883 18.218875 2.121324 6.348074 4.087320 0.000000 0.000000 0.000000 8.153876 1.327928 -7.729764 4.864807 -2.308309 9.879000 -6.403598 -9.274982 22.134138 0.000000 0.000000 0.000000 -0.156815 -3.982414 27.162446 -4.886482 3.045178 -26.744942 -3.506328 2.885973 26.962527 6.473971 -2.725406 -6.312000 0.000000 0.000000 0.000000 -24.344302 -11.594664 -5.460268 -32.774663 -2.077560 -2.054113 -1.820025 -34.308543 -0.075227 0.000000 0.000000 0.000000 33.599969 -9.261872 3.099756 44.971400 -4.130542 -10.881390 7.639484 24.687574 3.177454 0.000000 0.000000 0.000000
-0.423350 0.955853 0.391456 -1.462948 45.159041 -9.977699 -3.843614 0.214134 2.482675 -10.551052 -1.766642 25.169163 -0.240630 4.402140 6.320776 0.000000 0.000000 0.000000 7.598127 0.975271 -4.714884 3.804383 -1.581948 7.432043 -3.810641 -5.086896 21.476961 0.000000 0.000000 0.000000 1.570520 -4.160262 26.333703 -5.098298 2.946438 -26.442602 -3.223668 3.217182 27.812731 4.810112 -1.640048 -4.567854 0.000000 0.000000 0.000000 -23.661852 -11.064401 -5.699602 -34.606085 -1.083864 -2.544242 -3.088816 -34.003622 0.197804 0.000000 0.000000 0.000000 32.588122 -8.181341 4.169443 45.654944 -3.053336 -10.734767 5.736089 24.461730 2.777306 0.000000 0.000000 0.000000
