HIERARCHY
ROOT Hips
{
	OFFSET -0.001795 -0.223333 0.028219
	CHANNELS 6 Xposition Yposition Zposition Zrotation Yrotation Xrotation
	JOINT LeftUpLeg
	{
		OFFSET 0.069520 -0.091406 -0.006815
		CHANNELS 3 Zrotation Yrotation Xrotation
		JOINT LeftLeg
		{
			OFFSET 0.034277 -0.375199 -0.004496
			CHANNELS 3 Zrotation Yrotation Xrotation
			JOINT LeftFoot
			{
				OFFSET -0.013596 -0.397961 -0.043693
				CHANNELS 3 Zrotation Yrotation Xrotation
				JOINT LeftToe
				{
					OFFSET 0.026358 -0.055791 0.119288
					CHANNELS 3 Zrotation Yrotation Xrotation
					End Site
					{
						OFFSET 0.000000 0.000000 0.000000
					}
				}
			}
		}
	}
	JOINT RightUpLeg
	{
		OFFSET -0.067670 -0.090522 -0.004320
		CHANNELS 3 Zrotation Yrotation Xrotation
		JOINT RightLeg
		{
			OFFSET -0.038290 -0.382569 -0.008850
			CHANNELS 3 Zrotation Yrotation Xrotation
			JOINT RightFoot
			{
				OFFSET 0.015774 -0.398415 -0.042312
				CHANNELS 3 Zrotation Yrotation Xrotation
				JOINT RightToe
				{
					OFFSET -0.025372 -0.048144 0.123348
					CHANNELS 3 Zrotation Yrotation Xrotation
					End Site
					{
						OFFSET 0.000000 0.000000 0.000000
					}
				}
			}
		}
	}
	JOINT Spine
	{
		OFFSET -0.002533 0.108963 -0.026696
		CHANNELS 3 Zrotation Yrotation Xrotation
		JOINT Spine1
		{
			OFFSET 0.005487 0.135180 0.001092
			CHANNELS 3 Zrotation Yrotation Xrotation
			JOINT Spine2
			{
				OFFSET 0.001457 0.052922 0.025425
				CHANNELS 3 Zrotation Yrotation Xrotation
				JOINT Neck
				{
					OFFSET -0.002778 0.213870 -0.042857
					CHANNELS 3 Zrotation Yrotation Xrotation
					JOINT Head
					{
						OFFSET 0.005152 0.064970 0.051349
						CHANNELS 3 Zrotation Yrotation Xrotation
						End Site
						{
							OFFSET 0.000000 0.000000 0.000000
						}
					}
				}
				JOINT LeftShoulder
				{
					OFFSET 0.078845 0.121749 -0.034090
					CHANNELS 3 Zrotation Yrotation Xrotation
					JOINT LeftArm
					{
						OFFSET 0.090977 0.030469 -0.008868
						CHANNELS 3 Zrotation Yrotation Xrotation
						JOINT LeftForeArm
						{
							OFFSET 0.259612 -0.012772 -0.027456
							CHANNELS 3 Zrotation Yrotation Xrotation
							JOINT LeftHand
							{
								OFFSET 0.249234 0.008986 -0.001171
								CHANNELS 3 Zrotation Yrotation Xrotation
								End Site
								{
									OFFSET 0.000000 0.000000 0.000000
								}
							}
						}
					}
				}
				JOINT RightShoulder
				{
					OFFSET -0.081759 0.118833 -0.038615
					CHANNELS 3 Zrotation Yrotation Xrotation
					JOINT RightArm
					{
						OFFSET -0.096012 0.032551 -0.009143
						CHANNELS 3 Zrotation Yrotation Xrotation
						JOINT RightForeArm
						{
							OFFSET -0.253742 -0.013329 -0.021401
							CHANNELS 3 Zrotation Yrotation Xrotation
							JOINT RightHand
							{
								OFFSET -0.255298 0.007772 -0.005559
								CHANNELS 3 Zrotation Yrotation Xrotation
								End Site
								{
									OFFSET 0.000000 0.000000 0.000000
								}
							}
						}
					}
				}
			}
		}
	}
}
MOTION
Frames: 76
Frame Time: 0.050000
0.000000 0.434206 0.000000 1.657008 -10.586776 66.292663 3.119199 -1.581920 -15.167673 -22.050667 17.463174 56.581558 9.585332 16.280831 -90.892852 0.000000 0.000000 0.000000 -12.291342 3.301524 -1.145465 6.292749 -0.455972 16.926640 -9.391962 -24.147774 -40.718248 0.000000 0.000000 0.000000 1.703682 -4.257117 119.489353 -33.327643 -66.788209 -175.172380 -35.446779 -58.346779 60.736590 10.688450 -25.626573 107.051793 0.000000 0.000000 0.000000 -43.975277 -17.592830 31.154195 19.646768 -31.828984 -5.674669 5.493139 -21.568876 -2.684632 0.000000 0.000000 0.000000 45.001794 26.247760 -22.977967 12.837211 0.290948 4.492948 14.899658 23.745724 3.460372 0.000000 0.000000 0.000000
0.006641 0.474015 0.009029 2.045119 -10.302090 72.537132 8.939844 -1.948743 -24.112825 -23.744813 21.956385 61.861870 8.845659 18.238072 -95.822836 0.000000 0.000000 0.000000 -14.835492 4.095714 -11.067597 10.308447 -1.182693 16.057869 -8.251426 -22.964255 -30.429155 0.000000 0.000000 0.000000 3.995063 -6.069898 105.012485 -0.554730 13.433907 168.333138 19.575477 16.114736 61.958870 -6.521912 8.133448 109.030205 0.000000 0.000000 0.000000 -56.134426 -27.297070 12.598512 10.576921 -26.512990 0.324303 2.343047 -25.084190 -0.487025 0.000000 0.000000 0.000000 60.259295 13.911388 18.717561 -10.007228 17.661899 -0.223584 -1.309488 30.193164 -2.114941 0.000000 0.000000 0.000000
0.012109 0.536591 0.018417 4.908906 -9.472462 81.495818 12.173044 -2.724346 -33.484506 -31.710871 28.252111 73.811768 8.572012 15.907710 -102.026277 0.000000 0.000000 0.000000 -17.376129 4.367570 -24.041922 11.892641 -1.587115 14.397442 -5.376476 -20.230351 -30.113815 0.000000 0.000000 0.000000 0.977191 -4.032007 106.153558 -0.235154 9.197129 -178.690585 8.984270 12.477183 66.759016 -5.001221 13.388418 117.341126 0.000000 0.000000 0.000000 -59.404012 -24.577110 7.654443 25.920341 -39.151143 -8.035527 2.267224 -24.318715 -0.549593 0.000000 0.000000 0.000000 59.707005 25.290225 19.053270 -22.221644 24.957982 -3.388176 -8.874638 32.427886 -4.181085 0.000000 0.000000 0.000000
0.014539 0.626871 0.027941 3.409320 -9.800862 94.146818 40.227276 -5.066603 -37.556955 -86.715010 44.359936 31.169998 12.911309 -2.755747 -103.045776 0.000000 0.000000 0.000000 -20.633497 4.433535 -35.428029 11.997600 -0.449551 1.407580 -5.076419 -18.393764 -4.870484 0.000000 0.000000 0.000000 -2.044954 3.385481 89.527621 -4.290453 -3.585182 -175.949864 -1.275706 -7.851456 129.588004 0.271340 20.873224 131.058442 0.000000 0.000000 0.000000 -59.623609 -34.070058 9.507736 75.988319 -42.724409 -33.822321 25.891853 -23.810176 -7.372220 0.000000 0.000000 0.000000 50.040270 28.494162 20.305056 -76.684061 26.564502 -20.561910 -33.115673 21.059977 -10.754157 0.000000 0.000000 0.000000
0.015811 0.716705 0.033864 6.094562 -6.792413 112.221385 84.021306 -28.374460 -12.185997 -143.353944 20.000893 -28.047415 25.490823 -21.735003 -104.338982 0.000000 0.000000 0.000000 -23.057141 1.755178 -49.137363 15.589193 -0.299504 -6.291355 -5.643713 -24.714527 -3.180615 0.000000 0.000000 0.000000 -5.692297 1.326779 71.974773 -1.121257 6.106435 -165.048755 -4.672824 -1.057450 155.583265 2.376393 21.102238 140.181131 0.000000 0.000000 0.000000 -37.520899 -29.017805 8.757738 96.196236 -13.805285 -10.242852 26.474752 8.925061 -0.150406 0.000000 0.000000 0.000000 26.041855 23.222089 20.259687 -90.560175 -0.201116 -3.010235 -34.567095 -19.593142 0.112183 0.000000 0.000000 0.000000
0.020254 0.805342 0.033737 7.301695 -5.177343 126.253466 61.050231 -45.073981 25.640620 -136.200371 -21.334737 -41.444384 31.492971 -11.018909 -107.246578 0.000000 0.000000 0.000000 -22.898082 -1.761868 -54.718500 25.200056 -1.303983 -7.315038 -1.160558 -32.932589 -24.260382 0.000000 0.000000 0.000000 -8.262769 -0.012556 51.105641 5.498097 8.059405 -123.714432 -3.546894 -2.734261 138.475298 14.748294 45.759936 157.624803 0.000000 0.000000 0.000000 -24.388136 -21.043179 6.482297 92.262840 -3.353629 -11.453350 23.111458 17.560018 2.143883 0.000000 0.000000 0.000000 14.489415 8.334115 24.474385 -86.428344 -19.687492 10.339916 -18.249450 -37.736602 -0.961291 0.000000 0.000000 0.000000
0.029861 0.870920 0.031561 9.541238 -5.295942 139.697527 33.346266 -33.309779 28.571260 -61.336709 -41.428221 -94.220820 20.617042 8.747367 -96.159395 0.000000 0.000000 0.000000 -25.998528 -2.282143 -52.756902 36.478045 -4.167151 -11.057493 10.391083 -41.997020 -57.210454 0.000000 0.000000 0.000000 -3.314643 -3.793270 27.451745 2.429724 1.427400 -57.560922 9.089403 -4.335437 63.610249 -23.641696 48.104825 111.625474 0.000000 0.000000 0.000000 -39.392599 -30.243190 26.742190 91.450512 -4.987434 -18.930400 22.210423 2.756134 2.468020 0.000000 0.000000 0.000000 21.964114 17.608158 34.229882 -84.565018 -14.936605 15.113714 -27.617015 -31.338505 8.695508 0.000000 0.000000 0.000000
0.042250 0.910011 0.030219 11.099656 -4.726648 145.708382 23.008213 -21.188361 15.587595 -3.492419 -13.781960 -90.521489 9.479712 25.046442 -102.778385 0.000000 0.000000 0.000000 -21.628034 3.508003 -37.711498 41.873284 -8.145237 -9.133736 16.575120 -44.842330 -79.916608 0.000000 0.000000 0.000000 0.004460 -6.093980 18.708689 10.605945 1.840196 -45.338771 1.731905 6.335802 48.278349 -179.496246 -51.979077 -26.132802 0.000000 0.000000 0.000000 -12.353954 -31.814249 15.101461 69.156586 -10.109259 -21.351216 22.736248 -1.222829 1.300223 0.000000 0.000000 0.000000 25.902640 18.038726 48.145794 -82.107563 -22.019831 21.979668 -18.060916 -33.799343 5.963006 0.000000 0.000000 0.000000
0.054022 0.945388 0.032356 10.553826 -5.916626 153.250388 14.597169 -10.700821 -0.912534 12.227374 0.386284 -29.002538 7.296901 35.264336 -108.496272 0.000000 0.000000 0.000000 -16.818444 8.611417 -22.752222 40.096898 -12.642699 -6.824406 21.799037 -56.065916 -76.904372 0.000000 0.000000 0.000000 1.733056 -6.477243 8.026135 7.766926 1.043148 -34.651633 4.819056 5.286614 36.777500 -130.425612 24.297458 3.659972 0.000000 0.000000 0.000000 -5.876478 -30.745724 8.238486 58.309394 -19.820703 -26.488631 27.116373 -1.467681 1.521604 0.000000 0.000000 0.000000 17.130616 20.999978 49.596925 -69.244936 -20.094110 17.732201 -25.206495 -35.195632 10.741835 0.000000 0.000000 0.000000
0.060437 0.952529 0.037648 8.097998 -3.408284 154.347480 9.668499 -6.261529 -3.496590 16.494512 1.416039 -13.509564 8.151097 -23.028412 -127.438620 0.000000 0.000000 0.000000 -6.194603 5.913950 -10.091745 23.295552 -10.478891 8.976052 -15.832636 -60.311106 -9.429061 0.000000 0.000000 0.000000 2.324458 -6.672839 7.953509 7.819638 0.927423 -34.889105 3.958484 6.081568 31.892666 -129.426551 -44.597544 -23.823090 0.000000 0.000000 0.000000 -0.572885 -28.086740 6.327361 49.697283 -24.654036 -24.696392 28.349644 -3.622877 0.596468 0.000000 0.000000 0.000000 18.777066 26.767780 57.849356 -62.345374 -19.740677 13.604760 -33.450540 -31.081765 13.085422 0.000000 0.000000 0.000000
0.062853 0.949981 0.041602 5.783050 -4.544704 156.158388 6.112834 -3.557969 -9.261955 15.131473 0.829336 -6.170595 -25.245854 6.047342 63.648792 0.000000 0.000000 0.000000 -2.066080 3.068541 -2.645125 13.554895 -5.987401 10.798380 -26.263083 -38.174859 25.736817 0.000000 0.000000 0.000000 1.039263 -4.602242 5.481572 7.324145 1.119731 -34.871224 2.471892 3.864193 25.687396 -144.013842 -53.371161 -13.689034 0.000000 0.000000 0.000000 -6.667132 -30.961328 10.062519 50.496205 -29.113451 -25.832725 32.885885 -8.097056 1.589887 0.000000 0.000000 0.000000 31.599409 28.027234 70.092387 -63.110008 -21.891581 12.816547 -40.207371 -26.386421 14.527812 0.000000 0.000000 0.000000
0.063267 0.940898 0.040833 3.691492 -7.144569 157.751567 2.736444 -0.226304 -6.680659 11.347823 1.000890 -11.667157 -24.649287 5.246220 66.806684 0.000000 0.000000 0.000000 -0.539924 0.835835 3.056314 10.856257 -4.449421 11.159144 -20.070507 -23.253239 34.133611 0.000000 0.000000 0.000000 -1.285610 -1.313641 2.162595 6.685734 1.338385 -40.674850 1.033651 -1.835716 28.623936 -134.236743 -66.832334 -30.280071 0.000000 0.000000 0.000000 -15.356824 -33.084159 19.050963 51.718065 -28.802390 -25.197822 37.194368 -9.832869 2.976724 0.000000 0.000000 0.000000 40.709155 28.240263 72.856228 -63.746464 -15.335822 7.302823 -50.160608 -21.231412 17.858296 0.000000 0.000000 0.000000
0.061803 0.921211 0.035338 -0.338949 -5.054242 155.989323 0.536757 2.755250 0.031206 7.125177 0.978049 -13.589205 -29.585358 -1.337127 53.936674 0.000000 0.000000 0.000000 -0.263402 -1.971567 11.545148 7.487435 -1.746274 8.574112 -11.280402 -14.024248 32.690148 0.000000 0.000000 0.000000 -3.768218 2.190809 1.074602 6.675193 2.126000 -42.513591 -0.554553 -5.155462 24.501020 -145.008312 -53.152962 -19.310166 0.000000 0.000000 0.000000 -26.383234 -31.755958 28.064448 49.911480 -30.535897 -24.018262 41.787074 -16.444162 4.689263 0.000000 0.000000 0.000000 52.100088 29.427767 73.469976 -59.216695 -5.429127 0.197935 -58.483491 -2.477208 14.587725 0.000000 0.000000 0.000000
0.059485 0.888816 0.028322 -0.934801 -9.656147 158.719796 -3.179617 6.671354 1.317258 3.561298 0.910449 -13.142475 -54.011425 1.754675 68.128833 0.000000 0.000000 0.000000 4.063518 -5.858516 11.416965 2.513966 -0.127821 12.871153 -5.270145 -9.976200 33.116074 0.000000 0.000000 0.000000 -9.495450 8.772194 -1.510106 7.556673 3.424626 -46.499510 -8.453666 -14.517281 28.259044 -114.056616 -21.764945 -29.424611 0.000000 0.000000 0.000000 -13.286129 -27.337900 37.928044 50.992509 -31.071181 -21.981429 52.795053 0.398045 9.041466 0.000000 0.000000 0.000000 61.400447 30.595726 60.883253 -58.706930 6.683147 -10.016220 -63.419725 18.530025 16.378164 0.000000 0.000000 0.000000
0.056639 0.848321 0.025770 -1.485772 -9.424769 158.298515 -2.166312 6.396413 7.783775 -3.565156 0.330293 -8.647604 25.992976 12.316282 178.319451 0.000000 0.000000 0.000000 7.835086 -9.133170 16.536541 -4.210269 1.523680 12.653662 2.440816 -7.587992 38.754911 0.000000 0.000000 0.000000 -9.432833 11.044785 -0.280327 2.818062 3.457766 -47.247301 -6.508530 -19.032949 30.264402 -75.469934 -1.910834 -39.588681 0.000000 0.000000 0.000000 -3.378182 -21.376131 40.458576 54.124390 -37.483542 -21.455136 64.792624 15.855462 20.218115 0.000000 0.000000 0.000000 59.309939 41.310771 30.167294 -46.733601 25.414347 -27.259863 -55.107296 55.270949 25.953944 0.000000 0.000000 0.000000
0.052859 0.805549 0.034343 1.732609 -13.758309 159.127905 4.128313 1.680068 9.283987 -11.840983 1.416263 5.311867 140.851752 -6.735394 89.776909 0.000000 0.000000 0.000000 13.514109 -14.151291 12.547206 -8.228560 3.913206 20.993425 8.427951 -5.207401 42.034798 0.000000 0.000000 0.000000 -7.842838 9.875834 4.174203 1.159032 3.541876 -56.537143 -11.882329 -20.489180 34.920098 -96.778091 2.430123 -33.688448 0.000000 0.000000 0.000000 -6.803616 -21.947901 43.548466 58.140423 -43.267431 -27.231564 74.892614 7.157746 22.769688 0.000000 0.000000 0.000000 65.759486 38.904415 34.317640 -47.431826 22.867289 -24.799343 -64.217292 55.100501 25.482460 0.000000 0.000000 0.000000
0.050252 0.763122 0.063136 2.168147 -11.676101 158.746856 14.632760 -7.116372 9.728009 -32.063870 14.383204 15.768541 26.973450 84.975913 -54.844481 0.000000 0.000000 0.000000 11.479234 -13.100784 12.497199 -5.541841 4.858279 28.086004 3.913265 -4.978409 35.699776 0.000000 0.000000 0.000000 -5.220207 7.318935 9.159610 -1.548008 3.013447 -60.521870 -5.423029 -16.537134 48.605426 -110.240659 -6.994342 -51.862863 0.000000 0.000000 0.000000 -4.599970 -18.796220 38.680026 73.381373 -45.237823 -38.000531 81.228244 5.714640 26.883876 0.000000 0.000000 0.000000 48.498162 38.791459 26.974403 -49.197181 24.840402 -29.396248 -79.329701 39.517575 28.353514 0.000000 0.000000 0.000000
0.049252 0.720163 0.115520 2.549724 -10.292233 157.226498 29.834715 -16.994030 5.098497 -48.807741 31.730816 16.575530 -5.645785 43.927251 -97.056035 0.000000 0.000000 0.000000 5.492557 -7.574881 8.202088 4.701031 2.255392 34.508158 -43.296200 -32.171734 -3.750973 0.000000 0.000000 0.000000 -1.958580 3.303062 18.141550 -0.950200 2.423126 -55.589953 -1.266455 -10.779192 42.713178 -122.593726 0.384052 -34.103622 0.000000 0.000000 0.000000 -5.612118 -25.032865 39.223243 64.592072 -43.852005 -33.467259 85.211271 0.405747 26.260922 0.000000 0.000000 0.000000 40.255439 36.764593 30.437884 -48.463324 23.153322 -26.303341 -84.818497 23.470594 32.572804 0.000000 0.000000 0.000000
0.048095 0.673612 0.186646 0.023244 -9.059687 154.131733 51.039636 -20.313531 1.866917 -78.411574 54.080678 0.940963 5.906634 13.737507 -89.213911 0.000000 0.000000 0.000000 -15.327826 12.409418 4.568133 50.808437 -2.931961 19.387506 3.668776 -61.490050 -82.159422 0.000000 0.000000 0.000000 -1.565885 4.409715 34.504085 2.446506 3.984241 -64.595588 -3.676217 -5.895287 53.900175 -144.553132 -11.624928 -36.690871 0.000000 0.000000 0.000000 -8.739837 -23.796071 33.870629 64.498889 -42.905648 -35.442803 88.413001 -4.964468 25.713238 0.000000 0.000000 0.000000 30.037874 28.838806 21.482765 -54.738845 28.785100 -29.067284 -87.422112 13.775571 32.188679 0.000000 0.000000 0.000000
0.043083 0.619379 0.268850 -0.891110 -8.955428 154.175480 72.110803 -12.177250 -10.795165 -94.217380 60.904781 -15.505536 8.765829 -2.769779 -80.085187 0.000000 0.000000 0.000000 -47.748331 35.230510 -3.076500 73.696401 15.261762 -45.382219 12.442741 -51.387561 -98.078049 0.000000 0.000000 0.000000 0.754709 5.222860 49.397002 1.925760 3.761495 -70.499001 -2.502005 -4.940067 62.899008 -145.121283 43.329345 -20.556046 0.000000 0.000000 0.000000 -17.229236 -25.628237 36.334456 72.221090 -29.063409 -31.237668 92.690444 -2.393488 28.795077 0.000000 0.000000 0.000000 26.355569 22.583916 16.398584 -63.855799 28.341598 -31.522962 -90.961961 5.362860 35.125454 0.000000 0.000000 0.000000
0.031944 0.554530 0.356206 -3.365641 -7.951664 158.411893 82.554343 -3.321186 -20.018489 -66.911768 30.643982 -23.908812 -9.345870 14.397724 -71.552444 0.000000 0.000000 0.000000 -87.982264 36.134774 -29.510141 94.555680 -0.465308 -64.235458 10.391210 -43.462532 -84.932794 0.000000 0.000000 0.000000 3.367172 7.548485 67.598372 -1.251290 1.907752 -85.919809 -3.106922 -7.231603 81.187488 -165.118335 18.520339 -32.976766 0.000000 0.000000 0.000000 -15.793627 -25.517166 32.704784 76.921705 -15.095430 -23.249380 105.076631 13.794587 41.294888 0.000000 0.000000 0.000000 30.700334 15.787624 12.285868 -79.746248 23.124330 -32.132443 -94.026526 -1.862636 34.066828 0.000000 0.000000 0.000000
0.016035 0.471141 0.441329 -3.826492 -9.165714 178.780890 105.392547 -26.042330 -23.649246 -1.165414 -11.320171 -46.809241 -153.534099 60.244202 145.781116 0.000000 0.000000 0.000000 -88.520295 4.125430 -22.700969 -71.623212 3.199825 -123.297104 -58.712810 30.811399 -141.242245 0.000000 0.000000 0.000000 -2.809416 4.258065 73.348045 -50.284884 -20.950781 -143.958362 -43.893747 -45.057194 170.261674 2.244356 -12.064639 132.900214 0.000000 0.000000 0.000000 9.283561 -15.679195 22.503214 65.882549 3.356957 1.519856 140.823617 56.872628 51.442369 0.000000 0.000000 0.000000 14.048897 4.230482 3.163632 -78.621818 19.401332 -43.169137 -102.378497 -18.255519 8.416731 0.000000 0.000000 0.000000
0.000871 0.392568 0.520972 -3.299971 -10.777259 -127.401210 112.995205 -4.186887 -16.657788 3.228922 -1.126702 -20.059451 -65.023499 10.231508 -172.032430 0.000000 0.000000 0.000000 -93.445730 -10.272184 -22.868728 -94.634417 2.312380 -73.362897 -47.506965 26.830649 -129.984273 0.000000 0.000000 0.000000 -4.399703 2.005140 17.622570 -13.650891 -30.868528 161.818607 -34.087776 -19.933738 -144.916854 10.587382 -10.415493 85.279978 0.000000 0.000000 0.000000 7.239879 -22.126084 3.651649 56.458703 -1.721345 9.930729 154.411036 49.715248 95.030697 0.000000 0.000000 0.000000 9.842741 7.638313 4.940848 -66.008697 30.200222 -22.045333 -120.812661 -28.857409 28.758675 0.000000 0.000000 0.000000
-0.011027 0.315833 0.599109 -4.357407 -9.391222 -111.946248 101.286312 13.302119 -22.494622 3.100757 -0.785261 -7.188180 95.663319 -24.522058 111.157481 0.000000 0.000000 0.000000 -77.777946 -19.463879 -30.201095 -100.445471 0.426796 -60.072443 -45.430897 17.025519 -133.364806 0.000000 0.000000 0.000000 -9.528422 -4.234758 11.807707 -19.615708 -34.250562 155.911010 -48.101355 -18.504910 -130.057894 -34.800685 -27.065308 33.563936 0.000000 0.000000 0.000000 22.391880 -13.163013 6.308836 27.034918 7.713190 6.572166 -163.558628 42.647364 -164.217572 0.000000 0.000000 0.000000 -1.566420 4.503793 2.547053 -50.552842 35.343815 -19.298547 -130.783687 -33.586521 57.160290 0.000000 0.000000 0.000000
-0.020071 0.254999 0.677018 -0.587338 -8.722005 -101.529390 79.862052 27.380686 -33.643808 17.647047 -7.605642 12.918407 119.497600 40.811223 50.104740 0.000000 0.000000 0.000000 -61.002648 -18.580354 -41.521079 -101.896529 -1.914373 -46.181807 -33.215161 4.351189 -127.826248 0.000000 0.000000 0.000000 -1.466132 0.284273 3.384680 -23.063490 -50.525656 135.351388 -53.030627 -14.323085 -106.357193 9.164495 -8.063448 -12.894564 0.000000 0.000000 0.000000 37.283137 -2.201674 9.001764 3.571961 -4.068431 1.010750 -161.762543 29.636371 -135.638023 0.000000 0.000000 0.000000 -11.976350 5.451723 3.625368 -23.324589 45.138388 -10.299453 -117.888003 -32.094121 35.725596 0.000000 0.000000 0.000000
-0.028333 0.208913 0.750022 -0.933417 -10.187042 -97.027116 57.557520 28.653858 -47.024959 36.112694 -19.843015 22.092443 10.757484 -31.703049 -92.017924 0.000000 0.000000 0.000000 -51.749266 -16.154357 -42.249517 -105.507796 11.673993 -30.308541 -32.237428 12.498191 -116.399123 0.000000 0.000000 0.000000 0.566852 0.728123 12.002867 58.676426 -48.004181 -40.687405 -50.847013 56.373103 -8.817178 9.586020 -13.035673 5.730244 0.000000 0.000000 0.000000 26.878111 -8.723087 2.358270 -16.235458 -6.840031 -1.056927 -166.063074 -2.456820 14.649391 0.000000 0.000000 0.000000 5.013997 6.916101 17.221130 -29.860208 49.081872 -20.693256 -108.471202 -10.526195 9.541090 0.000000 0.000000 0.000000
-0.035534 0.185078 0.811482 -0.786604 -11.195170 -95.997569 44.851913 24.426310 -47.689414 35.801131 -30.698988 42.473823 -6.595186 -49.446267 -40.452179 0.000000 0.000000 0.000000 -44.042488 -13.467652 -39.467739 -60.262000 52.329930 37.382531 -19.039072 4.052305 -89.126069 0.000000 0.000000 0.000000 2.667170 1.357698 7.416169 14.556883 -9.691125 -19.414091 -5.719358 7.444357 28.440184 2.628820 -1.202689 -9.154924 0.000000 0.000000 0.000000 21.058946 -10.307088 1.695752 -40.640741 -19.654902 1.861894 -166.063123 -32.185914 161.586697 0.000000 0.000000 0.000000 -18.860627 8.696104 4.133699 26.764242 50.849905 4.335172 -83.438156 15.039260 -11.567234 0.000000 0.000000 0.000000
-0.043299 0.176371 0.859874 -0.794416 -10.829366 -91.716679 40.735558 20.471005 -39.712315 29.163669 -30.851492 52.841018 -21.964154 -48.734932 -10.468777 0.000000 0.000000 0.000000 -43.283569 -12.745030 -37.927448 9.523518 19.063704 100.576665 -9.331735 -15.030010 -75.123100 0.000000 0.000000 0.000000 4.781609 1.858943 6.227887 7.391346 -4.623501 -14.938854 -3.271625 0.071797 26.738863 7.334534 -5.096919 -12.153260 0.000000 0.000000 0.000000 22.021801 -11.482152 1.351102 -54.180309 -26.253224 7.029652 -169.109809 -61.364158 179.826032 0.000000 0.000000 0.000000 -18.824627 8.006253 3.721135 50.952718 43.956368 10.427750 -88.871864 31.568246 -28.056471 0.000000 0.000000 0.000000
-0.051736 0.182960 0.894692 2.316344 -11.358233 -89.175420 41.483802 19.433941 -29.119929 28.492785 -32.241223 56.207680 -24.901725 -48.925041 -4.286921 0.000000 0.000000 0.000000 -41.614509 -10.936366 -35.288885 15.015278 14.049054 108.164631 -8.585310 -8.769495 -65.715315 0.000000 0.000000 0.000000 7.180120 2.888595 2.215175 1.370510 -1.482636 -6.836537 1.049332 -1.825544 22.934894 1.856837 -1.476762 -9.547522 0.000000 0.000000 0.000000 17.848996 -9.223800 1.566553 -64.449792 -25.343434 8.862174 -144.062462 -74.741435 148.407757 0.000000 0.000000 0.000000 -15.398436 5.740692 3.184746 63.666493 31.885443 7.615006 -99.477308 46.222044 -49.154370 0.000000 0.000000 0.000000
-0.060159 0.195827 0.917375 -0.860553 -10.893924 -79.991612 38.680329 16.106852 -29.271527 36.244737 -33.158016 50.621415 -27.238859 -57.005767 -4.687528 0.000000 0.000000 0.000000 -43.758991 -11.252917 -33.602964 9.746950 18.852402 110.210914 -6.936578 -5.331355 -49.395615 0.000000 0.000000 0.000000 6.389135 2.769155 -4.828854 2.367336 -1.780141 -6.264337 -1.212406 -1.799525 24.301028 5.087154 -4.456042 -1.968002 0.000000 0.000000 0.000000 11.012797 -12.724141 3.462414 -65.547492 -18.960512 3.760315 -90.387004 -74.248045 86.154601 0.000000 0.000000 0.000000 -2.213546 7.963991 2.833017 63.769845 13.198600 -2.114989 -114.322597 60.331436 -79.062700 0.000000 0.000000 0.000000
-0.067841 0.209129 0.926991 0.513448 -9.775264 -72.760720 39.164780 15.269722 -27.833927 38.070097 -34.332082 52.291623 -13.776701 -57.791277 -22.498581 0.000000 0.000000 0.000000 -45.214000 -11.569861 -37.214577 5.656812 25.425636 115.452693 -5.269538 6.869624 -41.326922 0.000000 0.000000 0.000000 4.501248 1.974634 -6.390141 2.176809 -2.130899 1.717637 -1.079199 2.714037 14.454085 1.624474 -3.405194 27.497467 0.000000 0.000000 0.000000 -2.292796 -12.220738 4.960144 -55.590651 -8.904610 -2.591628 -90.393509 -64.293310 71.770064 0.000000 0.000000 0.000000 15.024241 7.775265 2.333615 49.403740 -8.020759 -7.849098 -140.921067 69.241936 -121.702735 0.000000 0.000000 0.000000
-0.074234 0.223880 0.925854 0.821708 -9.072992 -63.392413 42.612293 15.725744 -28.053397 31.867686 -30.660948 55.663765 -0.193960 -52.490239 -39.783903 0.000000 0.000000 0.000000 -45.628808 -11.786094 -40.040305 3.454304 26.161958 116.208936 -5.071910 12.223928 -40.072436 0.000000 0.000000 0.000000 3.286895 1.374287 -5.932826 3.715189 -4.767690 28.944727 -7.011908 2.273814 -23.445744 -4.534968 -0.272644 56.300418 0.000000 0.000000 0.000000 -13.979724 -6.634103 0.954383 -43.596705 6.603220 -2.948200 -94.443292 -51.116488 56.732868 0.000000 0.000000 0.000000 30.290719 7.195546 0.564508 34.522097 -28.370316 -6.124709 172.834379 75.631724 173.490628 0.000000 0.000000 0.000000
-0.078936 0.248836 0.916959 -0.763401 -9.232546 -54.033686 46.345088 17.090085 -31.245671 24.986832 -25.762119 59.021189 4.206145 -46.627764 -44.649431 0.000000 0.000000 0.000000 -48.426573 -12.323874 -40.896262 6.284202 16.565782 115.603080 -6.038393 11.817922 -42.131730 0.000000 0.000000 0.000000 1.340686 0.430989 -2.570599 4.199886 -21.303300 96.188688 -23.119804 -9.049290 -87.280163 -4.923613 -7.081037 37.083818 0.000000 0.000000 0.000000 1.101511 1.646973 3.260703 -50.852771 0.104943 -0.576341 -98.908369 -50.683739 51.152364 0.000000 0.000000 0.000000 18.877060 1.813046 -2.123466 48.615059 -29.634113 -9.484768 116.843826 71.032751 105.991748 0.000000 0.000000 0.000000
-0.080887 0.291592 0.905261 -0.628381 -11.359856 -44.296400 52.825345 18.997531 -29.188692 12.007255 -13.937426 58.197306 4.358036 -33.064773 -41.233702 0.000000 0.000000 0.000000 -46.489337 -9.987067 -39.925159 6.387475 12.666964 108.771881 -9.150094 13.024455 -51.540056 0.000000 0.000000 0.000000 0.098967 -0.290263 4.302246 0.420417 -31.020842 120.649638 -31.754984 -19.777388 -103.309229 -9.057214 -13.859769 25.267470 0.000000 0.000000 0.000000 -6.912076 -0.870196 2.218798 -44.011617 -1.268424 2.316798 -93.424985 -59.575050 52.516431 0.000000 0.000000 0.000000 20.396482 2.193545 -1.302001 49.676865 -20.149152 -3.401923 82.437594 78.597279 75.419224 0.000000 0.000000 0.000000
-0.080639 0.353656 0.893651 -1.067528 -12.453676 -33.359709 56.060475 18.801555 -26.549943 0.896563 -3.487911 50.310126 4.493514 -17.708923 -35.964841 0.000000 0.000000 0.000000 -47.124379 -8.439651 -37.852746 10.463721 2.676024 94.969329 -10.991068 9.216853 -56.340914 0.000000 0.000000 0.000000 -1.651443 -0.610899 15.083060 -1.624098 -36.304847 127.901965 -34.899878 -26.031643 -112.189035 -1.877853 -16.207334 7.777522 0.000000 0.000000 0.000000 -10.255986 -2.015704 2.514678 -42.856931 -1.607908 3.750943 -72.488872 -68.887713 43.589863 0.000000 0.000000 0.000000 20.293202 3.947482 0.641721 54.525533 -11.907215 3.515966 9.587072 78.420252 7.036270 0.000000 0.000000 0.000000
-0.079806 0.438197 0.884595 -2.000516 -13.491956 -24.957730 56.665365 16.970559 -22.699839 -7.046196 2.013915 38.797530 6.751447 9.206201 -14.493147 0.000000 0.000000 0.000000 -41.730156 -5.538507 -34.070638 8.934131 2.692947 76.802363 -11.634858 6.922408 -55.946140 0.000000 0.000000 0.000000 -3.555835 -0.272624 20.550925 10.440618 -36.967030 99.860847 -40.514231 -22.084231 -96.037327 1.690491 -14.784367 4.243747 0.000000 0.000000 0.000000 -10.055862 -1.010079 1.681130 -42.912590 0.996895 1.740124 -50.836762 -60.625072 24.253092 0.000000 0.000000 0.000000 24.944152 4.600537 6.285171 55.963053 -5.847251 4.559278 -1.929730 65.195519 -0.334102 0.000000 0.000000 0.000000
-0.078876 0.530796 0.879260 -3.059067 -13.860471 -16.559769 54.685090 14.054259 -18.734533 -11.334561 3.335330 23.132898 19.939234 31.693396 13.416249 0.000000 0.000000 0.000000 -37.378029 -3.427915 -30.357555 9.359373 0.518823 56.778476 -10.208346 0.292508 -47.230376 0.000000 0.000000 0.000000 -4.517465 0.361033 25.795010 23.293213 -23.349327 31.264879 -38.018254 2.988470 -50.424850 -3.084983 -14.957174 27.418765 0.000000 0.000000 0.000000 -21.440376 -6.208310 -7.921897 -31.464358 18.115061 -2.104578 -35.094152 -48.354789 13.702271 0.000000 0.000000 0.000000 49.182631 8.440711 23.831656 37.728330 -1.076233 -1.957894 -5.100111 51.852290 -1.430528 0.000000 0.000000 0.000000
-0.078915 0.617891 0.879377 -4.263111 -14.170099 -10.094500 53.193726 12.105354 -16.151246 -11.364171 2.767917 15.163348 22.129882 29.893081 37.501449 0.000000 0.000000 0.000000 -32.619421 -2.003269 -28.554318 6.002198 1.307575 42.795167 -7.175583 -1.704116 -28.879975 0.000000 0.000000 0.000000 -5.649617 1.130380 30.068226 19.938494 -10.654507 -2.616686 -21.572799 14.827529 -8.309121 4.524723 -9.441078 16.544226 0.000000 0.000000 0.000000 -36.096227 -12.518397 -4.966233 -24.210664 10.240160 -2.028403 -19.329700 -42.029517 7.987109 0.000000 0.000000 0.000000 49.122712 13.779781 19.087781 31.808869 2.468458 -4.146588 -2.335378 42.857397 0.459777 0.000000 0.000000 0.000000
-0.079237 0.686732 0.885558 -4.276181 -14.465328 -5.639783 50.563752 9.407349 -11.878902 -8.687572 1.623036 7.712929 14.289410 22.771825 41.817745 0.000000 0.000000 0.000000 -31.655821 -1.149794 -25.145832 5.529794 0.422495 28.268190 -3.615187 -4.977424 -7.563215 0.000000 0.000000 0.000000 -5.758910 1.570578 32.861364 15.392621 -6.080868 -13.363871 -13.419605 13.326606 7.145614 4.878003 -5.213427 5.222816 0.000000 0.000000 0.000000 -40.299482 -13.971911 1.073030 -22.935728 1.461782 -2.131029 -9.704046 -37.024464 4.305821 0.000000 0.000000 0.000000 45.547535 17.030296 16.781640 32.215014 7.790756 -3.165089 -2.180450 34.434790 0.562972 0.000000 0.000000 0.000000
-0.078992 0.739849 0.897224 -3.807760 -13.372634 -2.027278 46.006513 6.687986 -9.107397 -3.991211 0.559667 2.221748 4.573749 14.015425 41.370840 0.000000 0.000000 0.000000 -30.386903 -0.497090 -20.809214 2.737213 0.423827 16.498279 -1.195729 -6.541027 6.392738 0.000000 0.000000 0.000000 -5.385219 1.540003 33.579332 10.429538 -3.613521 -15.794527 -7.985372 9.044751 11.737079 1.712318 -0.810879 -3.344586 0.000000 0.000000 0.000000 -40.353863 -13.706243 4.590234 -24.870900 -4.068447 -2.268136 -5.948733 -32.419692 2.802327 0.000000 0.000000 0.000000 41.191881 18.907759 14.318798 33.246205 10.502098 -2.004809 -2.138458 29.289206 0.498430 0.000000 0.000000 0.000000
-0.078521 0.773752 0.911734 -3.267664 -13.482975 0.047124 43.584000 5.318721 -6.752581 -1.262290 0.178935 -0.562458 -1.211133 7.196144 35.497118 0.000000 0.000000 0.000000 -30.663058 -0.110850 -18.740504 2.844843 0.077371 10.034614 0.860854 -6.945063 16.659293 0.000000 0.000000 0.000000 -5.692112 1.573673 32.003350 9.027860 -2.707828 -18.932639 -5.776798 8.396259 17.010872 0.979639 0.330304 -9.542054 0.000000 0.000000 0.000000 -40.144529 -13.041673 5.507230 -24.624121 -7.458333 -2.231562 -5.878750 -30.761653 2.665652 0.000000 0.000000 0.000000 38.571875 19.313903 13.397649 33.201540 13.165116 -1.512788 -2.762368 26.896873 0.324926 0.000000 0.000000 0.000000
-0.078541 0.795866 0.926326 -3.240661 -11.576390 1.945428 41.646378 4.252304 -6.544445 0.997213 0.027827 -3.768142 -4.039971 4.612496 36.757625 0.000000 0.000000 0.000000 -29.855421 -0.038026 -16.823459 1.809743 0.074662 6.687296 1.854753 -8.041834 25.576775 0.000000 0.000000 0.000000 -4.745804 1.018171 30.214858 7.099446 -2.116489 -17.406718 -4.515583 5.958264 16.461604 -0.995892 1.785085 -12.711847 0.000000 0.000000 0.000000 -39.346137 -12.509375 6.022109 -24.779950 -9.604120 -2.012526 -5.721377 -29.549516 2.546424 0.000000 0.000000 0.000000 36.144479 20.145310 12.675830 34.163843 13.267289 -1.125732 -2.019948 26.316990 0.457816 0.000000 0.000000 0.000000
-0.079397 0.805720 0.940370 -3.410296 -11.011844 2.390921 40.745619 3.513821 -5.092287 1.349693 0.114745 -6.145513 -4.168557 4.328743 36.096461 0.000000 0.000000 0.000000 -29.402283 0.126454 -15.210435 2.509869 -0.034563 6.502518 1.421939 -9.083886 27.574895 0.000000 0.000000 0.000000 -4.089376 0.700248 28.825388 7.633405 -2.106401 -18.766433 -3.942090 6.236470 18.012154 -1.643540 2.348370 -13.764668 0.000000 0.000000 0.000000 -40.033380 -13.048135 6.454798 -25.540054 -9.336179 -2.165847 -5.645395 -29.515866 2.526682 0.000000 0.000000 0.000000 36.067770 20.549271 13.147855 32.971452 13.316935 -1.259914 -1.932607 25.470320 0.448150 0.000000 0.000000 0.000000
-0.081091 0.812854 0.954024 -3.183421 -9.975642 2.899804 39.769422 2.700230 -3.673087 1.585104 0.220341 -8.281413 -4.697439 4.100842 36.936262 0.000000 0.000000 0.000000 -29.216898 0.205985 -13.693399 2.498322 -0.009568 7.554501 0.750018 -9.652919 27.000833 0.000000 0.000000 0.000000 -3.407371 0.348553 26.496558 7.975883 -2.147104 -18.607512 -3.880789 5.884733 18.489285 -2.197846 2.761681 -14.311759 0.000000 0.000000 0.000000 -40.070599 -13.175648 6.615397 -26.269222 -8.909794 -2.313925 -5.156224 -28.458895 2.317925 0.000000 0.000000 0.000000 35.757535 20.308556 12.902293 32.648197 12.951317 -1.361823 -1.897313 25.288569 0.444992 0.000000 0.000000 0.000000
-0.083122 0.817897 0.968122 -2.894032 -8.837995 2.443495 39.084703 2.252534 -3.206281 1.383540 0.220675 -8.080745 -5.338211 3.110484 35.288367 0.000000 0.000000 0.000000 -29.014265 0.311004 -11.592551 3.193698 -0.124496 7.713163 -2.588513 -14.164334 28.111545 0.000000 0.000000 0.000000 -3.437763 0.246239 25.177289 8.744201 -2.204761 -19.699752 -3.870408 5.779817 20.752208 -2.371961 2.958673 -14.644527 0.000000 0.000000 0.000000 -40.157473 -12.576925 6.108579 -26.578538 -8.882437 -2.452119 -5.648100 -27.815728 2.382494 0.000000 0.000000 0.000000 35.016155 19.693155 12.500219 32.817183 12.964309 -1.563112 -1.598095 25.348070 0.510168 0.000000 0.000000 0.000000
-0.084944 0.819746 0.982709 -2.435647 -8.390108 2.252969 38.270595 1.685426 -1.635929 1.398312 0.256614 -8.724425 -5.659013 2.701519 34.905421 0.000000 0.000000 0.000000 -29.211877 0.445638 -10.126766 3.229356 -0.138495 7.643079 -3.632131 -15.362251 27.487264 0.000000 0.000000 0.000000 -4.073187 0.272688 21.597716 9.173751 -2.651809 -16.418451 -3.608663 5.478541 18.744812 -1.718467 2.367558 -12.718166 0.000000 0.000000 0.000000 -39.850071 -11.848155 5.407407 -27.721913 -7.782555 -2.595101 -6.814151 -27.282482 2.627904 0.000000 0.000000 0.000000 34.841818 19.125097 11.918274 33.393596 11.905306 -1.629504 -1.403051 24.738462 0.534555 0.000000 0.000000 0.000000
-0.086292 0.817071 0.997398 -2.216632 -8.335985 1.864716 37.894975 1.360419 -0.370769 1.452398 0.241848 -8.491348 -5.431996 2.568590 33.595715 0.000000 0.000000 0.000000 -29.367918 0.543249 -9.290097 2.918684 -0.043197 9.337682 -3.370564 -14.590892 24.529448 0.000000 0.000000 0.000000 -4.009289 0.175550 18.379197 9.644955 -2.967925 -14.869864 -3.885564 5.890262 18.905635 -1.236241 2.073530 -12.897459 0.000000 0.000000 0.000000 -40.109895 -10.780558 4.328978 -27.883556 -6.764004 -2.755959 -7.049480 -26.604385 2.613721 0.000000 0.000000 0.000000 35.311266 18.250297 11.496339 33.344891 10.860598 -1.925896 -1.077616 24.769586 0.602419 0.000000 0.000000 0.000000
-0.087089 0.811516 1.012218 -1.756500 -8.823058 0.866425 37.404185 1.057665 1.476250 1.475989 0.225341 -8.208694 -5.211633 1.968674 30.970575 0.000000 0.000000 0.000000 -30.271364 0.706541 -8.449233 3.096578 -0.000557 11.458253 -2.827000 -13.306985 21.167164 0.000000 0.000000 0.000000 -2.744864 -0.076374 15.061047 8.196736 -2.743247 -12.851595 -3.875016 6.098779 18.209575 0.582570 0.750065 -13.211087 0.000000 0.000000 0.000000 -39.118853 -10.057703 3.775884 -29.083311 -5.246903 -3.123225 -7.732199 -27.431720 2.875330 0.000000 0.000000 0.000000 35.607528 17.124875 10.554786 33.443016 9.276851 -2.218436 -0.621375 25.027782 0.701195 0.000000 0.000000 0.000000
-0.087450 0.803945 1.027168 -1.440520 -9.090884 -0.447487 37.566093 0.713713 3.571538 0.751354 0.224844 -7.440252 -4.425858 2.131330 28.337072 0.000000 0.000000 0.000000 -31.546789 0.873946 -7.438068 3.080228 0.080426 13.544909 -1.040230 -10.127911 19.131103 0.000000 0.000000 0.000000 -1.909799 -0.195214 12.149874 7.433580 -2.716086 -10.658580 -4.087386 6.099591 16.945851 0.878120 0.479867 -12.558543 0.000000 0.000000 0.000000 -39.205621 -9.514445 3.289489 -29.261796 -3.504363 -3.403319 -7.582536 -28.409266 2.945075 0.000000 0.000000 0.000000 36.309772 16.258083 9.852273 32.464029 7.428864 -2.486145 0.374793 25.912598 0.925506 0.000000 0.000000 0.000000
-0.087690 0.792786 1.042421 -1.250386 -9.561782 -1.643024 37.337774 0.342805 5.941963 0.727220 0.201047 -6.894350 -2.986709 2.913264 24.846113 0.000000 0.000000 0.000000 -32.824903 1.261448 -5.614313 2.788717 0.183909 14.354511 0.904317 -5.669533 15.183139 0.000000 0.000000 0.000000 -0.846480 -0.270571 9.321477 6.633352 -2.502620 -10.130470 -4.017731 6.095696 17.352163 0.589191 0.687704 -13.085114 0.000000 0.000000 0.000000 -39.186589 -8.532129 2.728968 -29.465024 -2.528052 -3.687481 -8.285257 -29.686786 3.280850 0.000000 0.000000 0.000000 36.396638 15.540556 9.096509 32.093476 6.045788 -2.743779 0.232795 26.787348 0.923314 0.000000 0.000000 0.000000
-0.087576 0.780482 1.057558 -0.870082 -9.368044 -2.848461 37.728852 -0.038745 7.796181 -0.146216 0.231796 -6.219266 -1.029780 5.353560 23.923349 0.000000 0.000000 0.000000 -33.952217 1.607963 -3.654299 2.401474 0.282829 14.831067 1.365093 -3.747893 12.591550 0.000000 0.000000 0.000000 -0.491780 -0.252975 7.262209 6.026578 -2.348892 -9.437589 -4.018914 5.809679 16.861431 0.315689 0.774512 -11.795560 0.000000 0.000000 0.000000 -39.173324 -8.003603 2.352211 -28.986069 -1.925993 -3.729265 -9.546231 -30.153469 3.663777 0.000000 0.000000 0.000000 37.290449 15.204685 8.791491 30.377406 4.988629 -2.780318 1.192647 26.688476 1.104205 0.000000 0.000000 0.000000
-0.086461 0.769304 1.071947 -0.576674 -9.408333 -4.432575 37.529328 -0.390052 9.852451 -0.267138 0.208587 -5.323579 0.855137 7.590731 22.284856 0.000000 0.000000 0.000000 -34.849976 2.224320 -0.640594 1.639390 0.376867 13.420250 2.050581 -1.613011 10.793397 0.000000 0.000000 0.000000 0.247913 -0.249841 5.826961 5.111114 -2.019598 -9.607595 -3.619549 5.607272 17.306631 0.042742 1.055460 -13.658225 0.000000 0.000000 0.000000 -38.948458 -7.378361 2.081396 -29.303209 -2.228108 -3.779520 -10.395024 -30.427040 3.946258 0.000000 0.000000 0.000000 36.635281 14.847919 8.277095 31.052957 4.327298 -2.961700 0.274938 26.712426 0.912438 0.000000 0.000000 0.000000
-0.083799 0.760722 1.084969 -0.408253 -8.802496 -5.477629 37.572241 -0.714195 10.976671 -0.903053 0.237891 -4.614674 2.436699 9.625135 20.827136 0.000000 0.000000 0.000000 -35.702751 2.716599 1.982517 1.034125 0.453691 12.736669 2.891208 0.912931 9.327679 0.000000 0.000000 0.000000 0.834350 -0.218938 4.525448 4.679933 -1.891697 -8.938678 -3.840631 5.436814 16.616201 0.148365 0.956238 -12.908316 0.000000 0.000000 0.000000 -39.013733 -7.337723 1.870365 -29.446040 -2.219875 -3.721563 -10.765980 -30.294165 4.020119 0.000000 0.000000 0.000000 36.618846 14.675872 8.212673 30.723611 3.584806 -3.063128 0.118512 26.442022 0.863147 0.000000 0.000000 0.000000
-0.079530 0.755971 1.096584 -0.376324 -8.116698 -6.028389 37.320836 -0.905429 11.308169 -0.582157 0.182081 -3.734486 2.774378 9.971694 19.494341 0.000000 0.000000 0.000000 -35.774568 3.167119 4.614168 0.365086 0.465154 10.740406 2.714655 0.261949 9.931953 0.000000 0.000000 0.000000 1.227523 -0.156829 3.059990 4.534525 -1.774540 -9.729143 -3.693455 5.053095 17.418398 -0.110544 1.197316 -14.115570 0.000000 0.000000 0.000000 -39.476212 -7.167841 1.834890 -29.501256 -2.701005 -3.694357 -10.384335 -29.588345 3.835032 0.000000 0.000000 0.000000 35.402413 14.062870 7.634852 31.579959 3.338410 -3.238194 -0.581538 26.484571 0.726160 0.000000 0.000000 0.000000
-0.074429 0.754615 1.106798 -0.303059 -7.651004 -6.454051 37.173589 -1.085086 11.802979 -0.875035 0.195416 -3.262091 2.871264 9.891657 17.752321 0.000000 0.000000 0.000000 -35.495148 3.612333 7.181217 -0.489543 0.465692 8.149623 2.308725 -1.438944 11.730555 0.000000 0.000000 0.000000 1.038066 -0.092976 1.872340 4.694159 -1.827310 -9.668245 -3.477841 4.414133 17.526698 -0.686874 1.571965 -14.661837 0.000000 0.000000 0.000000 -39.172166 -6.623111 1.647682 -30.176639 -3.525756 -3.658802 -10.888949 -29.083761 3.916859 0.000000 0.000000 0.000000 33.870122 14.212784 7.428070 32.141430 3.146561 -3.283282 -1.749872 26.297319 0.468872 0.000000 0.000000 0.000000
-0.069523 0.754914 1.115218 -0.324963 -7.584067 -6.256845 37.044854 -1.157492 12.053954 -1.251030 0.226856 -3.076260 3.163610 10.144235 16.644611 0.000000 0.000000 0.000000 -35.013623 3.917500 8.793728 -1.694981 0.511201 5.813176 2.519159 -1.912525 13.571513 0.000000 0.000000 0.000000 0.872125 -0.051602 1.046072 5.683718 -2.124475 -10.758414 -4.182300 5.050796 17.676776 -0.738745 1.772845 -16.052376 0.000000 0.000000 0.000000 -39.240501 -6.153657 0.921708 -29.978368 -3.756392 -3.516238 -11.783396 -28.124124 3.988886 0.000000 0.000000 0.000000 33.662619 13.757312 7.418165 32.629228 2.994705 -3.460650 -1.501580 25.767440 0.527104 0.000000 0.000000 0.000000
-0.065714 0.758479 1.121350 -0.501067 -7.434796 -5.722990 36.597446 -1.237317 12.217220 -0.926748 0.211722 -3.677307 3.342258 10.427725 16.786714 0.000000 0.000000 0.000000 -34.156642 4.004290 9.801667 -2.254344 0.426734 3.343409 1.696744 -4.842663 17.163623 0.000000 0.000000 0.000000 1.098378 0.024797 -0.390181 5.193581 -1.986094 -9.825880 -3.537175 4.770089 16.626845 -0.824642 1.845698 -17.126119 0.000000 0.000000 0.000000 -38.141091 -6.072923 0.956880 -31.023599 -3.970428 -3.531843 -12.906676 -26.925132 4.086794 0.000000 0.000000 0.000000 32.019155 13.402570 6.925805 34.237751 3.078932 -3.490769 -2.504735 24.638271 0.315637 0.000000 0.000000 0.000000
-0.063077 0.762986 1.125188 -0.405539 -7.456768 -5.090083 36.245329 -1.297712 12.467920 -0.694946 0.220135 -4.639101 2.479866 9.252364 17.522782 0.000000 0.000000 0.000000 -33.852495 4.118135 10.351726 -2.608375 0.375970 1.936692 1.550684 -5.519086 18.389048 0.000000 0.000000 0.000000 1.211329 0.046297 -0.774795 5.681065 -2.093241 -10.853818 -4.084373 5.422855 16.477768 -0.580755 1.851327 -18.476592 0.000000 0.000000 0.000000 -37.308829 -6.143436 0.715638 -31.022222 -2.612039 -3.746864 -14.045173 -27.175565 4.383211 0.000000 0.000000 0.000000 31.572640 13.057131 6.949347 34.689526 2.751510 -3.683900 -1.738364 24.931534 0.483883 0.000000 0.000000 0.000000
-0.061459 0.768731 1.127352 -0.594173 -7.453093 -4.285020 35.971462 -1.379051 12.701741 0.128293 0.200906 -5.887422 1.618730 8.299752 19.265526 0.000000 0.000000 0.000000 -33.243753 4.010098 10.163057 -2.405045 0.270377 0.654771 0.590107 -7.978838 21.374460 0.000000 0.000000 0.000000 1.345837 0.093248 -1.578435 5.774148 -2.123051 -10.784929 -3.976368 5.430434 16.008488 -0.207149 1.645310 -19.013853 0.000000 0.000000 0.000000 -36.451150 -5.432831 0.179917 -31.390892 -2.277978 -3.826723 -15.364798 -27.078485 4.684943 0.000000 0.000000 0.000000 31.135061 12.485484 6.533284 35.346758 2.750991 -3.720983 -2.034681 24.827323 0.433871 0.000000 0.000000 0.000000
-0.060529 0.769611 1.128672 -0.904483 -8.063466 -3.741518 35.855493 -1.354004 13.119549 1.265287 0.134786 -6.176779 1.278259 7.804472 19.672682 0.000000 0.000000 0.000000 -32.779779 3.980283 9.735301 -2.451173 0.252809 0.343199 0.272277 -8.412333 20.921183 0.000000 0.000000 0.000000 2.044643 0.099747 -1.493461 5.839980 -2.146242 -10.932462 -4.229266 5.830937 15.223478 0.177066 1.413756 -18.852666 0.000000 0.000000 0.000000 -35.846940 -5.389678 0.086698 -31.688066 -1.135859 -4.054211 -15.614128 -27.568564 4.829901 0.000000 0.000000 0.000000 30.922730 11.961256 6.184000 35.922239 2.036893 -3.921553 -1.428984 25.873364 0.586646 0.000000 0.000000 0.000000
-0.060117 0.767924 1.129445 -1.088583 -9.185233 -3.573327 35.583253 -1.250981 13.898235 2.708478 0.026342 -6.046749 1.249233 7.829159 20.745836 0.000000 0.000000 0.000000 -32.628695 4.135441 9.524283 -2.837365 0.234909 -0.447655 0.749554 -7.575193 20.065554 0.000000 0.000000 0.000000 2.739437 0.069386 -0.895180 5.571177 -2.018075 -11.880905 -4.262516 6.210936 15.305413 1.116346 0.795402 -19.027935 0.000000 0.000000 0.000000 -35.545233 -5.494549 0.346773 -32.126508 -0.484507 -4.309805 -16.372896 -27.560439 5.026285 0.000000 0.000000 0.000000 31.109744 11.744834 5.925299 36.450834 1.802501 -4.026769 -1.827041 27.507761 0.545410 0.000000 0.000000 0.000000
-0.059942 0.763170 1.129916 -1.598605 -9.795002 -3.363706 36.596168 -1.246243 14.191642 2.975342 -0.010529 -5.792470 1.658236 8.564874 21.905894 0.000000 0.000000 0.000000 -32.321925 4.244219 9.766393 -3.016371 0.247336 -0.469063 1.120901 -5.808737 16.435903 0.000000 0.000000 0.000000 2.536214 0.062923 -0.851463 6.525572 -2.407844 -11.369700 -4.194817 6.032226 14.030709 1.598764 0.483687 -19.530073 0.000000 0.000000 0.000000 -35.798944 -5.044838 0.114541 -32.922927 0.833613 -4.680625 -15.962060 -28.386318 5.099801 0.000000 0.000000 0.000000 31.063274 11.864077 5.773721 36.755422 1.160953 -4.079785 -1.647939 28.243300 0.587467 0.000000 0.000000 0.000000
-0.059833 0.757001 1.130021 -1.579005 -10.701400 -3.230245 37.205544 -1.118646 14.446150 2.501058 -0.040521 -4.796222 2.250758 9.239443 21.637353 0.000000 0.000000 0.000000 -32.715765 4.410147 9.332378 -3.175690 0.321177 0.465841 0.791505 -6.350152 16.105936 0.000000 0.000000 0.000000 2.425146 0.072468 -1.014888 7.445088 -2.771401 -11.150852 -4.845389 6.479052 13.584251 2.152496 0.071007 -18.538861 0.000000 0.000000 0.000000 -35.765588 -5.117259 0.128740 -33.735001 1.514372 -4.932513 -15.049203 -27.932662 4.787067 0.000000 0.000000 0.000000 31.623998 11.727111 5.712178 37.152531 0.906634 -4.171314 -2.140157 28.458161 0.484707 0.000000 0.000000 0.000000
-0.059467 0.748894 1.129852 -1.338069 -11.077353 -3.147062 38.237761 -0.982487 13.997851 2.486288 -0.169345 -2.621857 1.499746 8.056341 21.031826 0.000000 0.000000 0.000000 -33.880202 4.624355 8.904542 -2.072396 0.304793 1.981156 -1.646436 -11.202976 19.081639 0.000000 0.000000 0.000000 2.031273 0.075360 -1.146086 7.146220 -2.680491 -11.037102 -4.119445 5.815976 13.773088 3.476521 -0.901954 -18.561132 0.000000 0.000000 0.000000 -35.440768 -4.952606 0.513398 -35.266632 0.725695 -5.096175 -13.553561 -26.852726 4.277724 0.000000 0.000000 0.000000 31.242934 12.083944 5.513861 37.376277 1.211495 -4.002695 -2.403673 27.612955 0.383071 0.000000 0.000000 0.000000
-0.058957 0.735895 1.129121 -0.901255 -10.981577 -3.791235 39.778424 -0.849616 13.223884 1.628448 -0.235449 0.610630 0.601688 6.137213 17.666275 0.000000 0.000000 0.000000 -35.044850 4.808284 8.907485 -1.818143 0.446474 4.674600 -4.756453 -16.470095 23.381170 0.000000 0.000000 0.000000 1.429425 0.023669 -0.422924 8.032440 -2.939442 -11.774336 -4.635332 5.603390 14.664690 3.279879 -0.873516 -17.992805 0.000000 0.000000 0.000000 -34.791917 -5.258288 0.924874 -37.030887 -0.069106 -5.255435 -11.257362 -26.602127 3.719827 0.000000 0.000000 0.000000 31.500832 12.224568 5.578833 37.144460 1.751322 -3.890487 -2.065370 26.663661 0.438954 0.000000 0.000000 0.000000
-0.058093 0.714519 1.127562 -0.197036 -11.115829 -4.795862 41.131288 -0.516225 12.117395 1.406077 -0.380762 4.890575 0.695008 5.204766 12.855059 0.000000 0.000000 0.000000 -37.140642 5.147543 8.645446 -1.088138 0.569286 8.185249 -7.933955 -20.786432 24.975569 0.000000 0.000000 0.000000 0.663184 -0.025929 0.410427 7.704841 -2.916204 -10.998107 -4.144180 5.369104 14.401500 4.817700 -1.796888 -18.953865 0.000000 0.000000 0.000000 -34.855049 -5.111149 0.948104 -37.438806 -2.114682 -4.767270 -9.878371 -25.488170 3.251797 0.000000 0.000000 0.000000 31.715088 12.802448 5.804267 36.994617 2.991917 -3.466933 -2.157952 25.448673 0.385370 0.000000 0.000000 0.000000
-0.056973 0.681190 1.124292 0.692502 -10.890833 -5.859877 42.409196 -0.262972 11.109148 1.254699 -0.493285 8.810919 1.594153 5.878169 9.049815 0.000000 0.000000 0.000000 -39.360889 5.309525 7.950424 -1.847233 1.097147 13.360081 -9.046542 -22.119611 20.542755 0.000000 0.000000 0.000000 0.042472 -0.110533 2.307182 7.721583 -2.902107 -11.569310 -4.573959 5.352001 14.909904 5.595167 -2.372876 -18.404288 0.000000 0.000000 0.000000 -33.828422 -6.564035 2.044722 -38.372508 -3.969285 -4.413560 -6.180166 -25.158297 2.394311 0.000000 0.000000 0.000000 32.814427 13.363073 6.300687 36.088997 5.029495 -2.904031 -2.428332 24.654743 0.318068 0.000000 0.000000 0.000000
-0.055525 0.644308 1.118633 1.174949 -10.267697 -6.952117 44.025623 0.052530 9.574605 1.792360 -0.758882 12.741156 2.982632 8.108463 7.686544 0.000000 0.000000 0.000000 -41.505884 5.075810 6.489851 -2.775533 1.852222 19.108070 -8.292464 -20.610230 12.029824 0.000000 0.000000 0.000000 -0.848288 -0.199330 5.681968 8.655728 -3.169769 -12.670423 -5.201003 5.199310 14.857674 6.547849 -3.018063 -18.019027 0.000000 0.000000 0.000000 -33.987895 -7.761648 2.747606 -38.297038 -5.305846 -3.993985 -4.721079 -24.009089 1.952787 0.000000 0.000000 0.000000 33.523446 14.700447 7.423972 34.689511 6.756093 -2.404189 -3.687544 23.196916 0.061117 0.000000 0.000000 0.000000
-0.053330 0.603699 1.109389 1.690455 -10.973435 -7.699779 45.867392 0.691022 8.396161 1.743130 -0.881440 16.882965 4.610058 10.745410 5.963829 0.000000 0.000000 0.000000 -44.272593 4.700463 3.205553 -3.628437 2.832158 25.218850 -7.508059 -18.161327 2.271599 0.000000 0.000000 0.000000 -1.856362 -0.202862 9.665099 9.881549 -3.696680 -12.410355 -6.440067 6.498948 12.624124 7.468492 -3.856985 -14.927300 0.000000 0.000000 0.000000 -34.396636 -9.626081 3.319088 -37.615096 -5.351024 -3.572578 -3.627694 -22.615030 1.562015 0.000000 0.000000 0.000000 34.847290 15.602861 8.729377 32.803967 9.350579 -1.699161 -4.652417 22.171591 -0.105532 0.000000 0.000000 0.000000
-0.050389 0.570067 1.096505 1.939075 -11.545563 -7.861526 47.885908 1.680260 6.123966 1.461822 -0.909659 21.443307 5.448364 11.956776 3.620883 0.000000 0.000000 0.000000 -46.174839 4.338667 0.631910 -4.445777 3.590395 28.567544 -7.737417 -17.260797 -5.891735 0.000000 0.000000 0.000000 -1.762027 -0.206059 14.467065 9.276073 -3.539653 -12.736587 -6.436674 6.550458 10.528873 7.406113 -4.256562 -11.723094 0.000000 0.000000 0.000000 -35.457503 -10.849391 3.967940 -36.513289 -5.764810 -3.161036 -2.924087 -21.391233 1.318993 0.000000 0.000000 0.000000 36.014958 16.817884 9.745621 31.223122 10.956165 -1.170848 -5.592399 20.712072 -0.256008 0.000000 0.000000 0.000000
-0.045932 0.542471 1.079525 1.713244 -12.529122 -7.257105 50.115910 2.448313 5.131111 0.658940 -0.642382 22.754163 6.610858 13.932563 1.139467 0.000000 0.000000 0.000000 -48.279161 3.998539 -2.281165 -3.381430 3.435567 30.188725 -8.169944 -16.739981 -13.520506 0.000000 0.000000 0.000000 -2.216514 -0.054781 18.794805 9.472690 -3.797296 -11.232888 -6.636137 7.286060 6.808505 7.484816 -4.436488 -9.691636 0.000000 0.000000 0.000000 -37.053320 -13.262688 5.059359 -35.135624 -6.251961 -2.459223 -2.277716 -18.992482 1.030866 0.000000 0.000000 0.000000 36.728254 17.940659 11.031092 29.358818 12.940516 -0.588329 -6.732022 19.792345 -0.416726 0.000000 0.000000 0.000000
-0.039699 0.528759 1.058239 1.770046 -13.761097 -6.352655 52.012698 3.853462 2.774790 -1.499852 0.186943 25.623827 6.888553 14.156777 -2.603858 0.000000 0.000000 0.000000 -49.789376 3.378396 -5.968112 -2.543282 3.258108 31.002793 -8.278685 -16.074581 -17.100308 0.000000 0.000000 0.000000 -2.384681 0.220801 24.213041 9.648893 -3.859128 -11.371784 -6.973979 7.656502 3.098439 6.780296 -4.437556 -5.795397 0.000000 0.000000 0.000000 -38.327216 -14.925933 5.815181 -33.597394 -6.132215 -1.986011 -3.813038 -19.132700 1.276601 0.000000 0.000000 0.000000 37.112303 20.541893 13.295872 28.098929 13.985721 -0.202909 -7.479021 18.226760 -0.480939 0.000000 0.000000 0.000000
-0.032118 0.522308 1.033288 1.775873 -13.786694 -4.494311 53.537700 4.973189 0.041337 -4.603238 1.344259 25.315714 7.581381 15.423130 -5.384462 0.000000 0.000000 0.000000 -52.021179 2.870616 -8.372564 0.780424 1.746863 29.135587 -8.571673 -17.233695 -18.924389 0.000000 0.000000 0.000000 -2.796312 0.623360 29.473873 10.002176 -3.399836 -16.236776 -6.602027 8.053426 5.779701 8.246529 -4.976976 -9.314400 0.000000 0.000000 0.000000 -40.183238 -16.625877 7.371209 -31.936665 -8.756704 -1.461169 -3.878269 -18.144172 1.232005 0.000000 0.000000 0.000000 37.899909 22.066471 14.932292 25.183589 16.662381 -0.019894 -9.864793 16.053897 -0.695711 0.000000 0.000000 0.000000
-0.024904 0.526345 1.005779 1.223781 -13.470426 -2.740464 53.402140 5.981493 -3.046861 -4.813037 1.404153 24.312008 8.104630 16.536285 -5.194245 0.000000 0.000000 0.000000 -51.845450 1.190751 -13.061536 2.133012 1.443341 31.848303 -8.228457 -17.422553 -15.954427 0.000000 0.000000 0.000000 -1.830323 0.701270 35.864807 11.697157 -3.733112 -17.400021 -9.123478 8.548955 1.767789 7.596023 -5.119710 -4.792544 0.000000 0.000000 0.000000 -41.184199 -18.497948 7.526893 -30.047315 -8.934819 -0.765826 -4.422692 -16.838247 1.220849 0.000000 0.000000 0.000000 38.861777 23.532443 17.438821 22.764016 18.388874 0.127666 -9.581659 13.624519 -0.534176 0.000000 0.000000 0.000000
-0.018994 0.535177 0.977355 1.798182 -14.097517 -0.754281 51.976177 5.940842 -3.464587 -5.952334 1.566502 18.659730 9.664179 19.953894 -3.030363 0.000000 0.000000 0.000000 -52.649597 0.358921 -16.429073 3.473622 0.761858 29.553001 -8.220334 -18.411299 -13.169890 0.000000 0.000000 0.000000 -1.554434 1.013254 40.288501 10.651109 -2.919114 -21.004106 -7.737977 7.187836 3.297419 5.739247 -3.183947 -8.492786 0.000000 0.000000 0.000000 -41.840081 -16.723662 7.290365 -30.200829 -12.699091 -0.297523 -4.371863 -17.595151 1.283929 0.000000 0.000000 0.000000 39.834290 24.753457 17.878835 17.602833 20.020955 0.073121 -12.201272 14.217307 -0.841592 0.000000 0.000000 0.000000
-0.015447 0.548990 0.949083 1.039159 -12.981667 2.103366 51.760554 7.544692 -8.981133 -6.206757 1.644236 18.789704 10.063322 20.206973 2.354794 0.000000 0.000000 0.000000 -52.287631 -0.574382 -18.579210 6.112568 -0.341802 27.041961 -8.758264 -21.180071 -8.961807 0.000000 0.000000 0.000000 0.120813 0.295229 42.484376 10.092816 -2.475278 -23.085011 -8.962951 6.907621 1.704511 9.981046 -6.702859 -5.773050 0.000000 0.000000 0.000000 -46.021102 -18.175760 8.411682 -24.605371 -9.920010 -0.599368 -5.972182 -22.523752 2.006812 0.000000 0.000000 0.000000 45.000266 21.783453 17.121947 13.102464 21.126479 -0.250370 -11.565959 11.529891 -0.575158 0.000000 0.000000 0.000000
