HIERARCHY
ROOT Hips
{
	OFFSET -0.001795 -0.223333 0.028219
	CHANNELS 6 Xposition Yposition Zposition Zrotation Yrotation Xrotation
	JOINT LeftUpLeg
	{
		OFFSET 0.069520 -0.091406 -0.006815
		CHANNELS 3 Zrotation Yrotation Xrotation
		JOINT LeftLeg
		{
			OFFSET 0.034277 -0.375199 -0.004496
			CHANNELS 3 Zrotation Yrotation Xrotation
			JOINT LeftFoot
			{
				OFFSET -0.013596 -0.397961 -0.043693
				CHANNELS 3 Zrotation Yrotation Xrotation
				JOINT LeftToe
				{
					OFFSET 0.026358 -0.055791 0.119288
					CHANNELS 3 Zrotation Yrotation Xrotation
					End Site
					{
						OFFSET 0.000000 0.000000 0.000000
					}
				}
			}
		}
	}
	JOINT RightUpLeg
	{
		OFFSET -0.067670 -0.090522 -0.004320
		CHANNELS 3 Zrotation Yrotation Xrotation
		JOINT RightLeg
		{
			OFFSET -0.038290 -0.382569 -0.008850
			CHANNELS 3 Zrotation Yrotation Xrotation
			JOINT RightFoot
			{
				OFFSET 0.015774 -0.398415 -0.042312
				CHANNELS 3 Zrotation Yrotation Xrotation
				JOINT RightToe
				{
					OFFSET -0.025372 -0.048144 0.123348
					CHANNELS 3 Zrotation Yrotation Xrotation
					End Site
					{
						OFFSET 0.000000 0.000000 0.000000
					}
				}
			}
		}
	}
	JOINT Spine
	{
		OFFSET -0.002533 0.108963 -0.026696
		CHANNELS 3 Zrotation Yrotation Xrotation
		JOINT Spine1
		{
			OFFSET 0.005487 0.135180 0.001092
			CHANNELS 3 Zrotation Yrotation Xrotation
			JOINT Spine2
			{
				OFFSET 0.001457 0.052922 0.025425
				CHANNELS 3 Zrotation Yrotation Xrotation
				JOINT Neck
				{
					OFFSET -0.002778 0.213870 -0.042857
					CHANNELS 3 Zrotation Yrotation Xrotation
					JOINT Head
					{
						OFFSET 0.005152 0.064970 0.051349
						CHANNELS 3 Zrotation Yrotation Xrotation
						End Site
						{
							OFFSET 0.000000 0.000000 0.000000
						}
					}
				}
				JOINT LeftShoulder
				{
					OFFSET 0.078845 0.121749 -0.034090
					CHANNELS 3 Zrotation Yrotation Xrotation
					JOINT LeftArm
					{
						OFFSET 0.090977 0.030469 -0.008868
						CHANNELS 3 Zrotation Yrotation Xrotation
						JOINT LeftForeArm
						{
							OFFSET 0.259612 -0.012772 -0.027456
							CHANNELS 3 Zrotation Yrotation Xrotation
							JOINT LeftHand
							{
								OFFSET 0.249234 0.008986 -0.001171
								CHANNELS 3 Zrotation Yrotation Xrotation
								End Site
								{
									OFFSET 0.000000 0.000000 0.000000
								}
							}
						}
					}
				}
				JOINT RightShoulder
				{
					OFFSET -0.081759 0.118833 -0.038615
					CHANNELS 3 Zrotation Yrotation Xrotation
					JOINT RightArm
					{
						OFFSET -0.096012 0.032551 -0.009143
						CHANNELS 3 Zrotation Yrotation Xrotation
						JOINT RightForeArm
						{
							OFFSET -0.253742 -0.013329 -0.021401
							CHANNELS 3 Zrotation Yrotation Xrotation
							JOINT RightHand
							{
								OFFSET -0.255298 0.007772 -0.005559
								CHANNELS 3 Zrotation Yrotation Xrotation
								End Site
								{
									OFFSET 0.000000 0.000000 0.000000
								}
							}
						}
					}
				}
			}
		}
	}
}
MOTION
Frames: 76
Frame Time: 0.050000
0.000000 0.968309 0.000000 -0.492392 1.369836 -7.531478 2.497173 0.385182 5.783500 -0.859916 -0.040992 4.740764 1.408937 5.516574 6.698364 0.000000 0.000000 0.000000 1.020813 -0.055077 0.434386 0.075390 0.217650 5.978642 -2.721209 -10.990975 17.421578 0.000000 0.000000 0.000000 6.302743 -1.113423 12.300123 -9.352010 3.099780 -23.837065 -1.369349 2.711965 20.403895 9.981009 -5.965534 -13.990001 0.000000 0.000000 0.000000 -28.387934 -13.570398 5.249400 -45.947163 -2.747075 -5.769500 0.119797 -40.143825 1.652556 0.000000 0.000000 0.000000 36.381983 -1.322048 -1.967122 52.986561 5.649042 -5.292094 -7.226289 46.375779 0.268716 0.000000 0.000000 0.000000
-0.001541 0.967134 0.014983 -0.520536 0.893153 -7.189819 2.347518 0.460433 6.704182 -1.197607 0.035203 3.878751 2.758396 7.942016 6.830194 0.000000 0.000000 0.000000 0.823752 -0.119291 1.037605 0.998010 0.075619 6.166432 -5.159043 -15.170298 18.140083 0.000000 0.000000 0.000000 6.777570 -1.056681 11.302446 -10.383488 3.336575 -23.985474 -0.611856 2.399360 20.806807 7.996935 -4.158101 -16.357557 0.000000 0.000000 0.000000 -30.124132 -12.254544 4.688185 -44.789327 -1.050590 -6.308919 -0.717039 -36.676113 1.803929 0.000000 0.000000 0.000000 36.704855 -3.066073 -3.692691 54.027880 3.395988 -6.262064 -8.875640 43.325455 -0.445723 0.000000 0.000000 0.000000
-0.002683 0.965587 0.028785 -0.191295 0.940248 -7.455608 2.083676 0.553102 7.781039 -0.850208 -0.009489 3.690481 2.509111 7.560275 7.038572 0.000000 0.000000 0.000000 0.694152 -0.301664 2.755538 0.704906 0.095634 5.291569 -6.704928 -17.655765 18.246359 0.000000 0.000000 0.000000 7.021074 -0.946176 10.113356 -10.286039 3.290726 -24.321731 -1.613135 3.043404 22.048552 8.082200 -4.203076 -16.226894 0.000000 0.000000 0.000000 -30.316156 -11.003420 3.616054 -45.636809 0.004338 -6.846738 -0.649052 -33.877918 1.626359 0.000000 0.000000 0.000000 38.152899 -3.245156 -3.599929 53.221508 2.108604 -6.976513 -8.479460 37.822660 -0.234352 0.000000 0.000000 0.000000
-0.003325 0.964021 0.040453 0.267605 0.224542 -8.361043 1.668103 0.731526 9.554978 -0.577362 -0.034390 3.329436 2.473902 7.634645 7.689227 0.000000 0.000000 0.000000 0.254919 -0.457338 4.431411 0.679054 0.104451 5.282496 -6.612571 -17.567321 17.217712 0.000000 0.000000 0.000000 7.158541 -0.919905 10.020010 -10.924589 3.452604 -24.310704 -1.669217 3.652988 22.503326 7.830233 -3.596443 -18.629312 0.000000 0.000000 0.000000 -31.938249 -10.462298 3.145786 -45.898610 0.700348 -7.124354 2.380960 -32.029436 0.688077 0.000000 0.000000 0.000000 39.500670 -3.294704 -3.704752 54.349450 1.743480 -7.342956 -9.446481 32.713615 -0.453186 0.000000 0.000000 0.000000
-0.003525 0.961963 0.049589 0.301069 -0.172785 -8.986132 1.782794 0.776177 10.120909 -0.380948 -0.075786 3.804147 2.334050 7.652738 8.748310 0.000000 0.000000 0.000000 0.308827 -0.540712 5.249656 0.492986 0.159383 5.931442 -6.644935 -17.636236 16.562542 0.000000 0.000000 0.000000 6.789386 -0.847568 9.730583 -10.272938 3.417442 -22.568260 -2.286110 4.010686 21.107922 8.324704 -3.848569 -18.659193 0.000000 0.000000 0.000000 -32.752823 -9.787897 2.474613 -46.292613 1.569323 -7.308017 4.775066 -29.848973 -0.014644 0.000000 0.000000 0.000000 40.272201 -3.260925 -3.793598 54.505965 0.611817 -7.711334 -10.107408 28.422571 -0.593149 0.000000 0.000000 0.000000
-0.003380 0.959975 0.055962 0.624629 -0.630198 -9.675329 1.401361 0.860714 10.599946 -0.312002 -0.099907 4.300550 2.712845 8.553672 9.893806 0.000000 0.000000 0.000000 0.202797 -0.568302 5.625931 -0.014751 0.301697 7.295190 -6.589477 -17.545472 15.605026 0.000000 0.000000 0.000000 6.479946 -0.819857 9.847223 -10.699258 3.489683 -23.204095 -1.788363 3.690918 22.446396 8.535161 -3.830043 -20.527642 0.000000 0.000000 0.000000 -33.655671 -9.607840 2.684264 -46.356202 1.126498 -7.366698 6.842134 -28.288096 -0.457636 0.000000 0.000000 0.000000 40.550931 -2.755190 -3.691440 54.706191 1.112276 -7.575647 -11.878747 24.774178 -0.844789 0.000000 0.000000 0.000000
-0.002719 0.958310 0.059930 0.896481 -1.173726 -9.729649 1.362047 0.863187 10.413734 -0.306894 -0.105109 4.527384 2.290829 8.126348 11.256379 0.000000 0.000000 0.000000 -0.061672 -0.523423 5.371886 -0.191104 0.379549 8.235055 -6.458008 -17.329684 14.800379 0.000000 0.000000 0.000000 6.038945 -0.817132 10.185726 -10.838991 3.492813 -23.404261 -1.635427 3.271862 22.641914 8.245328 -3.671354 -21.092846 0.000000 0.000000 0.000000 -34.065543 -9.070897 2.671568 -46.808074 0.454646 -7.321248 8.637923 -27.243320 -0.804750 0.000000 0.000000 0.000000 40.056666 -2.213985 -3.608829 55.524856 0.980293 -7.615717 -12.382782 24.244393 -0.947574 0.000000 0.000000 0.000000
-0.001848 0.957451 0.061976 0.968883 -2.120965 -9.382997 1.150626 0.837379 9.667547 -0.041121 -0.157607 5.015427 2.426825 8.524598 12.470292 0.000000 0.000000 0.000000 -0.099256 -0.437694 4.583837 -0.373084 0.477057 9.358892 -5.993743 -16.513043 13.503002 0.000000 0.000000 0.000000 5.784218 -0.813345 10.348987 -10.608228 3.357301 -23.889032 -1.164674 3.346939 22.786174 8.622542 -4.044261 -20.886138 0.000000 0.000000 0.000000 -34.709472 -8.821576 2.748003 -46.734991 0.499332 -7.397474 9.296075 -27.246275 -0.925358 0.000000 0.000000 0.000000 39.388138 -1.778572 -3.472932 55.638268 0.913633 -7.579091 -12.228369 23.926940 -0.939797 0.000000 0.000000 0.000000
-0.000639 0.957149 0.063225 1.069630 -2.848876 -9.201904 1.007778 0.805013 9.028382 -0.028824 -0.159763 5.156037 2.654984 9.248027 14.643308 0.000000 0.000000 0.000000 -0.310022 -0.393810 4.286842 -0.570702 0.576505 10.349932 -5.074861 -14.702545 11.475332 0.000000 0.000000 0.000000 5.667023 -0.860178 11.019154 -10.392425 3.172164 -25.343210 -1.150744 3.828447 23.566490 9.058416 -4.194887 -21.935211 0.000000 0.000000 0.000000 -34.934908 -8.646354 2.683542 -46.812799 -0.050993 -7.301772 9.607314 -27.542446 -0.984473 0.000000 0.000000 0.000000 39.516578 -1.715827 -3.392402 55.383500 1.246465 -7.503972 -11.865543 25.083798 -0.907728 0.000000 0.000000 0.000000
0.000623 0.956249 0.064375 1.132551 -3.635149 -8.758871 0.675925 0.814073 8.739144 0.084846 -0.151326 4.405645 3.423882 10.594345 16.199933 0.000000 0.000000 0.000000 -0.522840 -0.341547 3.890947 -0.725887 0.658246 11.050069 -4.236286 -12.804926 9.243454 0.000000 0.000000 0.000000 5.753197 -0.887664 11.272708 -10.476947 3.118735 -26.061220 -0.987855 3.951939 23.546604 9.332083 -4.349362 -22.379335 0.000000 0.000000 0.000000 -35.021515 -8.193451 2.549115 -46.820122 -0.142927 -7.322033 9.656895 -28.171406 -0.994718 0.000000 0.000000 0.000000 38.895135 -1.428790 -3.317077 55.088146 1.272018 -7.378911 -10.709052 26.932687 -0.789856 0.000000 0.000000 0.000000
0.001718 0.954636 0.065647 1.106596 -4.244821 -8.370614 0.681358 0.783626 8.333023 -0.025211 -0.110849 3.706705 4.076585 11.773965 18.258804 0.000000 0.000000 0.000000 -0.632158 -0.286622 3.374072 -0.928789 0.747441 11.677347 -3.642721 -11.374122 7.866142 0.000000 0.000000 0.000000 6.121051 -0.940318 11.530071 -10.701551 3.080970 -27.028494 -0.895572 4.238714 24.122679 9.656288 -4.522728 -22.869033 0.000000 0.000000 0.000000 -35.262736 -8.208717 2.643453 -46.602319 -0.731904 -7.148403 9.641213 -28.993641 -1.002712 0.000000 0.000000 0.000000 39.131845 -1.134641 -3.135329 53.747591 2.273812 -6.851800 -9.782686 27.935796 -0.636941 0.000000 0.000000 0.000000
0.002556 0.950687 0.067121 1.222434 -5.323772 -8.516657 0.745783 0.736489 7.716263 -0.506338 -0.053862 4.665430 5.075055 13.207885 19.604396 0.000000 0.000000 0.000000 -0.657165 -0.228675 2.794999 -0.778131 0.835649 13.199223 -4.089869 -11.845508 5.999345 0.000000 0.000000 0.000000 6.830998 -1.067373 12.495923 -11.176878 3.067403 -28.634356 -0.428308 4.686648 25.325656 9.092255 -4.238763 -22.912607 0.000000 0.000000 0.000000 -35.062487 -7.998845 2.710930 -46.894048 -1.926827 -6.940225 9.186820 -29.407905 -0.852971 0.000000 0.000000 0.000000 38.183726 -0.607743 -2.666647 53.855569 3.607491 -6.401060 -8.979783 29.204392 -0.469986 0.000000 0.000000 0.000000
0.002816 0.945512 0.068485 1.283777 -6.350491 -8.644544 0.468893 0.678934 6.873800 -0.456935 -0.087802 6.290919 6.545427 15.148381 19.845144 0.000000 0.000000 0.000000 -0.864420 -0.181198 2.402664 -0.661252 0.919146 14.438533 -3.987458 -11.005956 3.733527 0.000000 0.000000 0.000000 7.241871 -1.142691 13.134375 -11.159720 3.094793 -27.968721 -0.356531 5.486809 24.857776 9.166600 -4.167809 -23.227625 0.000000 0.000000 0.000000 -34.834850 -8.738398 3.139366 -47.217260 -2.615694 -6.649847 9.811231 -29.716708 -1.044036 0.000000 0.000000 0.000000 38.128229 0.184253 -1.988547 53.672420 4.988252 -5.752216 -9.562745 28.471304 -0.605174 0.000000 0.000000 0.000000
0.002574 0.936712 0.069755 1.411423 -7.775342 -9.310169 0.990796 0.528612 5.388225 -1.837488 0.183043 10.741302 7.815682 16.728235 17.937609 0.000000 0.000000 0.000000 -1.505891 -0.046602 1.103797 0.133704 1.020826 17.784050 -4.033068 -10.311827 1.364365 0.000000 0.000000 0.000000 7.694427 -1.234478 14.139957 -11.253963 3.116443 -27.668493 -0.297973 5.386960 24.413078 8.259798 -3.706706 -23.212722 0.000000 0.000000 0.000000 -35.353383 -8.451111 3.338114 -46.702017 -3.825755 -6.231809 9.350465 -29.591716 -0.889935 0.000000 0.000000 0.000000 37.977423 0.913641 -1.943231 53.435625 5.826925 -5.165904 -8.203533 29.019664 -0.404050 0.000000 0.000000 0.000000
0.002038 0.926424 0.071347 1.737804 -8.473517 -9.857837 1.605051 0.236691 2.223837 -3.665036 0.817561 17.341519 9.169078 18.581705 17.868576 0.000000 0.000000 0.000000 -1.856632 0.068144 -0.228701 0.422745 1.295642 21.739875 -4.627902 -10.366820 -2.174725 0.000000 0.000000 0.000000 7.620343 -1.324542 15.602992 -10.639989 2.928480 -28.171133 -0.468714 5.852988 24.330135 7.939945 -3.575442 -22.752473 0.000000 0.000000 0.000000 -35.167317 -9.779960 4.294123 -45.839624 -3.515599 -6.261006 8.131201 -30.872289 -0.642884 0.000000 0.000000 0.000000 38.360655 1.494921 -1.494533 53.256302 7.189697 -4.608194 -8.190847 28.677372 -0.399519 0.000000 0.000000 0.000000
0.002152 0.909196 0.074569 2.332747 -8.907914 -10.623927 2.856735 -0.035518 -1.764164 -6.784149 2.411766 25.713693 10.468618 20.335188 18.216916 0.000000 0.000000 0.000000 -2.889051 0.350020 -3.880328 1.771921 1.641056 30.116215 -5.650639 -11.726133 -5.571104 0.000000 0.000000 0.000000 8.168448 -1.408348 16.300368 -12.432677 3.360356 -28.417115 1.271081 3.862583 24.126925 7.042214 -3.842969 -19.945498 0.000000 0.000000 0.000000 -37.862264 -9.654298 5.253593 -43.214624 -4.384826 -5.958362 5.419037 -31.235232 0.107345 0.000000 0.000000 0.000000 39.379047 2.990962 -1.631142 49.463915 7.146910 -4.042791 -5.933534 30.406879 -0.104899 0.000000 0.000000 0.000000
0.003308 0.884595 0.081024 2.830525 -9.668858 -11.969208 3.739170 -0.257465 -6.798024 -8.571447 4.453911 36.218624 10.990934 21.140367 15.488055 0.000000 0.000000 0.000000 -4.495338 0.609746 -8.022863 4.096730 1.786403 40.502927 -6.194256 -12.326599 -8.331301 0.000000 0.000000 0.000000 9.414339 -1.571740 17.262556 -12.228085 3.293112 -28.597801 0.665692 4.686497 22.513109 6.988957 -4.947594 -11.840249 0.000000 0.000000 0.000000 -38.823287 -11.886301 6.607943 -40.938868 -3.543136 -5.778868 2.248724 -32.689798 0.866071 0.000000 0.000000 0.000000 41.037953 4.117672 -0.730558 44.739136 9.572932 -2.879013 -6.325803 30.268457 -0.297050 0.000000 0.000000 0.000000
0.005686 0.839844 0.092002 3.764605 -10.595672 -15.223664 5.721504 -0.140821 -11.958021 -11.500856 9.103585 52.129127 11.307933 22.047900 8.940407 0.000000 0.000000 0.000000 -5.998042 0.944218 -14.250211 6.361463 2.550878 57.218276 -7.009282 -15.270031 -7.989474 0.000000 0.000000 0.000000 10.896809 -1.729937 18.816717 -11.627734 3.433010 -25.302118 -0.186898 7.034985 18.374943 7.772627 -6.729295 -3.323514 0.000000 0.000000 0.000000 -39.363106 -12.554332 5.530096 -38.499353 -4.114066 -4.602582 -0.928436 -36.914384 1.746389 0.000000 0.000000 0.000000 43.429678 6.509751 1.904337 37.827953 14.907194 -0.987792 -8.273942 32.887344 -1.040470 0.000000 0.000000 0.000000
0.009035 0.783483 0.107220 4.323980 -8.573399 -20.391647 6.169272 -0.137181 -16.501393 -11.142784 11.404788 69.330625 11.130871 22.093367 2.480686 0.000000 0.000000 0.000000 -8.420571 0.718896 -16.965357 9.468970 0.842045 72.991512 -8.005568 -18.881369 -8.134762 0.000000 0.000000 0.000000 14.798337 -2.082401 19.900122 -14.129109 4.922097 -23.822407 0.752788 5.356588 16.836174 8.962598 -9.933114 5.297402 0.000000 0.000000 0.000000 -40.064236 -19.013569 10.479578 -35.744718 -7.432187 -3.208320 -4.365887 -39.564292 2.911408 0.000000 0.000000 0.000000 39.386675 6.872887 1.897573 35.710243 21.703880 1.054639 -11.165754 38.637665 -2.435166 0.000000 0.000000 0.000000
0.012387 0.707029 0.126054 3.701909 -7.289040 -27.256349 8.147975 0.320830 -17.439188 -9.121594 10.867359 83.717616 9.688470 18.864879 -13.840372 0.000000 0.000000 0.000000 -11.083446 0.320300 -21.143154 11.272504 -1.071998 90.084125 -8.875902 -22.091236 -7.757935 0.000000 0.000000 0.000000 19.967638 -2.633333 22.365580 -13.751787 6.028799 -20.657552 -3.078716 2.994110 13.697381 8.467199 -10.526002 11.660191 0.000000 0.000000 0.000000 -39.408470 -22.389735 12.680989 -33.924554 -12.768729 -1.384576 -5.031147 -44.340582 3.287170 0.000000 0.000000 0.000000 38.902302 11.651736 4.712827 31.470802 29.716823 3.019425 -19.671645 40.813158 -6.087745 0.000000 0.000000 0.000000
0.013468 0.625576 0.145793 4.382310 -6.550416 -33.605486 8.261508 0.423371 -19.159002 -7.091137 10.175001 99.645561 9.726804 18.618993 -16.424416 0.000000 0.000000 0.000000 -13.731521 -0.203418 -26.726552 8.935056 2.212009 101.317163 -8.251075 -21.832859 -20.302425 0.000000 0.000000 0.000000 24.006122 -2.660338 22.649057 -16.758505 10.121989 -7.015976 -2.496076 -4.054680 1.200786 8.709767 -9.361515 18.187904 0.000000 0.000000 0.000000 -39.273195 -26.869086 18.589399 -33.157072 -23.155698 1.878125 -0.773041 -48.542924 1.798306 0.000000 0.000000 0.000000 32.191927 17.960888 5.642372 33.846678 35.360130 6.890812 -24.497089 35.993000 -7.532156 0.000000 0.000000 0.000000
0.010328 0.548715 0.161101 3.529386 -3.546457 -39.136639 7.836496 0.178875 -22.790953 -6.267243 7.179446 113.532789 9.489739 18.393387 -19.681492 0.000000 0.000000 0.000000 -13.539272 -0.564810 -30.305330 6.017785 4.786017 109.984066 -7.641506 -19.873227 -30.765364 0.000000 0.000000 0.000000 25.904141 -3.456963 26.127243 -19.730194 13.344077 -10.742849 -0.852121 -9.629405 3.794600 10.774310 -10.810704 24.351396 0.000000 0.000000 0.000000 -43.148354 -33.137941 27.813307 -27.392068 -32.789601 2.604098 8.475270 -47.285617 -2.127058 0.000000 0.000000 0.000000 32.628722 21.368260 5.428053 27.238957 37.037315 5.493838 -25.219636 31.509027 -6.909566 0.000000 0.000000 0.000000
0.003170 0.502307 0.172050 3.069277 -3.519830 -43.609705 11.348022 1.297474 -24.143183 -6.312983 6.362326 119.093086 8.629158 14.364211 -27.611467 0.000000 0.000000 0.000000 -11.622586 0.073725 -34.812781 5.745543 5.199840 113.759143 -7.394657 -18.614041 -30.031005 0.000000 0.000000 0.000000 26.237707 -3.488970 28.045179 -19.381826 16.204243 -7.732382 -0.310526 -14.549183 1.372715 13.259039 -9.403040 26.729379 0.000000 0.000000 0.000000 -43.026200 -33.466093 31.737999 -25.533461 -42.648025 3.726606 15.575653 -47.728266 -4.834131 0.000000 0.000000 0.000000 31.282762 23.853162 4.280948 26.510730 34.864297 5.501780 -27.147228 30.210535 -7.495628 0.000000 0.000000 0.000000
-0.006993 0.501221 0.181894 2.314464 -2.008449 -43.707728 13.320888 1.804971 -27.673079 -6.167057 3.953178 122.630916 6.094367 7.894620 -19.527927 0.000000 0.000000 0.000000 -12.912587 -0.553720 -38.076357 5.819867 3.240939 112.073395 -6.933435 -15.129852 -24.770260 0.000000 0.000000 0.000000 25.233802 -3.507279 27.996039 -22.544003 23.300558 -3.238814 6.903394 -21.754332 -9.737629 20.659480 -7.590717 30.876142 0.000000 0.000000 0.000000 -49.238804 -33.307415 43.962370 -18.809244 -46.907672 1.368600 26.293243 -48.366387 -9.156997 0.000000 0.000000 0.000000 29.748439 21.591160 -2.000001 28.233221 22.679915 6.248292 -22.762992 34.677910 -8.163367 0.000000 0.000000 0.000000
-0.019920 0.528296 0.194661 2.492608 -0.754650 -43.760901 14.448177 1.984177 -25.407348 -6.397749 2.446557 118.023441 5.713189 5.923887 -21.112317 0.000000 0.000000 0.000000 -13.277014 -0.960044 -35.701700 4.270639 5.069130 107.353033 -5.327731 -7.677771 -20.383217 0.000000 0.000000 0.000000 23.604434 -2.634154 25.860033 -19.139050 35.372371 13.457181 17.649935 -28.205730 -35.221783 31.582094 -1.655950 32.579907 0.000000 0.000000 0.000000 -55.699711 -28.238808 55.696598 -11.375980 -52.317784 -1.042719 31.234535 -48.243436 -11.299573 0.000000 0.000000 0.000000 20.055339 11.850401 -5.645420 34.364995 8.774853 8.150690 -21.107089 38.703051 -11.176215 0.000000 0.000000 0.000000
-0.035166 0.564800 0.211649 2.802472 1.309994 -43.155757 14.915059 1.846084 -22.792643 -7.120996 1.260278 111.845340 4.983631 3.167093 -21.597799 0.000000 0.000000 0.000000 -13.987455 -1.518901 -33.268614 5.202089 1.884035 103.073456 -4.771494 -7.676243 -14.392581 0.000000 0.000000 0.000000 22.021186 -1.993939 23.466369 -15.852272 43.756208 37.126401 33.966575 -23.207308 -62.999721 28.963680 5.139830 30.359050 0.000000 0.000000 0.000000 -51.517494 -28.488879 59.397460 -10.217799 -64.864853 -3.276652 47.618382 -49.087345 -20.139059 0.000000 0.000000 0.000000 7.639010 0.807676 -0.734455 39.578211 3.986826 4.620617 -14.532596 36.883387 -9.034974 0.000000 0.000000 0.000000
-0.051823 0.587286 0.232494 2.518420 3.083548 -42.676687 17.150497 2.158424 -20.758901 -6.701151 -1.975801 107.980972 3.864204 -1.845113 -22.994773 0.000000 0.000000 0.000000 -14.759141 -1.990157 -30.176846 5.522142 -0.034185 97.907305 -4.040028 -5.657593 -12.351603 0.000000 0.000000 0.000000 19.045219 -1.075114 19.507279 -13.592689 28.254509 32.283086 20.443249 -17.620357 -52.373532 18.566892 1.159607 35.714808 0.000000 0.000000 0.000000 -45.919839 -30.175420 44.671225 -27.967693 -64.503346 12.212554 47.696011 -49.100667 -19.716239 0.000000 0.000000 0.000000 15.129892 -0.471456 -5.492106 32.390366 -11.804496 1.047426 -4.815666 35.491357 -3.237373 0.000000 0.000000 0.000000
-0.069313 0.593828 0.254423 1.017957 5.416560 -40.510734 18.520543 2.056408 -19.452466 -8.322613 -1.969807 103.084663 6.140166 2.054864 -31.526914 0.000000 0.000000 0.000000 -14.885399 -2.341208 -29.236364 6.279315 -3.575040 97.666441 -3.764692 -5.673622 -9.880384 0.000000 0.000000 0.000000 15.209230 -0.911552 17.442224 -10.314136 15.965876 14.558852 9.850527 -14.580399 -30.887206 8.026770 0.244751 39.592688 0.000000 0.000000 0.000000 -40.111500 -32.392659 37.946309 -12.003007 -72.179876 2.865763 46.566665 -36.616164 -10.609443 0.000000 0.000000 0.000000 24.877617 0.370712 -10.036301 19.220147 -20.003391 0.872127 0.864054 32.994276 -0.462770 0.000000 0.000000 0.000000
-0.087729 0.583664 0.274199 -0.680210 6.079502 -39.469177 19.854968 1.990049 -16.895920 -7.262796 -4.655206 98.865558 8.506297 5.975155 -44.371651 0.000000 0.000000 0.000000 -12.533006 -1.585635 -27.408339 6.526195 -5.953203 99.782094 -5.368197 -7.092409 -18.355345 0.000000 0.000000 0.000000 11.575017 -1.204292 18.456644 -5.228210 7.509929 -2.596742 2.042939 -9.329068 -6.897199 -0.969184 1.205845 40.726586 0.000000 0.000000 0.000000 -32.202021 -36.507296 29.372913 43.094110 -76.217929 -40.625636 44.377704 -20.234608 -3.559742 0.000000 0.000000 0.000000 35.276162 1.614031 -10.385686 7.581578 -21.878466 1.562185 -1.379549 34.208335 -0.685660 0.000000 0.000000 0.000000
-0.105312 0.574876 0.290544 -2.131841 6.039346 -38.197679 20.553547 1.932719 -15.706427 -3.611981 -9.739172 95.351656 9.623394 6.037646 -52.026503 0.000000 0.000000 0.000000 -10.458183 -0.927906 -27.758013 7.000656 -7.963643 102.705357 -5.555107 -4.174593 -23.570871 0.000000 0.000000 0.000000 7.347894 -1.231559 19.274645 7.411439 -3.238557 -13.456512 -7.259044 1.077094 9.058574 -5.423745 0.435627 36.564005 0.000000 0.000000 0.000000 -14.333074 -38.639645 17.814261 69.729140 -66.859801 -56.047977 39.226793 -5.142847 0.616703 0.000000 0.000000 0.000000 44.121460 2.343753 -4.139644 2.196847 -20.549861 1.667486 -11.549560 31.450362 -3.436483 0.000000 0.000000 0.000000
-0.118864 0.580689 0.303790 -3.056667 6.155826 -37.011438 18.425421 1.507645 -15.512455 0.746161 -15.013898 92.672324 9.480408 7.193448 -49.822901 0.000000 0.000000 0.000000 -7.725227 -0.045541 -26.394086 7.271620 -9.502071 102.275226 -6.698041 -7.433741 -27.327308 0.000000 0.000000 0.000000 4.550363 -1.433729 21.786336 14.271872 -5.906550 -25.900410 -10.160652 4.744005 22.841439 -3.976517 -0.447919 28.692925 0.000000 0.000000 0.000000 -0.512437 -37.008954 11.972824 71.158759 -54.581765 -47.191475 37.552915 2.523501 1.455550 0.000000 0.000000 0.000000 44.331627 -0.499713 -2.211493 0.695445 -18.380007 0.814676 -17.338958 30.861524 -5.094953 0.000000 0.000000 0.000000
-0.125872 0.607102 0.315349 -1.994312 4.496030 -34.479505 15.543958 1.162777 -16.618896 2.729412 -14.742635 90.012660 8.883053 11.399296 -39.493581 0.000000 0.000000 0.000000 -5.931568 0.666146 -25.266620 8.856537 -10.000961 98.875683 -7.508262 -12.863322 -28.463727 0.000000 0.000000 0.000000 4.658122 -1.272335 20.676626 28.307219 -14.987836 -35.780382 -21.686416 18.997763 28.170284 -4.067538 -4.291848 29.392562 0.000000 0.000000 0.000000 10.081159 -31.264046 9.711318 62.943195 -45.734832 -43.930511 39.083878 -2.882557 0.586899 0.000000 0.000000 0.000000 53.974002 -1.417521 3.153654 -3.767591 -16.894186 2.883332 -30.432180 24.271881 -9.258162 0.000000 0.000000 0.000000
-0.128935 0.654180 0.326919 0.307089 1.319411 -31.175396 12.623269 0.816779 -18.367810 4.684665 -12.512678 85.604652 7.359825 9.861275 -24.281526 0.000000 0.000000 0.000000 -5.152221 1.054404 -23.009137 10.903886 -8.856959 93.348615 -7.304763 -14.003924 -25.356780 0.000000 0.000000 0.000000 6.972771 -1.274684 19.516487 60.970033 -22.571602 -70.420298 -39.962516 58.235102 38.390266 17.644574 -7.377793 -2.029792 0.000000 0.000000 0.000000 29.293819 -18.172215 6.693096 50.609483 -36.919174 -49.356886 43.298174 -8.727779 -6.159606 0.000000 0.000000 0.000000 60.433394 -10.817673 29.413005 -3.189840 -0.211647 2.017943 -42.465236 -2.653139 -4.892114 0.000000 0.000000 0.000000
-0.131444 0.708322 0.338885 3.060930 -4.477604 -27.739466 9.901234 0.588279 -21.712249 4.865387 -6.781911 80.555621 5.639843 8.263278 -13.020365 0.000000 0.000000 0.000000 -3.712408 1.480163 -20.059189 12.601273 -5.080015 84.855657 -6.964177 -13.606056 -22.118997 0.000000 0.000000 0.000000 9.872455 -1.435455 19.446080 30.090647 -3.232723 -80.593151 -14.471465 34.415011 86.261141 10.439902 1.193832 -14.078872 0.000000 0.000000 0.000000 24.827521 -15.702194 0.820231 35.471368 -39.618414 -22.212252 53.501700 1.908129 -7.204344 0.000000 0.000000 0.000000 53.543673 -9.204517 18.275028 -0.959190 1.618673 -0.895841 -50.963760 3.854232 -6.520430 0.000000 0.000000 0.000000
-0.137960 0.756738 0.351685 6.830407 -12.519168 -26.717912 7.150888 0.520499 -24.596753 6.048909 -1.708059 78.065125 4.243020 7.503007 -4.368017 0.000000 0.000000 0.000000 -3.402869 1.474339 -16.943987 12.756647 0.707946 77.234393 -4.130334 -4.365643 -13.936713 0.000000 0.000000 0.000000 13.309960 -1.919009 24.063003 9.846283 -1.670274 -81.527545 -8.724009 15.003189 87.955369 -3.651203 3.838221 -5.631813 0.000000 0.000000 0.000000 7.709481 -16.545186 -1.374310 26.434711 -35.149982 -7.472453 63.971452 -3.010278 -10.607213 0.000000 0.000000 0.000000 50.042176 -5.573795 14.046633 -3.888003 3.309412 0.929808 -56.736019 5.640604 -10.149062 0.000000 0.000000 0.000000
-0.150130 0.797123 0.366491 8.598349 -20.642782 -25.894589 5.306337 1.029847 -30.002680 9.304222 0.091192 75.415029 3.011440 5.412673 -2.391777 0.000000 0.000000 0.000000 -0.819587 1.176353 -11.374353 10.923230 5.391257 67.645617 -2.381236 1.305953 -10.655983 0.000000 0.000000 0.000000 14.479398 -1.697531 24.793481 0.037410 -2.137630 -71.203550 -2.354831 7.101250 76.454872 -6.373947 7.517479 12.710471 0.000000 0.000000 0.000000 -9.099141 -19.670804 7.393328 24.059800 -26.268642 -3.200311 72.282917 -11.414822 -16.490697 0.000000 0.000000 0.000000 50.035120 -1.266024 5.053995 -6.102161 0.034014 3.007507 -62.139675 17.744957 -16.539914 0.000000 0.000000 0.000000
-0.168705 0.823679 0.383565 12.421187 -30.222749 -26.755226 3.823323 3.219106 -38.590522 15.385831 -0.731359 78.567973 1.919246 3.395195 -1.253490 0.000000 0.000000 0.000000 -1.301672 0.473167 -4.598608 9.202293 7.828269 57.302732 -5.608123 -1.804054 -15.879996 0.000000 0.000000 0.000000 12.588725 -0.986126 27.224545 8.903375 -7.813481 -68.317279 1.432372 23.446301 70.746834 -6.955610 7.109075 18.712250 0.000000 0.000000 0.000000 -17.914070 -15.256473 4.664260 18.139517 -21.027403 -5.881088 76.309790 -31.148707 -29.549269 0.000000 0.000000 0.000000 55.063727 0.689075 17.126857 -9.543172 6.310005 2.628975 -70.028346 13.111365 -16.285363 0.000000 0.000000 0.000000
-0.192579 0.839333 0.404063 17.313137 -35.784458 -31.751339 -0.460441 4.831355 -47.961684 21.854619 -5.313861 78.645338 0.859323 -0.222775 -5.174300 0.000000 0.000000 0.000000 -2.031073 0.368486 5.727900 4.258243 9.125928 48.750256 -10.779798 -8.467740 -23.414860 0.000000 0.000000 0.000000 6.781239 0.297300 28.599963 17.971735 -25.729343 -72.890718 30.469624 40.355151 86.155968 -17.964588 9.795214 27.938392 0.000000 0.000000 0.000000 -27.128750 -27.411929 -28.369707 10.023219 -10.408207 -12.199830 18.992701 -80.435646 1.029864 0.000000 0.000000 0.000000 58.213071 -0.375519 37.976576 -16.370099 12.826007 0.525888 -76.097210 -4.713497 -8.240161 0.000000 0.000000 0.000000
-0.222893 0.844486 0.429371 23.577238 -39.779732 -38.842955 -6.557036 6.829154 -60.579528 27.781608 -12.655644 81.170529 -0.218914 -7.515774 -13.768397 0.000000 0.000000 0.000000 -4.140225 2.049674 15.347392 -0.235693 8.546714 40.423876 -12.514377 -7.971578 -24.864677 0.000000 0.000000 0.000000 4.657599 1.000012 29.460270 32.277588 -13.644259 -160.435278 53.033934 -21.975864 162.111103 -19.815212 25.031504 -16.620553 0.000000 0.000000 0.000000 -30.357600 -9.144817 25.900578 -14.684923 -30.609225 23.615279 93.450875 -13.359380 -34.225076 0.000000 0.000000 0.000000 7.668284 -0.793501 13.508063 34.082776 37.977530 22.723181 -79.408950 8.321859 -33.097726 0.000000 0.000000 0.000000
-0.261988 0.852509 0.459008 26.788436 -39.271208 -46.461355 -14.723911 4.538209 -69.225868 32.724232 -19.976804 81.118394 5.273211 -9.128837 -36.152367 0.000000 0.000000 0.000000 -3.061333 5.017791 28.517742 -1.798245 5.976481 33.008992 -12.321076 -9.278152 -22.085760 0.000000 0.000000 0.000000 -1.952813 1.196996 27.820566 11.710287 5.549628 169.326161 26.527518 -41.931905 -170.206570 10.452773 22.415725 5.804600 0.000000 0.000000 0.000000 -9.626942 -5.173186 -0.862235 -49.398644 -6.391918 32.858674 101.605559 -48.447884 -85.390829 0.000000 0.000000 0.000000 32.011692 11.436805 -8.457553 39.428305 21.259145 29.074616 -70.424702 24.255158 -39.878209 0.000000 0.000000 0.000000
-0.310524 0.860646 0.491248 25.651329 -39.662001 -52.797800 -18.326147 2.759963 -70.201942 36.464073 -23.118077 79.596188 11.595685 -5.047474 -60.169459 0.000000 0.000000 0.000000 3.806513 5.847019 39.917012 -0.281562 6.038534 37.804668 -11.474316 -4.085038 -29.177427 0.000000 0.000000 0.000000 -11.853904 0.562317 19.890333 2.390866 -23.591016 162.425783 -81.164849 -89.004631 -83.084651 -16.043529 -37.419791 5.382286 0.000000 0.000000 0.000000 3.903071 10.375232 28.698047 -55.915792 -26.522559 13.908521 103.475492 -70.609757 -111.313677 0.000000 0.000000 0.000000 59.334782 8.949189 15.150149 16.808871 35.581313 13.829992 -52.718927 34.300858 -25.830756 0.000000 0.000000 0.000000
-0.365610 0.868320 0.521547 24.017531 -40.981431 -57.117228 -19.770011 2.062362 -65.951266 39.025651 -23.147079 81.729738 12.851801 3.551246 -70.266429 0.000000 0.000000 0.000000 10.100087 4.659964 42.490638 12.605565 4.909129 59.646649 -11.988627 -5.523553 -40.881614 0.000000 0.000000 0.000000 -21.978060 0.259622 4.749465 -2.374709 -34.240092 161.495761 -159.276902 -59.499315 -17.408346 -47.438868 -54.445118 43.443002 0.000000 0.000000 0.000000 9.586825 13.046137 27.178202 -51.792207 -24.441683 5.066042 93.418981 -77.782689 -121.321725 0.000000 0.000000 0.000000 45.293864 8.050848 112.487474 -60.592720 24.125013 -37.742599 -65.562750 -8.084469 0.378717 0.000000 0.000000 0.000000
-0.423178 0.869252 0.549146 13.895968 -39.937512 -58.105045 -18.238024 -2.071388 -49.520554 43.351175 -23.320525 85.131349 12.845503 6.899808 -69.966857 0.000000 0.000000 0.000000 17.536723 0.274169 38.420412 37.402372 -14.960587 85.618707 -6.796612 -20.595150 -27.002545 0.000000 0.000000 0.000000 -26.149847 -0.436165 -6.270065 4.171116 -56.161443 147.514175 -155.467893 -29.250805 -26.193030 23.739368 -32.165749 -8.969902 0.000000 0.000000 0.000000 26.166658 8.736374 21.097935 -53.227546 -21.250291 -7.500180 122.996061 -78.887123 -169.138486 0.000000 0.000000 0.000000 29.135934 13.544313 76.949423 -68.530680 57.392647 -53.331222 -69.822264 14.348463 -16.933423 0.000000 0.000000 0.000000
-0.478863 0.861038 0.573415 -1.914439 -35.478144 -55.541964 -13.458658 -4.228205 -31.017519 31.398475 -13.938484 88.182521 11.090196 11.374101 -61.960448 0.000000 0.000000 0.000000 24.299220 -2.914036 27.602450 57.941045 -41.288158 82.959660 -15.760726 -33.873418 18.529016 0.000000 0.000000 0.000000 -26.746080 -1.362801 -4.182019 30.836180 -39.453301 118.936929 -121.807462 -34.394795 -38.719989 29.501616 -16.320880 -13.904579 0.000000 0.000000 0.000000 42.165275 13.595360 35.807864 -38.517524 -39.356399 -4.190231 106.310618 -59.423625 -132.481148 0.000000 0.000000 0.000000 13.476560 27.151236 14.999790 57.796684 46.912357 23.477635 -94.494900 49.003049 -47.644763 0.000000 0.000000 0.000000
-0.527603 0.855051 0.595004 -15.935877 -31.628724 -51.641070 -6.106402 -2.490128 -17.840235 20.930786 -9.300376 79.945570 8.388573 10.817344 -40.417188 0.000000 0.000000 0.000000 25.599197 -0.353313 9.314236 69.528285 -58.410838 80.493356 -15.417420 -28.999648 27.374258 0.000000 0.000000 0.000000 -25.100678 -2.194209 -2.165971 -4.123902 2.115325 8.100145 3.837331 56.575654 -6.231418 -15.336554 -20.359200 61.214893 0.000000 0.000000 0.000000 1.946837 -16.763185 1.318814 -14.750111 0.980294 0.726255 123.564326 -70.354169 -127.448864 0.000000 0.000000 0.000000 58.776925 16.324152 53.367582 -13.684142 5.804515 0.878189 -84.442776 36.434496 -44.058611 0.000000 0.000000 0.000000
-0.567102 0.849976 0.615036 -25.100310 -31.275570 -47.971647 5.939359 0.713564 -11.091215 11.880872 -5.162608 75.269433 4.529149 4.306007 -17.100374 0.000000 0.000000 0.000000 14.679219 2.197615 -4.499523 38.058591 -50.633237 115.115943 -7.540413 -20.143901 0.629658 0.000000 0.000000 0.000000 -17.519807 -2.122351 -3.541803 -1.479055 0.423834 2.223607 11.918798 46.029092 17.363358 5.422134 -24.340564 30.284190 0.000000 0.000000 0.000000 8.555892 -13.518668 5.848628 -14.185630 -16.645090 0.254833 86.366539 -59.724844 -74.385106 0.000000 0.000000 0.000000 33.769748 13.976313 25.829903 -1.045640 9.184244 -1.224298 -33.762484 31.311386 -9.040925 0.000000 0.000000 0.000000
-0.600135 0.844321 0.634647 -26.116859 -32.853107 -46.450061 12.195847 2.244075 -7.410658 5.234606 0.763578 75.312631 1.797661 2.202681 -4.161128 0.000000 0.000000 0.000000 7.873076 2.258274 -9.276395 26.389726 -23.343422 115.959317 -5.495796 -17.876233 -27.096552 0.000000 0.000000 0.000000 -12.444809 -1.615667 -4.658006 -3.582880 1.633072 1.156833 11.910695 37.280467 18.716292 0.092421 -18.770717 39.096530 0.000000 0.000000 0.000000 5.120501 -15.074557 5.071100 -5.740781 -15.473807 -0.861354 68.435079 -57.798385 -49.798202 0.000000 0.000000 0.000000 24.395943 12.696009 16.162901 1.732650 3.330581 -0.693063 -15.601789 24.466920 -2.380014 0.000000 0.000000 0.000000
-0.630634 0.821780 0.655624 -25.196572 -34.233981 -46.301147 15.649078 3.093184 -4.829546 3.998352 2.192368 76.427113 1.354740 1.856562 -2.528433 0.000000 0.000000 0.000000 3.265164 1.774447 -10.338299 22.607747 -5.917524 96.280561 -6.685665 -16.799818 -7.840010 0.000000 0.000000 0.000000 -8.533989 -1.122610 -6.256291 1.696181 -1.824391 -3.067832 7.981506 33.247901 23.734587 2.403969 -20.784610 39.831684 0.000000 0.000000 0.000000 3.951627 -15.647107 4.955389 -6.409207 -14.224195 -1.201977 65.678892 -56.966288 -44.014033 0.000000 0.000000 0.000000 13.425776 9.966583 8.542008 8.040029 4.589515 -1.731825 -8.674185 20.345567 -0.576283 0.000000 0.000000 0.000000
-0.660320 0.788775 0.674576 -21.447430 -36.756819 -45.075481 17.525205 3.963208 -7.008290 5.515805 4.035042 78.363729 -1.301187 -4.830259 -4.130765 0.000000 0.000000 0.000000 -0.701541 0.890684 -8.055931 17.845420 2.836661 73.704612 -2.382844 -7.064887 2.495389 0.000000 0.000000 0.000000 -4.990015 -0.108307 -10.383810 -1.685963 0.462050 1.826506 7.870725 29.029522 16.208774 0.712907 -16.264479 43.657379 0.000000 0.000000 0.000000 4.905018 -15.828682 5.133479 -12.535600 -17.940673 -0.866720 73.296372 -55.716583 -46.230897 0.000000 0.000000 0.000000 13.445338 7.731016 6.574417 5.111067 4.226683 -1.073539 -7.360042 15.344358 -0.250686 0.000000 0.000000 0.000000
-0.690096 0.741061 0.689429 -17.452929 -35.553284 -45.363715 12.956175 2.781787 -8.016961 10.025070 1.184312 81.857787 0.561956 -6.081753 -13.485536 0.000000 0.000000 0.000000 -5.595026 0.326823 -5.236379 15.514561 3.177750 61.460078 -1.522369 -4.891772 1.906650 0.000000 0.000000 0.000000 -7.885149 -0.808043 -7.825125 9.736061 -6.315576 -3.852013 -2.953678 31.271679 19.135497 -0.053743 -19.316603 50.073319 0.000000 0.000000 0.000000 5.955057 -10.002667 3.349216 -14.590355 -22.955696 -1.347775 86.454445 -60.118804 -60.293495 0.000000 0.000000 0.000000 20.545626 6.416709 8.031068 -2.557526 5.766088 -0.011009 -14.134062 18.078298 -1.489948 0.000000 0.000000 0.000000
-0.717696 0.677163 0.699271 -13.159225 -35.932883 -49.162964 11.706436 2.653822 -9.665486 12.691899 0.029981 88.500442 4.341045 -1.153218 -22.015106 0.000000 0.000000 0.000000 -6.226853 0.481033 -8.096384 18.265316 3.513211 70.907291 -3.027391 -7.146318 -0.714586 0.000000 0.000000 0.000000 -3.732369 -0.251045 -7.559180 1.827240 -1.979381 3.840961 1.165556 23.783961 12.635419 -0.489830 -10.351846 44.450859 0.000000 0.000000 0.000000 4.422145 -15.976713 5.260946 -22.239685 -25.011517 0.282230 89.239109 -57.748959 -57.308434 0.000000 0.000000 0.000000 28.582571 6.576865 6.928757 -6.609560 5.347800 0.559748 -26.328232 25.348733 -4.879841 0.000000 0.000000 0.000000
-0.741132 0.615505 0.707501 -8.958879 -36.953597 -54.516953 9.967065 2.308570 -9.420370 17.446824 -3.426354 91.751111 5.823446 -1.956070 -28.869157 0.000000 0.000000 0.000000 -10.522084 0.595322 -13.052395 26.775296 -1.419220 79.978105 -5.760228 -14.015925 -2.151464 0.000000 0.000000 0.000000 -0.180967 0.056014 -4.384894 4.536254 -3.969363 2.109231 -4.048475 21.999285 16.970993 3.371086 -10.015434 31.411272 0.000000 0.000000 0.000000 4.589281 -18.541624 5.991365 -25.986216 -29.768162 0.853752 97.238211 -58.786893 -62.021027 0.000000 0.000000 0.000000 38.366371 7.716792 7.144894 -5.506500 7.456489 0.054764 -47.356142 32.838742 -13.513062 0.000000 0.000000 0.000000
-0.760047 0.549584 0.714985 -6.984241 -35.963393 -59.859632 10.076803 2.506314 -11.385516 16.284506 -3.794582 97.421145 9.047089 6.086233 -35.632817 0.000000 0.000000 0.000000 -14.288978 0.543333 -18.419041 34.602145 -10.209294 88.261765 -8.322694 -21.268424 -0.344964 0.000000 0.000000 0.000000 1.228935 0.228976 -3.268668 2.201008 -2.327053 2.006142 0.879562 12.447333 22.586435 -1.133703 1.275902 20.800567 0.000000 0.000000 0.000000 1.552609 -21.729611 7.793679 -31.903488 -40.431772 4.690752 82.911870 -55.134199 -41.574719 0.000000 0.000000 0.000000 40.445797 11.589966 3.448194 4.351748 5.183964 -0.593733 -62.246979 42.320751 -24.083648 0.000000 0.000000 0.000000
-0.775998 0.492973 0.720417 -5.667139 -36.365413 -62.860697 11.219212 3.403213 -16.000543 20.021467 -10.788488 104.821929 9.432908 1.314130 -37.728649 0.000000 0.000000 0.000000 -16.025983 0.792828 -23.501127 40.781992 -18.132467 92.338304 -10.745163 -27.756650 0.287431 0.000000 0.000000 0.000000 1.457741 0.155051 -2.116938 6.093576 -4.428162 1.716409 -1.326916 6.557162 23.388653 -2.376089 2.961192 8.426653 0.000000 0.000000 0.000000 5.193168 -25.689199 8.316877 -38.492472 -45.481626 9.885990 78.174803 -45.312832 -28.068034 0.000000 0.000000 0.000000 42.461736 17.850734 2.359367 13.123705 -3.019152 -0.717685 -73.780218 52.385577 -38.389421 0.000000 0.000000 0.000000
-0.785872 0.444131 0.723838 -6.191655 -36.957627 -64.811480 11.133434 3.764890 -18.970074 21.713321 -14.849189 107.581768 11.082829 2.716830 -44.292665 0.000000 0.000000 0.000000 -17.234278 1.082487 -28.152083 48.417866 -26.483212 89.914958 -15.588897 -35.972438 6.421089 0.000000 0.000000 0.000000 -0.817617 -0.279076 -1.366423 10.194095 -5.927973 -3.063918 -1.048760 1.279637 29.882736 -6.129978 4.964984 -2.127670 0.000000 0.000000 0.000000 7.403979 -29.691004 8.418335 -32.193262 -49.700628 10.848398 71.993890 -33.021550 -16.946926 0.000000 0.000000 0.000000 39.068636 19.986481 -1.418314 24.315115 -6.436328 -1.219819 -78.890886 61.025614 -52.621811 0.000000 0.000000 0.000000
-0.785739 0.411886 0.726980 -5.645136 -37.456711 -67.045136 9.884819 3.861545 -22.823860 22.197853 -17.057470 110.046604 11.294419 4.002484 -43.448835 0.000000 0.000000 0.000000 -16.394330 1.412819 -30.174482 51.754996 -31.593267 91.090876 -20.130634 -45.591681 5.811777 0.000000 0.000000 0.000000 -2.312215 -0.638498 0.547784 13.629345 -8.033772 2.174364 -1.803502 -2.042995 23.983811 -7.787506 8.483966 5.367735 0.000000 0.000000 0.000000 2.650253 -33.515678 12.683579 -24.930256 -46.029391 6.725632 72.407937 -26.345348 -13.184415 0.000000 0.000000 0.000000 42.276474 23.471521 -0.594836 26.506304 -8.768402 -1.180648 -72.667791 62.465186 -48.799477 0.000000 0.000000 0.000000
-0.771788 0.386792 0.733031 -3.267256 -37.414127 -69.808775 6.104159 3.266586 -30.122977 23.967961 -18.654263 109.419227 9.704927 -2.436257 -38.985400 0.000000 0.000000 0.000000 -19.753063 1.282884 -33.703719 53.251092 -32.814557 90.818928 -17.809102 -45.678888 -0.434455 0.000000 0.000000 0.000000 -0.197012 -0.389538 2.978979 12.697191 -8.164328 5.089330 -0.526224 -4.419114 19.938249 -14.283992 14.665715 3.320895 0.000000 0.000000 0.000000 -2.461032 -27.693629 13.052953 -28.553496 -44.684675 7.146695 73.150814 -36.956642 -20.325094 0.000000 0.000000 0.000000 43.914707 24.691989 -1.056464 28.109783 -6.869233 -0.367445 -52.754817 65.534348 -36.516835 0.000000 0.000000 0.000000
-0.746745 0.371888 0.745623 0.828661 -37.803066 -74.182509 3.923715 3.257196 -34.807504 24.099961 -16.115779 108.254622 7.259473 -5.396468 -31.238849 0.000000 0.000000 0.000000 -20.155573 1.848749 -36.253954 51.969070 -33.149345 95.086985 -19.226721 -50.209492 -1.491097 0.000000 0.000000 0.000000 3.555608 0.076387 11.000564 12.149082 -10.225435 11.570964 -3.260283 0.729798 4.079542 -8.631300 12.429070 25.797173 0.000000 0.000000 0.000000 -14.661929 -28.725553 17.256415 -31.934847 -31.964809 3.751379 83.144570 -57.337774 -44.971188 0.000000 0.000000 0.000000 51.286763 23.637690 4.165108 29.009373 -1.189042 0.521090 -35.641401 52.713167 -17.918880 0.000000 0.000000 0.000000
-0.719041 0.354538 0.766143 3.946367 -35.607893 -77.683356 -3.305887 0.085804 -41.382012 22.708003 -11.234398 104.027076 4.710427 -5.647326 -24.528010 0.000000 0.000000 0.000000 -19.800245 2.003465 -37.903927 47.230513 -31.445938 101.483458 -9.918547 -47.230093 -22.932899 0.000000 0.000000 0.000000 2.933669 0.244072 16.975635 5.341629 -6.407083 22.475340 2.372854 3.693753 -10.263384 -12.199994 10.049895 31.524139 0.000000 0.000000 0.000000 -25.314984 -25.246397 15.158273 -38.571320 -18.453662 3.975906 129.241414 -76.691935 -115.943935 0.000000 0.000000 0.000000 51.646534 26.548166 13.783342 35.417112 6.967824 3.541248 -33.284983 34.381848 -10.612396 0.000000 0.000000 0.000000
-0.696039 0.346440 0.791823 0.631876 -35.892871 -73.152545 -9.960591 -2.622316 -50.773878 24.757924 -17.212018 104.066548 5.782752 -2.141185 -26.373603 0.000000 0.000000 0.000000 -20.253812 2.592501 -41.737720 48.961500 -35.540055 99.938519 -8.593178 -46.897688 -26.989706 0.000000 0.000000 0.000000 3.375167 0.489723 22.226708 11.725844 -8.401488 50.357421 -11.060018 1.150961 -45.465858 -14.691585 -0.652496 39.249939 0.000000 0.000000 0.000000 -16.871031 -26.428975 8.411294 -43.769621 5.776546 3.390591 -176.285825 -69.148822 163.891331 0.000000 0.000000 0.000000 50.571342 22.411041 23.306303 39.382163 24.147450 9.810688 -40.710452 23.066235 -8.246136 0.000000 0.000000 0.000000
-0.678265 0.346271 0.815264 -3.810315 -34.838938 -66.723033 -12.620935 -4.175504 -59.067866 21.558176 -20.107167 108.570835 8.550347 4.897204 -34.453277 0.000000 0.000000 0.000000 -18.534170 3.364459 -45.239316 48.141722 -39.733040 100.945958 -11.394282 -45.685681 -19.280144 0.000000 0.000000 0.000000 -3.096026 0.776176 29.371310 17.864712 -24.227129 91.470685 -33.380481 -12.899078 -78.246474 -11.396015 -14.324760 26.510240 0.000000 0.000000 0.000000 5.137260 -20.013730 8.764190 -45.820150 -5.695788 5.657945 -178.275565 -80.570410 160.339914 0.000000 0.000000 0.000000 35.217625 21.991002 27.244484 44.661457 49.898438 21.276421 -51.021920 7.597417 -2.500140 0.000000 0.000000 0.000000
-0.662287 0.360463 0.833031 -8.074360 -34.882892 -55.118438 -11.489922 -2.433879 -69.415129 21.200674 -24.860965 106.090230 7.853462 3.135709 -35.244665 0.000000 0.000000 0.000000 -17.061198 5.327110 -51.207183 50.424744 -43.456833 97.109339 -11.039722 -43.597547 -20.275289 0.000000 0.000000 0.000000 -14.629778 6.422087 45.629556 14.257836 -54.364640 106.803955 -70.734617 -24.018760 -85.587601 3.711734 -25.177963 -0.715910 0.000000 0.000000 0.000000 17.464076 -7.875758 22.459451 -28.857076 -29.643966 4.633493 44.728945 -62.728986 -52.613063 0.000000 0.000000 0.000000 29.023623 16.394705 44.383877 -23.818833 72.992954 -22.202855 -61.448562 -15.177963 10.550327 0.000000 0.000000 0.000000
-0.642006 0.396801 0.849409 -12.536584 -32.186522 -37.870153 -11.104025 -2.389765 -80.637396 19.630145 -30.480553 107.131316 6.272344 0.760370 -30.408356 0.000000 0.000000 0.000000 -18.857296 5.952752 -58.858240 56.685305 -47.340982 87.069921 -16.457067 -51.817522 -14.385463 0.000000 0.000000 0.000000 -17.718646 15.571967 62.498764 68.270529 -35.949096 -35.316446 -69.579815 59.940299 -26.946920 14.972362 -35.942713 10.452222 0.000000 0.000000 0.000000 4.223713 -17.284202 -3.267815 -10.968088 -9.311953 -0.946199 18.550211 -48.833338 -22.588216 0.000000 0.000000 0.000000 48.622088 11.757368 79.402122 -61.830494 29.904420 -31.308727 -63.245532 -18.940440 6.727559 0.000000 0.000000 0.000000
-0.614270 0.448330 0.874107 -14.893948 -30.366283 -23.900984 -6.010607 2.931474 -84.596647 16.586512 -25.215452 100.841110 6.067458 -0.790613 -31.341577 0.000000 0.000000 0.000000 -18.998062 6.505963 -61.583892 51.221472 -39.707760 84.394215 -13.336775 -47.941245 -20.514284 0.000000 0.000000 0.000000 -15.635385 17.785501 66.965385 15.745872 -5.148091 -33.345090 5.829572 18.172292 22.807249 10.866855 -8.991397 -2.784449 0.000000 0.000000 0.000000 -9.549350 -18.801489 5.548406 -6.073767 -10.556391 -0.569906 26.760258 -42.564602 -11.738510 0.000000 0.000000 0.000000 31.108552 22.596931 18.471806 9.334935 48.991797 -0.807541 -68.913394 26.487973 -14.613968 0.000000 0.000000 0.000000
-0.579599 0.520348 0.916056 -15.616304 -29.179952 -11.104497 0.110548 8.981086 -80.708583 16.629975 -23.026007 97.713134 7.917125 -3.833032 -42.188838 0.000000 0.000000 0.000000 -20.022242 6.085346 -59.824836 47.379459 -32.544111 80.757066 -10.900731 -45.453171 -25.244701 0.000000 0.000000 0.000000 -13.687800 18.201561 68.121783 10.130463 -1.954232 -33.528737 3.601736 8.821821 23.759173 12.190958 -5.056456 -26.509405 0.000000 0.000000 0.000000 3.201370 -9.846771 3.213207 -13.808203 -14.727130 -1.254901 39.293727 -40.905881 -14.293539 0.000000 0.000000 0.000000 11.750814 23.621364 10.618580 26.100600 52.376369 6.602870 -75.066224 30.463073 -18.830755 0.000000 0.000000 0.000000
-0.539468 0.595587 0.982004 -16.381403 -31.354239 -0.561508 8.559154 17.435712 -73.047583 17.396295 -19.672119 94.013366 8.085857 -5.557215 -43.012992 0.000000 0.000000 0.000000 -17.843439 6.698277 -52.402604 36.972683 -16.945313 78.085352 -9.021779 -39.428023 -27.546461 0.000000 0.000000 0.000000 -13.881148 19.338862 64.365526 9.870064 -1.532019 -31.813617 2.083685 7.534959 25.198477 9.140629 -2.134100 -35.260439 0.000000 0.000000 0.000000 7.813551 -5.737363 1.814234 -20.193993 -15.954391 -1.360375 42.260630 -38.624525 -13.333317 0.000000 0.000000 0.000000 -3.638487 22.052312 6.869272 41.606276 51.167788 12.591501 -77.304414 31.994674 -20.471762 0.000000 0.000000 0.000000
-0.494909 0.667590 1.070649 -16.530577 -31.714584 7.749282 13.612187 21.391440 -69.052633 13.007517 -12.027491 90.928296 4.880913 -7.946783 -31.509353 0.000000 0.000000 0.000000 -17.664794 5.595394 -44.398942 24.956159 -3.602535 67.150910 -10.490745 -34.130766 -19.690789 0.000000 0.000000 0.000000 -13.794459 18.109106 59.630620 8.456715 -1.464355 -29.190339 0.813161 6.462463 22.823219 12.536736 -4.110173 -34.485395 0.000000 0.000000 0.000000 2.836983 -8.200503 2.743117 -21.179968 -12.665581 -1.880283 37.157497 -40.301113 -11.278487 0.000000 0.000000 0.000000 4.878256 22.546039 8.625629 41.702395 44.555151 9.439451 -77.924144 43.364312 -30.391483 0.000000 0.000000 0.000000
-0.447070 0.732847 1.175266 -17.342220 -29.709733 14.886360 19.930952 21.614430 -59.874634 4.475854 1.039524 85.270375 5.573418 -0.032789 -27.283059 0.000000 0.000000 0.000000 -16.860533 3.999796 -34.402795 7.894355 4.738119 48.134714 -8.203003 -21.264410 -1.024997 0.000000 0.000000 0.000000 -13.222742 16.464982 57.305252 8.778975 -0.801805 -33.138099 2.449824 5.132657 25.913420 12.208871 -4.032154 -36.628392 0.000000 0.000000 0.000000 -6.852021 -5.259517 2.482518 -19.147114 -15.080717 -1.997683 32.138374 -43.338782 -9.857024 0.000000 0.000000 0.000000 14.236605 20.049206 8.517860 38.952065 36.806834 5.424409 -71.063063 60.317971 -40.004573 0.000000 0.000000 0.000000
-0.397183 0.778741 1.288167 -17.187197 -26.048538 19.418139 22.546126 17.529944 -51.376073 -3.026470 9.492009 74.052507 7.980799 9.284647 -32.766197 0.000000 0.000000 0.000000 -17.306416 2.782948 -26.179778 -4.881774 6.243132 32.514518 -0.386431 -12.204512 18.976406 0.000000 0.000000 0.000000 -14.258729 13.836936 51.616581 10.844520 -0.921106 -32.096119 3.084261 5.329044 26.383696 16.256864 -6.405079 -34.471217 0.000000 0.000000 0.000000 -9.913961 -4.199653 2.318482 -20.100157 -14.127461 -2.343033 27.729473 -47.179513 -8.824610 0.000000 0.000000 0.000000 20.343704 16.138974 6.808967 42.578874 27.650201 3.199425 -44.059947 66.425543 -25.360442 0.000000 0.000000 0.000000
-0.343451 0.808234 1.402227 -15.274068 -20.145330 23.939211 20.763032 11.783281 -46.840261 -11.051631 13.113096 59.815200 10.129039 23.042095 -30.018977 0.000000 0.000000 0.000000 -15.403764 2.346780 -24.326521 -10.316091 7.939974 32.474325 6.675421 -4.478023 29.451782 0.000000 0.000000 0.000000 -11.082769 9.195215 48.103278 10.801536 -1.028364 -30.213706 3.996842 4.686444 23.655344 16.260058 -5.668486 -36.193462 0.000000 0.000000 0.000000 -14.161864 -3.484425 2.120000 -18.784625 -18.205628 -1.897467 21.264737 -48.972138 -6.235206 0.000000 0.000000 0.000000 24.908490 8.991575 2.385862 42.903487 19.101606 0.798219 -3.495536 58.537049 0.830255 0.000000 0.000000 0.000000
-0.286795 0.823242 1.516326 -13.403433 -14.988012 24.737132 17.119161 6.272394 -40.802443 -12.290987 10.703374 49.938911 9.826247 25.648880 -32.050377 0.000000 0.000000 0.000000 -13.757574 2.333782 -29.131421 -3.705704 8.150004 49.013896 3.362433 -4.514210 21.434529 0.000000 0.000000 0.000000 -7.429812 5.367270 46.259190 12.475946 -1.103324 -30.746898 2.053708 3.122466 22.851928 19.806466 -6.379748 -38.984119 0.000000 0.000000 0.000000 -14.452791 -6.092307 3.622001 -17.181811 -18.832446 -1.849459 16.859501 -48.398152 -4.347055 0.000000 0.000000 0.000000 26.421330 7.898593 1.525628 45.239213 10.661812 -1.715356 -7.824917 47.966878 -1.398556 0.000000 0.000000 0.000000
-0.228220 0.832977 1.636379 -9.674836 -11.119941 23.976645 10.553402 1.307515 -30.842934 -12.895895 8.047459 39.927671 8.904877 24.265393 -34.180056 0.000000 0.000000 0.000000 -11.231177 2.766409 -36.620784 4.631850 3.490047 61.689928 -4.320310 -13.967031 9.230419 0.000000 0.000000 0.000000 -0.659575 0.932453 47.567242 8.095661 -0.508368 -31.315801 3.039250 -1.750471 19.669902 13.000978 -3.813840 -39.557724 0.000000 0.000000 0.000000 -12.286990 -9.251467 5.818768 -18.613815 -22.703689 -1.405961 21.955527 -45.818115 -5.624034 0.000000 0.000000 0.000000 28.260185 0.119292 -5.747845 45.277960 4.701872 -2.794801 0.079792 36.867517 0.880730 0.000000 0.000000 0.000000
-0.170885 0.843408 1.766942 -6.930757 -8.108505 21.059777 1.598524 -1.094971 -17.253618 -8.994613 3.756697 29.362901 8.602704 21.548294 -28.951180 0.000000 0.000000 0.000000 -7.589441 3.810614 -44.187659 14.264235 -5.014813 65.236726 -9.322815 -25.723080 -13.618185 0.000000 0.000000 0.000000 4.813071 -2.664809 47.438060 7.758478 0.201584 -37.655570 0.117767 -8.736705 22.390179 9.434805 -5.111360 -30.937677 0.000000 0.000000 0.000000 -14.310617 -10.304449 8.271383 -15.669006 -20.089819 -2.327250 24.492301 -51.368772 -7.062445 0.000000 0.000000 0.000000 34.204245 -1.960933 -11.741081 35.307833 -2.646268 -3.157895 3.782595 37.753181 1.483588 0.000000 0.000000 0.000000
-0.116711 0.856121 1.907305 -3.817974 -7.308031 19.009404 -3.516882 -0.588760 -5.976549 -8.672985 2.619017 21.498817 5.012688 10.225457 -4.079357 0.000000 0.000000 0.000000 -5.345900 4.820255 -48.941530 23.843399 -9.566678 47.722329 -10.393155 -37.558490 -27.158607 0.000000 0.000000 0.000000 10.382927 -5.421587 44.845205 -3.210348 1.130400 -44.871680 4.459097 -18.068446 27.530437 2.892154 -4.680810 -18.008069 0.000000 0.000000 0.000000 -16.352613 -13.819662 12.820466 -11.114199 -22.558214 -2.528662 33.763278 -52.515543 -12.291362 0.000000 0.000000 0.000000 35.370690 -5.965355 -19.139463 29.656288 -8.771842 -3.355896 10.806822 39.811994 3.224947 0.000000 0.000000 0.000000
-0.065490 0.860659 2.049196 -4.638105 -7.889232 19.379253 -5.854233 0.307389 0.619797 -6.817388 1.974254 20.321715 -2.329031 1.865295 18.927438 0.000000 0.000000 0.000000 1.279194 8.327060 -52.363715 20.891168 -6.230277 35.940526 -10.283671 -32.835891 -22.142555 0.000000 0.000000 0.000000 14.800831 -6.775882 40.245198 5.927406 -0.269558 -33.794861 -2.068204 -10.820861 11.104680 1.843646 -1.772923 -10.719705 0.000000 0.000000 0.000000 -12.728788 -10.570154 7.552776 -16.118449 -22.269340 -1.406543 28.474596 -63.982863 -10.863369 0.000000 0.000000 0.000000 39.723918 -10.546363 -20.694808 22.885183 -15.676686 -3.110758 18.537230 44.500976 7.513201 0.000000 0.000000 0.000000
-0.014335 0.863928 2.185509 -2.436069 -10.831973 15.744151 -10.103734 -0.129012 -2.411896 -2.588921 1.915249 35.485547 -10.946009 -4.866778 32.234135 0.000000 0.000000 0.000000 3.576681 9.289852 -48.979573 17.982130 -3.534671 23.959992 -12.414948 -32.654165 0.894312 0.000000 0.000000 0.000000 16.473201 -7.055315 43.674591 -0.388463 1.011651 -62.626541 -5.256877 -19.390324 45.777128 -7.262662 18.628649 20.762147 0.000000 0.000000 0.000000 -26.741601 -10.123611 16.195720 1.179945 -27.663254 -4.626607 66.769634 -64.127809 -40.723136 0.000000 0.000000 0.000000 53.208354 0.360159 -24.618159 10.140574 -14.137176 -1.041749 -5.617923 53.054343 -1.165368 0.000000 0.000000 0.000000
