HIERARCHY
ROOT Hips
{
	OFFSET -0.001795 -0.223333 0.028219
	CHANNELS 6 Xposition Yposition Zposition Zrotation Yrotation Xrotation
	JOINT LeftUpLeg
	{
		OFFSET 0.069520 -0.091406 -0.006815
		CHANNELS 3 Zrotation Yrotation Xrotation
		JOINT LeftLeg
		{
			OFFSET 0.034277 -0.375199 -0.004496
			CHANNELS 3 Zrotation Yrotation Xrotation
			JOINT LeftFoot
			{
				OFFSET -0.013596 -0.397961 -0.043693
				CHANNELS 3 Zrotation Yrotation Xrotation
				JOINT LeftToe
				{
					OFFSET 0.026358 -0.055791 0.119288
					CHANNELS 3 Zrotation Yrotation Xrotation
					End Site
					{
						OFFSET 0.000000 0.000000 0.000000
					}
				}
			}
		}
	}
	JOINT RightUpLeg
	{
		OFFSET -0.067670 -0.090522 -0.004320
		CHANNELS 3 Zrotation Yrotation Xrotation
		JOINT RightLeg
		{
			OFFSET -0.038290 -0.382569 -0.008850
			CHANNELS 3 Zrotation Yrotation Xrotation
			JOINT RightFoot
			{
				OFFSET 0.015774 -0.398415 -0.042312
				CHANNELS 3 Zrotation Yrotation Xrotation
				JOINT RightToe
				{
					OFFSET -0.025372 -0.048144 0.123348
					CHANNELS 3 Zrotation Yrotation Xrotation
					End Site
					{
						OFFSET 0.000000 0.000000 0.000000
					}
				}
			}
		}
	}
	JOINT Spine
	{
		OFFSET -0.002533 0.108963 -0.026696
		CHANNELS 3 Zrotation Yrotation Xrotation
		JOINT Spine1
		{
			OFFSET 0.005487 0.135180 0.001092
			CHANNELS 3 Zrotation Yrotation Xrotation
			JOINT Spine2
			{
				OFFSET 0.001457 0.052922 0.025425
				CHANNELS 3 Zrotation Yrotation Xrotation
				JOINT Neck
				{
					OFFSET -0.002778 0.213870 -0.042857
					CHANNELS 3 Zrotation Yrotation Xrotation
					JOINT Head
					{
						OFFSET 0.005152 0.064970 0.051349
						CHANNELS 3 Zrotation Yrotation Xrotation
						End Site
						{
							OFFSET 0.000000 0.000000 0.000000
						}
					}
				}
				JOINT LeftShoulder
				{
					OFFSET 0.078845 0.121749 -0.034090
					CHANNELS 3 Zrotation Yrotation Xrotation
					JOINT LeftArm
					{
						OFFSET 0.090977 0.030469 -0.008868
						CHANNELS 3 Zrotation Yrotation Xrotation
						JOINT LeftForeArm
						{
							OFFSET 0.259612 -0.012772 -0.027456
							CHANNELS 3 Zrotation Yrotation Xrotation
							JOINT LeftHand
							{
								OFFSET 0.249234 0.008986 -0.001171
								CHANNELS 3 Zrotation Yrotation Xrotation
								End Site
								{
									OFFSET 0.000000 0.000000 0.000000
								}
							}
						}
					}
				}
				JOINT RightShoulder
				{
					OFFSET -0.081759 0.118833 -0.038615
					CHANNELS 3 Zrotation Yrotation Xrotation
					JOINT RightArm
					{
						OFFSET -0.096012 0.032551 -0.009143
						CHANNELS 3 Zrotation Yrotation Xrotation
						JOINT RightForeArm
						{
							OFFSET -0.253742 -0.013329 -0.021401
							CHANNELS 3 Zrotation Yrotation Xrotation
							JOINT RightHand
							{
								OFFSET -0.255298 0.007772 -0.005559
								CHANNELS 3 Zrotation Yrotation Xrotation
								End Site
								{
									OFFSET 0.000000 0.000000 0.000000
								}
							}
						}
					}
				}
			}
		}
	}
}
MOTION
Frames: 76
Frame Time: 0.050000
0.000000 0.745984 0.000000 -4.121345 18.532297 -4.459328 -2.933839 0.674756 7.356535 -0.875492 -3.895829 37.055402 14.324747 22.624121 -56.149378 0.000000 0.000000 0.000000 1.164523 0.700596 -55.220009 2.551167 -2.142695 40.926584 -15.173496 -35.213956 -7.495532 0.000000 0.000000 0.000000 -4.047245 -2.403951 34.501169 14.572442 -2.349552 -27.468529 -6.735856 -14.652663 19.434940 -4.854782 3.557561 -27.134851 0.000000 0.000000 0.000000 -16.114234 -13.270101 6.739107 -19.427593 -47.775031 2.818041 66.845083 -60.316436 -36.973792 0.000000 0.000000 0.000000 19.428853 7.568792 1.737504 51.474978 -8.182512 -9.830485 8.862191 43.829623 4.946568 0.000000 0.000000 0.000000
0.034659 0.733965 0.109908 -4.081665 21.058252 -1.099392 -0.443818 0.567212 14.717172 -0.720560 -2.817302 29.509355 15.374349 18.736978 -51.230375 0.000000 0.000000 0.000000 1.907431 -0.081532 -59.937749 2.271505 -1.418652 34.008007 -7.731825 -16.248498 16.192382 0.000000 0.000000 0.000000 -2.485853 -2.960433 33.577013 11.629388 -0.630678 -40.038476 -8.393809 -24.342422 28.473344 -7.413644 3.513197 -27.937138 0.000000 0.000000 0.000000 -15.789902 -7.840919 6.126270 -19.774315 -52.956559 3.105875 74.802347 -55.036590 -34.900078 0.000000 0.000000 0.000000 15.027574 3.632798 -1.531124 51.561198 -14.500798 -13.186331 9.901591 41.787810 4.129095 0.000000 0.000000 0.000000
0.072654 0.731255 0.233037 -5.535034 19.952947 2.398060 0.657610 0.332289 21.150382 1.673194 -2.257344 22.031771 12.273433 11.376781 -29.398117 0.000000 0.000000 0.000000 3.799120 1.169921 -64.707770 2.539144 -1.750932 41.754368 -4.196321 -11.005386 12.282447 0.000000 0.000000 0.000000 1.787551 -2.617091 24.685571 12.049330 -0.581548 -41.040486 -13.737825 -22.144534 31.435072 -8.461078 4.439713 -29.790201 0.000000 0.000000 0.000000 -16.021359 -8.310270 6.044992 -17.517195 -49.261684 1.334602 85.394381 -61.744259 -48.893400 0.000000 0.000000 0.000000 15.007540 -0.838330 -3.228803 47.510614 -18.840070 -13.811685 11.162123 39.101508 4.485682 0.000000 0.000000 0.000000
0.110194 0.733268 0.360603 -6.288686 22.745430 2.030929 3.666296 -0.830986 23.427671 3.160782 -3.546850 26.526812 -5.811165 0.382231 17.132563 0.000000 0.000000 0.000000 2.652267 -0.484383 -63.196273 3.849539 -4.495120 54.650579 -5.234788 -11.813809 -2.571221 0.000000 0.000000 0.000000 4.710341 -3.167892 22.739151 11.031860 -0.643708 -39.688321 -14.612542 -23.024156 28.531330 -8.621446 4.969788 -23.822759 0.000000 0.000000 0.000000 -19.162374 -5.311387 4.569229 -19.786591 -44.819853 1.366031 101.552633 -76.452785 -78.157144 0.000000 0.000000 0.000000 12.790644 -4.271453 -4.373567 46.222964 -24.264787 -15.010235 12.439171 33.601409 4.135172 0.000000 0.000000 0.000000
0.146309 0.743762 0.477510 -8.052885 24.715750 -0.289614 8.953566 -1.922686 17.642187 0.433688 -6.255154 43.114378 -13.387565 -0.252447 37.049593 0.000000 0.000000 0.000000 2.886840 -0.516870 -58.279986 2.649890 -5.630607 60.190093 -5.978454 -13.334122 -3.697125 0.000000 0.000000 0.000000 3.381234 -3.113638 23.746641 11.050908 -0.687154 -36.262765 -11.309174 -25.012743 25.998907 -9.702397 5.752297 -20.708654 0.000000 0.000000 0.000000 -22.032158 -3.092599 3.718221 -19.259297 -38.763403 0.262272 136.101575 -82.164243 -120.517107 0.000000 0.000000 0.000000 14.666300 -4.158240 -4.840558 42.505559 -28.838178 -15.075177 12.572140 30.675304 3.725509 0.000000 0.000000 0.000000
0.179446 0.749910 0.579591 -8.892026 22.547231 -1.256950 12.920012 -1.387890 3.896521 -9.161953 -5.248473 66.457332 -9.233051 -0.637338 28.795867 0.000000 0.000000 0.000000 2.529701 0.594794 -52.245277 3.264022 -5.879440 57.228365 -7.314143 -17.380096 -12.043600 0.000000 0.000000 0.000000 0.328981 -2.420858 24.598216 13.222949 -1.226470 -33.204958 -7.943754 -18.101773 23.286887 -10.704847 7.891519 -14.769256 0.000000 0.000000 0.000000 -25.720894 -2.273193 1.520151 -19.767616 -28.974089 -0.449327 -152.563262 -81.981582 155.613118 0.000000 0.000000 0.000000 21.694502 -3.982831 -4.905219 37.444664 -29.041539 -12.882523 8.684122 30.316903 3.078051 0.000000 0.000000 0.000000
0.211838 0.757342 0.672367 -7.458302 23.078704 -1.254485 15.143880 -1.033723 -15.281975 -19.721492 2.038022 78.808891 5.217962 13.871197 13.975959 0.000000 0.000000 0.000000 0.365924 0.026672 -45.827786 2.914832 -6.751597 58.558386 -7.547534 -19.533832 -18.967292 0.000000 0.000000 0.000000 -2.752488 -2.286898 28.562133 13.058869 -1.113408 -33.453293 -7.094619 -13.488740 21.725211 -8.387639 7.160449 -7.914850 0.000000 0.000000 0.000000 -29.234052 -0.137518 -1.766712 -21.288691 -19.996331 -0.957758 -123.973111 -79.894894 119.933034 0.000000 0.000000 0.000000 26.774238 -3.680937 -4.119534 34.401475 -26.093543 -11.057520 6.477969 27.561108 2.458872 0.000000 0.000000 0.000000
0.246344 0.759068 0.759176 -7.051433 18.462218 -3.710162 18.864579 -0.607191 -30.621683 -25.202152 8.092450 60.715937 17.769504 55.201571 -29.126747 0.000000 0.000000 0.000000 3.659563 2.525503 -37.949580 -1.796602 -3.083824 63.120930 -7.072647 -18.335133 -24.432890 0.000000 0.000000 0.000000 -7.629805 -1.119554 32.039280 10.532300 -0.638174 -34.752125 -3.178617 -5.187864 25.191161 -4.680702 4.804682 -2.540585 0.000000 0.000000 0.000000 -33.078796 -2.391175 -2.568932 -19.440998 -11.248542 -1.744501 -99.224413 -81.211686 93.166644 0.000000 0.000000 0.000000 34.697761 -1.650508 -1.023421 28.993662 -20.263009 -8.775272 0.977404 30.319341 1.455504 0.000000 0.000000 0.000000
0.283782 0.756925 0.845653 -6.971443 14.347005 -4.855497 20.717421 0.259112 -41.294727 -21.634295 6.335472 44.781046 14.636117 35.676967 -19.517372 0.000000 0.000000 0.000000 4.864333 3.275974 -32.737848 -3.945345 -0.533439 68.913970 -6.751463 -15.506414 -21.893786 0.000000 0.000000 0.000000 -11.077439 0.137303 31.770949 9.629695 -0.559939 -33.777024 -2.118074 0.354551 27.552596 -4.954040 5.597440 0.830663 0.000000 0.000000 0.000000 -37.214747 -1.616262 -5.213849 -18.218280 -6.942882 -1.946360 -53.122390 -80.591390 47.985719 0.000000 0.000000 0.000000 37.667384 0.904541 2.702711 25.414095 -16.150562 -7.448516 -3.801629 34.707528 0.221982 0.000000 0.000000 0.000000
0.322716 0.741864 0.937071 -5.906716 13.540775 -6.868840 19.396313 0.050664 -44.340513 -21.776283 6.609578 44.091099 12.203303 26.279971 -8.562840 0.000000 0.000000 0.000000 2.003726 2.248592 -25.422897 -4.412283 -0.271902 74.365313 -5.878124 -11.110179 -19.450140 0.000000 0.000000 0.000000 -13.552044 0.741107 29.472777 5.030245 0.022265 -28.974521 0.953056 2.212523 26.070352 -5.076091 5.059577 8.891091 0.000000 0.000000 0.000000 -40.376195 -2.910506 -5.593664 -16.114684 -4.144817 -1.812648 -42.177492 -76.687795 35.824466 0.000000 0.000000 0.000000 35.651460 0.923699 2.947508 25.083772 -16.644189 -7.410265 -5.706845 44.215873 -0.445406 0.000000 0.000000 0.000000
0.361155 0.710622 1.031912 -6.132017 12.009445 -8.833990 17.476891 -0.182216 -43.424331 -21.618262 8.019668 55.798899 13.350109 33.912866 -25.976547 0.000000 0.000000 0.000000 1.611030 1.946513 -20.336971 -5.809920 1.685071 84.271447 -4.541906 -8.823205 -8.658256 0.000000 0.000000 0.000000 -16.010632 1.195135 26.548650 6.540941 -0.652329 -25.056480 -0.094930 3.916564 25.298014 -6.233821 6.574388 6.226369 0.000000 0.000000 0.000000 -41.061088 -4.062365 -5.431648 -16.358860 -1.958349 -1.906494 -31.270969 -74.834551 26.059156 0.000000 0.000000 0.000000 35.022723 1.620439 3.704022 23.398501 -17.033120 -6.892642 -11.829594 53.996185 -3.676196 0.000000 0.000000 0.000000
0.393945 0.667073 1.124273 -5.796541 11.096978 -11.895227 15.315852 -0.639891 -42.891263 -21.764853 10.817485 74.708319 14.309822 39.051109 -27.382538 0.000000 0.000000 0.000000 0.030550 1.585452 -18.879841 -7.859205 5.805340 96.946180 -0.172437 -3.184574 5.846874 0.000000 0.000000 0.000000 -17.414377 1.374456 27.237387 5.838679 -0.572651 -25.709903 -0.518478 3.073601 27.820890 -7.121343 7.836199 5.999421 0.000000 0.000000 0.000000 -42.887979 -5.951984 -3.393253 -14.591970 -5.592665 -1.543951 -11.280743 -67.113635 9.193680 0.000000 0.000000 0.000000 34.455861 1.545781 3.149424 23.424799 -14.568247 -6.671027 -11.959594 57.433960 -3.955217 0.000000 0.000000 0.000000
0.418077 0.622516 1.203058 -6.282490 11.235721 -14.373331 14.490429 -0.885613 -41.826377 -21.937423 13.312096 88.472374 18.963479 43.392397 -13.054703 0.000000 0.000000 0.000000 1.957785 2.336860 -24.381714 -8.843179 10.023160 111.080538 4.553249 2.289653 13.503509 0.000000 0.000000 0.000000 -18.678263 1.685489 31.299430 6.246272 -0.820743 -24.931257 -2.735530 1.951408 28.242821 -5.372238 6.077679 1.538089 0.000000 0.000000 0.000000 -43.739602 -10.189120 0.732852 -11.378789 -10.957725 -1.015927 -4.114374 -57.049617 3.592301 0.000000 0.000000 0.000000 33.422122 1.887741 2.746097 29.313366 -10.880260 -7.757174 -11.127909 60.013742 -2.932894 0.000000 0.000000 0.000000
0.432760 0.597281 1.263707 -7.945495 13.532344 -15.543960 14.239921 -1.293661 -39.575870 -22.103613 13.520305 96.815602 18.719557 40.445172 -7.558754 0.000000 0.000000 0.000000 3.755564 3.219754 -36.796831 -6.655865 6.237792 119.143132 -0.938666 0.351331 -4.266142 0.000000 0.000000 0.000000 -19.050269 1.613188 36.718892 7.243770 -1.110399 -24.233798 -6.821686 -1.838288 27.751039 -4.764861 5.120411 4.937220 0.000000 0.000000 0.000000 -43.882238 -14.046068 5.531378 -5.972091 -14.250850 -0.867098 4.600340 -46.999876 -1.051505 0.000000 0.000000 0.000000 39.304803 4.714716 3.636920 29.248441 -8.924536 -7.149960 0.052039 58.658519 2.894520 0.000000 0.000000 0.000000
0.442264 0.588703 1.311892 -9.276430 14.650348 -14.913945 14.929484 -1.030805 -35.974511 -21.858832 12.832539 100.353293 15.065218 36.005513 -14.610567 0.000000 0.000000 0.000000 3.272583 2.909204 -51.577793 0.637441 -7.562335 116.359014 -8.304083 -11.053665 -31.577088 0.000000 0.000000 0.000000 -18.711887 1.492037 43.072132 6.347584 -0.534904 -28.903504 -6.601651 -6.414701 31.708414 -5.903232 6.254505 -0.522813 0.000000 0.000000 0.000000 -43.234268 -16.533517 10.589914 -0.820064 -18.605634 -1.187959 13.461496 -45.247222 -5.112461 0.000000 0.000000 0.000000 40.229390 7.785300 3.957243 31.662871 -7.907279 -7.292794 5.229286 61.921107 6.178343 0.000000 0.000000 0.000000
0.453288 0.598510 1.357394 -10.710058 16.519001 -12.795765 13.182515 -1.309369 -30.663021 -20.575912 9.013714 101.401900 11.519529 33.012818 -28.960867 0.000000 0.000000 0.000000 1.398565 0.535056 -66.041785 10.262846 -18.211051 99.295165 -8.320992 -16.898355 -27.516880 0.000000 0.000000 0.000000 -17.376767 0.692554 50.829498 9.821313 -0.804949 -33.718547 -8.650880 -9.369144 33.251793 -7.408453 7.724061 0.465042 0.000000 0.000000 0.000000 -43.713952 -16.062329 12.581382 3.830252 -20.990611 -1.573742 24.294695 -46.941606 -10.503671 0.000000 0.000000 0.000000 37.931394 9.324401 3.764277 31.048629 -8.997994 -7.163686 11.460630 62.451811 9.580663 0.000000 0.000000 0.000000
0.468577 0.616920 1.406335 -10.757073 14.931841 -8.788937 14.375143 -0.674777 -25.277013 -20.482844 9.394247 97.278041 10.293415 28.694597 -33.839843 0.000000 0.000000 0.000000 0.558485 0.317751 -74.666781 16.994078 -18.429974 81.444858 -6.805687 -15.152201 -7.738165 0.000000 0.000000 0.000000 -15.402907 0.481449 53.197042 13.472949 -1.645535 -30.707730 -9.887383 -8.290578 26.543909 -10.420528 12.475346 11.849116 0.000000 0.000000 0.000000 -44.728564 -16.240207 12.292022 5.390037 -16.356800 -0.970842 26.781747 -56.859840 -14.483944 0.000000 0.000000 0.000000 39.965990 7.548537 2.211224 23.363435 -16.424431 -6.041545 21.376368 68.041794 16.563173 0.000000 0.000000 0.000000
0.487333 0.627141 1.463664 -11.157899 14.458995 -3.930205 16.144132 -0.455718 -15.754378 -18.744053 6.542680 89.235112 9.393789 16.585617 -51.218102 0.000000 0.000000 0.000000 -1.106191 -0.758091 -78.321670 24.899699 -20.422155 67.210315 -8.519051 -19.627802 15.519649 0.000000 0.000000 0.000000 -11.514555 -1.101391 55.912536 14.765634 -1.150098 -33.210462 -10.634177 -8.932607 25.408508 -14.414376 18.254627 15.485997 0.000000 0.000000 0.000000 -48.236445 -14.101564 11.591050 6.274709 -14.715328 -0.777900 21.453592 -63.383102 -13.238068 0.000000 0.000000 0.000000 38.737650 4.724958 -0.651084 18.272237 -24.469811 -5.164472 36.918793 69.141067 27.273502 0.000000 0.000000 0.000000
0.507431 0.623331 1.528711 -10.922293 14.307848 0.775717 13.640373 -0.865847 -2.517810 -13.777289 1.220227 78.042690 11.480053 12.050597 -64.685569 0.000000 0.000000 0.000000 -2.158992 -1.315251 -77.835801 31.971796 -23.618458 60.436681 -18.435638 -31.383284 28.758300 0.000000 0.000000 0.000000 -5.280963 -4.229393 57.009325 17.534204 2.465981 -53.098547 -21.223506 -2.795388 46.889084 -11.027738 18.849942 20.862125 0.000000 0.000000 0.000000 -51.375930 -13.068203 11.604653 10.157878 -14.404653 -0.206797 25.024864 -63.574674 -18.119296 0.000000 0.000000 0.000000 48.676811 4.542774 1.946178 10.011374 -29.441409 -2.995549 13.451080 66.825222 7.992147 0.000000 0.000000 0.000000
0.524867 0.597878 1.585806 -11.685224 13.932606 5.750522 13.379135 -1.581200 9.211390 -7.648772 -2.334963 66.494675 13.473868 5.770315 -68.671232 0.000000 0.000000 0.000000 -1.180428 -0.127881 -80.196691 38.214738 -30.233443 64.652312 -21.053208 -43.355392 4.699730 0.000000 0.000000 0.000000 0.933582 -8.427101 60.625816 19.923196 5.013691 -57.541156 -26.911002 2.585163 42.119148 -8.058397 14.234137 31.098342 0.000000 0.000000 0.000000 -52.245316 -14.266851 9.506479 7.917049 -10.950674 0.151673 17.667572 -62.219334 -12.578069 0.000000 0.000000 0.000000 52.902506 3.073527 -0.439476 3.264885 -37.672296 0.252740 8.757173 50.362088 2.756469 0.000000 0.000000 0.000000
0.536979 0.572479 1.615803 -13.514313 12.407168 9.895146 12.587241 -1.754304 14.078769 -7.695621 -0.770259 60.073535 13.101141 6.716648 -66.519736 0.000000 0.000000 0.000000 -2.954627 -0.594530 -83.664115 47.004326 -35.001615 61.479523 -19.327917 -45.253794 -4.058911 0.000000 0.000000 0.000000 0.286423 -8.980629 67.443589 8.982061 1.876166 -50.249954 -9.479422 -8.756783 34.578931 -16.974764 22.515408 11.185883 0.000000 0.000000 0.000000 -57.933656 -13.783920 15.358816 11.224458 -17.092583 -1.258427 22.467074 -50.335892 -11.730165 0.000000 0.000000 0.000000 35.121692 1.145788 -5.018123 11.561415 -38.840193 -3.341179 11.485530 38.002987 3.726436 0.000000 0.000000 0.000000
0.542498 0.555856 1.618052 -15.837394 10.634973 15.469478 13.436750 -1.679986 11.084548 -12.533852 3.577248 58.400425 12.226634 6.820506 -62.969702 0.000000 0.000000 0.000000 -3.542093 0.400962 -93.259493 50.561218 -34.537342 58.243837 -27.036176 -49.364488 12.152112 0.000000 0.000000 0.000000 -1.064118 -7.686184 70.992670 8.549529 0.346388 -37.004792 -3.267859 -7.394890 23.486669 -20.133101 16.109195 -8.719085 0.000000 0.000000 0.000000 -49.644778 -17.293311 17.372553 11.793497 -22.792379 -2.854718 27.761966 -42.530838 -10.304648 0.000000 0.000000 0.000000 30.415764 0.854697 -4.597849 19.472386 -37.069707 -5.857881 12.063012 33.997395 3.816563 0.000000 0.000000 0.000000
0.542138 0.544938 1.604275 -15.876684 10.855084 23.319963 15.065588 -1.455057 -0.668423 -15.236564 6.367000 63.894439 10.198648 9.552714 -50.109157 0.000000 0.000000 0.000000 -3.316592 1.466061 -103.824006 49.579196 -33.752376 60.115526 -28.058504 -52.172273 9.908598 0.000000 0.000000 0.000000 -6.083136 -3.726163 74.126522 10.979603 -0.174120 -34.611433 -1.664564 -8.744246 24.464319 -21.391944 11.236381 -29.492424 0.000000 0.000000 0.000000 -29.784147 -17.952373 15.082914 12.730621 -32.559238 -5.552702 35.330653 -28.904843 -7.982814 0.000000 0.000000 0.000000 24.386209 5.682279 -1.253186 30.340943 -32.104698 -9.339423 14.257569 28.637378 3.588528 0.000000 0.000000 0.000000
0.538114 0.541781 1.585975 -17.449293 10.827382 32.623127 18.335791 -1.131002 -13.487136 -18.292861 10.457251 66.917392 9.519256 18.983003 -41.935424 0.000000 0.000000 0.000000 -2.632741 4.408886 -113.481845 51.859917 -33.933247 58.941737 -27.053503 -56.456983 1.238505 0.000000 0.000000 0.000000 -10.294439 0.598053 72.142270 12.706327 -0.751840 -31.665861 1.427203 -8.402817 24.341530 -18.812595 7.971360 -38.939149 0.000000 0.000000 0.000000 -11.488793 -19.334073 11.642767 13.842576 -32.562912 -5.611108 37.998837 -20.223549 -5.524433 0.000000 0.000000 0.000000 20.299727 5.152094 -0.915311 34.464277 -26.538419 -9.455859 17.428092 28.111633 4.183717 0.000000 0.000000 0.000000
0.533088 0.545979 1.573988 -17.913910 12.746158 37.503841 19.897998 -0.800663 -22.454233 -18.254729 10.654277 68.314320 9.508899 22.573015 -36.095853 0.000000 0.000000 0.000000 0.157874 8.411520 -117.849143 44.866744 -30.310418 64.000601 -24.202326 -56.716478 -5.530364 0.000000 0.000000 0.000000 -12.560171 1.983391 72.526824 13.920925 -0.926739 -31.779489 1.776066 -9.496064 28.715850 -18.415350 6.913273 -45.865305 0.000000 0.000000 0.000000 3.623923 -17.470370 7.253066 14.744031 -29.994830 -4.561591 37.035498 -9.965586 -2.271890 0.000000 0.000000 0.000000 14.217822 8.727969 1.653992 46.251537 -21.759525 -12.617806 18.766343 31.428031 4.983567 0.000000 0.000000 0.000000
0.530144 0.556839 1.571710 -20.107351 11.273203 45.793499 21.869892 0.357112 -30.590843 -18.725160 12.771543 64.738904 9.335377 23.249439 -29.394565 0.000000 0.000000 0.000000 -0.054788 12.706368 -119.734856 47.036000 -32.983757 64.729986 -14.465710 -49.826587 -24.950416 0.000000 0.000000 0.000000 -14.630385 5.389264 65.070328 15.744709 -1.024882 -32.160297 1.000619 -11.934643 33.428594 -25.108402 8.301903 -48.995669 0.000000 0.000000 0.000000 9.117600 -18.294632 6.547516 14.776353 -22.073629 -2.605744 36.390015 -7.168160 -1.429681 0.000000 0.000000 0.000000 18.425855 10.823004 1.889548 41.127155 -15.143156 -8.958361 17.360874 33.419597 4.912026 0.000000 0.000000 0.000000
0.531695 0.562078 1.579546 -23.915109 8.004435 51.882572 26.050310 2.490209 -32.276031 -25.312179 19.381070 57.755354 9.013336 21.959124 -27.720487 0.000000 0.000000 0.000000 -0.363415 17.571615 -114.868605 55.452742 -41.919001 66.111405 -8.767001 -43.024405 -44.836361 0.000000 0.000000 0.000000 -13.783382 7.376370 59.991817 11.083619 -0.438978 -31.524943 1.376105 -14.618732 31.457110 -29.241295 9.174603 -47.943102 0.000000 0.000000 0.000000 8.795995 -17.363873 6.674746 17.366347 -22.067588 -2.611374 36.316541 -8.014448 -1.331349 0.000000 0.000000 0.000000 26.998281 14.863596 1.545579 32.693905 -15.698866 -5.711771 21.975616 42.218207 7.740828 0.000000 0.000000 0.000000
0.537926 0.557625 1.593999 -26.592063 5.729193 55.046210 31.816497 4.622298 -31.792617 -34.419267 29.277945 57.120692 11.194239 28.203883 -22.575102 0.000000 0.000000 0.000000 -0.457949 14.538041 -92.320546 58.600644 -48.689345 71.958628 -7.179485 -22.623039 -66.018435 0.000000 0.000000 0.000000 -15.006534 9.936037 58.061283 10.487052 -0.194462 -31.983524 1.614434 -14.368628 31.843113 -29.703773 8.632790 -49.452319 0.000000 0.000000 0.000000 5.901387 -17.105402 7.573833 20.215409 -19.347816 -2.166353 41.229465 -8.335184 -1.772442 0.000000 0.000000 0.000000 28.278616 16.497451 2.512252 28.996532 -9.820573 -3.935257 23.560960 51.997069 10.938199 0.000000 0.000000 0.000000
0.546956 0.547419 1.613824 -29.498379 4.555164 57.768849 36.357450 6.293916 -30.290109 -38.719140 39.494103 63.770156 14.762842 34.713431 -18.678366 0.000000 0.000000 0.000000 -8.851130 7.517482 -76.544934 46.676466 -48.398883 86.725639 -6.553774 -21.955834 -64.675065 0.000000 0.000000 0.000000 -14.858741 11.128835 57.661125 9.312575 0.220173 -34.545815 2.688859 -13.795165 32.405337 -24.317267 6.248740 -51.486332 0.000000 0.000000 0.000000 4.228332 -15.904228 7.701269 18.525772 -17.917945 -1.832764 48.085804 -14.804465 -4.744585 0.000000 0.000000 0.000000 27.963549 17.743154 3.439535 25.409611 -3.221801 -2.651318 16.801397 66.211898 11.016954 0.000000 0.000000 0.000000
0.557972 0.526613 1.637308 -30.780700 4.828286 59.868996 39.111861 7.681622 -33.318405 -36.212582 47.881628 78.607668 16.916163 30.952534 6.441344 0.000000 0.000000 0.000000 -18.691236 2.069266 -63.618145 51.750072 -50.623322 79.137295 -4.699171 -37.250074 -56.279081 0.000000 0.000000 0.000000 -15.468244 11.537613 55.712904 9.292476 -0.035252 -31.273238 8.024839 -12.125818 27.320487 -25.848897 6.167339 -49.522792 0.000000 0.000000 0.000000 0.053404 -15.514025 8.812069 17.579740 -19.709657 -2.596039 51.303325 -20.588684 -7.824677 0.000000 0.000000 0.000000 25.404620 20.855340 7.239586 20.500841 4.619022 -1.886581 -75.806730 77.003742 -60.180777 0.000000 0.000000 0.000000
0.570404 0.503047 1.663015 -35.917929 3.213656 59.834900 45.023271 9.041358 -29.217926 -38.425011 56.314162 84.366155 9.465226 20.727006 21.902300 0.000000 0.000000 0.000000 -25.888338 1.572625 -49.977186 52.730190 -44.196478 69.864818 -3.704136 -29.017941 -61.256248 0.000000 0.000000 0.000000 -16.156258 12.705653 52.777841 12.453146 -0.206593 -31.687102 8.636765 -4.273715 28.095930 -28.198768 7.808105 -44.046907 0.000000 0.000000 0.000000 -4.270537 -17.410014 9.907034 15.660362 -19.669636 -3.069948 54.876303 -31.129948 -14.503388 0.000000 0.000000 0.000000 28.301337 20.282845 10.930373 6.033428 16.271589 -2.748481 -106.824004 58.936291 -65.146776 0.000000 0.000000 0.000000
0.582417 0.479826 1.687839 -37.109219 2.909505 57.152917 45.463521 11.447772 -34.641111 -36.414075 58.109823 92.099338 6.205945 16.723147 20.995154 0.000000 0.000000 0.000000 -35.086174 0.868410 -37.902539 54.469607 -34.575831 51.154029 -3.858105 -35.969175 -53.033000 0.000000 0.000000 0.000000 -15.062126 12.013608 54.935501 13.683833 0.105904 -34.785413 10.700759 2.666416 30.404628 -25.328358 7.475220 -43.364970 0.000000 0.000000 0.000000 -9.116848 -22.192404 11.941052 16.405665 -21.226040 -4.179932 59.090866 -36.962880 -19.596642 0.000000 0.000000 0.000000 25.728921 19.719984 13.824882 -7.502888 23.833588 -4.751133 -112.617390 34.885685 -38.363827 0.000000 0.000000 0.000000
0.592412 0.451731 1.707901 -38.135055 -0.535315 54.269277 36.417890 13.035891 -43.476184 -35.970587 57.026540 94.000190 11.218287 21.955499 9.764482 0.000000 0.000000 0.000000 -35.244003 2.047339 -32.511157 47.286815 -25.245641 47.500374 -5.394158 -38.013037 -42.835866 0.000000 0.000000 0.000000 -16.133311 13.600007 54.713682 13.092422 -0.153630 -33.333930 13.880134 6.035295 27.379968 -18.290656 6.404712 -40.268307 0.000000 0.000000 0.000000 -10.088181 -22.108652 11.194812 15.897786 -25.763804 -5.603747 56.815893 -43.142811 -21.147687 0.000000 0.000000 0.000000 14.935471 21.549693 13.301501 -20.230939 30.644386 -7.682201 -111.526329 25.164677 -22.773267 0.000000 0.000000 0.000000
0.598548 0.426958 1.721346 -36.680245 -3.069948 48.394060 25.629613 12.640752 -55.157283 -30.100125 53.137850 104.082157 15.706009 28.998182 -1.999169 0.000000 0.000000 0.000000 -33.941451 1.820187 -31.030009 34.128231 -19.240062 56.189876 -7.643510 -29.603685 -27.467849 0.000000 0.000000 0.000000 -15.490818 14.043501 59.539680 12.137409 -0.242342 -34.000433 14.787951 12.125263 27.279849 -8.787145 4.745349 -41.653439 0.000000 0.000000 0.000000 -4.630587 -26.191071 10.899505 14.086399 -29.542493 -6.656347 55.097948 -44.996576 -21.856470 0.000000 0.000000 0.000000 1.879830 23.393734 11.736717 -22.452530 35.051911 -7.971435 -106.537708 13.997078 -5.105462 0.000000 0.000000 0.000000
0.599615 0.408003 1.728047 -32.584749 -3.383687 44.395820 19.328563 11.674525 -66.414238 -34.289335 56.480065 106.014549 20.685370 36.921029 0.354725 0.000000 0.000000 0.000000 -33.155638 0.702276 -33.394176 23.752458 -15.616771 67.324374 -7.614391 -23.676953 -20.312851 0.000000 0.000000 0.000000 -13.051247 11.668192 61.861129 7.051606 0.028770 -32.410779 15.321026 11.299153 25.040301 -3.885060 3.587194 -43.031707 0.000000 0.000000 0.000000 0.246121 -25.321311 9.921706 10.821176 -36.129940 -7.376969 58.489663 -47.902576 -24.838584 0.000000 0.000000 0.000000 -9.382720 30.320605 10.792272 -23.090388 35.825668 -7.785193 -99.964318 9.360560 0.410845 0.000000 0.000000 0.000000
0.597945 0.392932 1.730802 -30.826949 -4.024787 41.298728 20.632097 14.543230 -72.962799 -41.637076 62.319394 103.784221 30.244571 40.475574 27.894061 0.000000 0.000000 0.000000 -29.001166 0.416242 -37.016650 13.230088 -8.301967 81.679360 -5.218430 -13.630268 -4.408215 0.000000 0.000000 0.000000 -13.351170 11.704907 62.991949 8.027804 -0.124588 -32.729309 14.396439 17.437733 25.481427 0.670302 3.060594 -47.980793 0.000000 0.000000 0.000000 9.851324 -29.563388 9.868821 4.194161 -40.010248 -6.918885 67.634326 -47.895534 -32.196509 0.000000 0.000000 0.000000 -16.636391 29.842990 7.987060 -15.704098 41.511328 -5.709113 -95.198851 7.347712 4.366096 0.000000 0.000000 0.000000
0.594997 0.386568 1.732019 -25.064010 -2.683303 37.751597 20.276097 13.695767 -78.827080 -50.641918 65.919086 97.138909 33.133565 38.758364 40.900232 0.000000 0.000000 0.000000 -28.507211 -0.555184 -36.648801 5.740209 -2.040599 88.735607 -1.935822 -7.997368 8.297950 0.000000 0.000000 0.000000 -12.837684 10.185478 65.843064 6.838934 -0.001415 -32.877098 13.775205 16.306709 25.921607 2.390157 2.740298 -48.004923 0.000000 0.000000 0.000000 12.633712 -30.253152 9.622274 2.638477 -41.976812 -6.722006 75.173122 -48.992827 -38.070224 0.000000 0.000000 0.000000 -18.715256 33.502578 7.984220 -11.456844 42.384069 -4.529857 -92.483423 7.228753 3.643669 0.000000 0.000000 0.000000
0.592752 0.383995 1.731987 -22.100760 -1.385509 37.656794 21.855008 14.370781 -81.163108 -58.956784 68.482421 90.147002 33.267686 37.477250 45.200591 0.000000 0.000000 0.000000 -27.236338 -1.074745 -38.618792 1.614954 2.120239 92.188190 1.026890 -4.891980 17.331260 0.000000 0.000000 0.000000 -13.385169 9.374009 64.175315 7.222210 -0.139320 -31.885892 14.490695 17.515136 26.204330 2.231569 2.870863 -49.297843 0.000000 0.000000 0.000000 18.799712 -30.516370 9.062647 -0.925763 -44.546189 -6.376785 83.161971 -49.489484 -45.055079 0.000000 0.000000 0.000000 -20.422419 33.175833 7.126792 -2.418585 44.696169 -1.388400 -94.739795 10.970135 0.766102 0.000000 0.000000 0.000000
0.591455 0.384480 1.731302 -19.878662 -0.797305 37.944215 23.553850 15.467274 -82.374823 -69.913207 69.793012 79.261015 36.155088 37.954196 49.792775 0.000000 0.000000 0.000000 -26.330252 -0.882852 -36.259771 -0.394285 4.095772 89.439552 0.457169 -5.885167 17.270047 0.000000 0.000000 0.000000 -13.552251 8.877005 63.206220 8.114145 -0.365436 -30.784439 13.709189 18.960242 26.874653 2.643601 2.891542 -50.005190 0.000000 0.000000 0.000000 21.259122 -30.440133 8.925375 -2.601526 -46.056788 -6.595545 92.949690 -49.064597 -52.685594 0.000000 0.000000 0.000000 -19.984121 32.138964 6.939101 6.385862 44.226483 1.757434 -101.544692 15.720973 -3.636746 0.000000 0.000000 0.000000
0.590784 0.386306 1.729640 -17.576448 0.715052 38.157880 27.070178 16.980292 -82.249668 -79.627031 70.817334 69.974151 39.687741 40.442984 48.115882 0.000000 0.000000 0.000000 -27.414692 -1.395315 -34.601687 -0.896746 3.167285 87.320705 0.845856 -4.983494 16.681790 0.000000 0.000000 0.000000 -13.459813 7.768767 62.184282 8.617329 -0.486826 -30.245331 13.130753 19.069929 26.590400 2.575948 2.963518 -50.037567 0.000000 0.000000 0.000000 20.170209 -32.341864 9.343893 -3.645551 -45.644912 -6.202829 102.247173 -51.839072 -63.324047 0.000000 0.000000 0.000000 -17.214718 32.940876 8.306964 13.581652 42.702761 3.775428 -108.088033 19.729804 -9.171617 0.000000 0.000000 0.000000
0.590164 0.389242 1.727434 -14.880509 2.369457 37.554763 30.091239 17.898939 -82.479105 -75.018928 71.225131 75.007069 40.122679 42.690655 41.116290 0.000000 0.000000 0.000000 -28.903244 -2.155680 -33.498023 -0.835630 1.620082 87.457024 0.118311 -5.959679 15.655465 0.000000 0.000000 0.000000 -13.477621 6.834144 62.601481 8.452146 -0.451160 -30.325703 12.667957 17.179097 25.869733 1.185018 3.147105 -51.232254 0.000000 0.000000 0.000000 19.617948 -32.055152 9.293667 -6.384239 -46.916764 -5.224057 112.938388 -53.504295 -74.443678 0.000000 0.000000 0.000000 -15.773570 31.830229 8.427042 20.233184 42.309481 5.675525 -113.411195 23.025470 -15.231347 0.000000 0.000000 0.000000
0.589174 0.393114 1.724989 -13.359808 2.809798 37.286791 34.014852 20.557791 -82.098641 -70.518762 71.330996 79.610967 34.931076 42.488515 29.249015 0.000000 0.000000 0.000000 -30.938703 -3.012554 -34.241734 -0.303578 0.344058 88.095954 0.026688 -6.374210 16.514728 0.000000 0.000000 0.000000 -14.040847 6.773738 61.425158 8.283740 -0.480896 -29.671800 12.409241 16.401676 24.874562 2.894151 2.751937 -51.547871 0.000000 0.000000 0.000000 20.459734 -31.852905 9.127794 -8.744489 -47.955459 -4.393649 122.254258 -53.355571 -83.882846 0.000000 0.000000 0.000000 -12.955803 31.614885 9.444410 24.290760 41.778732 6.599972 -118.166263 25.143918 -20.258982 0.000000 0.000000 0.000000
0.587960 0.396488 1.722575 -11.944811 3.540247 35.511890 36.114897 21.805646 -83.005367 -74.420929 70.863433 74.851121 35.462687 45.085209 22.666636 0.000000 0.000000 0.000000 -32.684911 -3.936024 -34.407847 -0.050333 -0.634908 90.411028 -0.168029 -6.475643 15.518253 0.000000 0.000000 0.000000 -14.449059 6.559583 61.997257 8.409063 -0.571404 -28.959186 12.406174 16.006805 23.246748 3.561644 2.633278 -50.745323 0.000000 0.000000 0.000000 16.735924 -33.440764 9.844839 -12.146685 -46.251816 -2.823143 129.396941 -54.069895 -93.098768 0.000000 0.000000 0.000000 -9.849840 32.028718 10.784318 25.065215 40.087131 6.082206 -122.083843 27.254522 -25.860823 0.000000 0.000000 0.000000
0.586751 0.403547 1.720930 -10.942979 3.823228 33.571061 37.177762 22.374832 -83.317554 -79.320012 70.056685 68.923134 34.769251 48.357963 12.904604 0.000000 0.000000 0.000000 -33.854277 -4.874928 -35.626714 -0.121173 -0.643853 92.841169 -0.197853 -6.480332 15.192126 0.000000 0.000000 0.000000 -14.774845 6.432672 61.542173 8.101736 -0.550035 -28.709337 12.802646 15.420586 22.485507 5.181345 2.236287 -50.083145 0.000000 0.000000 0.000000 14.671778 -33.657636 10.079872 -18.150409 -45.417290 -0.662482 138.338499 -54.226701 -105.027408 0.000000 0.000000 0.000000 -7.163115 32.163172 11.759636 24.856524 39.616374 5.584514 -123.911281 28.543616 -29.575797 0.000000 0.000000 0.000000
0.585738 0.412552 1.720047 -10.873397 3.568481 31.666389 37.608126 23.373104 -84.534456 -78.565778 68.608505 68.222801 34.777108 51.087620 7.804462 0.000000 0.000000 0.000000 -35.106963 -5.228590 -35.171624 0.903350 -1.779385 92.892917 -1.046789 -7.541760 13.517789 0.000000 0.000000 0.000000 -15.324887 6.695894 60.741551 8.569329 -0.671891 -28.377980 13.053512 15.412547 21.194134 5.663342 2.110381 -49.439051 0.000000 0.000000 0.000000 8.654421 -33.870945 10.804533 -23.502189 -41.755424 1.150019 148.530199 -55.452984 -121.587349 0.000000 0.000000 0.000000 -3.312696 32.998670 13.602674 21.664208 39.302397 4.205510 -126.083464 31.682257 -36.992982 0.000000 0.000000 0.000000
0.584600 0.426860 1.719996 -11.074581 3.110668 30.253251 37.969977 24.167723 -84.882917 -72.627216 66.622057 72.270081 31.118546 51.987879 -1.660265 0.000000 0.000000 0.000000 -35.099812 -5.078168 -34.689426 1.903986 -2.619220 90.921346 -2.596136 -10.203399 12.824626 0.000000 0.000000 0.000000 -15.596912 6.847636 59.487454 8.628710 -0.613017 -29.035062 13.432024 14.485732 20.520272 5.604974 1.977733 -47.209674 0.000000 0.000000 0.000000 3.710755 -33.510089 11.314755 -27.421434 -38.370013 2.177522 156.043012 -57.006856 -134.581687 0.000000 0.000000 0.000000 -0.106199 34.587316 15.484801 18.561040 40.565572 3.183633 -126.340627 34.294416 -42.527736 0.000000 0.000000 0.000000
0.582820 0.446739 1.720272 -11.594318 2.751758 28.747565 37.008166 23.690769 -85.285110 -64.165700 63.230385 77.880557 28.304308 51.213348 -6.215769 0.000000 0.000000 0.000000 -35.014284 -4.665529 -33.054602 3.503324 -3.988275 87.237868 -3.890350 -12.240796 11.007642 0.000000 0.000000 0.000000 -15.815219 6.932253 58.422732 8.708098 -0.621789 -29.166239 13.485607 14.688105 19.161408 6.638401 1.645662 -45.521961 0.000000 0.000000 0.000000 1.285647 -32.907026 11.307277 -30.903833 -34.574757 2.605733 162.007236 -57.005160 -145.239285 0.000000 0.000000 0.000000 0.077025 35.024752 15.726150 17.207678 42.966527 3.199208 -125.439246 36.777342 -45.974055 0.000000 0.000000 0.000000
0.580269 0.469910 1.720486 -12.119924 2.160032 27.111645 37.334591 23.822385 -83.964521 -59.200984 59.815773 79.789412 25.790758 50.511300 -10.473675 0.000000 0.000000 0.000000 -33.113472 -4.001486 -32.502960 4.332484 -4.161772 85.168016 -6.082213 -16.248953 9.491088 0.000000 0.000000 0.000000 -16.399843 7.159505 56.037979 9.145623 -0.644256 -29.650784 13.709890 13.994945 18.960074 6.452827 1.540388 -44.029505 0.000000 0.000000 0.000000 -1.663356 -31.446319 11.094099 -32.945898 -32.636527 2.828329 168.035532 -57.458382 -155.611980 0.000000 0.000000 0.000000 2.310662 36.120330 17.010089 15.152466 46.719525 2.812656 -122.625057 41.224111 -50.990972 0.000000 0.000000 0.000000
0.577309 0.495303 1.720533 -11.864273 3.189375 25.409185 37.195993 22.309037 -83.194875 -56.592058 56.320756 78.716487 25.317340 50.108699 -10.637485 0.000000 0.000000 0.000000 -31.057708 -3.573843 -30.810933 4.960709 -5.000378 82.997773 -7.878944 -19.636868 8.398038 0.000000 0.000000 0.000000 -16.416083 6.444215 53.910504 8.858920 -0.640657 -29.284550 13.319681 12.044024 17.602131 5.794617 1.533788 -42.900375 0.000000 0.000000 0.000000 -1.847444 -30.805754 11.022182 -34.546709 -32.244364 3.202407 173.570394 -57.369763 -164.621481 0.000000 0.000000 0.000000 1.546691 37.018074 16.725374 15.446599 50.148765 3.397190 -117.742635 42.904958 -50.021271 0.000000 0.000000 0.000000
0.574715 0.518994 1.720709 -12.387253 2.825356 23.423835 37.672374 21.959180 -80.930682 -54.280669 53.217295 77.904802 24.225895 48.166639 -9.558476 0.000000 0.000000 0.000000 -28.135105 -2.732053 -29.624993 5.096063 -4.463366 81.302434 -8.833191 -21.410205 9.862443 0.000000 0.000000 0.000000 -16.381281 6.193121 51.785305 8.193829 -0.485079 -30.001984 13.148637 9.721686 18.141523 5.602195 1.341432 -42.585852 0.000000 0.000000 0.000000 -2.086291 -28.807347 10.476387 -35.877074 -32.459248 3.519524 178.572767 -56.747821 -171.949437 0.000000 0.000000 0.000000 1.980532 38.284928 16.933943 14.538461 52.299996 3.052300 -114.115049 44.653309 -50.572584 0.000000 0.000000 0.000000
0.573590 0.541861 1.721808 -12.994180 2.687114 21.838434 36.896950 21.008456 -80.141479 -50.590253 49.856356 78.616803 24.176088 46.806233 -6.486529 0.000000 0.000000 0.000000 -26.513093 -2.265386 -28.521118 6.482930 -5.445959 78.945417 -9.985349 -23.576494 9.205877 0.000000 0.000000 0.000000 -16.136954 5.718925 49.052572 7.891413 -0.509859 -29.407022 12.272482 8.880149 17.669420 5.724890 1.226109 -42.308943 0.000000 0.000000 0.000000 -1.298707 -28.570157 10.324641 -38.477991 -33.363534 4.294809 -176.045738 -57.414870 178.558535 0.000000 0.000000 0.000000 1.651520 37.450750 16.172415 17.144506 54.703834 4.535894 -113.256200 46.662174 -52.864552 0.000000 0.000000 0.000000
0.574870 0.563015 1.724652 -13.603660 1.543072 20.548893 37.166036 20.980048 -77.382954 -47.177873 46.903473 79.498385 23.317544 45.787267 -6.391335 0.000000 0.000000 0.000000 -24.042822 -1.504922 -27.572775 7.550513 -5.394727 76.404619 -11.766892 -27.200417 7.249816 0.000000 0.000000 0.000000 -15.478488 5.343781 46.377798 7.149998 -0.346080 -30.110790 11.531173 7.399095 18.200018 5.082863 1.195962 -41.422172 0.000000 0.000000 0.000000 -2.243965 -26.881937 9.928070 -41.640825 -32.910214 4.813437 -171.196914 -56.724864 170.993305 0.000000 0.000000 0.000000 3.107785 37.049395 16.179578 19.998482 54.724179 5.495774 -113.297370 48.077581 -55.421673 0.000000 0.000000 0.000000
0.579718 0.582202 1.729364 -13.642179 0.274712 18.885283 36.240332 20.033542 -74.721485 -43.659094 43.909299 80.654486 22.376648 43.652846 -4.640727 0.000000 0.000000 0.000000 -22.932829 -1.152920 -27.160907 8.839263 -5.706932 75.078217 -13.091567 -29.825555 6.646079 0.000000 0.000000 0.000000 -15.365155 5.221177 43.920348 7.398276 -0.381759 -30.382863 10.543597 7.438210 18.666931 4.693836 1.244561 -40.515381 0.000000 0.000000 0.000000 -4.706443 -26.318371 9.968443 -41.857978 -32.688938 4.812767 -167.989021 -57.469663 165.568497 0.000000 0.000000 0.000000 6.192024 35.340404 16.371190 22.063071 53.162851 5.810895 -113.041094 50.945738 -59.162170 0.000000 0.000000 0.000000
0.588245 0.596370 1.735655 -13.878079 -0.941251 17.671700 35.728088 19.330464 -71.771372 -41.924480 41.855657 80.275672 20.429950 42.986375 -9.997467 0.000000 0.000000 0.000000 -21.867562 -0.706097 -25.559045 9.930091 -5.722291 72.480457 -14.164219 -32.531473 4.149651 0.000000 0.000000 0.000000 -14.681814 4.815580 41.411900 7.449389 -0.386765 -30.651607 9.193202 6.628536 19.919801 4.645716 1.060626 -39.611628 0.000000 0.000000 0.000000 -3.096096 -24.256836 9.024590 -44.448931 -33.267418 5.391878 -171.653095 -57.858299 173.468991 0.000000 0.000000 0.000000 5.965801 32.820871 14.749881 29.191206 49.974329 7.839517 -114.039786 53.803749 -64.057143 0.000000 0.000000 0.000000
0.599881 0.606930 1.743997 -13.707944 -1.889394 16.316585 34.703130 18.257753 -69.405849 -39.813069 40.463030 81.513132 19.964464 43.071203 -11.731810 0.000000 0.000000 0.000000 -20.514441 -0.334753 -23.988988 9.791673 -4.878388 70.887689 -14.919749 -34.828954 1.510596 0.000000 0.000000 0.000000 -13.640473 4.273874 39.662237 7.062145 -0.328898 -30.868470 8.570874 5.556029 20.494700 3.391270 1.233119 -37.880098 0.000000 0.000000 0.000000 -5.710623 -22.091112 8.590746 -44.196535 -33.317341 5.372253 -171.958478 -58.892910 175.370133 0.000000 0.000000 0.000000 9.413137 30.401030 14.373135 32.960512 43.171373 6.882505 -117.553877 58.855346 -74.570005 0.000000 0.000000 0.000000
0.614439 0.616942 1.754526 -13.533580 -1.613942 15.589340 34.456991 16.761175 -66.271289 -39.027973 38.848283 80.153145 19.214491 43.854281 -15.811974 0.000000 0.000000 0.000000 -20.364950 -0.282243 -22.404623 9.868786 -4.838062 68.264568 -14.784180 -34.859072 0.540326 0.000000 0.000000 0.000000 -12.702859 3.619207 37.851030 7.021431 -0.265896 -31.580846 8.258424 4.468177 21.272551 2.297302 1.489818 -37.124123 0.000000 0.000000 0.000000 -5.464445 -20.771506 8.112299 -44.258088 -33.834509 5.521645 -177.833295 -58.731007 -173.358076 0.000000 0.000000 0.000000 12.618684 27.247667 13.466335 35.039519 33.915816 4.490699 -123.631977 63.748111 -87.855714 0.000000 0.000000 0.000000
0.632678 0.628684 1.768789 -13.308551 -1.268465 15.141654 34.450298 15.029621 -61.742354 -39.663291 37.335019 76.385903 18.109890 46.771536 -23.663827 0.000000 0.000000 0.000000 -19.375949 -0.143733 -21.188897 8.874769 -3.930615 65.870369 -16.213624 -36.149062 4.813626 0.000000 0.000000 0.000000 -11.974790 3.088450 35.789332 6.833540 -0.240305 -31.694850 7.865692 1.825214 21.905295 0.886293 1.719528 -37.114676 0.000000 0.000000 0.000000 -6.252871 -17.908725 7.318618 -44.567015 -34.345572 5.777384 178.346439 -60.648115 -165.057323 0.000000 0.000000 0.000000 16.429908 23.746354 11.887753 37.290144 24.229025 1.946413 -132.731443 71.619252 -108.875225 0.000000 0.000000 0.000000
0.656710 0.643882 1.788819 -12.836672 -0.384202 15.038522 31.873411 11.952521 -58.151134 -39.699649 34.746737 72.079705 15.898209 50.016512 -33.541727 0.000000 0.000000 0.000000 -18.285008 -0.015281 -19.538105 7.410425 -2.924735 62.338385 -15.954456 -35.795026 4.504338 0.000000 0.000000 0.000000 -11.482763 2.641092 33.947703 7.822734 -0.266905 -33.032292 6.495013 -0.005709 23.019684 1.572195 1.256725 -37.358534 0.000000 0.000000 0.000000 -6.926273 -15.683467 6.624475 -46.336241 -34.326208 6.033528 176.941894 -63.104901 -162.083727 0.000000 0.000000 0.000000 20.158107 20.859984 10.553144 38.195919 16.104625 -0.349745 -134.427439 79.508451 -119.637443 0.000000 0.000000 0.000000
0.687902 0.665499 1.815519 -12.153851 2.310748 14.551076 27.897411 7.720934 -54.455550 -38.629733 30.982844 68.672053 14.565841 50.710459 -37.286304 0.000000 0.000000 0.000000 -18.056223 -0.050981 -16.231492 4.657763 -1.812397 57.894400 -14.559928 -29.998723 16.982298 0.000000 0.000000 0.000000 -10.951134 2.067936 33.260331 9.797217 -0.715917 -31.536771 6.090440 -1.102456 21.068084 1.020660 1.345613 -33.895944 0.000000 0.000000 0.000000 -10.951079 -15.600296 6.969081 -43.789688 -32.342398 4.743472 179.453881 -67.412685 -167.795562 0.000000 0.000000 0.000000 21.577979 16.386135 8.146746 40.657395 6.730563 -3.000295 -15.765919 88.093618 -10.006386 0.000000 0.000000 0.000000
0.724485 0.697084 1.846726 -10.857331 5.139753 13.792088 22.031385 3.413404 -49.948362 -36.552806 25.433759 64.073884 13.545456 47.992160 -38.131689 0.000000 0.000000 0.000000 -17.550140 -0.394310 -17.771862 0.461984 0.023677 62.144680 -9.537150 -21.542283 26.102829 0.000000 0.000000 0.000000 -9.967901 1.351106 32.518953 11.044769 -0.934722 -31.505280 4.909048 -4.788291 21.603488 -0.606596 1.787389 -34.956483 0.000000 0.000000 0.000000 -11.597469 -11.527018 5.512901 -47.528752 -33.210331 5.649849 -174.558741 -72.163224 -174.868866 0.000000 0.000000 0.000000 20.529042 13.897565 5.947584 44.437265 -0.012204 -5.396574 4.686300 75.569323 7.023306 0.000000 0.000000 0.000000
0.760091 0.731849 1.880396 -10.248517 8.100062 12.618574 16.638831 0.326452 -44.719702 -33.454002 19.991647 61.118539 12.547336 42.652134 -38.318582 0.000000 0.000000 0.000000 -13.986681 -0.681097 -26.428471 -3.459756 2.043936 75.226930 -3.350035 -13.307558 27.774128 0.000000 0.000000 0.000000 -7.921344 0.310516 32.203525 11.471555 -0.865839 -33.369606 3.344993 -8.208498 24.502914 -1.954389 2.131803 -35.504295 0.000000 0.000000 0.000000 -10.957415 -11.074241 5.585578 -47.325881 -33.179066 5.306810 178.889439 -74.884754 -165.041841 0.000000 0.000000 0.000000 19.777734 10.633139 3.646445 46.336562 -4.391393 -7.360844 9.199003 63.391520 7.923557 0.000000 0.000000 0.000000
0.791336 0.766157 1.916690 -9.076941 11.921619 11.100943 10.008694 -2.098021 -37.229047 -28.534003 13.024338 57.042258 12.533480 39.109911 -37.604955 0.000000 0.000000 0.000000 -8.871528 -0.488826 -36.215023 -5.288502 2.419328 86.628658 -0.090121 -7.962281 22.293806 0.000000 0.000000 0.000000 -6.429058 -0.543489 31.461250 11.279892 -0.887762 -33.226965 2.814385 -12.622397 24.281084 -3.405715 2.405642 -35.304212 0.000000 0.000000 0.000000 -13.393997 -12.002639 6.783004 -45.825751 -34.409748 5.305471 176.224511 -78.716443 -161.631007 0.000000 0.000000 0.000000 20.731606 7.980240 1.425470 46.438882 -8.527341 -8.773664 10.789853 55.575459 7.063714 0.000000 0.000000 0.000000
0.819929 0.798608 1.957076 -8.606865 15.456391 8.415835 4.153218 -2.916980 -29.330392 -20.748889 5.854764 53.676118 13.696402 36.004115 -33.331206 0.000000 0.000000 0.000000 -5.734587 -0.673402 -44.537473 -2.430965 -2.445443 90.898012 -0.532759 -6.885167 14.633117 0.000000 0.000000 0.000000 -4.135639 -1.736025 32.368387 11.038310 -0.703469 -35.909404 0.720039 -17.361697 26.808996 -4.797968 2.585637 -34.776408 0.000000 0.000000 0.000000 -14.354386 -11.969276 7.479351 -45.808041 -35.839070 5.560718 -176.964574 -78.491518 -168.137043 0.000000 0.000000 0.000000 18.723794 5.775188 -0.283455 47.521859 -10.556790 -10.029772 15.889750 49.560400 8.060681 0.000000 0.000000 0.000000
0.848702 0.829249 2.002717 -7.920661 20.176399 6.443432 -0.374858 -2.077948 -18.085041 -12.022400 -0.222484 44.034758 14.365994 28.586313 -32.310681 0.000000 0.000000 0.000000 -3.258795 -1.339186 -49.951425 0.342336 -7.307327 85.888626 -1.773386 -7.430057 9.090673 0.000000 0.000000 0.000000 -0.875509 -2.920600 30.332428 9.384028 -0.500063 -37.267096 -1.933195 -23.814934 29.101528 -4.838344 1.938267 -33.213390 0.000000 0.000000 0.000000 -13.788825 -11.205872 7.580243 -50.590816 -37.011700 7.353545 -171.401911 -80.078350 -172.547291 0.000000 0.000000 0.000000 14.382571 1.943661 -2.318478 52.049926 -12.295258 -12.360793 19.960721 44.979325 8.367718 0.000000 0.000000 0.000000
0.878350 0.853116 2.053554 -7.906360 22.628580 4.134384 -2.060842 -0.527512 -6.306349 -4.762230 -2.044872 31.321582 14.422327 21.168294 -27.102779 0.000000 0.000000 0.000000 -1.065341 -1.068413 -50.930764 3.306603 -9.618299 75.056669 -4.019267 -10.708689 5.566668 0.000000 0.000000 0.000000 1.036398 -3.342691 28.413360 7.881199 -0.347518 -39.128207 -3.967149 -27.409607 31.981846 -6.379547 2.338431 -31.376588 0.000000 0.000000 0.000000 -14.769698 -9.992982 7.508875 -53.977716 -37.006878 8.026259 -149.388221 -79.909676 162.920876 0.000000 0.000000 0.000000 11.043699 -1.851187 -3.623211 55.348594 -15.214335 -15.379981 24.060275 42.787661 9.313289 0.000000 0.000000 0.000000
0.908793 0.871370 2.107792 -7.106788 25.022480 2.801057 -2.500144 0.414756 3.828113 -1.952012 -1.441411 20.195843 12.621462 15.110694 -19.234434 0.000000 0.000000 0.000000 0.359466 -0.772560 -48.859988 3.800155 -8.432766 61.960632 -4.292081 -10.810188 6.477860 0.000000 0.000000 0.000000 1.815511 -2.928371 24.406447 7.082587 -0.315209 -37.837712 -6.063783 -30.950853 32.886185 -6.906428 2.356399 -28.779704 0.000000 0.000000 0.000000 -14.187959 -9.671821 7.338280 -59.389986 -36.224756 9.594307 -131.340687 -79.385570 142.459139 0.000000 0.000000 0.000000 7.357906 -4.423078 -3.969727 60.739348 -18.406725 -19.520466 24.709897 42.553817 9.439836 0.000000 0.000000 0.000000
0.939009 0.880231 2.163069 -6.885083 25.709731 1.644618 -1.824455 0.616407 11.975553 -1.614399 -0.547308 11.478972 9.451510 12.339913 -8.770076 0.000000 0.000000 0.000000 1.295535 -0.022947 -44.669531 4.345248 -6.962296 50.593236 -5.765282 -13.360989 5.266442 0.000000 0.000000 0.000000 1.941836 -2.346930 20.910969 6.905910 -0.329310 -37.642917 -7.730195 -32.735005 34.560743 -6.923241 2.149538 -28.344408 0.000000 0.000000 0.000000 -15.508709 -8.760525 7.329463 -62.720981 -34.714274 9.598989 -107.171034 -77.542988 114.192901 0.000000 0.000000 0.000000 4.835507 -5.943410 -3.963552 64.236911 -20.214454 -22.505937 25.817702 42.122212 9.773875 0.000000 0.000000 0.000000
0.967464 0.884509 2.217144 -5.818188 27.176864 1.815455 -0.951769 0.337082 17.553081 -2.463065 -0.084671 6.245228 4.329924 8.588405 2.331749 0.000000 0.000000 0.000000 0.800977 -0.192692 -41.596552 3.871728 -5.327250 41.801324 -3.850656 -9.084469 1.474463 0.000000 0.000000 0.000000 1.157065 -1.636235 17.231055 6.696715 -0.289094 -35.606916 -7.686339 -34.935180 33.996763 -7.355383 2.254530 -28.793040 0.000000 0.000000 0.000000 -14.813943 -8.724297 7.192650 -66.601741 -31.916571 9.381454 -92.756067 -72.870657 94.257510 0.000000 0.000000 0.000000 3.760153 -7.769699 -4.439084 66.978586 -22.044597 -24.994045 24.658408 42.079165 9.304533 0.000000 0.000000 0.000000
0.993436 0.883152 2.268953 -5.648713 27.747038 2.287308 -0.444797 0.036136 20.760578 -2.431633 0.042322 3.234547 1.081532 9.299208 14.756037 0.000000 0.000000 0.000000 1.114810 -0.035377 -40.295839 4.742978 -4.315565 33.526529 -3.004343 -7.198365 3.044822 0.000000 0.000000 0.000000 1.513984 -1.460806 15.481311 7.312744 -0.434864 -36.978016 -9.061778 -34.540404 35.372290 -6.191396 1.725588 -29.052638 0.000000 0.000000 0.000000 -16.257448 -8.036900 7.077568 -67.065525 -29.382116 7.387989 -87.300375 -67.202375 82.666364 0.000000 0.000000 0.000000 3.411226 -8.458922 -4.581558 69.309707 -21.907223 -26.025216 21.628076 42.474589 8.576474 0.000000 0.000000 0.000000
1.016743 0.879846 2.319166 -5.591128 29.106364 2.755634 -0.038188 -0.283185 22.281532 -1.401472 -0.020951 2.689970 -1.089686 10.808027 27.206557 0.000000 0.000000 0.000000 0.895298 -0.302519 -39.660172 7.410813 -4.113061 24.833103 -4.046532 -9.177437 9.437383 0.000000 0.000000 0.000000 2.009359 -1.459816 14.714983 7.682801 -0.474399 -36.201322 -8.878929 -35.580025 34.106724 -7.080077 2.269902 -29.243870 0.000000 0.000000 0.000000 -14.743160 -7.286612 6.272740 -69.549771 -26.286548 6.459843 -82.646623 -62.548291 73.164722 0.000000 0.000000 0.000000 2.281144 -9.508234 -4.628385 71.452945 -21.233232 -26.704541 20.798398 42.008735 8.212430 0.000000 0.000000 0.000000
1.039113 0.875193 2.369539 -4.999745 28.706556 3.802293 -0.833402 -0.056641 22.681971 -0.608383 -0.119681 3.448085 -1.045189 13.179167 40.085688 0.000000 0.000000 0.000000 1.623639 0.030128 -39.724335 9.471642 -4.066998 20.113765 -6.872120 -14.032691 14.522690 0.000000 0.000000 0.000000 1.881017 -1.298754 13.763770 8.272933 -0.521841 -35.568317 -9.004760 -35.206426 34.697589 -8.290280 3.018263 -30.681653 0.000000 0.000000 0.000000 -14.292439 -5.888939 5.423689 -68.486019 -24.589515 4.989703 -78.432576 -61.774501 68.212412 0.000000 0.000000 0.000000 4.006609 -8.927202 -4.959136 70.689755 -18.961282 -24.740684 18.190710 41.794382 7.241246 0.000000 0.000000 0.000000
1.062790 0.873802 2.423214 -3.708596 28.781434 5.493421 -1.247875 0.104226 22.074511 -0.462974 -0.217210 4.890851 -2.330697 13.316594 52.682140 0.000000 0.000000 0.000000 1.604538 0.004784 -39.564383 9.620918 -4.127450 20.100835 -9.272889 -18.175956 14.322816 0.000000 0.000000 0.000000 1.820552 -1.177730 12.902072 10.476325 -0.857592 -34.566601 -10.367247 -33.848678 31.680328 -5.918991 2.048436 -26.348092 0.000000 0.000000 0.000000 -13.860806 -5.042133 4.581835 -67.410881 -20.634780 2.543823 -75.026622 -59.506458 61.441955 0.000000 0.000000 0.000000 5.415512 -7.093535 -4.474721 69.857043 -15.555919 -21.535198 12.380301 40.616189 4.977714 0.000000 0.000000 0.000000
1.086925 0.876243 2.479887 -2.763808 28.738077 6.633367 -0.502352 0.130538 18.890712 -0.806932 -0.777562 12.210134 -7.258070 10.552807 58.947841 0.000000 0.000000 0.000000 1.730524 0.002549 -39.711306 8.315062 -4.607915 25.609936 -9.667311 -19.713004 10.250764 0.000000 0.000000 0.000000 2.458568 -1.037197 11.130155 9.077044 -0.577657 -35.033971 -10.416887 -34.995856 32.611739 -9.595665 4.103195 -27.342327 0.000000 0.000000 0.000000 -14.319918 -1.475405 3.029863 -69.816209 -17.986200 1.286614 -66.291559 -54.791486 50.399739 0.000000 0.000000 0.000000 3.915709 -4.593356 -3.116026 70.850310 -11.500999 -19.901424 9.358064 39.233825 3.735551 0.000000 0.000000 0.000000
1.110200 0.883648 2.536008 -2.577258 27.340872 5.595902 1.210087 0.061036 13.499182 -5.313006 -1.256358 24.937237 -6.662957 10.617892 56.720001 0.000000 0.000000 0.000000 2.509335 0.879465 -35.717055 7.265137 -4.678428 28.431623 -8.940982 -19.659816 5.640012 0.000000 0.000000 0.000000 4.431437 -1.460418 12.280685 7.816175 -0.339819 -33.819339 -8.347451 -30.627182 29.574530 -6.727039 3.016184 -25.670397 0.000000 0.000000 0.000000 -15.965478 -0.810829 2.309231 -68.406283 -14.678528 -1.413270 -59.227224 -49.567821 39.442344 0.000000 0.000000 0.000000 6.318388 -5.369849 -3.791256 69.069018 -10.096324 -17.352253 8.499071 37.819014 3.576226 0.000000 0.000000 0.000000
1.131279 0.892361 2.588648 -4.066139 26.051224 4.263828 2.958600 -0.100116 5.974468 -8.050617 -2.087719 37.441499 -6.311954 10.450400 54.763664 0.000000 0.000000 0.000000 4.249448 1.755041 -32.389289 7.069864 -5.030812 30.795799 -8.405871 -19.013641 4.959730 0.000000 0.000000 0.000000 3.818312 -1.554992 13.693729 8.043330 -0.480071 -35.187797 -5.661183 -25.622906 29.396919 -4.167385 2.165714 -24.811618 0.000000 0.000000 0.000000 -13.745705 -1.577538 1.805821 -71.808899 -12.646246 -2.668014 -49.928007 -45.293031 29.581331 0.000000 0.000000 0.000000 5.963457 -3.135071 -2.326062 70.259089 -7.778855 -15.798654 6.782304 37.841615 3.647145 0.000000 0.000000 0.000000
1.151167 0.901752 2.638739 -2.919481 22.836764 4.405449 1.813555 -0.347437 -3.625164 -8.872104 -2.570557 46.042824 -3.839769 11.541539 51.171168 0.000000 0.000000 0.000000 4.267889 2.083254 -25.690993 6.522191 -3.772177 26.765147 -7.110816 -17.402195 0.834107 0.000000 0.000000 0.000000 3.588009 -1.790659 16.005414 3.017692 0.284571 -35.646602 0.010295 -22.659719 26.396772 -6.325416 3.904414 -17.007747 0.000000 0.000000 0.000000 -16.467634 -3.936727 3.064242 -68.180464 -9.214462 -5.186713 -43.974594 -45.036119 25.249337 0.000000 0.000000 0.000000 7.173894 -2.550997 -2.205698 69.512532 -6.872156 -14.790298 6.141346 38.209676 3.502609 0.000000 0.000000 0.000000
