HIERARCHY
ROOT Hips
{
	OFFSET -0.001795 -0.223333 0.028219
	CHANNELS 6 Xposition Yposition Zposition Zrotation Yrotation Xrotation
	JOINT LeftUpLeg
	{
		OFFSET 0.069520 -0.091406 -0.006815
		CHANNELS 3 Zrotation Yrotation Xrotation
		JOINT LeftLeg
		{
			OFFSET 0.034277 -0.375199 -0.004496
			CHANNELS 3 Zrotation Yrotation Xrotation
			JOINT LeftFoot
			{
				OFFSET -0.013596 -0.397961 -0.043693
				CHANNELS 3 Zrotation Yrotation Xrotation
				JOINT LeftToe
				{
					OFFSET 0.026358 -0.055791 0.119288
					CHANNELS 3 Zrotation Yrotation Xrotation
					End Site
					{
						OFFSET 0.000000 0.000000 0.000000
					}
				}
			}
		}
	}
	JOINT RightUpLeg
	{
		OFFSET -0.067670 -0.090522 -0.004320
		CHANNELS 3 Zrotation Yrotation Xrotation
		JOINT RightLeg
		{
			OFFSET -0.038290 -0.382569 -0.008850
			CHANNELS 3 Zrotation Yrotation Xrotation
			JOINT RightFoot
			{
				OFFSET 0.015774 -0.398415 -0.042312
				CHANNELS 3 Zrotation Yrotation Xrotation
				JOINT RightToe
				{
					OFFSET -0.025372 -0.048144 0.123348
					CHANNELS 3 Zrotation Yrotation Xrotation
					End Site
					{
						OFFSET 0.000000 0.000000 0.000000
					}
				}
			}
		}
	}
	JOINT Spine
	{
		OFFSET -0.002533 0.108963 -0.026696
		CHANNELS 3 Zrotation Yrotation Xrotation
		JOINT Spine1
		{
			OFFSET 0.005487 0.135180 0.001092
			CHANNELS 3 Zrotation Yrotation Xrotation
			JOINT Spine2
			{
				OFFSET 0.001457 0.052922 0.025425
				CHANNELS 3 Zrotation Yrotation Xrotation
				JOINT Neck
				{
					OFFSET -0.002778 0.213870 -0.042857
					CHANNELS 3 Zrotation Yrotation Xrotation
					JOINT Head
					{
						OFFSET 0.005152 0.064970 0.051349
						CHANNELS 3 Zrotation Yrotation Xrotation
						End Site
						{
							OFFSET 0.000000 0.000000 0.000000
						}
					}
				}
				JOINT LeftShoulder
				{
					OFFSET 0.078845 0.121749 -0.034090
					CHANNELS 3 Zrotation Yrotation Xrotation
					JOINT LeftArm
					{
						OFFSET 0.090977 0.030469 -0.008868
						CHANNELS 3 Zrotation Yrotation Xrotation
						JOINT LeftForeArm
						{
							OFFSET 0.259612 -0.012772 -0.027456
							CHANNELS 3 Zrotation Yrotation Xrotation
							JOINT LeftHand
							{
								OFFSET 0.249234 0.008986 -0.001171
								CHANNELS 3 Zrotation Yrotation Xrotation
								End Site
								{
									OFFSET 0.000000 0.000000 0.000000
								}
							}
						}
					}
				}
				JOINT RightShoulder
				{
					OFFSET -0.081759 0.118833 -0.038615
					CHANNELS 3 Zrotation Yrotation Xrotation
					JOINT RightArm
					{
						OFFSET -0.096012 0.032551 -0.009143
						CHANNELS 3 Zrotation Yrotation Xrotation
						JOINT RightForeArm
						{
							OFFSET -0.253742 -0.013329 -0.021401
							CHANNELS 3 Zrotation Yrotation Xrotation
							JOINT RightHand
							{
								OFFSET -0.255298 0.007772 -0.005559
								CHANNELS 3 Zrotation Yrotation Xrotation
								End Site
								{
									OFFSET 0.000000 0.000000 0.000000
								}
							}
						}
					}
				}
			}
		}
	}
}
MOTION
Frames: 76
Frame Time: 0.050000
0.000000 0.976407 0.000000 0.089094 0.185110 -1.834646 -1.505647 0.699297 6.569352 -0.125925 0.104344 -2.739893 -2.222219 3.414637 18.699698 0.000000 0.000000 0.000000 1.907033 -0.721815 5.836856 -0.133406 -0.091875 -2.609460 1.183804 -5.240443 19.547984 0.000000 0.000000 0.000000 5.176076 -0.832198 9.490800 -7.595454 2.369832 -26.529308 0.859820 2.075353 26.745771 7.334982 -4.726569 -12.374313 0.000000 0.000000 0.000000 -26.559416 -7.512999 2.453089 -47.624819 -0.670187 -7.685701 -6.008373 -27.018851 2.697178 0.000000 0.000000 0.000000 33.855193 -1.994975 -2.682499 48.935716 3.337872 -6.318638 6.007238 28.222729 2.916716 0.000000 0.000000 0.000000
0.000447 0.974822 0.000097 0.207050 0.849644 -1.669105 -1.345829 0.663574 6.366416 -0.752270 0.158444 -2.781635 -2.139825 3.512445 18.288950 0.000000 0.000000 0.000000 1.819410 -0.669290 5.413728 0.088852 -0.101066 -2.367700 0.374733 -6.470710 19.671399 0.000000 0.000000 0.000000 5.338450 -0.765592 8.522662 -8.625065 2.652676 -25.868756 1.207297 1.465314 26.652541 7.627412 -4.980237 -12.435590 0.000000 0.000000 0.000000 -26.168347 -7.539081 2.554389 -48.180041 -0.766149 -7.767889 -4.878773 -27.470218 2.495048 0.000000 0.000000 0.000000 34.371176 -2.622605 -3.323698 49.380432 2.609085 -6.588131 6.099188 29.013274 3.038920 0.000000 0.000000 0.000000
0.000853 0.974694 0.000002 0.626873 1.390893 -1.550158 -1.505793 0.627024 5.928542 -1.067446 0.161459 -1.862864 -2.666787 2.469548 17.281737 0.000000 0.000000 0.000000 1.473152 -0.681272 5.698201 -0.283440 -0.108711 -3.332290 0.445278 -6.478325 20.519588 0.000000 0.000000 0.000000 5.212415 -0.707893 7.959392 -9.628737 2.871455 -26.214747 1.857197 0.723430 27.216834 6.539268 -4.243105 -12.236613 0.000000 0.000000 0.000000 -26.276683 -7.652652 2.795166 -46.990740 -0.924064 -7.633490 -6.230496 -27.325209 2.804985 0.000000 0.000000 0.000000 34.420570 -2.800152 -3.616905 48.586233 2.032119 -6.736872 6.483995 28.847139 3.084232 0.000000 0.000000 0.000000
0.001203 0.975689 -0.000215 0.744623 1.952850 -1.845287 -1.832061 0.682658 6.308675 -0.805443 0.139005 -1.937109 -2.689751 2.504511 17.213678 0.000000 0.000000 0.000000 1.310028 -0.742970 6.308221 0.162678 -0.151645 -3.516178 -0.255390 -7.419157 20.180371 0.000000 0.000000 0.000000 5.256453 -0.711709 8.003609 -10.000055 2.930325 -26.808833 2.085437 0.588575 28.191396 6.556327 -4.260047 -12.285658 0.000000 0.000000 0.000000 -26.236972 -7.672048 2.764836 -47.855306 -0.868917 -7.877054 -4.773909 -28.204833 2.568152 0.000000 0.000000 0.000000 34.900935 -2.743785 -3.448939 48.185499 2.561728 -6.648001 6.123767 28.112010 2.929448 0.000000 0.000000 0.000000
0.001588 0.976361 -0.000596 0.687581 2.701006 -2.204033 -1.613647 0.688774 6.584715 -0.986985 0.152808 -1.886074 -3.037501 2.167817 17.365297 0.000000 0.000000 0.000000 1.430255 -0.809493 6.759002 0.002606 -0.147732 -3.732806 -0.377296 -7.649522 20.935567 0.000000 0.000000 0.000000 4.988011 -0.724722 8.410446 -9.084928 2.822684 -25.723655 1.565079 1.098278 26.525514 6.354627 -4.143286 -10.803030 0.000000 0.000000 0.000000 -26.340364 -7.623003 2.278379 -47.482344 -0.289787 -7.740838 -5.667631 -28.032071 2.693306 0.000000 0.000000 0.000000 35.399339 -2.973499 -3.319571 47.637897 2.332899 -6.609481 5.605897 27.491407 2.739259 0.000000 0.000000 0.000000
0.001969 0.976944 -0.001036 0.566501 3.222463 -2.475840 -1.557866 0.690890 6.703182 -0.867895 0.138230 -1.757252 -3.154646 2.142711 17.519888 0.000000 0.000000 0.000000 1.519693 -0.844884 6.967939 0.122755 -0.152664 -3.615920 -0.612034 -7.998835 21.287150 0.000000 0.000000 0.000000 4.865115 -0.776497 9.126207 -8.937430 2.770531 -26.290502 1.723618 1.176593 26.472754 6.581483 -4.269392 -10.883766 0.000000 0.000000 0.000000 -26.859303 -7.688435 2.137014 -47.221308 -0.317032 -7.636648 -4.849906 -27.805537 2.448110 0.000000 0.000000 0.000000 35.454526 -2.569523 -2.824635 47.620701 2.513877 -6.598922 4.438612 26.405628 2.359361 0.000000 0.000000 0.000000
0.002295 0.976821 -0.001392 0.585083 3.569123 -2.792947 -1.419987 0.687766 6.813552 -1.179377 0.164282 -1.719433 -3.209586 2.354032 18.131242 0.000000 0.000000 0.000000 1.651184 -0.903152 7.346104 0.059851 -0.144205 -3.532833 -1.075243 -8.595974 20.922612 0.000000 0.000000 0.000000 4.622375 -0.789575 9.550373 -8.485857 2.726572 -25.694474 1.436587 1.428821 25.520506 6.821002 -4.451362 -10.455944 0.000000 0.000000 0.000000 -27.166057 -7.738796 1.927475 -47.175071 0.224102 -7.664920 -4.676901 -27.678997 2.357415 0.000000 0.000000 0.000000 35.842123 -2.128500 -2.367382 47.468466 2.692574 -6.475190 3.768332 25.816276 2.146514 0.000000 0.000000 0.000000
0.002606 0.977003 -0.001559 0.463127 4.088562 -3.002687 -1.304559 0.677301 6.852281 -1.068500 0.153198 -1.702628 -3.483401 2.226288 18.605088 0.000000 0.000000 0.000000 1.726956 -0.920408 7.403686 -0.009976 -0.126679 -3.245153 -0.964300 -8.379821 21.218908 0.000000 0.000000 0.000000 4.412353 -0.854151 10.497949 -8.253865 2.662533 -26.126528 1.528698 1.592189 25.277485 7.252234 -4.824179 -10.044746 0.000000 0.000000 0.000000 -27.542923 -8.015951 1.878376 -47.052395 0.875706 -7.794837 -4.591415 -27.903479 2.327593 0.000000 0.000000 0.000000 35.932143 -1.729107 -1.856566 47.335212 3.293890 -6.285778 3.277428 25.161117 1.981186 0.000000 0.000000 0.000000
0.002975 0.977154 -0.001740 0.532371 4.333135 -2.953064 -1.292596 0.648673 6.575362 -1.152346 0.154494 -1.476528 -3.736350 2.024701 18.929638 0.000000 0.000000 0.000000 1.493188 -0.898462 7.354517 0.041324 -0.133786 -3.312459 -0.702610 -7.989366 21.569301 0.000000 0.000000 0.000000 4.220334 -0.847951 10.617049 -8.182889 2.673937 -25.780140 1.666174 1.774356 24.954370 7.082526 -4.696188 -9.735092 0.000000 0.000000 0.000000 -28.009473 -8.315961 1.905328 -46.974626 1.192230 -7.819397 -3.906786 -27.653875 2.120181 0.000000 0.000000 0.000000 36.177636 -1.086233 -1.245676 46.929189 3.951840 -6.030139 2.625990 24.553107 1.784333 0.000000 0.000000 0.000000
0.003395 0.977352 -0.002150 0.482356 4.783225 -2.908506 -1.043770 0.606502 6.345196 -1.281836 0.162040 -1.355959 -4.303245 1.401173 19.226838 0.000000 0.000000 0.000000 1.408029 -0.878582 7.213472 0.167948 -0.137579 -3.133014 -0.644934 -7.837702 21.720851 0.000000 0.000000 0.000000 4.276274 -0.899647 11.106731 -8.415006 2.719392 -26.111497 1.878398 1.864330 24.731759 7.576102 -5.030487 -9.887328 0.000000 0.000000 0.000000 -27.808184 -8.556521 1.923729 -47.627249 1.947507 -8.158425 -3.423661 -27.638032 1.989920 0.000000 0.000000 0.000000 35.977236 -0.780664 -0.843085 47.114951 4.587728 -5.838106 2.256721 23.880036 1.656350 0.000000 0.000000 0.000000
0.003961 0.977227 -0.002702 0.478030 5.117416 -2.715949 -1.001596 0.548216 5.751468 -1.386386 0.157018 -0.768430 -4.387917 1.267182 19.051845 0.000000 0.000000 0.000000 1.341884 -0.842996 6.940744 0.038776 -0.122971 -3.058670 -0.388774 -7.394022 21.874465 0.000000 0.000000 0.000000 4.601124 -0.950089 11.243203 -9.179578 2.870614 -26.405566 2.365093 1.977751 25.173171 8.215790 -5.445323 -10.400304 0.000000 0.000000 0.000000 -27.851187 -9.135356 2.199333 -48.051942 2.164001 -8.338265 -2.878892 -27.614752 1.854523 0.000000 0.000000 0.000000 36.029758 -0.450167 -0.417112 46.719466 5.436007 -5.596174 2.341296 23.770543 1.664221 0.000000 0.000000 0.000000
0.004718 0.976544 -0.003019 0.283832 5.136839 -2.487725 -0.554217 0.485135 5.354884 -1.451474 0.152427 -0.311745 -5.116380 -0.090919 18.360193 0.000000 0.000000 0.000000 1.362698 -0.763936 6.281736 0.422041 -0.139201 -2.558167 -0.681484 -7.879261 22.032816 0.000000 0.000000 0.000000 4.810761 -1.011085 11.605608 -9.247109 2.878046 -26.379648 2.749294 2.327793 24.889455 9.021631 -6.100072 -10.221264 0.000000 0.000000 0.000000 -27.779959 -9.233488 2.122914 -48.716861 3.205690 -8.790969 -2.291814 -27.640203 1.702487 0.000000 0.000000 0.000000 35.795465 -0.188363 -0.059515 46.815433 6.353165 -5.286450 1.906432 23.557405 1.569173 0.000000 0.000000 0.000000
0.005720 0.975704 -0.002612 0.306695 5.085118 -2.257003 -0.673025 0.452273 4.885344 -1.070482 0.100357 0.261641 -5.615309 -1.058133 17.888424 0.000000 0.000000 0.000000 1.191449 -0.715678 5.977344 0.445261 -0.128678 -2.206514 -0.443163 -7.359963 21.319508 0.000000 0.000000 0.000000 5.140063 -1.082067 11.942300 -9.821511 2.956585 -26.915386 3.232911 2.576604 25.560430 9.675544 -6.659932 -10.210631 0.000000 0.000000 0.000000 -27.800232 -9.252952 2.100589 -49.230160 3.921602 -9.232894 -1.992618 -27.721744 1.645762 0.000000 0.000000 0.000000 35.497083 0.047262 0.274266 47.027647 7.456493 -5.011108 1.916552 23.883991 1.613937 0.000000 0.000000 0.000000
0.007237 0.974950 -0.001412 0.202994 4.594702 -1.939629 -0.725777 0.426423 4.524963 -1.039949 0.093518 0.433626 -5.323193 -0.773451 17.740543 0.000000 0.000000 0.000000 1.029273 -0.684494 5.820587 0.759997 -0.143385 -1.729469 -0.194434 -6.607221 19.336948 0.000000 0.000000 0.000000 5.399107 -1.126436 12.088296 -10.007225 2.994280 -26.709053 3.888786 3.325613 25.412457 9.968719 -7.073949 -9.219080 0.000000 0.000000 0.000000 -27.529232 -8.927223 1.751650 -50.156392 5.354312 -9.934026 -1.534990 -27.894030 1.533244 0.000000 0.000000 0.000000 34.996098 0.403379 0.727987 47.528226 8.295804 -4.748988 1.195705 24.172548 1.514400 0.000000 0.000000 0.000000
0.009435 0.974890 0.000233 0.280464 3.969086 -1.621344 -0.896447 0.405980 4.160661 -1.007380 0.081040 0.809523 -5.438156 -1.095948 17.664708 0.000000 0.000000 0.000000 0.785255 -0.628725 5.502979 0.895195 -0.135663 -1.073275 -0.156508 -6.294901 17.817213 0.000000 0.000000 0.000000 5.791469 -1.177335 12.170185 -10.186328 3.005647 -26.834508 4.179648 4.136792 25.779195 10.392813 -7.485297 -8.852407 0.000000 0.000000 0.000000 -26.934087 -8.370609 1.315928 -50.513694 6.372835 -10.442711 -1.870347 -27.859069 1.598505 0.000000 0.000000 0.000000 34.498631 0.497809 0.999248 47.774259 8.945259 -4.591673 0.863867 24.876691 1.526017 0.000000 0.000000 0.000000
0.012564 0.973896 0.001617 0.296907 2.921498 -0.918216 -1.249796 0.317729 3.017388 -0.946827 0.053606 1.631208 -4.936032 -0.535055 17.645113 0.000000 0.000000 0.000000 0.530363 -0.480564 4.358373 1.071946 -0.112042 0.300483 -0.145742 -5.922550 15.748379 0.000000 0.000000 0.000000 6.013382 -1.144947 11.575680 -9.346401 2.835374 -26.066908 3.748438 5.104405 25.772335 10.604676 -7.753483 -8.224422 0.000000 0.000000 0.000000 -26.390211 -7.848671 0.912498 -51.984638 7.652070 -11.269234 -1.947529 -28.071857 1.625586 0.000000 0.000000 0.000000 33.778807 1.132757 1.627220 48.421750 9.213576 -4.516082 0.168422 25.637917 1.463829 0.000000 0.000000 0.000000
0.016549 0.972831 0.001934 0.476877 1.649568 -0.518858 -1.525387 0.241159 2.135566 -1.438896 0.086608 2.924642 -4.363904 -0.299955 16.687912 0.000000 0.000000 0.000000 -0.228665 -0.345372 3.502566 1.444242 -0.109310 1.907613 0.261268 -4.632582 13.152199 0.000000 0.000000 0.000000 6.098568 -1.167217 11.779418 -9.595297 2.910952 -25.268862 4.112136 5.378210 25.313858 10.252652 -7.717199 -7.255835 0.000000 0.000000 0.000000 -25.475521 -7.535039 1.000415 -53.274012 8.267564 -11.879673 -2.343250 -28.171640 1.762733 0.000000 0.000000 0.000000 32.927056 1.839006 1.828809 48.615517 9.187519 -4.354665 0.927215 26.899492 1.683635 0.000000 0.000000 0.000000
0.021374 0.971058 0.000745 0.270891 -0.840503 -0.118627 -1.926580 0.032568 0.112266 -1.887076 0.113673 5.823526 -2.168241 2.372059 15.920108 0.000000 0.000000 0.000000 -0.284848 -0.205994 2.202616 1.465255 -0.031813 4.401656 0.340570 -3.501067 9.370801 0.000000 0.000000 0.000000 6.456857 -1.207453 11.970015 -9.015596 2.739436 -24.664731 3.684677 6.281281 24.994082 9.568532 -7.199029 -6.871400 0.000000 0.000000 0.000000 -25.078936 -7.148842 1.025944 -54.233275 9.292058 -12.575240 -3.821474 -29.506447 2.279445 0.000000 0.000000 0.000000 32.754736 2.489530 1.974985 48.776224 9.771645 -3.990976 1.127664 28.302350 1.816417 0.000000 0.000000 0.000000
0.027234 0.968096 -0.002429 0.104419 -3.301005 0.177721 -2.234961 -0.206516 -1.991282 -2.369318 0.203104 9.003934 -0.551495 4.137392 14.744554 0.000000 0.000000 0.000000 -1.049757 -0.054583 0.980567 1.976120 -0.006357 7.213327 0.841764 -0.739224 5.042178 0.000000 0.000000 0.000000 6.569264 -1.261973 12.671394 -8.863753 2.657204 -24.178581 3.888933 6.461931 24.021830 9.296556 -7.114961 -6.512649 0.000000 0.000000 0.000000 -25.152233 -7.614558 1.759532 -53.752399 8.794301 -12.227724 -5.215763 -29.830357 2.726935 0.000000 0.000000 0.000000 32.574643 3.419992 1.956685 47.405539 9.463128 -3.763041 3.071627 29.116197 2.229621 0.000000 0.000000 0.000000
0.034421 0.962407 -0.009106 -0.061930 -6.525310 0.090881 -2.592166 -0.559708 -4.974753 -3.708879 0.658619 14.558839 2.476369 7.956524 12.095428 0.000000 0.000000 0.000000 -1.154416 0.170063 -1.486438 2.490212 0.133244 12.377818 -0.331380 -0.887018 0.088329 0.000000 0.000000 0.000000 6.541999 -1.507420 16.256161 -9.319479 2.557931 -26.554694 4.629631 5.818605 24.800907 7.629699 -5.973833 -6.257828 0.000000 0.000000 0.000000 -26.558015 -7.749482 2.792523 -51.930161 6.691094 -11.199028 -7.557307 -32.601054 3.864553 0.000000 0.000000 0.000000 33.136310 4.391962 1.507324 45.514199 9.745385 -3.338867 3.831745 30.268414 2.387997 0.000000 0.000000 0.000000
0.043319 0.950915 -0.021976 -0.608773 -10.714283 -0.139474 -1.945587 -0.938103 -9.068435 -5.006172 1.588781 20.941103 4.183665 10.202993 10.924530 0.000000 0.000000 0.000000 -2.260151 0.503774 -5.140857 4.684513 0.125238 19.827685 -1.168114 1.351174 -6.013208 0.000000 0.000000 0.000000 6.261694 -1.622708 20.554510 -7.774175 2.031023 -29.313549 3.995098 5.825771 25.936508 7.393187 -5.923777 -6.839476 0.000000 0.000000 0.000000 -27.541845 -8.410150 4.225836 -50.266492 2.831331 -9.709173 -10.301313 -37.020241 5.598446 0.000000 0.000000 0.000000 32.002530 6.487612 1.972563 44.853132 10.858296 -2.737031 4.134137 30.411137 2.343178 0.000000 0.000000 0.000000
0.054467 0.929891 -0.044220 -1.108446 -15.375667 -0.852760 -1.469997 -1.211898 -13.772085 -6.732082 3.591638 29.062325 7.369320 15.295660 6.338275 0.000000 0.000000 0.000000 -3.041117 0.968683 -10.210537 6.326933 0.760954 30.823271 -2.740582 -4.026260 -4.396147 0.000000 0.000000 0.000000 4.572004 -1.224091 26.802290 -3.917055 1.069335 -28.018188 3.103929 6.886792 22.571174 6.814598 -5.541534 -5.579650 0.000000 0.000000 0.000000 -27.915062 -10.353520 5.735618 -47.114435 -1.128735 -7.435930 -12.188247 -44.557110 7.634809 0.000000 0.000000 0.000000 32.144568 9.737613 3.466421 41.396730 11.841427 -1.767060 4.141583 30.876939 2.197006 0.000000 0.000000 0.000000
0.067587 0.896648 -0.076968 -2.048885 -17.927369 -0.905773 -1.261698 -1.437873 -21.519230 -5.254206 5.169641 41.172749 7.892838 16.483365 -1.275050 0.000000 0.000000 0.000000 -3.697602 1.684274 -16.786155 10.554938 0.491414 42.618170 -8.084825 -20.125370 5.145183 0.000000 0.000000 0.000000 3.562481 -0.584128 34.698050 -0.819760 0.369018 -28.244253 2.519064 7.194784 20.360668 7.468776 -5.394607 -9.505854 0.000000 0.000000 0.000000 -28.602186 -14.099208 8.207128 -43.468037 -7.889093 -4.480549 -5.530500 -55.705333 6.291866 0.000000 0.000000 0.000000 30.550812 12.190378 4.920601 37.994347 15.013038 -0.560074 1.326165 32.221412 1.446972 0.000000 0.000000 0.000000
0.081605 0.847199 -0.118119 -4.467019 -22.682899 -1.378013 1.681454 -0.109347 -30.735698 -3.974845 8.048840 54.241768 10.439444 21.494736 -3.662439 0.000000 0.000000 0.000000 -2.275718 2.937152 -23.090950 15.478156 0.315435 55.895541 -19.446850 -37.072634 19.098710 0.000000 0.000000 0.000000 2.744730 1.067375 44.092722 0.184420 -0.005169 -28.610021 4.094823 8.080624 18.603385 6.496845 -4.256285 -11.285661 0.000000 0.000000 0.000000 -25.589136 -19.229474 10.935891 -36.873284 -17.316129 -1.084551 18.151254 -61.884494 -7.305324 0.000000 0.000000 0.000000 28.886878 16.935692 7.845924 32.337099 19.985756 0.740588 -2.982728 30.980687 0.173188 0.000000 0.000000 0.000000
0.096229 0.787674 -0.163006 -6.445503 -24.792782 -1.137854 1.390943 1.104460 -41.198482 0.429256 7.089999 67.279319 12.833329 26.585917 -7.528684 0.000000 0.000000 0.000000 -3.946367 3.904132 -28.841590 21.766323 -2.701468 66.059768 -20.786507 -41.233891 12.486646 0.000000 0.000000 0.000000 1.774756 2.959662 51.867823 3.085826 -0.298708 -33.080624 4.627736 7.921620 22.541034 6.004897 -3.580866 -14.679099 0.000000 0.000000 0.000000 -21.000067 -25.697723 13.848819 -25.565440 -24.057806 -0.143912 49.917718 -55.326601 -24.157999 0.000000 0.000000 0.000000 29.629488 21.031120 10.943634 22.837027 25.617689 0.728226 -7.514395 26.443859 -0.887505 0.000000 0.000000 0.000000
0.111983 0.733976 -0.208709 -7.728180 -27.031347 -2.167712 0.562080 2.564988 -50.143644 4.101824 4.545502 76.769974 15.087124 30.223980 -5.473778 0.000000 0.000000 0.000000 -5.643959 4.811914 -33.700182 28.057507 -7.060564 72.949495 -16.316605 -41.751674 -5.802224 0.000000 0.000000 0.000000 1.613705 5.273148 61.055008 3.436367 -0.548237 -34.679615 5.068444 8.456136 21.282531 6.167417 -4.071571 -10.384395 0.000000 0.000000 0.000000 -15.579104 -31.044442 14.631530 -10.258364 -28.546188 -0.750476 62.805224 -41.265516 -24.257540 0.000000 0.000000 0.000000 31.868486 25.135742 14.984680 12.290831 27.652926 -0.377780 -10.350419 21.482326 -1.234481 0.000000 0.000000 0.000000
0.130723 0.702289 -0.258138 -8.834915 -28.040952 -2.860404 -1.225099 2.820829 -55.637018 6.472095 1.678402 81.944297 14.326760 29.639442 -9.686270 0.000000 0.000000 0.000000 -8.059563 5.112906 -36.956400 32.487174 -10.514762 72.663272 -12.620996 -39.708224 -18.169347 0.000000 0.000000 0.000000 0.963437 7.496354 68.375802 5.820491 -1.009814 -37.408550 4.745230 10.261207 21.940248 6.899828 -5.160587 -5.678657 0.000000 0.000000 0.000000 -10.870149 -36.609769 15.132800 4.937091 -26.917246 -2.286166 62.892712 -26.415873 -16.561834 0.000000 0.000000 0.000000 35.523998 28.229934 19.928068 0.896938 27.684895 -1.983371 -10.540369 16.563853 -1.004419 0.000000 0.000000 0.000000
0.152523 0.692940 -0.313487 -11.376645 -28.981378 0.629804 -0.566815 4.747063 -61.379367 5.299936 1.387525 79.292306 14.990894 31.267221 -11.231196 0.000000 0.000000 0.000000 -10.017423 6.211493 -42.956746 36.678288 -14.194547 71.679299 -9.136852 -30.279833 -24.870322 0.000000 0.000000 0.000000 -0.953587 9.972086 70.989767 7.268052 -1.454252 -34.328057 6.380885 12.728355 17.903985 3.573886 -2.884626 0.420808 0.000000 0.000000 0.000000 -8.833543 -36.259406 14.079852 14.629837 -27.092954 -3.780040 64.629900 -20.835756 -13.910890 0.000000 0.000000 0.000000 35.601640 30.840444 23.445938 -5.557719 28.460421 -2.990118 -11.538737 12.205862 -0.782038 0.000000 0.000000 0.000000
0.176154 0.701230 -0.374153 -14.819987 -28.284725 6.370468 1.209236 6.933048 -65.913804 4.024004 0.915895 75.751969 9.871415 19.144227 -17.660993 0.000000 0.000000 0.000000 -12.295754 6.684342 -47.668394 40.153740 -17.728503 69.943977 -7.826057 -24.077834 -25.431107 0.000000 0.000000 0.000000 -3.016122 12.651234 74.690151 10.222526 -0.877066 -41.000850 7.258429 16.364182 22.798323 8.075401 -6.279458 -2.113285 0.000000 0.000000 0.000000 4.176149 -35.994272 10.830107 17.957932 -29.649454 -5.813183 65.170781 -11.953765 -9.575531 0.000000 0.000000 0.000000 33.304949 29.715753 24.248649 -11.563052 30.145118 -4.442035 -12.922229 14.348242 -1.172228 0.000000 0.000000 0.000000
0.198829 0.705264 -0.438912 -15.300768 -25.942636 10.361255 2.955193 6.993365 -64.844937 -0.895834 6.571680 85.121010 8.780129 11.358357 -35.269380 0.000000 0.000000 0.000000 -15.149833 6.091403 -51.182439 41.093744 -21.653310 72.627064 -7.660245 -24.892932 -27.170307 0.000000 0.000000 0.000000 -5.857176 15.128829 77.255470 10.085395 -1.162918 -35.533619 7.456171 14.458074 14.024118 8.412248 -5.505513 -5.338693 0.000000 0.000000 0.000000 6.771882 -29.945974 9.164006 26.091758 -30.143434 -7.902481 59.713014 -9.569472 -6.234201 0.000000 0.000000 0.000000 27.910411 30.466518 22.542081 -14.486603 35.535045 -6.046231 -13.076086 14.059286 -1.007216 0.000000 0.000000 0.000000
0.220179 0.698854 -0.508667 -16.366591 -21.210849 15.539034 6.693919 6.773734 -60.667775 -4.624908 13.008518 98.091174 10.591991 8.111637 -49.200341 0.000000 0.000000 0.000000 -16.254904 5.220346 -54.275144 42.961198 -26.854942 73.606078 -9.451306 -34.361109 -25.298200 0.000000 0.000000 0.000000 -7.890955 14.699581 76.473417 10.760357 -1.052885 -34.615574 8.580277 13.700501 12.390001 5.232930 -2.154469 -9.758168 0.000000 0.000000 0.000000 14.154092 -26.991150 7.940679 24.782636 -28.902496 -7.416415 59.035414 -3.815518 -3.025353 0.000000 0.000000 0.000000 20.992037 30.883258 20.314684 -15.615528 37.324473 -6.597488 -18.655985 14.752796 -1.561868 0.000000 0.000000 0.000000
0.240492 0.666410 -0.581221 -18.056579 -18.671717 18.375895 13.032240 8.028828 -52.968153 -1.937934 11.987249 114.162384 8.502855 5.892181 -30.120496 0.000000 0.000000 0.000000 -15.459901 5.332533 -56.624938 43.571513 -30.731051 76.761084 -16.494451 -44.041217 -7.407760 0.000000 0.000000 0.000000 -9.425625 14.900087 76.169244 11.171782 -0.604977 -37.704643 7.996238 11.780548 15.142066 4.126928 -0.985542 -13.284915 0.000000 0.000000 0.000000 16.143103 -26.146635 7.489505 26.582836 -27.073772 -6.945508 56.820081 0.267225 -0.742087 0.000000 0.000000 0.000000 16.675424 31.157753 18.615833 -18.864612 36.254010 -7.121796 -25.039165 14.292997 -2.132833 0.000000 0.000000 0.000000
0.263629 0.619476 -0.655848 -21.224594 -19.000553 21.041336 21.649207 10.671809 -44.171913 2.638015 4.955147 122.496513 -4.142158 -1.726373 10.711159 0.000000 0.000000 0.000000 -16.059662 5.936848 -59.704510 47.194479 -34.035158 75.776938 -25.197622 -51.068559 6.636474 0.000000 0.000000 0.000000 -10.486296 16.098907 74.612461 7.766567 -0.091062 -38.637474 8.795890 10.469800 15.613542 4.027019 -0.580804 -17.280524 0.000000 0.000000 0.000000 21.985112 -25.271020 6.598407 21.203435 -27.951614 -6.033599 54.904593 6.511611 2.288447 0.000000 0.000000 0.000000 14.321613 28.316414 15.951903 -25.500294 37.266823 -9.037893 -33.230179 6.021593 -0.739025 0.000000 0.000000 0.000000
0.293145 0.564498 -0.730049 -23.080906 -16.468660 24.002458 29.599058 10.024455 -32.690104 5.489626 0.073126 120.661940 -8.311411 -4.288006 18.153378 0.000000 0.000000 0.000000 -21.828487 3.309598 -65.890539 51.035771 -39.588388 73.684325 -29.175757 -54.888968 8.625244 0.000000 0.000000 0.000000 -9.300511 13.940553 73.690574 4.015315 0.334607 -37.841757 6.870496 6.399713 14.310684 4.532683 -0.770470 -21.992866 0.000000 0.000000 0.000000 24.320345 -23.735764 5.755667 17.816946 -29.879665 -5.419454 54.403466 11.407125 5.397721 0.000000 0.000000 0.000000 9.186190 26.657436 12.879980 -26.570435 32.373044 -7.898885 -34.842368 1.128553 0.653196 0.000000 0.000000 0.000000
0.330388 0.521040 -0.802557 -24.002854 -13.664409 23.884047 34.761845 8.335765 -24.217559 6.391857 -1.662671 115.194473 -8.898565 -5.132858 18.720764 0.000000 0.000000 0.000000 -27.545818 -0.778549 -67.735197 52.843684 -43.435460 73.076644 -26.494600 -53.153359 4.369228 0.000000 0.000000 0.000000 -9.233818 12.382507 73.760388 1.059110 0.613411 -36.658701 6.911272 4.432946 13.243732 2.212875 0.326076 -22.606246 0.000000 0.000000 0.000000 28.803470 -23.315147 4.944438 12.619392 -34.344769 -5.123031 47.479663 12.048451 5.090458 0.000000 0.000000 0.000000 4.636687 22.975448 9.866719 -21.851979 30.314725 -6.443826 -34.492322 -2.189367 1.627628 0.000000 0.000000 0.000000
0.371802 0.489675 -0.871618 -25.321135 -12.743378 25.061589 41.341700 8.256628 -18.502168 4.753963 1.801571 111.747212 -9.452092 -7.100389 17.011244 0.000000 0.000000 0.000000 -31.290805 -2.947755 -67.760874 54.353900 -46.097855 73.218972 -21.855272 -50.214036 -3.327224 0.000000 0.000000 0.000000 -10.933578 13.251965 72.479381 2.157231 0.524367 -36.546074 6.176163 6.177830 13.144330 2.704267 0.369896 -23.189683 0.000000 0.000000 0.000000 32.592861 -26.216821 5.101839 10.849890 -36.029014 -5.327728 38.898433 13.232907 4.128913 0.000000 0.000000 0.000000 2.378694 20.324641 8.595762 -16.690821 27.165410 -4.555351 -34.366335 -4.417708 2.392607 0.000000 0.000000 0.000000
0.412839 0.472099 -0.936232 -25.053086 -9.481250 24.636079 46.558879 7.585884 -16.045530 1.969547 4.425730 108.339592 -10.120048 -7.440133 18.700405 0.000000 0.000000 0.000000 -35.615438 -6.353079 -64.132551 55.202281 -45.400916 69.239745 -16.302997 -47.939287 -16.520552 0.000000 0.000000 0.000000 -11.556819 12.167405 73.282329 2.842420 0.469126 -35.808191 5.436252 4.936389 12.279017 2.487992 0.232628 -20.815415 0.000000 0.000000 0.000000 32.056067 -27.834652 5.272933 8.708209 -38.191788 -5.091369 35.533308 9.511549 2.715933 0.000000 0.000000 0.000000 1.057780 20.310416 8.295421 -11.045821 27.071943 -3.778005 -33.720054 -1.824847 1.690105 0.000000 0.000000 0.000000
0.449571 0.463362 -0.995806 -23.571235 -6.580258 26.542523 53.584943 7.704814 -15.184858 -1.579214 8.742208 104.743151 -8.015070 -8.793251 11.238067 0.000000 0.000000 0.000000 -38.311532 -8.447507 -61.486609 47.632680 -45.820124 78.118427 -12.347918 -37.885985 -21.524114 0.000000 0.000000 0.000000 -13.117143 11.355895 70.001811 3.825852 0.506090 -36.825123 4.297890 3.642272 14.401942 0.819255 0.988526 -20.883096 0.000000 0.000000 0.000000 29.830562 -32.531650 6.112057 7.021529 -38.050582 -4.687669 33.404577 6.811198 1.901433 0.000000 0.000000 0.000000 1.745645 20.455705 8.437406 -8.399830 29.809234 -3.978240 -34.770083 2.432142 0.573576 0.000000 0.000000 0.000000
0.482039 0.456770 -1.051648 -20.237373 -4.598261 28.288183 57.786834 7.282960 -14.601070 -4.582183 11.883090 98.859035 -3.436118 -10.476067 -3.998812 0.000000 0.000000 0.000000 -37.968486 -8.324575 -57.672868 32.070656 -42.240728 98.000071 -12.182206 -29.823245 -6.462587 0.000000 0.000000 0.000000 -13.455856 10.183299 67.364030 2.946124 0.640860 -36.574745 2.246293 0.908680 16.514417 1.289040 0.901238 -26.974033 0.000000 0.000000 0.000000 28.683854 -33.692490 6.184907 7.188446 -41.303375 -4.893534 30.631842 5.607986 1.554027 0.000000 0.000000 0.000000 -0.250128 22.294144 8.800932 -7.183743 33.693032 -4.730121 -38.172620 0.289100 1.289990 0.000000 0.000000 0.000000
0.514599 0.453595 -1.105981 -16.225095 -3.248810 29.859648 56.676372 6.811919 -16.223759 -6.943559 14.081332 94.827912 2.249224 -6.427366 -18.472400 0.000000 0.000000 0.000000 -33.646482 -5.997557 -52.555634 24.182825 -36.037452 106.430484 -9.984936 -23.021719 8.587873 0.000000 0.000000 0.000000 -12.923695 8.905148 66.161277 -0.118631 0.976527 -36.741191 1.653785 -2.072957 17.102308 0.909134 1.033566 -30.890326 0.000000 0.000000 0.000000 27.484053 -32.860258 6.223133 1.624370 -45.697574 -3.293078 28.868900 2.175063 0.774817 0.000000 0.000000 0.000000 -5.778724 24.836719 8.842740 -6.637276 36.944337 -5.500351 -38.372010 -3.198659 2.302819 0.000000 0.000000 0.000000
0.550489 0.452525 -1.160697 -13.755597 -3.240314 31.076884 52.062048 6.563653 -18.556720 -6.156863 12.926397 93.839220 5.298841 1.319643 -23.055270 0.000000 0.000000 0.000000 -29.870714 -3.869818 -48.280212 23.816951 -33.213966 103.965156 -10.183565 -23.072093 15.391883 0.000000 0.000000 0.000000 -12.872589 8.842967 66.393031 -1.678466 1.125365 -35.695294 1.797095 0.045937 15.307016 1.339933 1.299478 -32.637798 0.000000 0.000000 0.000000 27.098288 -32.544141 6.666707 -2.002891 -50.523861 -2.692329 29.075261 -1.410361 -0.103594 0.000000 0.000000 0.000000 -9.675124 22.955600 7.751598 -8.475918 38.209013 -5.789562 -34.416626 -5.373545 2.763179 0.000000 0.000000 0.000000
0.592434 0.462417 -1.217527 -13.182840 -4.469621 30.351185 45.118258 5.630511 -19.102258 -7.799974 16.048986 95.681637 0.995341 -0.863122 -5.822762 0.000000 0.000000 0.000000 -28.566415 -2.730571 -45.536899 26.164082 -32.697895 99.321459 -12.539270 -28.083438 9.116672 0.000000 0.000000 0.000000 -11.302766 8.949067 71.564744 -4.964902 1.368195 -39.712360 3.015979 2.533668 16.428968 0.073153 2.273019 -35.847073 0.000000 0.000000 0.000000 26.284644 -33.104381 6.966807 -0.821220 -53.160546 -3.941995 30.693322 -4.605381 -0.948534 0.000000 0.000000 0.000000 -13.273043 24.129101 7.319101 -9.722677 33.966522 -4.823084 -31.695941 -6.622223 2.834352 0.000000 0.000000 0.000000
0.637542 0.475523 -1.275552 -13.869601 -4.414168 32.090271 38.782417 3.928759 -18.239281 -12.323536 21.144731 90.770046 -5.018417 -4.507504 10.053287 0.000000 0.000000 0.000000 -28.205282 -2.496786 -46.111788 32.751514 -36.077467 90.443752 -14.982801 -34.764369 2.534440 0.000000 0.000000 0.000000 -9.041055 7.412463 72.862164 -5.613740 1.391142 -39.378240 2.418571 6.041888 16.193482 2.908982 1.660803 -36.066885 0.000000 0.000000 0.000000 23.521455 -30.750219 7.621251 3.710510 -58.545869 -7.648391 28.581957 -5.228686 -1.020141 0.000000 0.000000 0.000000 -13.136045 25.154981 7.748645 -16.023540 31.849209 -5.332258 -23.545628 -7.693839 2.208235 0.000000 0.000000 0.000000
0.679983 0.494022 -1.335360 -13.547785 -1.431735 35.103073 33.580379 3.593523 -23.950802 -16.254078 22.898688 86.868652 0.725557 1.957746 0.857399 0.000000 0.000000 0.000000 -26.670409 -3.094060 -49.002708 36.693727 -37.582990 82.949815 -14.612929 -39.009367 -9.190465 0.000000 0.000000 0.000000 -6.513321 3.785165 71.821685 -4.814341 1.357960 -38.308327 3.819273 10.492542 17.221378 2.071260 2.515383 -37.854533 0.000000 0.000000 0.000000 19.114966 -32.627490 9.144652 8.135225 -58.497996 -11.171950 27.862808 -7.085592 -1.381642 0.000000 0.000000 0.000000 -17.723203 22.952687 5.966209 -17.255459 32.707302 -5.013888 -17.659512 -9.134697 1.832211 0.000000 0.000000 0.000000
0.715866 0.516833 -1.394703 -10.792840 0.391453 39.656323 26.298672 2.117408 -27.079627 -17.546290 20.848547 81.256482 3.347089 1.508931 -13.783342 0.000000 0.000000 0.000000 -27.385868 -4.795907 -54.263912 40.977263 -40.320108 77.596829 -15.773219 -41.502450 -9.428268 0.000000 0.000000 0.000000 -3.502096 0.237449 71.063801 -6.071332 1.335343 -42.261054 4.361253 9.603106 22.961016 1.633290 2.693369 -40.017088 0.000000 0.000000 0.000000 17.645639 -31.613089 9.108054 11.495674 -58.510197 -13.055653 30.865958 -7.591224 -1.585240 0.000000 0.000000 0.000000 -20.664590 21.922810 4.975210 -17.522003 33.009713 -5.193799 -19.158154 -10.255245 2.174798 0.000000 0.000000 0.000000
0.744637 0.532170 -1.452146 -9.769124 1.157865 43.382435 22.588314 0.559445 -22.389839 -14.238506 14.459451 72.776953 1.369430 -3.211699 -12.201448 0.000000 0.000000 0.000000 -26.808618 -5.464135 -58.411311 46.126266 -41.893797 71.619265 -17.579387 -44.334112 -7.504222 0.000000 0.000000 0.000000 -1.162002 -1.974341 68.647206 -6.768843 1.471885 -37.892673 1.974261 9.193495 20.188410 2.156948 2.349388 -36.726005 0.000000 0.000000 0.000000 16.368747 -30.785470 9.298707 13.517500 -55.183102 -12.818275 29.645124 -9.469233 -1.883517 0.000000 0.000000 0.000000 -15.316107 24.480451 7.499720 -22.915301 29.822514 -5.826823 -19.397398 -9.803406 2.076545 0.000000 0.000000 0.000000
0.768218 0.549241 -1.507317 -7.828275 2.824301 46.125512 19.608365 -0.366062 -20.266511 -7.927398 6.525097 66.546951 -1.869239 -1.859459 4.483568 0.000000 0.000000 0.000000 -26.309709 -7.110003 -63.442007 49.964592 -42.832637 66.588292 -17.730784 -48.106732 -12.845010 0.000000 0.000000 0.000000 -0.026544 -3.908707 69.061744 -8.327599 1.496293 -39.441187 3.081109 6.012819 21.888349 -1.033992 3.041116 -36.822426 0.000000 0.000000 0.000000 14.041915 -32.348084 10.207968 14.646254 -49.585023 -11.195601 29.832045 -5.889933 -1.022505 0.000000 0.000000 0.000000 -15.083685 25.614174 7.998215 -22.447288 29.865741 -6.272275 -24.220897 -8.520936 2.417278 0.000000 0.000000 0.000000
0.791302 0.555352 -1.562035 -7.514975 4.853938 47.295425 22.811764 -0.906218 -16.391241 -6.910239 4.606281 59.750148 -3.005873 1.814729 18.698012 0.000000 0.000000 0.000000 -26.810234 -9.637591 -68.658339 50.911198 -44.193122 66.518347 -18.427326 -48.989013 -12.624891 0.000000 0.000000 0.000000 -0.597727 -4.571097 70.744487 -5.283258 1.331292 -39.105433 2.993370 6.466088 21.600253 -0.423556 2.776809 -34.586621 0.000000 0.000000 0.000000 11.937257 -35.181648 11.609021 17.752218 -42.047124 -10.247142 29.623594 -5.866665 -1.083716 0.000000 0.000000 0.000000 -12.841398 28.548093 9.666527 -23.124823 27.617149 -5.795493 -27.366919 -6.206134 2.310475 0.000000 0.000000 0.000000
0.818274 0.567220 -1.618329 -8.170151 5.418454 47.457167 26.782508 -1.020459 -14.855492 -9.844586 6.732467 57.241824 -2.183715 3.437732 20.381629 0.000000 0.000000 0.000000 -27.683603 -11.510337 -72.982047 51.940513 -43.265429 64.054808 -16.372083 -50.529810 -20.146072 0.000000 0.000000 0.000000 -1.577468 -3.919832 72.539801 -4.040863 1.280557 -38.698296 3.879549 7.218788 19.876584 0.972884 2.283137 -33.666555 0.000000 0.000000 0.000000 10.641262 -36.760790 12.549764 20.044110 -39.774385 -10.422553 28.569787 -5.275773 -0.885031 0.000000 0.000000 0.000000 -6.951817 31.224665 12.600740 -24.065935 24.436234 -5.096914 -28.606002 -4.509426 2.089603 0.000000 0.000000 0.000000
0.851935 0.591122 -1.676440 -8.567346 6.925431 48.365476 30.730857 -0.541004 -17.895240 -14.726906 10.537686 58.974659 -1.516728 1.501414 11.275288 0.000000 0.000000 0.000000 -24.507034 -11.457571 -78.639436 44.732640 -38.596446 67.527571 -16.875374 -51.640044 -18.838296 0.000000 0.000000 0.000000 -2.491901 -3.668456 72.745709 -1.741985 1.155685 -39.471756 5.464156 9.617938 22.529271 0.421261 2.908144 -36.576791 0.000000 0.000000 0.000000 15.659581 -35.222915 10.954404 21.343311 -41.943613 -12.322472 30.620568 -0.761819 -0.019015 0.000000 0.000000 0.000000 -8.953723 30.260108 11.588547 -20.394010 26.746246 -4.943980 -30.422604 -4.397093 2.351846 0.000000 0.000000 0.000000
0.891782 0.632153 -1.732669 -8.159978 7.019008 49.587651 34.110679 1.130158 -25.449854 -20.161008 17.668946 67.881483 -0.715619 -0.961671 1.336495 0.000000 0.000000 0.000000 -24.499772 -11.390406 -78.069631 40.391369 -30.476388 59.642994 -12.415554 -49.913391 -27.871497 0.000000 0.000000 0.000000 -3.397819 -2.940098 72.563231 -0.859094 1.088087 -37.978238 6.639663 10.845546 21.141743 0.756031 2.670311 -32.363363 0.000000 0.000000 0.000000 15.468651 -37.755487 11.987332 24.372565 -41.308576 -13.687098 32.734685 0.945130 0.551455 0.000000 0.000000 0.000000 -9.347806 29.865435 11.678060 -16.763079 26.623627 -4.397405 -29.625346 -2.834392 2.026566 0.000000 0.000000 0.000000
0.932314 0.680680 -1.781892 -6.382675 7.156480 53.468731 39.175147 4.737461 -38.263319 -23.624161 29.979969 87.055068 4.269239 5.754894 -11.241221 0.000000 0.000000 0.000000 -24.372350 -10.910002 -75.056664 36.504908 -24.619651 53.037492 -5.330171 -42.161538 -50.016424 0.000000 0.000000 0.000000 -5.252028 -1.774837 72.498110 2.557545 1.022547 -41.498015 6.096956 12.756705 23.762581 0.784437 2.941597 -34.430945 0.000000 0.000000 0.000000 22.467038 -40.211250 11.224095 22.665913 -38.130510 -12.547954 33.849345 0.905232 0.202970 0.000000 0.000000 0.000000 -2.585212 32.364815 15.982350 -21.235734 22.849428 -4.124397 -31.418317 -6.813537 3.167237 0.000000 0.000000 0.000000
0.967135 0.728525 -1.820282 -2.756449 6.804494 58.088259 47.745633 9.974022 -48.506511 -19.750043 39.423715 107.575464 4.668329 1.655457 -19.159621 0.000000 0.000000 0.000000 -25.347136 -11.456535 -72.845852 32.664735 -30.055135 68.865221 -3.862707 -39.874440 -61.979417 0.000000 0.000000 0.000000 -6.432293 -1.443946 75.025058 1.913239 1.171994 -43.788039 5.588316 11.743602 23.196025 -0.615330 3.289704 -37.649143 0.000000 0.000000 0.000000 26.140215 -38.834128 10.542808 23.635017 -38.407198 -12.754855 38.827925 2.495478 0.715311 0.000000 0.000000 0.000000 -4.958633 32.478241 15.606685 -17.999270 23.295585 -4.131716 -34.659486 -5.809598 3.476888 0.000000 0.000000 0.000000
0.994279 0.760485 -1.845397 1.097462 6.641855 59.237008 55.718779 17.043945 -57.993454 -10.717106 37.523476 125.386000 6.377736 -4.081562 -32.771551 0.000000 0.000000 0.000000 -24.894106 -9.668136 -64.980259 29.236218 -39.317722 88.740778 -7.241765 -38.921469 -52.945269 0.000000 0.000000 0.000000 -8.966234 -0.329278 79.950210 1.057654 1.340172 -44.841737 6.109750 10.180697 19.222049 2.781570 1.930319 -35.038112 0.000000 0.000000 0.000000 27.414499 -42.129966 11.640321 20.192334 -37.211729 -11.153857 42.642686 2.833994 1.085031 0.000000 0.000000 0.000000 -0.417384 36.538916 20.050883 -17.652370 17.816060 -3.140172 -35.625313 -5.017850 3.363797 0.000000 0.000000 0.000000
1.016124 0.763470 -1.860473 1.580605 5.858602 58.675172 61.952668 23.847068 -61.349391 -7.349860 35.026664 130.867685 10.418821 -8.887312 -49.657635 0.000000 0.000000 0.000000 -21.664846 -6.507063 -60.917481 27.465211 -45.206395 101.437256 -12.821972 -29.688720 -7.653613 0.000000 0.000000 0.000000 -12.747524 3.862631 84.906083 1.079817 1.577237 -47.327536 6.490004 9.704096 18.493980 0.070782 2.207764 -30.650703 0.000000 0.000000 0.000000 20.408521 -44.680488 14.718613 22.222007 -32.076983 -10.404487 44.119080 -0.644922 0.245684 0.000000 0.000000 0.000000 19.251388 41.196193 33.259558 -27.128371 8.052033 -0.607781 -37.985859 -10.227169 4.702507 0.000000 0.000000 0.000000
1.039805 0.748456 -1.875652 4.346048 6.422788 53.400598 56.782193 25.582599 -70.063616 -10.074641 34.171507 123.147238 11.851631 -2.969286 -55.788721 0.000000 0.000000 0.000000 -15.529952 -2.455682 -52.895913 32.477956 -50.202983 99.188623 -8.981353 -21.429658 22.512210 0.000000 0.000000 0.000000 -15.659823 6.858273 93.726552 4.280417 1.776973 -47.360517 3.908172 10.606501 16.577860 7.158385 1.278294 -40.792316 0.000000 0.000000 0.000000 19.973416 -43.574164 14.145787 21.664566 -31.987143 -10.199201 48.131070 -0.750732 0.379363 0.000000 0.000000 0.000000 23.887575 40.946294 35.606935 -29.936656 8.739807 -0.803398 -41.824678 -9.626669 4.849894 0.000000 0.000000 0.000000
1.070478 0.710169 -1.899603 -0.950103 3.984144 43.097105 54.698580 29.095823 -72.830786 -15.497016 34.634473 112.865453 10.600529 0.057462 -51.579328 0.000000 0.000000 0.000000 3.143475 5.301697 -51.998108 45.678825 -55.054502 92.252862 -18.081347 -30.630694 37.875684 0.000000 0.000000 0.000000 -20.805642 17.138992 99.431749 7.531377 1.999520 -49.426726 7.740678 17.023380 11.500814 4.143297 -1.272121 -12.968148 0.000000 0.000000 0.000000 -6.744661 -51.747373 24.024420 22.429340 -26.317818 -9.288479 49.447751 -12.002019 -2.610101 0.000000 0.000000 0.000000 46.642406 37.948339 49.245532 -40.670369 0.367274 3.937492 -42.739916 -2.168785 0.716620 0.000000 0.000000 0.000000
1.109115 0.665320 -1.936305 -2.124913 2.116427 29.097178 50.731705 27.632710 -72.760506 -21.523041 36.847924 107.206765 11.125717 0.805897 -56.852233 0.000000 0.000000 0.000000 12.903678 13.735076 -69.109697 104.361574 -63.086345 42.357395 -38.947657 -29.706054 92.600253 0.000000 0.000000 0.000000 -21.611236 22.967842 109.252138 11.561700 2.461857 -55.480000 6.753507 18.304045 12.415861 4.804560 -4.012481 -2.548612 0.000000 0.000000 0.000000 -11.265259 -48.067645 20.308896 22.462126 -28.769749 -9.917418 53.334834 -20.047565 -6.668600 0.000000 0.000000 0.000000 54.534720 41.935981 56.743991 -43.478656 -6.476824 7.423378 -44.026467 -0.837699 -0.616100 0.000000 0.000000 0.000000
1.151324 0.623755 -1.977046 -1.545367 5.798875 6.360284 41.029200 19.004982 -75.699094 -21.696830 36.872234 114.908507 11.584877 0.442324 -61.706309 0.000000 0.000000 0.000000 6.845845 17.327967 -101.297313 145.683792 -16.425537 -6.095568 6.294532 -23.977075 158.750851 0.000000 0.000000 0.000000 -22.626267 26.557783 120.039767 11.451926 1.206958 -45.825967 8.325680 28.867164 8.112784 19.035500 -0.470943 -40.068203 0.000000 0.000000 0.000000 5.375906 -48.403625 13.710634 17.412071 -35.998932 -11.284389 54.651632 -6.936624 -4.164878 0.000000 0.000000 0.000000 25.522550 39.682829 34.478660 -30.784981 3.793871 3.178507 -47.518868 4.755725 -2.049495 0.000000 0.000000 0.000000
1.191408 0.609144 -2.012320 -9.237531 1.108429 -14.333343 37.497275 19.668815 -77.430154 -16.061881 32.208779 130.765866 10.914028 0.540354 -58.921510 0.000000 0.000000 0.000000 -11.588012 -1.842168 -106.223253 141.912984 21.669110 -20.623365 -11.868450 -17.108145 -127.807614 0.000000 0.000000 0.000000 -29.141407 41.468190 121.131328 16.245204 -0.542537 -41.043767 19.213752 49.959541 12.214925 35.602616 -7.540544 -38.262375 0.000000 0.000000 0.000000 -1.598876 -42.077856 8.725637 10.338030 -42.570271 -14.514877 57.071899 -27.060104 -21.096413 0.000000 0.000000 0.000000 19.480587 29.588846 28.331055 -33.374490 11.815331 1.599955 -41.604906 8.390395 -3.041338 0.000000 0.000000 0.000000
1.227608 0.633753 -2.036069 -14.951684 -3.881134 -40.670939 33.397821 17.750695 -75.880414 -14.849110 32.464064 139.529716 7.041153 -1.563781 -40.182853 0.000000 0.000000 0.000000 -12.527003 -0.751429 -81.790354 114.474151 -36.649447 15.001608 6.195661 -41.572679 -104.889539 0.000000 0.000000 0.000000 -47.661022 58.452483 107.906956 16.342739 -3.146805 -32.872432 63.845301 70.140605 42.272772 7.122518 -40.607656 29.728069 0.000000 0.000000 0.000000 -16.142268 -40.605094 -4.397383 -12.389463 -31.983558 1.835658 68.388153 -59.456895 -58.568231 0.000000 0.000000 0.000000 29.386713 26.226936 39.809307 -34.359797 8.278034 1.676330 -35.642820 21.390536 -7.710032 0.000000 0.000000 0.000000
1.260751 0.679763 -2.048294 -16.798533 -8.722668 -49.629206 27.454703 15.368665 -78.252251 -24.151827 54.973567 134.177265 8.134142 26.896205 -37.598986 0.000000 0.000000 0.000000 -14.199557 -0.633724 -72.054717 28.506572 -9.273233 29.755781 4.993011 -47.620973 -92.208471 0.000000 0.000000 0.000000 -74.931941 62.543871 80.784689 46.596996 -12.622758 -34.752555 123.711718 56.502878 100.504506 -41.625145 13.260309 82.700380 0.000000 0.000000 0.000000 -42.259994 -45.543230 -31.694346 2.773227 6.971786 3.524723 -95.205288 -63.231007 92.529204 0.000000 0.000000 0.000000 55.772980 18.825163 65.830751 -32.982205 -6.487224 4.726448 -28.109606 27.507077 -12.465810 0.000000 0.000000 0.000000
1.289324 0.717317 -2.051481 -16.580737 -10.081529 -57.280038 18.628522 6.586489 -64.927474 -131.628528 55.328922 19.056829 -27.529641 65.946039 -109.737290 0.000000 0.000000 0.000000 -15.176500 -1.661714 -61.506237 15.777667 -2.860411 13.278667 -79.321637 -61.024751 49.773212 0.000000 0.000000 0.000000 -118.341043 48.869739 37.802714 108.708378 -78.403751 6.411900 151.874959 22.522404 -121.110123 -149.038705 53.786557 9.879588 0.000000 0.000000 0.000000 -9.551289 -39.439695 -93.592357 1.772966 15.072516 7.002969 -110.342150 -36.147208 79.579765 0.000000 0.000000 0.000000 17.820065 9.590637 126.749292 -24.513943 -16.465945 1.629415 -32.696409 -27.871199 0.357728 0.000000 0.000000 0.000000
1.309947 0.758125 -2.046926 -15.783715 -12.652450 -62.347164 13.177779 3.199909 -55.800901 -136.595668 32.480583 4.394950 -24.631788 55.788613 -123.142575 0.000000 0.000000 0.000000 -15.618605 -1.418588 -57.578553 19.045100 -3.866966 17.360652 -41.164610 -38.464662 47.649198 0.000000 0.000000 0.000000 -123.830277 13.284411 31.982164 -7.321309 -40.037328 144.282150 -175.347253 12.278369 -118.364398 -139.326660 24.327337 28.514045 0.000000 0.000000 0.000000 -3.964118 -36.249306 -110.725536 39.695079 17.774308 17.032140 -105.472715 7.945397 16.114570 0.000000 0.000000 0.000000 21.682652 10.457580 148.320309 -21.528729 6.348850 -1.491304 -31.241695 -23.566791 -2.811794 0.000000 0.000000 0.000000
1.322417 0.793007 -2.040645 -14.445222 -14.211863 -67.760397 10.063393 1.554054 -47.482067 -55.976928 55.338667 84.296499 1.128147 44.458593 -81.148481 0.000000 0.000000 0.000000 -13.602387 -0.428800 -49.227380 22.315429 -5.878372 27.200363 -34.870384 -47.754378 11.497120 0.000000 0.000000 0.000000 -74.429705 -30.146168 30.786132 -0.238802 3.027337 147.879147 -100.986196 10.670454 -99.427569 -87.270480 34.247329 59.686128 0.000000 0.000000 0.000000 -50.359543 -43.060144 -60.185381 34.683733 14.745890 6.308025 -77.007914 -5.843764 52.042341 0.000000 0.000000 0.000000 34.147910 -1.436968 56.305903 -11.312226 6.180994 -0.056860 -13.411884 30.997063 -4.993927 0.000000 0.000000 0.000000
1.327827 0.810408 -2.038513 -12.963218 -15.548729 -67.746798 11.975245 3.016057 -41.568925 -7.790524 4.597770 101.633651 10.385678 2.989118 -54.052347 0.000000 0.000000 0.000000 -12.456328 0.223000 -43.550057 37.306512 -14.781456 44.253661 -11.295450 -50.912089 -45.164949 0.000000 0.000000 0.000000 -17.442222 -6.323329 17.887646 0.048542 0.238830 143.484424 -39.059368 -0.095007 -112.239522 -35.895051 4.274991 77.944241 0.000000 0.000000 0.000000 -41.069799 -29.627044 -12.263082 0.772558 17.188632 0.719357 -35.533556 -46.643871 28.450816 0.000000 0.000000 0.000000 45.302564 4.526292 29.808668 0.180765 3.760157 -0.344044 2.111696 34.483308 2.511915 0.000000 0.000000 0.000000
1.329797 0.798185 -2.040251 -12.368860 -15.783904 -63.062190 15.559688 4.799855 -36.050542 -0.683646 -4.764139 86.863009 4.861215 -6.084227 -30.696400 0.000000 0.000000 0.000000 -8.307601 1.701689 -36.663233 51.969392 -30.852551 62.634073 -2.746369 -45.835616 -64.944285 0.000000 0.000000 0.000000 -7.295223 -2.306623 14.211568 0.034333 -6.309949 135.836399 -25.947154 -4.980524 -114.296536 3.366451 -16.198735 61.138630 0.000000 0.000000 0.000000 -26.364902 -20.892942 -2.759610 -18.192277 9.016631 3.099450 -11.843969 -45.547324 7.787405 0.000000 0.000000 0.000000 40.626308 5.129444 10.367945 12.121777 -1.966081 -0.006975 19.972201 34.735280 9.893108 0.000000 0.000000 0.000000
1.331953 0.749411 -2.039123 -10.269860 -15.576446 -57.556620 17.770490 5.270593 -29.295806 1.722320 -5.647497 79.939089 7.610143 -5.839740 -42.645941 0.000000 0.000000 0.000000 -4.455094 2.420303 -28.625358 50.267603 -39.128934 79.251746 -11.253171 -52.516111 -31.725478 0.000000 0.000000 0.000000 -5.164828 -1.498873 10.025799 1.294733 -12.364146 128.653147 -24.874537 -10.178968 -109.722189 -16.949230 -20.274503 37.279324 0.000000 0.000000 0.000000 -9.558386 -19.965249 3.181735 -37.732989 -3.281609 8.079485 5.464113 -39.157262 -5.162587 0.000000 0.000000 0.000000 25.266438 0.598140 -0.194301 31.006850 1.336597 3.285943 22.648474 37.707806 10.958366 0.000000 0.000000 0.000000
1.336221 0.692382 -2.037193 -8.438013 -16.599273 -51.667456 16.605954 3.991491 -19.829006 3.771849 -5.440794 85.668136 10.395071 -1.379546 -55.446566 0.000000 0.000000 0.000000 2.940989 2.457666 -14.935222 38.691447 -29.437411 85.009535 -15.615395 -42.683199 -11.131264 0.000000 0.000000 0.000000 1.488240 -0.199185 6.806663 6.347696 -0.453592 112.246071 -9.160855 -8.526934 -99.845104 8.490000 -8.520456 20.895055 0.000000 0.000000 0.000000 -6.294845 -22.623138 4.484024 -45.712268 -10.074100 11.688546 10.686921 -34.913745 -6.296372 0.000000 0.000000 0.000000 13.985327 -0.821167 -2.842239 40.949036 6.122357 7.909515 9.612383 46.363230 5.526776 0.000000 0.000000 0.000000
1.343055 0.645188 -2.039421 -3.060267 -19.450352 -46.273368 10.891863 2.133607 -17.216418 5.288590 -0.669230 88.428068 9.244187 -4.487208 -49.349695 0.000000 0.000000 0.000000 5.865413 2.575864 -13.151235 30.821317 -18.242783 88.995193 -13.086786 -34.635516 -7.085085 0.000000 0.000000 0.000000 4.410864 -0.180211 8.403782 12.064416 0.753185 122.503028 -3.447451 -19.744727 -111.243486 10.469659 -2.370084 8.741639 0.000000 0.000000 0.000000 -7.591167 -22.436607 4.914881 -44.595202 -20.088936 17.019371 19.718658 -35.532801 -10.968349 0.000000 0.000000 0.000000 9.034863 -2.153734 -2.820934 46.293585 19.435865 16.671568 -17.920651 48.737619 -10.288333 0.000000 0.000000 0.000000
1.350224 0.629450 -2.049148 -2.021933 -20.921853 -42.327171 4.572453 0.254429 -18.056160 8.563240 -1.236453 92.764253 9.297469 2.457035 -45.511114 0.000000 0.000000 0.000000 6.664620 3.189347 -15.871525 29.594740 -15.449236 89.586257 -15.895216 -44.191703 -9.924894 0.000000 0.000000 0.000000 6.101374 -0.470586 12.922496 11.881832 2.392288 132.843026 4.782663 -20.128050 -122.233010 14.690331 2.918984 -1.957331 0.000000 0.000000 0.000000 -7.979528 -23.136353 5.495398 -43.550074 -25.483173 20.740008 31.043712 -34.881900 -15.990993 0.000000 0.000000 0.000000 4.979533 -0.795964 -1.204454 51.343938 27.884972 23.744529 -35.181335 44.216220 -22.299674 0.000000 0.000000 0.000000
1.354984 0.672022 -2.064263 -0.417135 -23.350533 -40.104229 4.382907 0.268230 -14.136243 7.451591 2.958644 84.629706 7.356357 2.888277 -35.828007 0.000000 0.000000 0.000000 6.132151 2.583523 -13.749334 25.777292 -7.335782 81.819270 -12.070420 -37.079270 -19.408502 0.000000 0.000000 0.000000 6.504791 -0.760425 18.397905 20.376302 9.549720 133.680473 16.040170 -20.917801 -127.011252 12.425319 7.135184 -9.375847 0.000000 0.000000 0.000000 -9.831506 -22.953985 8.166163 -44.152067 -23.720405 20.269279 36.691184 -42.589351 -22.737160 0.000000 0.000000 0.000000 -2.790347 -5.114266 3.207121 61.285094 28.923423 24.304090 -39.164732 54.205830 -36.209972 0.000000 0.000000 0.000000
1.357470 0.752294 -2.083754 -0.851213 -25.339140 -33.619699 7.435871 1.000287 -11.037131 2.083782 6.454700 64.892963 5.187761 1.564231 -32.770285 0.000000 0.000000 0.000000 3.437488 1.848635 -12.384025 23.938336 -3.654475 64.915180 -10.872646 -27.101520 -17.328115 0.000000 0.000000 0.000000 5.973559 -0.827124 21.670865 54.774808 18.875227 161.968379 49.315326 -14.674703 -148.730498 1.536640 9.820640 -17.876546 0.000000 0.000000 0.000000 -25.472170 -22.371817 27.357825 -32.382177 -33.384671 14.717520 46.213323 -38.512957 -30.207541 0.000000 0.000000 0.000000 -9.654680 -12.109000 14.954392 59.522871 37.039897 15.737973 -15.248668 58.411920 -27.535604 0.000000 0.000000 0.000000
1.359961 0.847519 -2.108386 -0.978551 -26.957866 -28.008252 8.346076 1.161444 -10.693294 -2.620255 6.998032 48.431259 1.926913 1.367656 -13.130233 0.000000 0.000000 0.000000 0.972661 1.175092 -9.979927 19.292517 -1.071504 46.992694 -9.294510 -20.668289 -3.356956 0.000000 0.000000 0.000000 3.557961 -0.599934 18.147826 -5.751086 -2.412519 -7.330490 -4.045648 10.952564 -5.994407 9.298522 -16.604771 35.224272 0.000000 0.000000 0.000000 -33.054888 -20.037591 3.635090 -21.170346 7.968458 0.659067 -17.054926 -54.260356 6.133195 0.000000 0.000000 0.000000 43.167807 3.179319 -0.404517 33.126733 -6.964239 -2.149907 27.637964 46.867994 10.575535 0.000000 0.000000 0.000000
1.363583 0.928569 -2.134247 -1.252747 -30.007082 -21.203434 10.394447 1.691686 -11.192305 -4.607911 6.243197 37.265394 0.540496 2.566108 7.360051 0.000000 0.000000 0.000000 0.912212 1.616788 -13.054040 14.483480 0.744366 38.706314 -4.110766 -13.903586 8.920239 0.000000 0.000000 0.000000 2.590306 -0.399512 18.353180 2.871732 -2.418202 -35.213368 -4.893380 15.398457 30.346590 16.050240 -18.653781 4.576985 0.000000 0.000000 0.000000 -33.424023 -15.457829 9.943604 -22.680763 -0.834538 -4.622555 -0.298163 -59.244837 1.761248 0.000000 0.000000 0.000000 45.815439 5.623360 0.541469 35.727569 1.715115 -5.826660 24.890905 36.477599 9.743555 0.000000 0.000000 0.000000
1.367459 0.985846 -2.158007 -0.968253 -29.770350 -18.603592 7.016896 0.707620 -7.811298 -2.466130 4.255515 32.576560 -1.162280 1.151759 17.654842 0.000000 0.000000 0.000000 0.746772 1.014553 -9.256061 10.018524 1.786091 34.660031 -3.159598 -13.461423 11.896361 0.000000 0.000000 0.000000 4.136306 -0.547028 16.517449 -3.896304 0.070357 -29.651470 0.312088 7.282091 28.311701 11.224127 -11.247374 -3.402299 0.000000 0.000000 0.000000 -31.553760 -15.390963 13.402177 -30.084184 -7.076376 -5.256434 1.090451 -49.536190 2.080439 0.000000 0.000000 0.000000 34.974132 4.725895 -4.144646 47.406108 -1.196513 -6.433111 19.163575 29.039849 5.447839 0.000000 0.000000 0.000000
