HIERARCHY
ROOT Hips
{
	OFFSET -0.001795 -0.223333 0.028219
	CHANNELS 6 Xposition Yposition Zposition Zrotation Yrotation Xrotation
	JOINT LeftUpLeg
	{
		OFFSET 0.069520 -0.091406 -0.006815
		CHANNELS 3 Zrotation Yrotation Xrotation
		JOINT LeftLeg
		{
			OFFSET 0.034277 -0.375199 -0.004496
			CHANNELS 3 Zrotation Yrotation Xrotation
			JOINT LeftFoot
			{
				OFFSET -0.013596 -0.397961 -0.043693
				CHANNELS 3 Zrotation Yrotation Xrotation
				JOINT LeftToe
				{
					OFFSET 0.026358 -0.055791 0.119288
					CHANNELS 3 Zrotation Yrotation Xrotation
					End Site
					{
						OFFSET 0.000000 0.000000 0.000000
					}
				}
			}
		}
	}
	JOINT RightUpLeg
	{
		OFFSET -0.067670 -0.090522 -0.004320
		CHANNELS 3 Zrotation Yrotation Xrotation
		JOINT RightLeg
		{
			OFFSET -0.038290 -0.382569 -0.008850
			CHANNELS 3 Zrotation Yrotation Xrotation
			JOINT RightFoot
			{
				OFFSET 0.015774 -0.398415 -0.042312
				CHANNELS 3 Zrotation Yrotation Xrotation
				JOINT RightToe
				{
					OFFSET -0.025372 -0.048144 0.123348
					CHANNELS 3 Zrotation Yrotation Xrotation
					End Site
					{
						OFFSET 0.000000 0.000000 0.000000
					}
				}
			}
		}
	}
	JOINT Spine
	{
		OFFSET -0.002533 0.108963 -0.026696
		CHANNELS 3 Zrotation Yrotation Xrotation
		JOINT Spine1
		{
			OFFSET 0.005487 0.135180 0.001092
			CHANNELS 3 Zrotation Yrotation Xrotation
			JOINT Spine2
			{
				OFFSET 0.001457 0.052922 0.025425
				CHANNELS 3 Zrotation Yrotation Xrotation
				JOINT Neck
				{
					OFFSET -0.002778 0.213870 -0.042857
					CHANNELS 3 Zrotation Yrotation Xrotation
					JOINT Head
					{
						OFFSET 0.005152 0.064970 0.051349
						CHANNELS 3 Zrotation Yrotation Xrotation
						End Site
						{
							OFFSET 0.000000 0.000000 0.000000
						}
					}
				}
				JOINT LeftShoulder
				{
					OFFSET 0.078845 0.121749 -0.034090
					CHANNELS 3 Zrotation Yrotation Xrotation
					JOINT LeftArm
					{
						OFFSET 0.090977 0.030469 -0.008868
						CHANNELS 3 Zrotation Yrotation Xrotation
						JOINT LeftForeArm
						{
							OFFSET 0.259612 -0.012772 -0.027456
							CHANNELS 3 Zrotation Yrotation Xrotation
							JOINT LeftHand
							{
								OFFSET 0.249234 0.008986 -0.001171
								CHANNELS 3 Zrotation Yrotation Xrotation
								End Site
								{
									OFFSET 0.000000 0.000000 0.000000
								}
							}
						}
					}
				}
				JOINT RightShoulder
				{
					OFFSET -0.081759 0.118833 -0.038615
					CHANNELS 3 Zrotation Yrotation Xrotation
					JOINT RightArm
					{
						OFFSET -0.096012 0.032551 -0.009143
						CHANNELS 3 Zrotation Yrotation Xrotation
						JOINT RightForeArm
						{
							OFFSET -0.253742 -0.013329 -0.021401
							CHANNELS 3 Zrotation Yrotation Xrotation
							JOINT RightHand
							{
								OFFSET -0.255298 0.007772 -0.005559
								CHANNELS 3 Zrotation Yrotation Xrotation
								End Site
								{
									OFFSET 0.000000 0.000000 0.000000
								}
							}
						}
					}
				}
			}
		}
	}
}
MOTION
Frames: 76
Frame Time: 0.050000
0.000000 0.967839 0.000000 -1.517059 -7.613703 1.388259 4.355495 0.370618 5.806378 -1.132676 0.339980 -7.490442 1.636742 7.841276 19.166420 0.000000 0.000000 0.000000 -2.810579 -0.122102 3.604980 3.343696 -0.333502 -5.316614 5.915089 3.636505 14.858384 0.000000 0.000000 0.000000 6.347445 -0.612620 5.828755 -6.675033 2.102640 -22.705096 -1.714213 8.301471 26.176462 10.728032 -3.728901 -28.004854 0.000000 0.000000 0.000000 -30.476453 -10.482880 3.676390 -42.204152 -4.439045 -5.066995 -7.280864 -23.335201 2.422883 0.000000 0.000000 0.000000 38.600601 -2.469938 -3.219803 49.145984 3.096333 -6.214986 7.023840 26.007919 2.867771 0.000000 0.000000 0.000000
0.000338 0.967012 -0.000685 -1.505093 -7.928384 1.929380 4.805940 0.347919 5.769052 -1.748419 0.401454 -8.305791 1.173211 7.095145 19.068659 0.000000 0.000000 0.000000 -2.590610 -0.039967 2.202459 3.309596 -0.323936 -4.416037 5.341721 2.495041 14.877677 0.000000 0.000000 0.000000 6.500772 -0.539955 4.848600 -7.073000 2.238573 -21.235229 -1.840313 8.291536 24.447682 10.262965 -3.474222 -27.654808 0.000000 0.000000 0.000000 -29.797787 -10.248354 3.527561 -42.522384 -4.096971 -5.102477 -8.145848 -23.699236 2.637990 0.000000 0.000000 0.000000 37.227915 -3.268080 -3.910559 51.150789 1.519225 -6.795315 7.140376 27.550390 3.089874 0.000000 0.000000 0.000000
0.000691 0.966440 -0.001301 -0.973123 -7.413954 2.009825 4.702374 0.304662 5.161076 -2.289275 0.405145 -7.337582 0.486328 5.920607 17.929445 0.000000 0.000000 0.000000 -2.416661 -0.044162 2.059144 2.659053 -0.300058 -4.624872 4.147120 0.496244 14.630494 0.000000 0.000000 0.000000 6.385015 -0.472619 4.154627 -7.200750 2.247411 -22.471251 -1.496266 7.725505 26.015930 9.990569 -3.525302 -27.203373 0.000000 0.000000 0.000000 -29.484648 -10.408780 3.878922 -42.646277 -5.233012 -4.948538 -8.321678 -22.635988 2.568349 0.000000 0.000000 0.000000 36.444194 -2.330131 -3.149164 51.303827 1.982777 -6.757319 5.648263 25.403771 2.492056 0.000000 0.000000 0.000000
0.000962 0.966995 -0.001826 -0.937652 -8.125973 2.425110 4.535164 0.351803 5.656135 -2.360881 0.444547 -8.625965 0.803104 6.293961 18.001409 0.000000 0.000000 0.000000 -2.821588 0.023103 1.552662 3.388057 -0.326267 -5.008414 4.280803 0.222540 15.405575 0.000000 0.000000 0.000000 6.657559 -0.442624 3.662862 -7.282509 2.230512 -23.132612 -1.550557 8.819406 26.485218 10.537931 -3.729470 -27.364480 0.000000 0.000000 0.000000 -29.841378 -10.662495 3.823786 -42.380378 -4.754917 -5.028097 -8.712118 -22.823145 2.654852 0.000000 0.000000 0.000000 37.777218 -2.782855 -3.302999 50.258109 2.097753 -6.760668 5.437503 24.348773 2.356545 0.000000 0.000000 0.000000
0.001276 0.966801 -0.002432 -0.811084 -8.077443 2.346989 4.299520 0.376240 5.856696 -2.486839 0.452788 -8.715338 1.162635 6.723003 17.420411 0.000000 0.000000 0.000000 -2.926160 0.029826 1.539798 3.397754 -0.327648 -5.197191 4.159999 -0.201665 15.832349 0.000000 0.000000 0.000000 6.688916 -0.393632 3.163142 -7.043578 2.193095 -22.431978 -1.748438 8.932514 25.856555 10.116320 -3.547434 -26.661850 0.000000 0.000000 0.000000 -29.711477 -10.257228 3.436695 -42.630079 -4.796618 -4.955710 -9.079667 -22.528645 2.683796 0.000000 0.000000 0.000000 37.215794 -2.431674 -2.886236 50.569931 2.287234 -6.687255 5.145353 22.498324 2.082037 0.000000 0.000000 0.000000
0.001709 0.966880 -0.003249 -0.667754 -8.435057 2.491785 4.174552 0.404162 6.101523 -2.669431 0.484176 -9.515184 1.260121 6.908206 17.882777 0.000000 0.000000 0.000000 -3.096533 0.052163 1.418815 3.682721 -0.333793 -5.309706 3.804784 -0.723641 15.474282 0.000000 0.000000 0.000000 6.662330 -0.365876 2.865424 -7.105043 2.187679 -22.852773 -1.579600 9.372280 25.985329 10.291389 -3.560549 -27.014852 0.000000 0.000000 0.000000 -29.350988 -10.161193 3.310351 -42.976085 -4.953814 -4.936899 -9.368805 -21.345074 2.584403 0.000000 0.000000 0.000000 37.148404 -2.505560 -2.842863 50.299580 2.484339 -6.619763 4.961596 21.142000 1.899474 0.000000 0.000000 0.000000
0.002251 0.966559 -0.004259 -0.548585 -8.553936 2.576062 3.886070 0.410112 5.973177 -2.810859 0.493258 -9.564154 1.873747 7.772723 17.716469 0.000000 0.000000 0.000000 -2.990287 0.047294 1.416968 3.932279 -0.338847 -5.812255 2.836951 -2.514755 15.562684 0.000000 0.000000 0.000000 6.645925 -0.353201 2.728962 -7.164126 2.189894 -23.223974 -1.399425 9.560324 26.335416 10.402233 -3.618715 -27.049244 0.000000 0.000000 0.000000 -29.233212 -9.964781 3.169234 -43.548174 -4.920005 -5.036352 -8.984952 -20.387296 2.397711 0.000000 0.000000 0.000000 36.915076 -2.423724 -2.690502 50.553789 2.591854 -6.653372 4.331882 20.437227 1.727433 0.000000 0.000000 0.000000
0.003011 0.966496 -0.005346 -0.396103 -7.831491 2.721889 3.482143 0.380136 5.476201 -2.746531 0.481359 -9.508925 2.309521 8.537476 17.822081 0.000000 0.000000 0.000000 -2.440100 0.026878 1.161965 3.498543 -0.333932 -5.916612 1.320381 -5.105104 15.650706 0.000000 0.000000 0.000000 6.445548 -0.308945 2.289371 -7.102148 2.189014 -23.178603 -1.188509 9.291416 26.377764 10.428418 -3.719457 -26.413865 0.000000 0.000000 0.000000 -28.605863 -10.181894 3.243986 -44.718226 -5.015368 -5.118121 -8.513863 -18.695693 2.109287 0.000000 0.000000 0.000000 36.786000 -1.957818 -2.195631 50.520939 2.859931 -6.584719 3.792467 19.174803 1.515464 0.000000 0.000000 0.000000
0.004376 0.966865 -0.006330 -0.227382 -7.065326 2.961272 3.424645 0.318559 4.774346 -3.323213 0.492264 -9.127366 2.541384 8.966402 17.683897 0.000000 0.000000 0.000000 -2.015018 0.019262 0.897233 2.744919 -0.318656 -6.174414 0.424232 -6.702511 16.111799 0.000000 0.000000 0.000000 6.254060 -0.287396 2.052111 -7.106051 2.196870 -23.405786 -0.848885 9.223845 26.616312 10.795280 -3.883029 -26.415748 0.000000 0.000000 0.000000 -28.442447 -10.269938 3.135011 -44.986035 -4.916264 -5.152250 -8.747571 -17.427082 1.985768 0.000000 0.000000 0.000000 36.944157 -1.964058 -1.970797 49.863304 3.083471 -6.531650 4.230416 18.559997 1.522939 0.000000 0.000000 0.000000
0.006594 0.967093 -0.007271 -0.196318 -6.855290 3.132309 3.181426 0.298202 4.415317 -2.897500 0.465842 -8.897204 2.029346 8.184987 17.425786 0.000000 0.000000 0.000000 -1.879459 0.053495 0.353981 2.157144 -0.297672 -5.917959 0.363814 -6.967308 16.668329 0.000000 0.000000 0.000000 6.278251 -0.304758 2.187926 -7.242076 2.221293 -23.877489 -0.471989 8.849535 26.584485 10.419588 -3.723312 -26.252138 0.000000 0.000000 0.000000 -28.781623 -9.998897 3.046854 -45.706985 -5.445846 -5.056424 -7.989680 -14.872678 1.590615 0.000000 0.000000 0.000000 36.397744 -1.282234 -1.511234 50.255974 3.361459 -6.414869 3.835399 17.313916 1.336426 0.000000 0.000000 0.000000
0.009553 0.967411 -0.008058 -0.156011 -6.627406 3.199177 3.360178 0.260690 4.042225 -2.973920 0.463056 -8.651944 1.000156 6.748231 17.748089 0.000000 0.000000 0.000000 -1.696707 0.091541 -0.240717 1.301484 -0.254587 -5.314875 0.392933 -7.038669 17.117557 0.000000 0.000000 0.000000 6.223540 -0.347927 2.636830 -6.855742 2.127254 -23.907172 -0.466233 8.890347 26.113168 10.451244 -3.757289 -25.919442 0.000000 0.000000 0.000000 -29.442348 -10.507716 3.247505 -45.459992 -5.067728 -5.073067 -7.961889 -13.683504 1.447390 0.000000 0.000000 0.000000 37.139130 -0.545831 -0.898062 48.978775 4.461904 -5.883128 3.943971 15.619650 1.175503 0.000000 0.000000 0.000000
0.013336 0.967497 -0.008535 -0.437917 -6.772119 3.110845 3.220139 0.242552 3.693735 -2.046281 0.392731 -7.605334 0.209622 5.340824 16.895876 0.000000 0.000000 0.000000 -1.294523 0.127211 -0.869574 1.107711 -0.229520 -4.634681 -0.299621 -8.496072 18.008081 0.000000 0.000000 0.000000 6.599024 -0.363809 2.697903 -6.913067 2.160966 -23.206781 -0.071910 8.382787 25.140379 10.260068 -3.337545 -27.958108 0.000000 0.000000 0.000000 -30.282883 -9.718898 2.875286 -45.870685 -5.089889 -5.040590 -7.841522 -12.750889 1.336784 0.000000 0.000000 0.000000 37.067110 -0.284933 -1.063074 49.651092 4.528889 -5.686021 2.948945 14.625797 0.965658 0.000000 0.000000 0.000000
0.018479 0.967353 -0.008569 -0.606204 -6.728109 2.976439 2.688212 0.290716 4.072121 -0.619195 0.293229 -7.099573 -1.001051 2.918971 14.791212 0.000000 0.000000 0.000000 -1.731327 0.129388 -0.702827 1.684859 -0.261804 -4.830934 -0.394367 -8.773013 18.498962 0.000000 0.000000 0.000000 6.354674 -0.407661 3.266678 -6.240799 1.982652 -23.672483 -0.248817 8.214706 25.110185 11.341858 -3.725701 -29.364715 0.000000 0.000000 0.000000 -30.797870 -10.447210 3.411243 -45.671896 -5.099587 -5.019498 -7.517878 -12.484053 1.272295 0.000000 0.000000 0.000000 37.057332 -0.034457 -0.927290 50.297343 5.397595 -5.381877 2.427604 13.891262 0.855311 0.000000 0.000000 0.000000
0.026182 0.967819 -0.008817 -1.136432 -5.613439 3.128715 3.000793 0.194689 3.100175 0.248610 0.167916 -5.354970 -2.879956 -0.514092 13.107037 0.000000 0.000000 0.000000 -1.277441 0.164238 -1.330787 1.250809 -0.231245 -4.188185 -1.152178 -10.120254 19.734685 0.000000 0.000000 0.000000 6.539293 -0.386443 2.909874 -7.049963 2.244619 -22.423041 -0.222228 6.458546 24.285108 11.317503 -3.774305 -29.675311 0.000000 0.000000 0.000000 -29.862090 -9.441613 3.125680 -46.693124 -5.989027 -4.851404 -7.236744 -12.367663 1.237445 0.000000 0.000000 0.000000 36.565258 0.398169 -1.134640 52.330844 5.822760 -5.073397 1.138339 13.257906 0.679175 0.000000 0.000000 0.000000
0.040015 0.967642 -0.011437 -1.973241 -7.450111 3.584243 2.713687 0.082877 1.342585 0.411032 0.039714 -2.484704 -1.680372 0.557602 11.073212 0.000000 0.000000 0.000000 -1.904535 0.404659 -3.944681 2.247338 -0.208577 -0.562626 -0.317128 -8.750045 18.394013 0.000000 0.000000 0.000000 6.953500 -0.475702 3.610689 -6.631444 2.066587 -23.613105 0.178837 7.230785 24.671644 10.064239 -2.998186 -30.646427 0.000000 0.000000 0.000000 -29.915224 -9.269352 3.249691 -46.183760 -6.006789 -4.905676 -8.829429 -12.984269 1.484891 0.000000 0.000000 0.000000 34.692151 -0.307631 -1.747630 53.698619 6.978139 -4.611368 1.588585 14.858328 0.831390 0.000000 0.000000 0.000000
0.063539 0.969966 -0.017727 -2.910946 -7.704185 3.804598 4.298053 -0.165355 -2.729396 -3.268068 0.431997 5.169563 -1.204928 0.017186 6.907364 0.000000 0.000000 0.000000 -2.799811 0.676284 -7.169377 2.176066 -0.108666 3.187751 1.164868 -7.351638 21.361756 0.000000 0.000000 0.000000 6.486880 -0.671538 5.860133 -6.176024 1.936916 -23.982298 0.081891 7.251574 23.780179 11.361601 -3.465933 -31.661826 0.000000 0.000000 0.000000 -28.143836 -8.916251 3.021191 -47.552599 -7.863743 -4.264579 -9.639957 -16.204730 1.999923 0.000000 0.000000 0.000000 33.684127 -0.140895 -1.602854 55.013116 7.630329 -4.273074 -0.518581 17.099031 0.726131 0.000000 0.000000 0.000000
0.099185 0.970264 -0.027442 -4.151220 -8.282418 3.797536 8.088300 -0.116772 -7.823499 -5.326942 1.142700 14.406873 0.290948 2.838768 7.108755 0.000000 0.000000 0.000000 -3.783344 0.910686 -10.284734 1.751415 0.077235 6.951606 2.758831 -5.878398 24.001559 0.000000 0.000000 0.000000 6.093675 -0.875170 8.538976 -6.148287 1.903369 -25.286756 0.991967 7.764835 23.493040 9.848629 -2.474896 -32.698253 0.000000 0.000000 0.000000 -26.445098 -10.234606 3.825984 -46.550755 -9.813106 -3.449936 -11.583419 -20.962531 2.984671 0.000000 0.000000 0.000000 30.875636 1.245063 -0.356032 54.557308 8.780237 -3.709072 -0.381690 20.853312 0.941695 0.000000 0.000000 0.000000
0.149306 0.970648 -0.039107 -5.581750 -7.825176 3.284296 10.873397 0.161495 -10.860552 -5.262696 1.418169 21.063405 10.075095 20.166743 9.780287 0.000000 0.000000 0.000000 -5.671021 0.962465 -12.296886 1.937428 0.142223 9.500507 3.683795 -5.052918 26.040939 0.000000 0.000000 0.000000 5.081729 -0.952155 10.758139 -4.981309 1.641705 -24.010775 1.064907 9.444560 21.720356 11.377230 -3.138505 -31.057992 0.000000 0.000000 0.000000 -25.662408 -15.389672 6.136090 -39.362613 -14.087057 -1.333876 -13.013548 -27.240924 4.109664 0.000000 0.000000 0.000000 26.263329 1.982735 1.055014 49.720560 8.576489 -3.643373 0.213511 24.919768 1.311828 0.000000 0.000000 0.000000
0.212422 0.967862 -0.049716 -6.578556 -6.023577 1.727549 12.023739 0.215194 -9.838218 -4.480680 0.898150 17.459760 20.071085 32.333551 21.611357 0.000000 0.000000 0.000000 -9.485011 0.717157 -13.661319 2.538364 0.083546 11.980048 3.974916 -5.396983 29.853633 0.000000 0.000000 0.000000 4.277873 -1.086105 13.943492 -4.504408 1.552722 -25.909163 1.366724 10.523657 24.481472 12.098945 -3.163001 -31.771403 0.000000 0.000000 0.000000 -18.924463 -20.278819 7.976484 -34.101026 -21.347095 0.428561 -8.279086 -33.631624 3.502649 0.000000 0.000000 0.000000 22.621734 2.339236 2.175995 42.300754 5.858706 -4.711807 -2.944539 24.993085 0.726523 0.000000 0.000000 0.000000
0.283425 0.958817 -0.060159 -7.596730 -3.393740 0.795249 11.907596 0.118052 -10.151942 -4.364230 0.718254 17.446858 20.857730 33.400779 21.316700 0.000000 0.000000 0.000000 -11.657856 0.464389 -18.568322 1.374319 0.571910 19.935522 0.596234 -9.328351 29.855857 0.000000 0.000000 0.000000 5.395254 -1.551654 17.279223 -5.016812 1.704585 -26.005266 0.263409 10.054988 23.691048 10.625933 -2.326882 -30.817745 0.000000 0.000000 0.000000 -13.373129 -25.473435 9.747835 -23.659408 -27.491890 0.850682 -1.122382 -39.751027 1.312062 0.000000 0.000000 0.000000 18.586418 3.067611 2.704181 35.423970 -0.892586 -5.760535 -2.782639 22.167575 0.548521 0.000000 0.000000 0.000000
0.355460 0.950629 -0.072372 -8.339975 2.512627 -1.917522 9.454387 -0.250648 -11.109003 -4.653939 0.446610 21.151389 15.181757 27.962308 11.692812 0.000000 0.000000 0.000000 -14.359407 -0.578018 -23.497022 2.232929 0.081770 35.894362 -2.634825 -11.361050 21.936827 0.000000 0.000000 0.000000 7.152763 -2.578468 22.205271 -7.484825 2.388967 -25.618765 -0.022686 6.185838 24.014865 10.046684 -2.243883 -30.191372 0.000000 0.000000 0.000000 -5.440688 -30.000711 10.569729 -11.135251 -34.899204 -0.588632 11.322635 -39.553489 -3.362132 0.000000 0.000000 0.000000 16.189800 2.892143 2.372555 29.488877 -9.336095 -6.377874 0.749488 16.942577 0.728833 0.000000 0.000000 0.000000
0.424225 0.950468 -0.084988 -9.290539 6.953963 -3.113644 7.114702 -0.533163 -11.407665 -4.313166 0.041826 21.230332 10.117164 20.679176 8.423314 0.000000 0.000000 0.000000 -14.503787 -1.584283 -30.843823 2.447634 -1.440475 54.887848 -2.583870 -9.890290 15.520320 0.000000 0.000000 0.000000 8.385358 -3.710834 26.187086 -6.960150 2.283783 -26.577213 -1.315247 4.516302 25.589815 8.626024 -1.131580 -31.898640 0.000000 0.000000 0.000000 2.507415 -29.444236 8.990103 0.756571 -37.340182 -3.438842 24.573546 -43.263293 -9.636383 0.000000 0.000000 0.000000 15.371506 1.345015 1.723929 27.058042 -15.847234 -6.923293 6.320027 15.996385 1.312619 0.000000 0.000000 0.000000
0.490863 0.956536 -0.096640 -9.754534 8.694758 -3.281983 4.253547 -0.809386 -12.098420 -4.612637 0.025667 20.683668 7.106427 16.650418 12.028227 0.000000 0.000000 0.000000 -11.933840 -1.463710 -36.673600 1.105529 -1.727477 68.869600 -1.848901 -7.868833 11.497064 0.000000 0.000000 0.000000 9.924584 -4.460925 27.335320 -6.123145 2.169436 -25.881663 -2.624312 4.376981 25.208862 10.588919 -2.502025 -29.111323 0.000000 0.000000 0.000000 6.892764 -25.854398 7.463721 8.511475 -39.898179 -6.063952 29.283501 -43.828483 -12.111995 0.000000 0.000000 0.000000 15.777423 0.413561 1.398564 24.964403 -20.483053 -6.922960 11.917864 16.551709 2.057329 0.000000 0.000000 0.000000
0.557235 0.961333 -0.108920 -8.686322 10.377561 -2.165434 -0.436456 -1.195906 -12.114047 -4.815432 0.060999 18.857431 3.545722 11.827191 13.409349 0.000000 0.000000 0.000000 -8.857212 -0.975582 -42.670805 2.491412 -4.084284 76.955264 -1.897031 -6.462488 5.405039 0.000000 0.000000 0.000000 10.406245 -4.933496 28.246733 -5.390417 1.953074 -27.337001 -1.810120 3.639573 26.894792 10.813234 -2.853546 -28.150572 0.000000 0.000000 0.000000 8.722082 -23.497358 6.735604 10.510427 -38.253633 -6.339369 39.384398 -47.149802 -18.302989 0.000000 0.000000 0.000000 13.600040 -2.076901 0.020506 27.664819 -23.929248 -8.305731 19.399917 19.313719 3.749798 0.000000 0.000000 0.000000
0.624763 0.957641 -0.122883 -7.467727 12.065509 -0.423172 -4.652195 -1.571775 -12.252423 -4.622428 0.060480 15.891178 -2.578586 3.865221 16.187570 0.000000 0.000000 0.000000 -5.604141 -0.228597 -47.857404 6.185074 -8.554693 79.138461 -4.864113 -11.608193 -0.891361 0.000000 0.000000 0.000000 11.263998 -5.781662 30.045864 -4.926071 1.848595 -27.600721 -1.820920 1.532149 25.488714 10.520626 -3.475428 -25.013118 0.000000 0.000000 0.000000 10.537517 -21.027165 6.009293 3.582391 -36.334117 -4.189977 50.377567 -50.980574 -25.713645 0.000000 0.000000 0.000000 12.437121 -3.696848 -1.086260 30.357474 -27.791012 -9.757592 23.366953 22.098021 5.210302 0.000000 0.000000 0.000000
0.694318 0.945615 -0.138901 -5.501837 13.118796 1.591441 -10.414059 -2.359124 -13.408108 -3.570982 -0.183472 15.592680 -8.030303 -3.641789 17.671026 0.000000 0.000000 0.000000 -1.357946 1.306320 -53.488759 9.533641 -11.580243 77.542058 -5.740368 -13.847375 0.165368 0.000000 0.000000 0.000000 11.924149 -6.589016 31.907176 -4.599990 1.701148 -29.546479 -0.203960 -0.452894 26.133390 9.385637 -3.905691 -20.787368 0.000000 0.000000 0.000000 9.138126 -20.828068 6.005096 0.650425 -34.819793 -3.274055 56.595459 -49.796914 -27.974463 0.000000 0.000000 0.000000 12.646038 -4.996676 -1.993542 31.569916 -31.888987 -11.022641 27.174203 24.952415 6.746062 0.000000 0.000000 0.000000
0.766604 0.931482 -0.155479 -3.315805 14.970549 4.209999 -14.993288 -3.030357 -13.970000 -5.808979 0.280594 13.481347 -12.565817 -7.856541 21.809838 0.000000 0.000000 0.000000 1.530010 2.184713 -55.811371 11.734663 -11.984358 68.380070 -6.004058 -14.727788 4.194689 0.000000 0.000000 0.000000 12.935681 -7.412357 32.627757 -3.425304 1.556621 -28.494153 -0.805413 -1.972430 23.879075 9.727185 -4.380495 -19.872380 0.000000 0.000000 0.000000 5.847866 -21.268162 6.569249 -0.286475 -36.311719 -3.206956 58.787347 -48.631640 -27.847841 0.000000 0.000000 0.000000 15.033276 -6.253830 -2.964038 29.923456 -32.679598 -10.308531 29.278991 26.762381 7.699852 0.000000 0.000000 0.000000
0.839544 0.915537 -0.169829 -1.481545 14.923347 6.662479 -17.861503 -4.797061 -18.648811 -10.101229 1.059458 16.738781 -15.812880 -7.854201 29.726376 0.000000 0.000000 0.000000 5.573432 4.178532 -55.004696 11.412873 -9.181581 56.987751 -4.319937 -12.017375 11.439042 0.000000 0.000000 0.000000 13.840851 -8.238881 34.150159 -3.536342 1.596854 -27.820077 -0.344297 -1.689938 22.531369 7.417416 -3.635113 -15.014990 0.000000 0.000000 0.000000 3.037836 -21.557717 7.043623 -1.293424 -38.202957 -3.208411 65.472183 -47.435876 -30.463608 0.000000 0.000000 0.000000 19.493589 -6.574479 -3.502406 27.599499 -31.616173 -9.125912 27.856123 25.802526 6.944331 0.000000 0.000000 0.000000
0.908718 0.901212 -0.178580 0.808442 16.449590 9.028438 -17.906558 -6.556897 -23.958039 -20.022609 3.371553 24.078410 -14.203649 -5.086161 31.415365 0.000000 0.000000 0.000000 9.481839 5.309593 -50.508040 7.877546 -5.271132 44.981205 -5.092213 -13.225407 14.780575 0.000000 0.000000 0.000000 15.489548 -9.745432 35.834467 -3.957891 1.706363 -27.660494 -1.940071 -0.433564 21.113125 9.751544 -4.915633 -15.306712 0.000000 0.000000 0.000000 -0.448304 -23.660022 8.134296 -1.438998 -41.889388 -3.653797 69.797699 -49.706880 -34.440236 0.000000 0.000000 0.000000 23.129280 -4.626893 -2.166553 30.258829 -30.142327 -9.829694 24.728478 25.114640 6.074072 0.000000 0.000000 0.000000
0.969268 0.886224 -0.181204 3.010281 17.744879 8.390072 -10.868447 -6.547606 -29.052631 -35.947439 8.449598 31.704164 -12.234026 -2.687678 32.861602 0.000000 0.000000 0.000000 10.138490 5.010636 -46.003927 4.185582 -3.130080 41.019673 -4.894670 -12.390564 12.799040 0.000000 0.000000 0.000000 15.238503 -11.213261 40.089729 -5.082474 2.032370 -25.824262 -1.166804 0.451027 17.429564 12.529238 -7.587817 -11.574298 0.000000 0.000000 0.000000 -9.478637 -25.616305 9.749398 -3.081675 -44.611657 -3.138608 70.536969 -62.004985 -43.735903 0.000000 0.000000 0.000000 25.157084 -4.298026 -1.912798 32.307057 -26.066331 -9.729984 19.850195 22.416870 4.496006 0.000000 0.000000 0.000000
1.020258 0.873119 -0.181466 4.881446 17.754334 7.066568 -2.356822 -6.068829 -35.707385 -47.034044 15.571100 41.387341 -9.650357 -2.474731 28.432356 0.000000 0.000000 0.000000 8.510639 4.324159 -44.107507 0.129549 -1.306506 43.694779 -6.982152 -16.284998 4.385575 0.000000 0.000000 0.000000 12.592929 -12.358722 47.645714 -4.521500 1.846222 -30.241690 -1.534807 2.028674 21.306889 12.657931 -6.233191 -17.862325 0.000000 0.000000 0.000000 -14.454052 -28.544840 11.596089 -7.033184 -43.777033 -1.910056 65.355191 -66.824887 -43.517110 0.000000 0.000000 0.000000 30.236247 -0.458067 1.224804 32.762844 -18.624384 -8.969577 15.359212 23.360959 3.813625 0.000000 0.000000 0.000000
1.064774 0.863042 -0.180736 5.416779 16.647873 5.788054 8.879823 -4.174762 -44.719820 -50.646297 23.148934 51.454717 -6.147450 0.542396 26.357028 0.000000 0.000000 0.000000 7.258232 4.055009 -42.242689 -1.688820 -0.351155 46.617646 -6.860221 -16.348047 -0.729517 0.000000 0.000000 0.000000 8.948211 -11.884274 53.679397 -3.545438 1.723085 -29.287503 -1.242347 3.405008 20.160215 12.992928 -6.212692 -18.723469 0.000000 0.000000 0.000000 -17.921494 -32.750970 14.225501 -9.065573 -39.794847 -0.952908 45.841441 -65.348312 -28.315066 0.000000 0.000000 0.000000 34.599168 2.937513 3.971432 30.270593 -10.108461 -6.797152 10.686134 23.591784 2.897685 0.000000 0.000000 0.000000
1.106430 0.856066 -0.177252 6.014984 12.392214 5.326286 19.487949 0.136174 -50.559341 -44.387141 24.933939 57.742300 4.428692 13.700934 24.072153 0.000000 0.000000 0.000000 4.470090 3.860355 -43.444231 -1.440393 0.228710 52.575005 -5.716580 -13.565472 -3.192870 0.000000 0.000000 0.000000 5.542175 -10.106708 59.708121 -3.387140 1.600612 -31.507188 -1.820571 5.717028 22.707362 13.939436 -6.205141 -21.771765 0.000000 0.000000 0.000000 -19.031311 -34.454241 15.288231 -9.714578 -36.353438 -0.843987 35.217716 -59.834203 -19.051542 0.000000 0.000000 0.000000 35.831002 5.502814 6.382262 30.356932 -1.197073 -5.485488 6.706216 25.300406 2.336405 0.000000 0.000000 0.000000
1.148196 0.849447 -0.171913 7.259247 8.951293 4.324622 24.547060 3.200839 -50.436028 -32.782226 18.277808 57.359524 11.234409 22.542185 19.334812 0.000000 0.000000 0.000000 0.158073 2.910489 -43.973598 -0.680441 0.588348 57.450200 -3.718436 -8.014509 -4.553629 0.000000 0.000000 0.000000 4.351528 -8.793864 63.123126 -4.939311 1.757541 -32.399527 -3.220099 4.024440 25.416236 11.453293 -4.243173 -25.950306 0.000000 0.000000 0.000000 -21.012692 -34.707364 16.733151 -8.967614 -32.849104 -1.062956 33.705673 -51.915736 -15.162463 0.000000 0.000000 0.000000 33.914532 8.744868 7.379967 32.992168 4.363096 -4.589140 4.224077 28.375992 2.144988 0.000000 0.000000 0.000000
1.191004 0.841586 -0.165839 7.033663 6.675953 4.217365 25.463418 3.980173 -47.009865 -19.095084 7.854594 46.396915 5.200577 14.491023 18.639221 0.000000 0.000000 0.000000 -3.352788 2.047321 -46.497034 1.740764 -0.480411 62.009396 -2.904119 -6.577840 -2.039879 0.000000 0.000000 0.000000 4.509471 -8.116628 63.540129 -5.158246 1.772087 -32.177565 -5.605731 2.391920 25.793315 11.581649 -4.044279 -29.140221 0.000000 0.000000 0.000000 -20.491473 -35.756637 17.859485 -10.571751 -29.049777 -0.887598 29.865235 -41.766935 -10.244769 0.000000 0.000000 0.000000 33.721626 10.624031 7.628838 32.729604 7.637917 -3.545993 4.014578 31.416525 2.322548 0.000000 0.000000 0.000000
1.234707 0.835034 -0.159031 6.364718 4.030722 3.601611 25.070189 4.020843 -41.430114 -7.175339 1.498935 35.139023 -5.391121 0.514954 22.605926 0.000000 0.000000 0.000000 -5.704425 1.682183 -46.976610 2.961634 -0.578078 64.598485 -2.735682 -5.873263 -2.846734 0.000000 0.000000 0.000000 4.365494 -7.132319 64.264161 -6.588076 1.905334 -33.517150 -6.206978 -0.074370 27.901351 12.290176 -4.266490 -33.329459 0.000000 0.000000 0.000000 -20.566000 -34.964990 18.382537 -10.689906 -26.709681 -1.068773 28.319844 -34.155260 -7.667844 0.000000 0.000000 0.000000 30.106206 12.824624 7.369021 37.279077 9.161287 -3.142611 4.549443 35.480163 2.834164 0.000000 0.000000 0.000000
1.279164 0.832353 -0.150664 4.722481 1.839248 3.845526 24.039859 3.843000 -38.241274 -0.939386 -0.871854 31.919545 -10.888649 -6.275196 24.944725 0.000000 0.000000 0.000000 -6.112849 1.988767 -46.303689 2.874823 0.194038 64.000307 -3.426871 -7.120800 -4.669779 0.000000 0.000000 0.000000 3.779869 -5.722365 62.235612 -5.712480 1.720048 -33.919418 -7.193952 0.440039 29.014304 13.066991 -4.838942 -32.855469 0.000000 0.000000 0.000000 -23.009544 -35.660210 19.587793 -9.545332 -23.633275 -1.223821 24.818024 -27.612858 -5.324140 0.000000 0.000000 0.000000 34.797814 13.150444 7.998513 35.060971 9.975298 -2.935022 3.845946 38.415363 2.871618 0.000000 0.000000 0.000000
1.324112 0.833976 -0.141466 2.869706 -0.652164 4.302379 24.319384 4.298516 -36.669341 -0.367459 -0.903411 33.553962 -10.484597 -4.129099 28.800504 0.000000 0.000000 0.000000 -7.270084 2.052793 -45.633435 2.520022 1.239738 62.902845 -1.663598 -1.488894 -5.744372 0.000000 0.000000 0.000000 2.800015 -4.137768 60.684712 -6.087930 1.752024 -33.027845 -7.445532 -0.466377 27.716186 15.403056 -6.495425 -31.249579 0.000000 0.000000 0.000000 -20.426808 -33.989938 18.231514 -12.166088 -23.033753 -1.088741 22.803342 -24.605395 -4.193316 0.000000 0.000000 0.000000 35.970757 13.084370 7.124342 34.611460 9.897227 -2.572423 6.624929 40.044349 3.900313 0.000000 0.000000 0.000000
1.369061 0.839666 -0.132691 1.390235 -2.386919 4.600779 23.434087 4.384528 -36.516662 -0.272207 -0.849709 38.894593 -8.332848 -2.181606 27.269556 0.000000 0.000000 0.000000 -7.834599 2.119022 -43.846813 2.039079 2.006386 59.921318 -1.206137 -1.323459 -3.558368 0.000000 0.000000 0.000000 1.758318 -2.802036 57.705890 -6.074899 1.719721 -32.919866 -6.617265 0.120873 28.009464 14.112456 -5.743463 -31.647735 0.000000 0.000000 0.000000 -24.304951 -33.435884 19.235094 -11.757434 -20.981514 -1.226300 20.858411 -23.104811 -3.538180 0.000000 0.000000 0.000000 37.622936 12.411854 6.701573 34.620263 9.235628 -2.768093 6.581619 40.832466 4.017419 0.000000 0.000000 0.000000
1.414157 0.847672 -0.124681 0.198917 -4.507205 4.952613 21.443099 4.125136 -36.070922 0.066441 -0.719398 42.475705 -4.570594 1.859121 25.617812 0.000000 0.000000 0.000000 -9.343041 1.924448 -42.226401 2.216864 2.248267 55.867445 -0.793171 -1.664224 -0.796312 0.000000 0.000000 0.000000 1.622576 -1.997136 54.027586 -6.271741 1.747460 -31.569197 -7.004324 0.841311 26.986660 15.862438 -6.804328 -31.115150 0.000000 0.000000 0.000000 -27.273565 -32.282955 19.489570 -12.798243 -18.300168 -1.290298 18.468260 -23.721733 -3.132681 0.000000 0.000000 0.000000 41.760647 12.331400 6.685065 31.353879 7.179078 -2.900848 7.559298 42.586876 4.491461 0.000000 0.000000 0.000000
1.458334 0.855395 -0.117751 -0.839509 -6.675833 5.411441 19.962197 4.073949 -36.078526 -0.559800 0.062933 45.810213 -1.007372 6.042731 24.892339 0.000000 0.000000 0.000000 -10.447143 1.915537 -41.214847 2.125037 2.665074 53.092350 -0.862383 -2.610157 0.626645 0.000000 0.000000 0.000000 1.505891 -1.340932 50.667186 -8.025426 2.027527 -31.221928 -5.871570 1.285476 26.983855 16.711866 -7.174628 -31.869384 0.000000 0.000000 0.000000 -28.713175 -31.112894 19.408740 -14.669951 -16.934483 -1.400581 16.926487 -24.035903 -2.829454 0.000000 0.000000 0.000000 43.154175 11.878570 5.961319 30.449236 6.792476 -2.816144 7.902303 42.578933 4.586684 0.000000 0.000000 0.000000
1.499267 0.866706 -0.112709 -1.640791 -7.579529 5.529663 18.216594 3.546796 -35.239410 -1.324485 0.735813 46.463667 0.814953 7.184930 19.685666 0.000000 0.000000 0.000000 -11.774959 1.617524 -40.118864 2.466650 2.329700 48.961530 -0.566298 -4.319109 5.613144 0.000000 0.000000 0.000000 1.735209 -1.247005 46.885001 -8.557108 2.186210 -29.530330 -5.885626 1.295156 26.096627 16.570689 -7.101538 -31.754776 0.000000 0.000000 0.000000 -28.579951 -29.490979 18.479818 -17.296164 -16.043591 -1.487888 14.538688 -24.890126 -2.374166 0.000000 0.000000 0.000000 44.989394 11.128907 4.876518 30.337860 5.629099 -2.857479 7.860650 42.667843 4.579779 0.000000 0.000000 0.000000
1.534374 0.884068 -0.108785 -2.028759 -8.750556 5.815663 16.994225 3.070207 -33.081958 -3.563122 2.136686 43.521813 3.349183 10.278927 18.001803 0.000000 0.000000 0.000000 -12.329285 1.559577 -38.167338 2.332796 2.289849 44.583780 -0.613271 -5.538415 7.951441 0.000000 0.000000 0.000000 1.331207 -0.850609 43.734847 -8.242314 2.133864 -29.391820 -5.442845 2.124414 26.065816 15.975447 -6.656565 -31.977814 0.000000 0.000000 0.000000 -27.174345 -28.085586 17.133210 -21.257481 -15.543073 -1.603498 12.927379 -26.200786 -2.080079 0.000000 0.000000 0.000000 45.073041 10.472407 4.295411 30.591165 6.251010 -2.738245 7.947304 42.617526 4.626132 0.000000 0.000000 0.000000
1.563223 0.908084 -0.105227 -2.832628 -9.083208 6.692301 16.512071 2.625232 -30.294161 -5.012801 2.565144 37.731316 3.409613 10.258106 18.175602 0.000000 0.000000 0.000000 -12.793656 1.432925 -36.542975 3.363255 1.436894 39.526977 -0.615984 -7.141457 11.895317 0.000000 0.000000 0.000000 1.425305 -0.886414 39.884552 -7.779493 2.082957 -28.053555 -4.999895 2.227334 24.859377 14.897995 -6.088562 -31.530253 0.000000 0.000000 0.000000 -26.337441 -25.455193 15.334448 -24.766575 -14.656283 -1.788484 10.496548 -26.743732 -1.489649 0.000000 0.000000 0.000000 43.514586 9.218756 2.927465 33.451461 6.263719 -2.803721 8.522123 40.514990 4.586489 0.000000 0.000000 0.000000
1.587787 0.931777 -0.101467 -2.896507 -9.181026 7.179016 15.437132 2.025809 -27.588519 -6.998505 2.962791 31.350445 4.937627 12.687302 21.787834 0.000000 0.000000 0.000000 -12.564137 1.413175 -34.413306 4.357593 0.792044 35.853086 -1.026815 -8.699320 14.042885 0.000000 0.000000 0.000000 1.754123 -1.015595 36.909138 -7.862571 2.082619 -28.789582 -4.544609 2.528882 25.694723 15.037420 -6.222162 -31.615520 0.000000 0.000000 0.000000 -26.955279 -23.459167 14.246602 -26.742514 -13.945090 -2.046977 7.818275 -26.732806 -0.841812 0.000000 0.000000 0.000000 43.967650 8.562708 2.335249 33.995399 6.629071 -2.809420 9.377375 38.708218 4.665776 0.000000 0.000000 0.000000
1.609238 0.948564 -0.097439 -3.103464 -8.226078 6.987589 14.119648 1.368663 -25.241187 -7.680826 2.725731 26.883461 5.760518 13.994453 23.563423 0.000000 0.000000 0.000000 -12.821509 1.122876 -31.809300 5.432773 0.090502 32.509925 -1.811162 -10.935317 17.571677 0.000000 0.000000 0.000000 1.666462 -1.100796 34.077334 -6.656625 1.896150 -27.890873 -4.455932 2.885618 25.812086 14.221072 -5.293652 -33.610457 0.000000 0.000000 0.000000 -27.346220 -21.401398 12.753369 -29.317457 -12.711500 -2.366421 5.391160 -27.005773 -0.245318 0.000000 0.000000 0.000000 42.963358 7.199287 1.606269 36.042201 7.025018 -2.978665 9.104289 36.893078 4.389286 0.000000 0.000000 0.000000
1.627841 0.956932 -0.093174 -2.869257 -6.912745 6.796530 12.654798 0.824314 -24.170100 -7.801249 2.454343 24.710151 5.296210 13.619983 24.154334 0.000000 0.000000 0.000000 -12.108299 1.031154 -29.341260 5.543877 -0.137405 30.942115 -3.088803 -12.873520 17.519422 0.000000 0.000000 0.000000 2.363050 -1.427094 31.581770 -5.787006 1.745105 -27.620736 -4.472505 3.149185 26.680691 13.693829 -4.819268 -34.258782 0.000000 0.000000 0.000000 -27.484628 -19.803918 11.450876 -31.566762 -11.450587 -2.742425 3.981462 -26.969532 0.110286 0.000000 0.000000 0.000000 40.908860 6.220040 1.433037 37.984744 7.556081 -3.201490 8.531881 34.661381 3.989068 0.000000 0.000000 0.000000
1.643070 0.961693 -0.088519 -3.132831 -6.365564 6.650949 11.862383 0.527446 -22.405800 -7.894899 2.282126 22.631448 5.178379 13.361009 22.327174 0.000000 0.000000 0.000000 -9.694097 1.316800 -26.583556 6.044633 -0.383271 29.640024 -2.538869 -11.728958 16.718041 0.000000 0.000000 0.000000 2.326116 -1.387160 28.590932 -4.725393 1.541128 -27.269141 -3.441942 4.311800 27.450040 12.981836 -4.114141 -35.407116 0.000000 0.000000 0.000000 -28.924051 -18.276390 10.182675 -33.062355 -10.298472 -3.063563 2.409279 -26.461009 0.480824 0.000000 0.000000 0.000000 39.242475 5.355917 1.583862 38.815306 7.770267 -3.485842 7.665084 31.682406 3.416114 0.000000 0.000000 0.000000
1.654783 0.964677 -0.083205 -2.623770 -5.937594 6.525777 10.518043 0.164669 -20.339208 -7.415376 1.876434 19.442430 4.146382 12.011196 22.133411 0.000000 0.000000 0.000000 -7.763890 1.420252 -23.319976 5.933298 -0.390465 28.497436 0.087154 -6.853546 15.710676 0.000000 0.000000 0.000000 2.945193 -1.496257 26.225797 -5.803117 1.768965 -27.701856 -2.579389 4.485164 28.148611 12.015283 -3.823728 -34.408921 0.000000 0.000000 0.000000 -30.040505 -16.828188 9.248581 -33.526568 -8.836023 -3.473965 0.613674 -25.883030 0.878625 0.000000 0.000000 0.000000 38.083085 4.619146 1.256900 40.388838 6.911288 -3.967639 6.926812 28.944842 2.932941 0.000000 0.000000 0.000000
1.663642 0.967818 -0.077158 -2.359882 -6.119238 6.555596 9.150289 -0.104161 -17.674964 -6.952128 1.491319 14.855796 5.052311 13.249451 23.159725 0.000000 0.000000 0.000000 -5.424870 1.519349 -19.984176 6.127196 -0.472790 25.388221 -0.228398 -7.073049 14.486436 0.000000 0.000000 0.000000 3.196893 -1.468981 24.343551 -5.006623 1.588131 -29.862271 -2.570525 5.802350 29.631609 13.527625 -4.444127 -34.840897 0.000000 0.000000 0.000000 -31.041977 -15.143655 7.808021 -34.594135 -7.112088 -4.018854 -0.981595 -25.337315 1.215686 0.000000 0.000000 0.000000 38.660904 3.838396 1.262125 40.503345 6.281028 -4.477915 6.022607 26.836769 2.528421 0.000000 0.000000 0.000000
1.670292 0.969051 -0.070533 -1.390189 -5.799053 6.769231 7.493329 -0.365609 -15.274607 -6.253470 1.128173 11.024031 3.801957 11.504031 22.053247 0.000000 0.000000 0.000000 -4.094055 1.371813 -16.483955 5.198869 -0.305295 20.362370 -2.653167 -11.072465 13.270495 0.000000 0.000000 0.000000 3.684097 -1.466512 21.675554 -6.582254 1.902295 -28.589194 -2.074676 5.888179 28.278217 13.010835 -4.339543 -33.459079 0.000000 0.000000 0.000000 -30.729471 -15.007634 7.511965 -36.298462 -5.265692 -4.530498 -1.576993 -23.622304 1.249960 0.000000 0.000000 0.000000 38.274763 3.062361 0.735779 42.092801 4.387920 -5.114015 5.313598 26.091673 2.315031 0.000000 0.000000 0.000000
1.675103 0.970271 -0.064659 -0.357165 -4.866005 6.606548 5.797627 -0.555946 -13.133156 -5.550627 0.846404 7.915465 2.664947 10.063218 21.681915 0.000000 0.000000 0.000000 -3.649268 1.053456 -12.371376 3.464859 -0.051012 14.641362 -4.473197 -14.010403 12.325346 0.000000 0.000000 0.000000 3.890816 -1.422328 19.608729 -7.107177 2.011005 -29.111814 -2.033500 6.055756 28.399212 13.595683 -4.642140 -33.035538 0.000000 0.000000 0.000000 -31.367400 -14.853350 7.106385 -36.979228 -3.064942 -5.098805 -2.707270 -22.717608 1.404235 0.000000 0.000000 0.000000 38.997398 2.040828 0.266141 42.510410 3.497956 -5.568628 4.648580 24.894031 2.091078 0.000000 0.000000 0.000000
1.677902 0.970281 -0.060209 0.088150 -4.678175 6.617664 4.983133 -0.582863 -11.400032 -5.344712 0.753730 5.909893 2.272271 9.247591 19.896237 0.000000 0.000000 0.000000 -3.637255 0.829525 -9.472416 2.530789 -0.013705 9.368266 -5.018430 -15.117601 13.426285 0.000000 0.000000 0.000000 3.917537 -1.277758 17.067017 -7.186949 2.040543 -28.818840 -1.792178 6.306206 28.742880 12.829351 -4.349576 -32.231284 0.000000 0.000000 0.000000 -31.092622 -13.795215 6.234386 -38.433792 -2.192908 -5.531609 -3.401320 -22.307373 1.523586 0.000000 0.000000 0.000000 39.210508 1.578724 0.069432 43.138701 2.742270 -5.953556 4.232779 24.805606 2.026941 0.000000 0.000000 0.000000
1.678983 0.970332 -0.056975 0.238420 -4.793007 6.550758 4.682031 -0.540862 -9.790373 -5.072550 0.669091 3.861475 1.768981 8.417497 19.377127 0.000000 0.000000 0.000000 -3.882737 0.641551 -6.932858 2.453285 -0.116782 4.987037 -4.877492 -14.997404 14.278985 0.000000 0.000000 0.000000 3.960060 -1.135539 14.723953 -6.781254 1.977632 -28.230483 -1.674488 6.944963 28.618718 12.555055 -4.251408 -31.401323 0.000000 0.000000 0.000000 -30.665426 -13.303757 5.633878 -39.716308 -1.106469 -5.953128 -4.068337 -21.549007 1.591929 0.000000 0.000000 0.000000 39.023763 0.743704 -0.323433 43.848328 1.979607 -6.338984 4.308417 24.574671 2.047746 0.000000 0.000000 0.000000
1.678874 0.970272 -0.054785 0.258621 -5.075647 6.299095 4.661232 -0.483563 -8.559321 -5.268174 0.681812 2.660839 2.020682 8.668978 19.036659 0.000000 0.000000 0.000000 -4.163554 0.531500 -5.310326 2.669715 -0.189867 2.870186 -4.365241 -14.137108 14.249043 0.000000 0.000000 0.000000 3.942863 -1.046556 13.480750 -6.706198 1.967649 -28.096170 -1.492242 7.373415 28.737199 12.343003 -4.201351 -30.848037 0.000000 0.000000 0.000000 -30.203694 -12.592148 5.044783 -40.152543 -0.617728 -6.156041 -4.616048 -21.111974 1.656607 0.000000 0.000000 0.000000 39.110982 0.106698 -0.734334 43.925057 1.659974 -6.488887 4.473276 24.613686 2.098231 0.000000 0.000000 0.000000
1.678697 0.970265 -0.053174 0.154413 -5.425925 6.016601 4.670277 -0.418897 -7.266403 -5.127672 0.642012 1.171771 2.107220 8.784687 19.297463 0.000000 0.000000 0.000000 -4.516095 0.465345 -4.200103 3.026245 -0.256431 1.199747 -3.694950 -13.203620 15.177507 0.000000 0.000000 0.000000 4.227825 -1.029330 12.721351 -6.676924 1.965121 -27.956916 -1.559982 7.778993 28.278906 12.353314 -4.293641 -30.034478 0.000000 0.000000 0.000000 -29.566166 -12.228132 4.690137 -40.914554 -0.116123 -6.367137 -5.009836 -21.042275 1.721141 0.000000 0.000000 0.000000 38.727312 -0.458476 -1.095221 44.749912 1.230030 -6.705890 4.822695 24.856667 2.213910 0.000000 0.000000 0.000000
1.678576 0.970379 -0.052062 0.357189 -5.618810 5.434520 4.519989 -0.358623 -5.948397 -5.157600 0.631547 0.005939 1.884913 8.532841 19.787265 0.000000 0.000000 0.000000 -4.917556 0.409364 -3.176834 3.131943 -0.283657 -0.025318 -3.493728 -13.129001 16.438126 0.000000 0.000000 0.000000 4.441411 -0.993681 11.936010 -6.894438 2.026699 -27.574958 -1.558613 7.825315 27.872181 12.028277 -4.202029 -29.490098 0.000000 0.000000 0.000000 -29.322139 -11.745085 4.371038 -41.145221 0.358136 -6.522477 -5.486725 -21.294960 1.832397 0.000000 0.000000 0.000000 38.657067 -0.856359 -1.478194 44.874583 0.630807 -6.865340 5.075948 25.318091 2.316137 0.000000 0.000000 0.000000
1.678672 0.970552 -0.051250 0.434523 -6.205318 4.978974 4.472166 -0.279077 -4.473987 -5.022304 0.604459 -1.423753 1.480035 7.916893 20.045823 0.000000 0.000000 0.000000 -5.299698 0.378053 -2.369719 3.259182 -0.304485 -1.188514 -2.946862 -12.560422 17.650053 0.000000 0.000000 0.000000 4.700546 -0.962936 11.220428 -7.028989 2.057571 -27.460602 -1.480079 8.369709 27.579305 11.786646 -4.184602 -28.574980 0.000000 0.000000 0.000000 -28.775138 -11.674473 4.245600 -41.730587 0.645060 -6.671004 -5.862302 -21.380813 1.907952 0.000000 0.000000 0.000000 38.239405 -1.193878 -1.637826 45.661608 0.182544 -7.117609 5.391685 25.843384 2.462125 0.000000 0.000000 0.000000
1.678692 0.970914 -0.050708 0.527529 -6.359901 4.503928 4.396091 -0.215503 -3.297381 -4.770664 0.570263 -2.322665 0.805499 6.931882 20.004396 0.000000 0.000000 0.000000 -5.552734 0.348384 -1.665720 3.355802 -0.318879 -2.000565 -2.772649 -12.542851 18.829536 0.000000 0.000000 0.000000 5.074765 -0.964096 10.763025 -7.230678 2.106303 -27.401158 -1.430380 8.337291 27.459441 11.563911 -4.062056 -28.601859 0.000000 0.000000 0.000000 -28.369137 -11.477034 4.167257 -42.284248 0.708338 -6.791146 -6.381195 -21.709334 2.043134 0.000000 0.000000 0.000000 38.023760 -1.341148 -1.809976 45.901194 0.384967 -7.048671 5.543892 25.696807 2.479636 0.000000 0.000000 0.000000
1.678651 0.970968 -0.050329 0.672194 -6.546637 4.262696 4.122389 -0.175584 -2.513043 -4.520547 0.542314 -2.985734 0.638540 6.612907 19.755856 0.000000 0.000000 0.000000 -5.842802 0.335769 -1.147236 3.415786 -0.328273 -2.843402 -2.554083 -12.404835 19.703526 0.000000 0.000000 0.000000 5.169661 -0.920437 10.114571 -7.212942 2.111764 -27.153269 -1.470971 8.415366 27.056601 11.128553 -3.765285 -28.752713 0.000000 0.000000 0.000000 -27.869503 -11.451869 4.149129 -42.864113 0.684436 -6.850131 -6.514704 -22.019794 2.101992 0.000000 0.000000 0.000000 37.534843 -1.476195 -1.908226 46.438978 0.332865 -7.089708 6.128516 25.960352 2.641859 0.000000 0.000000 0.000000
1.678446 0.971237 -0.049988 0.719800 -6.489471 4.119957 4.050358 -0.138001 -1.840261 -4.354102 0.523525 -3.524143 0.271857 5.973195 19.188298 0.000000 0.000000 0.000000 -6.064983 0.333412 -0.925147 3.376929 -0.329827 -3.300404 -2.108509 -11.937970 20.793185 0.000000 0.000000 0.000000 5.188744 -0.903578 9.886600 -7.037018 2.070101 -27.415688 -1.484387 8.391201 26.879363 10.873927 -3.659642 -28.475064 0.000000 0.000000 0.000000 -27.744425 -11.246256 4.001728 -43.237078 0.727556 -6.910899 -6.437742 -22.259049 2.114270 0.000000 0.000000 0.000000 37.377023 -1.411378 -1.841941 46.631929 0.674066 -6.982194 6.438287 26.135361 2.732790 0.000000 0.000000 0.000000
1.678196 0.971201 -0.049661 0.781062 -6.015962 3.966355 4.011494 -0.109216 -1.292432 -4.303929 0.513745 -3.805921 -0.110295 5.267286 18.206510 0.000000 0.000000 0.000000 -6.113348 0.311762 -0.568794 3.097503 -0.322924 -3.885800 -1.896982 -11.786413 21.995172 0.000000 0.000000 0.000000 5.287373 -0.887807 9.531178 -7.107309 2.097227 -27.247482 -1.522871 8.148691 26.263345 10.546084 -3.418590 -28.570258 0.000000 0.000000 0.000000 -27.250575 -11.234157 3.929388 -43.869307 0.633539 -6.923716 -6.437948 -22.241946 2.110282 0.000000 0.000000 0.000000 37.116053 -1.610723 -1.954623 47.201355 0.584006 -7.037631 6.437509 26.188494 2.748458 0.000000 0.000000 0.000000
1.677967 0.971164 -0.049440 0.706979 -5.748391 4.044703 4.042581 -0.089907 -0.915097 -4.318714 0.511459 -4.425039 -0.053198 5.299756 17.808019 0.000000 0.000000 0.000000 -6.052552 0.299129 -0.409103 2.922272 -0.320247 -4.356311 -1.590133 -11.410064 22.602243 0.000000 0.000000 0.000000 5.317495 -0.861800 9.107254 -6.957582 2.057692 -27.534597 -1.597191 8.067951 26.288280 10.388968 -3.363102 -28.308752 0.000000 0.000000 0.000000 -27.044368 -11.313748 3.942738 -44.060700 0.407489 -6.873502 -6.552522 -22.490781 2.153798 0.000000 0.000000 0.000000 36.944251 -1.653403 -1.925042 47.258555 0.701399 -7.019494 6.722936 26.350958 2.836869 0.000000 0.000000 0.000000
1.677820 0.971075 -0.049424 0.628632 -5.276746 4.207924 4.060614 -0.093533 -0.883878 -4.140350 0.491216 -4.645133 -0.274905 4.911533 17.282963 0.000000 0.000000 0.000000 -5.905153 0.288621 -0.436787 2.756221 -0.318030 -4.601399 -1.607020 -11.451221 23.105395 0.000000 0.000000 0.000000 5.299580 -0.824479 8.578394 -6.921316 2.058301 -27.479032 -1.662941 7.761442 25.912312 10.271571 -3.315301 -28.105941 0.000000 0.000000 0.000000 -26.702933 -11.061923 3.765136 -44.519746 0.273964 -6.874357 -6.274950 -22.602554 2.113370 0.000000 0.000000 0.000000 36.546829 -1.882724 -2.089233 47.721711 0.581093 -7.071553 6.854030 26.352093 2.868920 0.000000 0.000000 0.000000
1.677774 0.971145 -0.049615 0.492376 -4.589446 4.267570 4.112102 -0.090837 -0.732952 -4.060752 0.478668 -5.185894 -0.311981 4.966985 17.286339 0.000000 0.000000 0.000000 -5.824043 0.269186 -0.293853 2.742204 -0.325931 -4.866157 -1.501142 -11.285629 23.682462 0.000000 0.000000 0.000000 5.247349 -0.789417 8.126644 -6.750347 2.024165 -27.562285 -1.758110 7.291514 25.977482 10.090540 -3.242469 -27.984695 0.000000 0.000000 0.000000 -26.539898 -11.081764 3.784479 -44.893192 -0.053822 -6.831647 -5.752626 -22.773025 2.030006 0.000000 0.000000 0.000000 36.318117 -1.854747 -2.048853 47.898829 0.404845 -7.159361 6.660394 26.211056 2.809855 0.000000 0.000000 0.000000
1.677753 0.971305 -0.049889 0.354506 -4.095369 4.389022 4.058908 -0.083503 -0.523590 -3.728055 0.451697 -5.773734 -0.440980 4.798533 17.084572 0.000000 0.000000 0.000000 -5.644760 0.264923 -0.490029 2.553083 -0.320769 -4.897632 -1.440585 -11.286980 24.586183 0.000000 0.000000 0.000000 5.182518 -0.731182 7.417098 -6.673856 2.021838 -27.305979 -1.703876 6.987594 25.869462 10.108457 -3.253968 -27.954668 0.000000 0.000000 0.000000 -26.333105 -11.015570 3.733166 -45.465476 -0.418441 -6.786878 -4.817063 -22.525792 1.829470 0.000000 0.000000 0.000000 35.965342 -1.893344 -2.041626 48.217016 0.483501 -7.156511 6.505996 25.706062 2.714384 0.000000 0.000000 0.000000
1.677740 0.971350 -0.050011 0.198364 -3.847321 4.376747 4.020632 -0.080194 -0.439523 -3.474149 0.433900 -6.050524 -0.305537 5.083660 17.242149 0.000000 0.000000 0.000000 -5.573793 0.256104 -0.441634 2.576501 -0.324068 -4.910364 -1.195810 -10.938013 24.831833 0.000000 0.000000 0.000000 5.107430 -0.713002 7.250779 -6.614172 2.009873 -27.344483 -1.660961 6.972282 25.904832 10.251251 -3.343345 -27.790397 0.000000 0.000000 0.000000 -26.195221 -10.922532 3.621547 -45.689843 -0.630170 -6.741238 -4.502275 -22.354322 1.752386 0.000000 0.000000 0.000000 36.096017 -1.974907 -2.034734 48.033107 0.600052 -7.120828 6.381713 25.382528 2.651642 0.000000 0.000000 0.000000
1.677670 0.971169 -0.049885 0.174766 -3.599894 4.212168 3.976990 -0.061879 -0.126018 -3.467102 0.433789 -6.391878 -0.189862 5.321137 17.326684 0.000000 0.000000 0.000000 -5.427573 0.231764 -0.175277 2.441939 -0.319180 -4.922819 -1.344614 -11.076520 24.689248 0.000000 0.000000 0.000000 4.962699 -0.676358 6.956480 -6.544005 1.994523 -27.406330 -1.692904 6.858486 26.094358 10.258630 -3.348424 -27.826015 0.000000 0.000000 0.000000 -26.329332 -10.752140 3.500376 -45.822192 -0.757761 -6.732419 -3.700361 -22.063926 1.578031 0.000000 0.000000 0.000000 36.207742 -1.909216 -1.943743 48.111821 0.718376 -7.129966 5.831925 24.749803 2.466515 0.000000 0.000000 0.000000
1.677518 0.970846 -0.049708 0.213357 -3.498066 4.076916 3.863237 -0.047113 0.095501 -3.351751 0.427253 -6.558831 -0.175326 5.360193 17.322821 0.000000 0.000000 0.000000 -5.375276 0.216020 0.039985 2.369855 -0.316512 -4.942968 -1.497480 -11.231330 24.457676 0.000000 0.000000 0.000000 4.948443 -0.651619 6.682716 -6.726329 2.038834 -27.272879 -1.659543 6.746121 26.081140 10.172740 -3.358531 -27.525341 0.000000 0.000000 0.000000 -26.478695 -10.612799 3.426134 -45.986600 -0.804503 -6.744544 -3.307567 -21.318090 1.453095 0.000000 0.000000 0.000000 36.218164 -1.869969 -1.927790 48.244870 0.658726 -7.169174 5.662157 24.388856 2.389813 0.000000 0.000000 0.000000
1.677320 0.970664 -0.049736 0.190039 -3.567594 4.090036 3.974237 -0.033808 0.336957 -3.560568 0.444301 -7.122815 -0.048664 5.636438 17.701406 0.000000 0.000000 0.000000 -5.402406 0.204767 0.311923 2.276476 -0.316597 -5.270592 -1.018394 -10.478207 24.091869 0.000000 0.000000 0.000000 4.926167 -0.606468 6.144398 -6.792191 2.061047 -27.079171 -1.617501 6.608515 26.111800 10.035979 -3.281281 -27.696243 0.000000 0.000000 0.000000 -26.678295 -10.373698 3.346091 -46.262006 -0.905152 -6.771131 -2.399992 -20.978727 1.275815 0.000000 0.000000 0.000000 36.286070 -1.755754 -1.945504 48.330529 0.701288 -7.134769 5.078206 23.780888 2.195406 0.000000 0.000000 0.000000
1.677032 0.970869 -0.050136 0.273576 -3.967066 4.107554 4.007684 -0.037587 0.227908 -3.620218 0.450897 -6.992310 -0.140606 5.510428 17.995432 0.000000 0.000000 0.000000 -5.632344 0.237159 -0.022857 2.480698 -0.316708 -4.793659 -0.813262 -10.181114 23.743216 0.000000 0.000000 0.000000 4.912524 -0.573485 5.758667 -6.618149 2.024316 -26.899489 -1.743159 6.920353 25.989543 10.243271 -3.370553 -27.763740 0.000000 0.000000 0.000000 -26.779123 -10.415802 3.347003 -46.391350 -0.919208 -6.766700 -2.010673 -20.207482 1.157405 0.000000 0.000000 0.000000 36.294509 -1.566930 -1.789903 48.298699 0.821964 -7.078238 4.656694 23.387055 2.066526 0.000000 0.000000 0.000000
1.676713 0.971052 -0.050761 0.282884 -4.137015 3.935888 4.057220 -0.024181 0.413525 -3.938304 0.472530 -7.256294 0.315834 6.294958 18.563409 0.000000 0.000000 0.000000 -5.394347 0.212159 0.276026 2.320632 -0.309518 -4.935389 -1.104014 -10.537175 23.254582 0.000000 0.000000 0.000000 4.902557 -0.545969 5.463806 -6.590509 2.026780 -26.589611 -1.813437 7.023926 26.131032 10.191283 -3.392500 -27.489593 0.000000 0.000000 0.000000 -26.715254 -10.143333 3.186175 -46.685244 -0.779616 -6.876592 -1.803672 -20.255410 1.128908 0.000000 0.000000 0.000000 36.546604 -1.434566 -1.695510 48.184360 0.979237 -7.027625 4.630169 23.419071 2.066504 0.000000 0.000000 0.000000
1.676349 0.970801 -0.051531 0.329370 -4.075877 3.648033 4.039996 0.002518 0.824559 -3.965596 0.474942 -7.575574 0.297016 6.312443 18.692244 0.000000 0.000000 0.000000 -5.631932 0.207132 0.530651 2.784977 -0.332965 -4.861756 -1.254471 -10.702123 23.054014 0.000000 0.000000 0.000000 5.108965 -0.538872 5.268427 -6.908471 2.112460 -26.163929 -1.781209 6.748938 25.994624 10.328401 -3.476868 -27.688745 0.000000 0.000000 0.000000 -26.885568 -10.353236 3.398494 -46.261816 -0.559996 -6.904004 -2.217471 -19.865094 1.175453 0.000000 0.000000 0.000000 36.334109 -1.282023 -1.697801 48.453223 0.354448 -7.237646 4.611081 23.604764 2.070279 0.000000 0.000000 0.000000
1.676027 0.970310 -0.052357 0.361145 -4.113672 3.370823 4.016262 0.030211 1.233488 -4.187297 0.487463 -7.549377 0.627074 6.610486 17.907694 0.000000 0.000000 0.000000 -5.685038 0.185939 0.986250 2.925388 -0.340453 -4.891293 -1.240888 -10.486430 22.114175 0.000000 0.000000 0.000000 4.914752 -0.538871 5.471032 -6.531818 2.027999 -26.266727 -1.812573 6.579279 26.422026 9.631450 -3.162076 -27.453229 0.000000 0.000000 0.000000 -27.252984 -9.456925 2.914491 -46.209615 -0.831909 -6.860555 -2.239565 -20.364885 1.225374 0.000000 0.000000 0.000000 36.442243 -1.371562 -1.865578 48.222734 1.031129 -6.966150 4.520778 23.460739 2.034163 0.000000 0.000000 0.000000
1.675732 0.970187 -0.053159 0.126011 -5.590286 3.271246 3.811254 0.078647 1.721358 -3.496487 0.471176 -8.118646 1.311680 7.519513 18.536612 0.000000 0.000000 0.000000 -5.406433 0.218329 0.408302 3.207943 -0.339255 -4.602893 -1.602193 -11.388667 22.575270 0.000000 0.000000 0.000000 5.078225 -0.514239 5.089738 -5.909880 1.868072 -26.014755 -2.034541 8.061278 25.794316 9.882715 -3.132838 -27.705576 0.000000 0.000000 0.000000 -26.460566 -8.823589 2.320288 -46.613039 0.462355 -7.302751 -3.547614 -21.137814 1.495925 0.000000 0.000000 0.000000 36.229591 -1.673877 -1.870671 48.939860 1.016697 -7.063848 4.008755 22.528549 1.857635 0.000000 0.000000 0.000000
1.675577 0.972786 -0.053935 0.115152 -5.300986 2.714011 4.151214 0.105497 2.229118 -3.721446 0.480414 -8.165143 0.567727 6.681139 19.397119 0.000000 0.000000 0.000000 -5.299713 0.146291 1.577767 3.364927 -0.355255 -5.439541 -1.856820 -11.792969 23.005363 0.000000 0.000000 0.000000 5.487750 -0.545704 5.284050 -6.425517 1.993739 -26.051353 -1.326981 7.396437 26.693744 9.949739 -3.338109 -27.472560 0.000000 0.000000 0.000000 -27.534796 -8.556701 2.330735 -46.008672 -0.644730 -6.924798 -4.168261 -19.780323 1.515191 0.000000 0.000000 0.000000 36.330314 -1.774657 -2.156834 48.102955 1.982967 -6.636857 3.503989 21.163159 1.624641 0.000000 0.000000 0.000000
