HIERARCHY
ROOT Hips
{
	OFFSET -0.001795 -0.223333 0.028219
	CHANNELS 6 Xposition Yposition Zposition Zrotation Yrotation Xrotation
	JOINT LeftUpLeg
	{
		OFFSET 0.069520 -0.091406 -0.006815
		CHANNELS 3 Zrotation Yrotation Xrotation
		JOINT LeftLeg
		{
			OFFSET 0.034277 -0.375199 -0.004496
			CHANNELS 3 Zrotation Yrotation Xrotation
			JOINT LeftFoot
			{
				OFFSET -0.013596 -0.397961 -0.043693
				CHANNELS 3 Zrotation Yrotation Xrotation
				JOINT LeftToe
				{
					OFFSET 0.026358 -0.055791 0.119288
					CHANNELS 3 Zrotation Yrotation Xrotation
					End Site
					{
						OFFSET 0.000000 0.000000 0.000000
					}
				}
			}
		}
	}
	JOINT RightUpLeg
	{
		OFFSET -0.067670 -0.090522 -0.004320
		CHANNELS 3 Zrotation Yrotation Xrotation
		JOINT RightLeg
		{
			OFFSET -0.038290 -0.382569 -0.008850
			CHANNELS 3 Zrotation Yrotation Xrotation
			JOINT RightFoot
			{
				OFFSET 0.015774 -0.398415 -0.042312
				CHANNELS 3 Zrotation Yrotation Xrotation
				JOINT RightToe
				{
					OFFSET -0.025372 -0.048144 0.123348
					CHANNELS 3 Zrotation Yrotation Xrotation
					End Site
					{
						OFFSET 0.000000 0.000000 0.000000
					}
				}
			}
		}
	}
	JOINT Spine
	{
		OFFSET -0.002533 0.108963 -0.026696
		CHANNELS 3 Zrotation Yrotation Xrotation
		JOINT Spine1
		{
			OFFSET 0.005487 0.135180 0.001092
			CHANNELS 3 Zrotation Yrotation Xrotation
			JOINT Spine2
			{
				OFFSET 0.001457 0.052922 0.025425
				CHANNELS 3 Zrotation Yrotation Xrotation
				JOINT Neck
				{
					OFFSET -0.002778 0.213870 -0.042857
					CHANNELS 3 Zrotation Yrotation Xrotation
					JOINT Head
					{
						OFFSET 0.005152 0.064970 0.051349
						CHANNELS 3 Zrotation Yrotation Xrotation
						End Site
						{
							OFFSET 0.000000 0.000000 0.000000
						}
					}
				}
				JOINT LeftShoulder
				{
					OFFSET 0.078845 0.121749 -0.034090
					CHANNELS 3 Zrotation Yrotation Xrotation
					JOINT LeftArm
					{
						OFFSET 0.090977 0.030469 -0.008868
						CHANNELS 3 Zrotation Yrotation Xrotation
						JOINT LeftForeArm
						{
							OFFSET 0.259612 -0.012772 -0.027456
							CHANNELS 3 Zrotation Yrotation Xrotation
							JOINT LeftHand
							{
								OFFSET 0.249234 0.008986 -0.001171
								CHANNELS 3 Zrotation Yrotation Xrotation
								End Site
								{
									OFFSET 0.000000 0.000000 0.000000
								}
							}
						}
					}
				}
				JOINT RightShoulder
				{
					OFFSET -0.081759 0.118833 -0.038615
					CHANNELS 3 Zrotation Yrotation Xrotation
					JOINT RightArm
					{
						OFFSET -0.096012 0.032551 -0.009143
						CHANNELS 3 Zrotation Yrotation Xrotation
						JOINT RightForeArm
						{
							OFFSET -0.253742 -0.013329 -0.021401
							CHANNELS 3 Zrotation Yrotation Xrotation
							JOINT RightHand
							{
								OFFSET -0.255298 0.007772 -0.005559
								CHANNELS 3 Zrotation Yrotation Xrotation
								End Site
								{
									OFFSET 0.000000 0.000000 0.000000
								}
							}
						}
					}
				}
			}
		}
	}
}
MOTION
Frames: 76
Frame Time: 0.050000
0.000000 0.103651 0.000000 -3.570190 -18.314297 -70.391597 17.753181 12.275639 -62.226135 10.645067 -43.986164 130.889265 10.349901 -24.442091 -50.407911 0.000000 0.000000 0.000000 -27.533247 -3.325809 -54.983094 10.281445 -0.137375 140.432095 -5.506221 7.897664 -42.728294 0.000000 0.000000 0.000000 -57.912810 -56.673410 -100.955473 3.349916 35.285783 146.290008 161.341762 53.193038 -174.286659 -52.359621 32.764332 78.054130 0.000000 0.000000 0.000000 -8.898143 -11.120915 -26.028090 59.148856 33.618622 17.452826 -148.746902 -6.204681 25.089005 0.000000 0.000000 0.000000 35.672186 -18.944372 20.296769 -16.070888 -35.633004 10.007714 170.722654 57.991430 144.171158 0.000000 0.000000 0.000000
0.002123 0.089815 -0.002162 -3.481401 -21.107136 -75.456269 12.320608 10.050900 -65.506438 33.156062 -59.774987 108.640154 1.838430 -43.113576 -32.614290 0.000000 0.000000 0.000000 -30.463509 -3.749928 -57.950730 15.992549 -15.228086 134.852810 -4.450885 0.508654 -37.032463 0.000000 0.000000 0.000000 -35.617809 -29.072749 -112.226104 0.289908 10.649371 149.745116 48.878802 65.967027 68.261097 -29.849233 1.405893 81.244090 0.000000 0.000000 0.000000 -3.375941 -6.691281 -0.102410 32.457509 38.031347 5.946977 -160.288152 -3.714568 12.798808 0.000000 0.000000 0.000000 12.410925 -14.978913 -7.575616 -36.518881 -25.411248 22.387588 136.054347 32.350836 77.597864 0.000000 0.000000 0.000000
0.004411 0.075920 -0.003252 -1.053809 -17.131345 -81.828628 11.371413 7.057803 -59.569530 32.268052 -49.525316 101.315106 4.381937 -40.970876 -37.548555 0.000000 0.000000 0.000000 -28.838155 -4.241464 -55.602319 20.443983 -17.523022 125.383440 -5.085838 -11.649988 -38.158192 0.000000 0.000000 0.000000 -18.226148 -1.137132 -93.250322 -3.449587 -18.497951 142.598411 -4.183982 12.873526 18.044008 -13.288878 -24.729736 85.437102 0.000000 0.000000 0.000000 -12.042504 -7.655798 1.321835 31.929171 24.171762 8.344494 179.726598 -7.112234 -115.589248 0.000000 0.000000 0.000000 7.256253 -11.352371 -4.194957 -32.448563 -15.337064 9.369620 136.743441 50.703812 89.693852 0.000000 0.000000 0.000000
0.006795 0.072758 -0.005777 1.557565 -17.755705 -84.479867 11.196631 7.586681 -57.554130 28.282730 -41.259978 99.115587 -2.471374 -42.042338 -25.406939 0.000000 0.000000 0.000000 -29.425766 -3.811998 -54.624428 28.361756 -22.294580 110.697427 -6.522978 -21.679429 -26.362174 0.000000 0.000000 0.000000 -9.593348 9.912290 -79.673641 -0.643715 -27.015538 131.765320 -10.157602 -3.324215 3.322908 -3.480241 -35.361683 68.033325 0.000000 0.000000 0.000000 -14.635205 -11.446488 3.616025 26.394594 11.831505 5.937051 155.566432 -16.454513 -73.954294 0.000000 0.000000 0.000000 3.704341 -8.041882 -2.238350 -24.638632 -6.250505 4.826912 -78.722786 82.590885 -79.239010 0.000000 0.000000 0.000000
0.009268 0.073120 -0.009258 2.555591 -17.862345 -87.383311 13.164406 7.900579 -49.485671 22.550673 -29.396539 91.600233 -2.819734 -37.357646 -26.822019 0.000000 0.000000 0.000000 -25.478918 -2.401712 -49.627980 29.489900 -16.040301 96.776115 -9.521683 -25.333950 -9.532329 0.000000 0.000000 0.000000 0.657867 15.508063 -61.919821 4.952770 -27.740572 116.133431 -11.203196 -14.561581 -16.207143 6.307819 -39.133054 61.754802 0.000000 0.000000 0.000000 -19.051895 -18.215631 8.558729 7.580198 10.282600 2.089017 146.473792 -30.245880 -84.614572 0.000000 0.000000 0.000000 0.451239 1.380173 1.130103 -3.694247 2.903129 0.599532 -73.006954 47.643917 -39.837909 0.000000 0.000000 0.000000
0.010841 0.070661 -0.014177 4.222828 -18.102348 -89.010861 13.167469 7.571251 -44.521358 21.435587 -21.785303 80.845153 -20.154877 -25.341226 11.581463 0.000000 0.000000 0.000000 -23.228928 -1.336417 -47.280343 27.701575 -10.641972 91.526077 -8.339237 -20.193712 -1.567624 0.000000 0.000000 0.000000 5.289141 17.378273 -54.608248 8.169334 -24.781403 104.885892 -10.890051 -17.980308 -14.286577 13.237138 -35.188211 45.441920 0.000000 0.000000 0.000000 -23.484492 -17.511954 10.448013 -8.152736 3.758565 -1.609579 143.789404 -37.531194 -87.763112 0.000000 0.000000 0.000000 2.639604 3.543911 1.547153 9.146674 12.814234 -0.278278 -84.149250 41.875165 -41.747844 0.000000 0.000000 0.000000
0.011625 0.075892 -0.020068 4.682671 -17.010148 -89.007203 12.158539 5.510488 -36.738995 17.031058 -13.275528 67.456392 -17.500785 -13.627587 22.448641 0.000000 0.000000 0.000000 -19.272246 -0.575451 -41.685828 23.303019 -4.813021 80.012899 -6.576860 -15.685522 3.701931 0.000000 0.000000 0.000000 7.781395 15.296488 -47.168752 10.865116 -17.342377 84.689397 -11.745289 -15.690219 -7.727885 15.412030 -29.864943 37.279917 0.000000 0.000000 0.000000 -28.027882 -19.576456 13.826287 -20.360978 -0.850683 -3.615556 140.335339 -54.155915 -100.862038 0.000000 0.000000 0.000000 6.004642 6.208708 1.837223 23.976648 18.898911 -0.062358 -88.846754 48.706084 -47.180613 0.000000 0.000000 0.000000
0.011503 0.080948 -0.025601 3.392235 -17.306815 -86.743449 11.319394 4.690082 -35.097881 12.990776 -8.982833 59.122752 -15.498904 -9.483531 25.904103 0.000000 0.000000 0.000000 -18.395962 -0.681557 -37.996700 20.594510 -2.929432 69.234872 -5.767341 -13.966485 5.001736 0.000000 0.000000 0.000000 6.840229 12.790238 -43.514346 10.613904 -12.632818 74.215432 -8.803726 -11.718257 -5.706748 16.761264 -26.915231 30.956581 0.000000 0.000000 0.000000 -31.857086 -22.155048 16.798989 -26.835733 -2.472716 -4.236894 118.387506 -67.635786 -88.339807 0.000000 0.000000 0.000000 11.527632 8.110298 2.107601 31.213455 18.853622 0.282798 -81.108031 56.888842 -46.484121 0.000000 0.000000 0.000000
0.011497 0.085463 -0.028924 3.180678 -17.891857 -86.395215 11.806193 4.566965 -30.652238 10.865690 -6.469599 49.584267 -14.856377 -6.624083 31.345127 0.000000 0.000000 0.000000 -14.689665 0.174070 -33.154236 17.594940 -1.440762 56.999249 -4.985136 -14.542759 14.455447 0.000000 0.000000 0.000000 8.591470 12.380778 -38.853717 10.215564 -9.290012 61.372361 -9.846896 -9.593491 0.799651 15.430567 -23.222897 27.657731 0.000000 0.000000 0.000000 -31.309445 -23.480119 17.890855 -30.613570 -3.925605 -4.518062 77.637262 -72.265701 -53.553581 0.000000 0.000000 0.000000 15.335406 7.980943 1.983595 35.973614 17.351282 -0.201355 -63.686959 63.995367 -37.951818 0.000000 0.000000 0.000000
0.011932 0.086066 -0.030668 3.857239 -17.190899 -86.484039 11.332690 4.006266 -27.237213 9.172120 -4.964799 44.024412 -12.505927 -4.875128 30.330801 0.000000 0.000000 0.000000 -13.793496 -0.232436 -27.636575 16.593462 -1.534083 43.632981 -2.633877 -13.305299 22.185920 0.000000 0.000000 0.000000 9.253291 11.908113 -36.486874 6.947992 -4.218985 54.132867 -6.422119 -8.372787 5.575020 12.622444 -18.479183 25.328220 0.000000 0.000000 0.000000 -32.508466 -21.230413 17.338664 -31.386800 -6.097283 -4.526252 45.956760 -72.206044 -27.674680 0.000000 0.000000 0.000000 18.531511 10.359143 3.195765 39.033765 16.414474 -0.641492 -40.966313 63.390312 -21.536822 0.000000 0.000000 0.000000
0.012698 0.087217 -0.030741 3.184016 -16.113056 -85.350301 9.250317 2.746506 -25.487949 8.400391 -4.290884 39.128196 -10.439253 -3.957338 27.449479 0.000000 0.000000 0.000000 -13.312085 -0.506958 -24.757781 15.241208 -1.638396 35.701571 -1.314280 -12.427775 24.974779 0.000000 0.000000 0.000000 7.517217 10.823374 -38.181369 4.955858 -2.399489 46.970417 -3.239487 -6.972351 13.340813 10.756936 -14.471771 18.066668 0.000000 0.000000 0.000000 -29.221960 -22.156273 17.600789 -35.454517 -10.167734 -4.529472 32.840222 -66.961925 -15.969012 0.000000 0.000000 0.000000 16.940909 11.290450 3.703628 44.063373 17.331456 -1.141010 -26.631865 61.705499 -12.077793 0.000000 0.000000 0.000000
0.012940 0.086939 -0.029816 2.510685 -16.227876 -84.931923 8.569202 2.296902 -23.134367 8.805932 -4.069867 32.432948 -11.391680 -3.388589 31.781360 0.000000 0.000000 0.000000 -10.571826 0.077911 -22.333233 11.957902 -0.871155 31.532953 -0.516205 -12.022117 27.237975 0.000000 0.000000 0.000000 7.772609 10.522843 -37.318450 3.984967 -1.773430 37.061711 -4.020077 -5.920828 20.663751 12.715514 -15.500833 10.875491 0.000000 0.000000 0.000000 -25.263535 -22.932255 16.990943 -39.302929 -11.446607 -4.756317 20.823309 -65.192275 -7.702926 0.000000 0.000000 0.000000 19.116088 10.091992 3.069286 46.119259 16.627884 -2.002911 -15.174287 57.172561 -4.726088 0.000000 0.000000 0.000000
0.012936 0.082459 -0.028685 2.120024 -14.980564 -85.269247 7.576166 1.701653 -20.371427 7.274971 -3.224156 27.519084 -9.787840 -1.963481 31.466706 0.000000 0.000000 0.000000 -9.210991 0.174502 -20.579817 8.371576 -0.016137 29.030054 -0.403219 -11.823847 27.675267 0.000000 0.000000 0.000000 6.412328 9.109436 -36.834219 2.280718 -0.698051 30.073439 -2.039715 -3.928447 27.050315 11.164951 -13.189294 6.490276 0.000000 0.000000 0.000000 -20.759722 -22.295031 15.047910 -44.599007 -13.903284 -4.636688 11.766394 -62.794038 -1.581500 0.000000 0.000000 0.000000 18.974904 9.215954 3.011560 48.471598 15.504037 -3.205441 -7.493476 56.327439 -0.405945 0.000000 0.000000 0.000000
0.012801 0.079997 -0.028291 1.528482 -14.268772 -84.615903 6.951749 1.341681 -18.576667 7.005750 -2.867916 22.866561 -8.420953 -0.319950 32.432922 0.000000 0.000000 0.000000 -8.208125 0.245253 -18.841953 6.558335 0.187927 25.526437 -0.084611 -11.526180 28.267683 0.000000 0.000000 0.000000 5.392698 8.034189 -36.475309 1.572804 -0.420629 24.624858 -1.235694 -2.488547 30.022364 11.612950 -12.337601 0.521916 0.000000 0.000000 0.000000 -17.645945 -21.603615 13.581017 -47.852655 -14.363802 -4.630582 6.827925 -60.068077 1.335927 0.000000 0.000000 0.000000 19.329881 8.543874 2.869935 50.116279 13.628864 -4.109288 -0.924107 51.915970 2.664429 0.000000 0.000000 0.000000
0.012786 0.073988 -0.028092 1.203243 -13.681137 -84.472577 6.840796 1.257619 -17.090116 6.686380 -2.558435 19.236589 -6.877482 0.730765 30.718722 0.000000 0.000000 0.000000 -7.849194 0.222652 -18.019851 6.096148 0.100661 23.364048 -0.711747 -12.034607 27.656319 0.000000 0.000000 0.000000 4.853084 7.645929 -37.027574 0.558969 0.131086 21.066563 -0.132463 -1.664367 33.208252 11.005266 -11.199724 -2.305419 0.000000 0.000000 0.000000 -14.940374 -19.905958 11.821774 -51.989352 -15.220735 -4.608071 2.787450 -55.879394 3.444806 0.000000 0.000000 0.000000 17.952761 7.455381 2.571662 53.375170 12.254257 -5.181383 2.594162 47.627770 4.020544 0.000000 0.000000 0.000000
0.012639 0.073790 -0.028259 0.602869 -13.031490 -84.148933 6.461753 1.073998 -15.332348 6.820289 -2.366965 15.677997 -6.213497 1.422956 30.656405 0.000000 0.000000 0.000000 -6.932959 0.311957 -16.748993 4.696327 0.270508 20.999828 -0.810936 -12.266671 28.760316 0.000000 0.000000 0.000000 4.045242 6.872461 -36.994731 0.118797 0.217302 16.606740 0.719886 -0.905329 35.638503 10.935260 -10.353014 -5.714963 0.000000 0.000000 0.000000 -13.098964 -17.935424 10.304044 -55.104193 -14.561232 -5.123727 1.225230 -50.582509 3.714503 0.000000 0.000000 0.000000 17.022992 6.640624 2.300971 56.228025 10.216325 -6.389715 3.953471 43.846449 4.142906 0.000000 0.000000 0.000000
0.012070 0.072962 -0.028294 -0.107845 -12.663574 -83.908276 6.408944 1.042874 -14.176133 6.481125 -2.089397 13.043526 -5.950415 1.823510 30.783089 0.000000 0.000000 0.000000 -5.523865 0.634369 -16.325956 2.687325 0.727825 20.276908 -0.789000 -11.996003 28.673871 0.000000 0.000000 0.000000 3.732465 6.494343 -36.895562 -0.169115 0.277130 14.152230 1.317627 -0.306174 37.030259 10.033242 -8.928693 -8.309800 0.000000 0.000000 0.000000 -10.370415 -16.198078 8.673452 -57.938962 -14.012429 -5.428743 -1.029081 -46.088871 4.113817 0.000000 0.000000 0.000000 15.936479 4.931278 1.588065 58.788152 9.462788 -7.003225 3.650170 38.634686 3.508263 0.000000 0.000000 0.000000
0.011143 0.072866 -0.028312 -0.596973 -12.406539 -83.668156 6.187181 0.958936 -13.642257 7.156656 -2.174133 11.905097 -6.333105 1.183167 29.704939 0.000000 0.000000 0.000000 -4.269945 0.871993 -15.389735 1.077585 1.043026 19.041666 -1.487707 -12.465561 27.662343 0.000000 0.000000 0.000000 3.558657 6.242368 -36.688351 -0.312104 0.286537 12.263809 1.628171 0.004705 37.809258 9.859042 -8.405769 -9.783085 0.000000 0.000000 0.000000 -8.721927 -13.876658 7.182739 -60.693545 -12.897913 -6.075961 -2.869755 -43.379580 4.573436 0.000000 0.000000 0.000000 15.552290 3.920308 1.172483 59.960579 7.911081 -7.827222 4.179369 34.917817 3.242003 0.000000 0.000000 0.000000
0.009894 0.072298 -0.028591 -0.614156 -12.403464 -83.858999 5.870449 0.863499 -13.663226 7.347246 -2.245658 12.134171 -6.569114 1.414145 31.349407 0.000000 0.000000 0.000000 -2.686338 1.262998 -15.071744 -0.882538 1.613520 19.231652 -1.305839 -12.100563 27.459822 0.000000 0.000000 0.000000 3.529375 6.102349 -36.123041 -0.585042 0.424708 10.789677 2.320328 0.555800 38.272548 9.087856 -7.330325 -11.521900 0.000000 0.000000 0.000000 -6.896965 -11.669224 5.764445 -62.559228 -11.441551 -6.859123 -3.961531 -42.454820 4.807923 0.000000 0.000000 0.000000 14.567578 2.427506 0.501359 60.847359 6.205959 -8.718152 4.293612 32.529705 2.973532 0.000000 0.000000 0.000000
0.008654 0.072474 -0.029206 -0.841160 -12.182005 -84.006928 5.444669 0.712899 -14.060271 8.057766 -2.523467 13.072190 -8.082421 -0.004581 31.640484 0.000000 0.000000 0.000000 -1.874208 1.363278 -14.135247 -2.235565 1.899234 18.356490 -0.601510 -11.087683 27.116810 0.000000 0.000000 0.000000 3.281078 5.882161 -36.014267 -0.406079 0.296292 10.605155 2.356175 0.668141 38.230408 8.277456 -6.455807 -12.425308 0.000000 0.000000 0.000000 -4.979306 -9.381603 4.439652 -64.450960 -10.598592 -7.265690 -4.347347 -41.175164 4.779988 0.000000 0.000000 0.000000 14.508417 1.792426 0.190751 60.348632 4.280360 -9.539354 4.493746 31.900457 2.898664 0.000000 0.000000 0.000000
0.007573 0.073609 -0.029918 -0.832204 -12.403103 -84.546734 5.415611 0.730866 -13.771009 8.254354 -2.604374 13.299462 -10.001655 -1.118018 34.196060 0.000000 0.000000 0.000000 -1.198522 1.400380 -13.002727 -2.308358 1.817226 17.421314 0.524897 -10.439519 30.099154 0.000000 0.000000 0.000000 3.783648 6.056872 -35.140252 -0.198230 0.156164 9.406859 2.097576 0.744380 38.325762 8.355768 -6.439321 -12.784761 0.000000 0.000000 0.000000 -3.473422 -8.132307 3.718790 -65.314659 -9.216969 -7.911197 -3.974007 -40.584881 4.475916 0.000000 0.000000 0.000000 13.442125 0.552226 -0.475067 61.072433 2.648645 -10.361683 3.993854 31.863805 2.718885 0.000000 0.000000 0.000000
0.006828 0.075549 -0.030459 -0.864100 -12.188616 -84.799234 5.310649 0.692454 -13.530723 7.651516 -2.442019 13.251249 -8.958228 0.611590 36.359622 0.000000 0.000000 0.000000 -1.076477 1.226480 -11.498627 -2.659334 1.652427 15.074606 1.128266 -9.959279 30.923087 0.000000 0.000000 0.000000 3.642430 5.950069 -35.358935 0.010363 0.023920 8.865941 1.874878 1.060677 38.543184 8.067558 -6.043464 -13.516125 0.000000 0.000000 0.000000 -1.198535 -6.003547 2.573097 -66.244488 -7.393656 -8.907080 -5.512873 -40.872880 5.008656 0.000000 0.000000 0.000000 13.888232 -0.270852 -0.925128 59.946545 1.031466 -10.989177 5.135866 31.773406 2.946414 0.000000 0.000000 0.000000
0.006326 0.079339 -0.030998 -1.029584 -12.023157 -85.114678 5.435572 0.774153 -12.413882 6.879931 -2.188944 12.560285 -8.133607 1.487788 36.459034 0.000000 0.000000 0.000000 -0.799479 1.123084 -10.088811 -2.366753 1.375196 13.163637 1.851597 -9.667666 33.452178 0.000000 0.000000 0.000000 3.525859 5.917139 -35.617320 0.030080 -0.003414 8.765495 1.869063 0.832227 37.894211 8.287420 -5.970791 -14.679005 0.000000 0.000000 0.000000 0.275400 -5.127545 2.104732 -67.335457 -5.290406 -9.989959 -5.646543 -41.429726 5.023026 0.000000 0.000000 0.000000 12.306408 -1.219253 -1.381244 60.110135 -1.099966 -11.882134 7.602222 32.339100 3.577370 0.000000 0.000000 0.000000
0.005907 0.083534 -0.031544 -1.069451 -11.767615 -85.071775 5.700763 0.875316 -11.378444 6.352853 -1.926985 10.984859 -7.646171 2.436389 37.939568 0.000000 0.000000 0.000000 -0.790832 0.983370 -8.973169 -2.178174 1.143634 11.248605 1.351700 -10.309874 33.696488 0.000000 0.000000 0.000000 3.565734 5.953962 -35.990154 0.132342 -0.075296 8.252971 1.323917 0.693463 37.292820 8.235596 -5.759865 -15.494285 0.000000 0.000000 0.000000 2.038519 -3.826887 1.480288 -68.278212 -3.128970 -11.103743 -7.751124 -41.582556 5.748473 0.000000 0.000000 0.000000 11.280228 -1.637680 -1.581643 60.336014 -2.883057 -12.644874 8.704941 32.748585 3.838468 0.000000 0.000000 0.000000
0.005700 0.084613 -0.032191 -1.251557 -11.241722 -85.234477 5.696978 0.914430 -9.786456 5.326420 -1.470972 8.245145 -7.000858 3.235456 38.262842 0.000000 0.000000 0.000000 -0.927761 0.883068 -8.419641 -2.072568 1.056630 10.592276 1.534981 -10.341781 35.295125 0.000000 0.000000 0.000000 3.330347 5.857876 -36.783288 0.300170 -0.193022 7.566404 0.945172 0.495084 37.717542 7.909178 -5.298147 -16.652259 0.000000 0.000000 0.000000 3.719280 -3.722546 1.354855 -69.149728 -1.766943 -11.983078 -9.459223 -41.425449 6.211814 0.000000 0.000000 0.000000 9.020136 -2.321897 -1.773353 62.178950 -4.172356 -13.659961 10.830087 33.065478 4.430225 0.000000 0.000000 0.000000
0.005596 0.087554 -0.033115 -1.563533 -10.851289 -85.170849 5.853262 0.979202 -8.531956 4.682990 -1.164942 5.991682 -6.573368 4.098537 39.580640 0.000000 0.000000 0.000000 -0.996858 0.845281 -8.274460 -1.553396 0.912456 10.340558 0.948758 -11.042716 35.983486 0.000000 0.000000 0.000000 3.084830 5.613826 -37.007343 0.493359 -0.307998 6.421495 0.449851 0.154938 37.464767 7.763208 -5.009355 -17.735330 0.000000 0.000000 0.000000 5.745562 -2.736628 0.900082 -70.502041 -0.058535 -12.877971 -11.681608 -41.636524 7.034821 0.000000 0.000000 0.000000 7.227449 -3.186413 -2.133154 63.644383 -5.422023 -14.538020 12.179074 33.174255 4.745824 0.000000 0.000000 0.000000
0.005680 0.088017 -0.033996 -1.787174 -10.323509 -85.163662 5.538094 0.923302 -7.408872 4.005731 -0.897532 4.087279 -5.831534 4.702206 38.910052 0.000000 0.000000 0.000000 -1.304375 0.762091 -8.193588 -1.522912 0.912036 10.461592 0.661933 -11.140937 35.431121 0.000000 0.000000 0.000000 2.614532 5.302241 -37.507374 0.428414 -0.281816 6.011265 0.561418 0.033459 37.890363 7.560743 -4.790557 -18.150297 0.000000 0.000000 0.000000 6.284268 -2.680615 0.860037 -71.038926 0.104782 -13.146626 -12.092328 -42.401871 7.329040 0.000000 0.000000 0.000000 6.430862 -3.447263 -2.175243 64.820390 -5.905310 -15.115321 12.520418 34.247320 5.043898 0.000000 0.000000 0.000000
0.005805 0.089390 -0.034987 -1.978417 -9.939594 -85.061988 5.199961 0.834492 -7.109157 3.921993 -0.842561 3.539547 -5.425280 5.250571 39.351980 0.000000 0.000000 0.000000 -1.568117 0.701856 -8.251730 -1.039995 0.813672 10.653072 0.535450 -11.411785 36.503364 0.000000 0.000000 0.000000 2.400800 5.077739 -37.585073 0.669267 -0.414914 5.469682 0.151394 -0.187922 37.717052 7.476536 -4.650369 -18.614142 0.000000 0.000000 0.000000 7.120300 -2.622305 0.808098 -71.842927 0.691223 -13.463736 -12.588466 -43.788912 7.807276 0.000000 0.000000 0.000000 4.843689 -3.961503 -2.312466 66.460017 -6.506064 -15.789896 13.571674 35.832552 5.621557 0.000000 0.000000 0.000000
0.006021 0.089992 -0.035865 -2.071207 -9.849885 -85.052332 5.222605 0.836966 -7.153301 3.716306 -0.824961 3.851594 -5.511360 5.199154 39.364260 0.000000 0.000000 0.000000 -1.760518 0.698558 -8.644286 -0.699310 0.792464 11.434750 0.691325 -11.319668 37.040294 0.000000 0.000000 0.000000 2.302246 5.000946 -37.730283 0.869838 -0.510344 4.675903 -0.151851 -0.559389 38.326764 7.706559 -4.734660 -19.610912 0.000000 0.000000 0.000000 7.936365 -2.734118 0.786054 -72.211044 0.720531 -13.362503 -12.863167 -43.936428 7.948858 0.000000 0.000000 0.000000 3.309974 -4.310409 -2.375480 68.191626 -6.840937 -16.550421 14.167919 37.315192 6.078790 0.000000 0.000000 0.000000
0.006245 0.089752 -0.036714 -1.927464 -9.569495 -85.048622 4.920786 0.739758 -7.414054 3.743753 -0.854871 4.245401 -5.128446 5.608872 39.592335 0.000000 0.000000 0.000000 -2.097854 0.618662 -8.706930 -0.311573 0.688594 11.240847 0.895021 -11.269109 37.942896 0.000000 0.000000 0.000000 2.223689 4.900740 -37.713991 0.873387 -0.505341 4.215454 -0.341509 -0.739395 38.263455 7.101260 -4.263608 -20.063678 0.000000 0.000000 0.000000 8.956923 -2.541105 0.668836 -72.958674 1.683228 -13.882477 -14.828207 -44.537225 8.860076 0.000000 0.000000 0.000000 2.416383 -4.518770 -2.403051 69.161687 -7.353457 -17.093218 15.656878 38.619660 6.801334 0.000000 0.000000 0.000000
0.006455 0.089672 -0.037501 -1.837882 -9.585779 -85.055602 4.821826 0.705407 -7.558168 3.790437 -0.882309 4.522576 -5.297692 5.487644 39.836434 0.000000 0.000000 0.000000 -2.310911 0.574913 -8.775169 0.292565 0.536933 11.003774 1.035335 -11.303804 38.709421 0.000000 0.000000 0.000000 2.398237 5.005356 -37.748456 1.039498 -0.573623 3.314918 -0.740668 -1.062345 38.666342 7.305570 -4.260324 -21.339846 0.000000 0.000000 0.000000 10.628004 -2.359775 0.508654 -73.724443 2.527861 -14.227508 -17.080228 -44.087710 9.618583 0.000000 0.000000 0.000000 0.043818 -5.028194 -2.394066 71.292466 -7.662240 -17.945557 17.297899 38.678163 7.341478 0.000000 0.000000 0.000000
0.006522 0.089317 -0.038163 -1.539052 -9.565758 -84.903774 4.770573 0.665875 -8.007140 4.020231 -0.957635 4.982226 -5.182539 5.492074 39.680129 0.000000 0.000000 0.000000 -2.839731 0.466350 -8.959297 1.154016 0.323048 10.535957 1.092820 -11.492951 39.577896 0.000000 0.000000 0.000000 2.579866 5.144302 -37.873989 1.017229 -0.556466 3.208503 -0.856066 -1.246203 38.317361 7.017675 -4.079150 -21.500610 0.000000 0.000000 0.000000 11.438740 -2.455117 0.476548 -73.923388 3.556871 -14.641203 -19.472334 -43.452098 10.378383 0.000000 0.000000 0.000000 -0.566387 -4.747969 -2.220088 71.669265 -7.769571 -18.133069 18.462442 38.592220 7.651581 0.000000 0.000000 0.000000
0.006459 0.089920 -0.038831 -1.342002 -9.532786 -84.746716 4.608804 0.590471 -8.611231 4.283946 -1.095377 6.240362 -5.132014 5.435599 39.426377 0.000000 0.000000 0.000000 -3.369587 0.356777 -9.100501 2.196356 0.102823 10.533531 0.802528 -11.837083 39.419500 0.000000 0.000000 0.000000 2.786167 5.286420 -37.928793 1.050515 -0.566001 2.892045 -1.102801 -1.371869 38.267290 7.231188 -4.203238 -21.677325 0.000000 0.000000 0.000000 12.515467 -2.314184 0.364506 -74.182004 4.490992 -15.083580 -20.954512 -42.480740 10.637160 0.000000 0.000000 0.000000 -1.422563 -4.821621 -2.160224 72.266689 -8.135413 -18.539815 19.945833 38.183429 8.029065 0.000000 0.000000 0.000000
0.006182 0.089591 -0.039522 -0.813335 -9.307104 -84.713505 4.204040 0.448503 -9.119405 4.870387 -1.285674 7.196672 -5.208137 5.263740 39.326710 0.000000 0.000000 0.000000 -4.037648 0.205184 -9.194178 2.858666 -0.039452 10.300570 0.548797 -12.170002 39.277302 0.000000 0.000000 0.000000 3.158695 5.464601 -37.574959 0.715323 -0.385019 2.389926 -1.164135 -1.398507 38.137914 6.984719 -4.029782 -21.694545 0.000000 0.000000 0.000000 13.165588 -2.094988 0.268514 -74.417177 5.794597 -15.857204 -23.348995 -41.902027 11.378774 0.000000 0.000000 0.000000 -2.637986 -4.628905 -1.939592 73.139569 -8.550307 -19.034320 21.657286 38.309882 8.631254 0.000000 0.000000 0.000000
0.005731 0.090494 -0.040329 -0.617565 -9.203649 -84.733800 4.310030 0.469146 -9.230748 4.980997 -1.368584 7.979703 -5.330810 5.018160 38.824808 0.000000 0.000000 0.000000 -4.795535 -0.022048 -8.555871 4.104832 -0.315994 9.481507 0.216147 -12.509857 38.552567 0.000000 0.000000 0.000000 3.145538 5.418078 -37.363539 0.704806 -0.374036 2.037618 -1.169510 -1.052776 37.967266 7.225275 -4.044296 -22.122517 0.000000 0.000000 0.000000 14.521308 -2.170810 0.254926 -75.194144 6.401304 -16.375268 -25.220201 -41.014584 11.776419 0.000000 0.000000 0.000000 -3.649802 -4.540862 -1.766490 74.130606 -8.858661 -19.413575 22.833142 38.236991 9.046201 0.000000 0.000000 0.000000
0.005340 0.089200 -0.041272 -0.313776 -9.025159 -84.931228 4.289636 0.448630 -9.552970 4.883134 -1.439289 9.226278 -5.219653 5.048525 38.545396 0.000000 0.000000 0.000000 -5.606820 -0.214070 -8.488048 5.100418 -0.509793 9.287574 -0.420876 -13.233927 38.510441 0.000000 0.000000 0.000000 3.138132 5.312234 -36.729620 0.677444 -0.345401 1.087152 -1.062257 -0.760653 38.428146 7.205348 -3.996626 -22.192706 0.000000 0.000000 0.000000 15.043235 -1.740839 0.130188 -75.688827 6.892268 -16.890107 -26.069623 -41.063946 12.124512 0.000000 0.000000 0.000000 -4.376368 -4.525525 -1.663606 75.024002 -8.692592 -19.591415 23.522870 39.577287 9.738060 0.000000 0.000000 0.000000
0.004901 0.088003 -0.042192 0.013771 -9.077389 -84.995432 4.783644 0.556659 -10.317986 4.600033 -1.485232 10.835763 -5.057157 5.138704 38.329807 0.000000 0.000000 0.000000 -6.589375 -0.408426 -8.760959 6.024156 -0.661067 9.989526 -0.431579 -13.292833 37.962105 0.000000 0.000000 0.000000 3.277067 5.409297 -36.570410 0.413648 -0.209226 0.706130 -0.978739 -0.566914 39.050715 7.364446 -4.120999 -21.999331 0.000000 0.000000 0.000000 15.380574 -1.651886 0.083378 -76.398637 6.778962 -17.044053 -26.867045 -41.774008 12.770694 0.000000 0.000000 0.000000 -4.609063 -3.961010 -1.420218 76.373826 -8.243789 -19.774732 24.257536 40.239661 10.314604 0.000000 0.000000 0.000000
0.004674 0.087235 -0.042999 -0.002561 -9.214399 -84.976843 5.282386 0.677067 -10.998388 3.754696 -1.342224 11.917506 -5.009331 5.342367 38.831349 0.000000 0.000000 0.000000 -6.954344 -0.465425 -9.058530 6.714484 -0.780708 10.553824 -0.921434 -13.898299 38.417719 0.000000 0.000000 0.000000 3.349673 5.337001 -35.798285 0.594213 -0.294997 0.322312 -1.067879 -0.507307 39.235747 7.680105 -4.337044 -22.011601 0.000000 0.000000 0.000000 15.287475 -1.772264 0.106550 -76.875193 6.453905 -16.904124 -26.573814 -43.749679 13.453751 0.000000 0.000000 0.000000 -5.180877 -3.903933 -1.315345 76.794177 -7.672150 -19.575872 25.841193 42.902145 11.824061 0.000000 0.000000 0.000000
0.004540 0.088235 -0.043539 0.256621 -9.176955 -85.065389 5.421558 0.699163 -11.523872 3.106773 -1.227611 12.904768 -4.855433 5.530133 39.026335 0.000000 0.000000 0.000000 -7.793776 -0.603215 -9.775132 7.274726 -0.860277 12.179628 -0.940360 -13.861747 37.639389 0.000000 0.000000 0.000000 3.384834 5.355025 -35.630602 0.676573 -0.332602 0.177454 -1.133256 -0.107880 39.704835 7.677325 -4.463853 -21.032328 0.000000 0.000000 0.000000 14.221214 -2.127859 0.255705 -76.470244 5.648316 -16.583959 -26.487417 -45.600152 14.232159 0.000000 0.000000 0.000000 -4.006860 -3.032033 -1.103977 76.554071 -7.259105 -19.205989 24.729157 45.590075 12.371428 0.000000 0.000000 0.000000
0.004463 0.090122 -0.043896 0.124320 -9.282367 -85.069688 5.750095 0.796099 -11.647604 2.646414 -1.142832 13.563813 -4.851453 5.414893 38.453023 0.000000 0.000000 0.000000 -8.205609 -0.668044 -10.158599 7.294023 -0.841985 13.366027 -1.585908 -14.382668 36.442910 0.000000 0.000000 0.000000 3.155492 5.247785 -35.810680 0.756824 -0.372468 0.239756 -1.001051 0.055792 40.017262 7.837413 -4.553194 -21.053172 0.000000 0.000000 0.000000 14.469842 -1.965978 0.200994 -76.533896 5.530469 -16.587489 -29.265283 -48.800689 16.882640 0.000000 0.000000 0.000000 -4.338789 -3.477422 -1.228521 76.010608 -7.701742 -19.374384 28.674343 46.945085 14.611367 0.000000 0.000000 0.000000
0.004359 0.090925 -0.044179 0.065340 -9.615416 -85.055390 5.969232 0.868333 -11.736924 2.397072 -1.088130 13.887619 -4.608346 5.460206 37.897896 0.000000 0.000000 0.000000 -8.629737 -0.715150 -10.792205 7.764257 -0.909130 14.791467 -1.879247 -14.617016 35.642020 0.000000 0.000000 0.000000 3.081061 5.217980 -35.624366 0.951290 -0.472925 0.490716 -0.846939 0.317378 39.499228 8.262282 -4.863051 -20.768533 0.000000 0.000000 0.000000 13.960259 -1.857773 0.194085 -76.222318 5.205895 -16.281307 -32.646964 -51.932436 20.173204 0.000000 0.000000 0.000000 -2.999837 -3.076809 -1.177875 74.149504 -8.782215 -19.485417 32.872000 50.317651 17.870112 0.000000 0.000000 0.000000
0.004151 0.092730 -0.044376 0.115184 -9.926426 -84.982968 6.180245 0.953716 -11.302024 2.161334 -0.980168 13.105284 -4.185989 5.770484 37.765878 0.000000 0.000000 0.000000 -8.959429 -0.763647 -10.993024 8.353225 -1.019857 15.339172 -2.778459 -15.423172 34.007508 0.000000 0.000000 0.000000 2.883795 5.246122 -36.136358 1.288127 -0.643692 0.917551 -0.935376 0.846236 39.423586 8.659664 -5.094668 -20.659668 0.000000 0.000000 0.000000 14.015111 -1.675424 0.155089 -75.528465 4.776091 -15.952997 -37.109609 -55.297103 24.443576 0.000000 0.000000 0.000000 -2.229470 -3.134783 -1.250986 72.822823 -9.631750 -19.573883 34.919224 51.986788 19.615773 0.000000 0.000000 0.000000
0.003731 0.092661 -0.044526 -0.009850 -10.315415 -84.736400 6.336725 1.019049 -10.945152 2.259131 -0.936464 11.679033 -4.613305 5.436417 38.255871 0.000000 0.000000 0.000000 -8.539944 -0.640123 -11.206126 8.819128 -1.123200 15.278257 -3.499586 -16.131389 33.446245 0.000000 0.000000 0.000000 2.656848 5.192106 -36.311054 1.576958 -0.790873 1.146886 -0.832883 1.051586 38.696595 9.003513 -5.298074 -20.661007 0.000000 0.000000 0.000000 14.020172 -1.987782 0.235035 -75.108831 4.568914 -15.585629 -43.272040 -59.114179 30.584106 0.000000 0.000000 0.000000 -1.188667 -3.181851 -1.347485 69.980982 -10.752938 -19.292484 38.647471 53.622553 22.088025 0.000000 0.000000 0.000000
0.003271 0.093306 -0.044590 -0.128047 -10.412756 -84.386981 6.274283 0.992133 -10.990185 2.029176 -0.839448 10.954995 -4.635524 5.436283 38.387584 0.000000 0.000000 0.000000 -8.506974 -0.609607 -11.355294 9.586454 -1.296123 15.163813 -4.384617 -17.006879 32.824521 0.000000 0.000000 0.000000 2.461130 5.206288 -37.044146 1.676502 -0.844693 1.506667 -0.952645 1.169113 38.664688 8.833744 -5.264726 -20.106315 0.000000 0.000000 0.000000 14.085494 -1.631973 0.139790 -74.686025 4.007052 -15.182337 -49.587544 -60.849103 36.177150 0.000000 0.000000 0.000000 -0.421423 -3.303978 -1.463079 68.628536 -11.646170 -19.368387 39.738711 53.839025 22.693781 0.000000 0.000000 0.000000
0.002852 0.093500 -0.044765 -0.339350 -10.501568 -84.274875 6.350160 1.023817 -10.706212 1.675014 -0.722446 10.261033 -4.574811 5.645382 38.981292 0.000000 0.000000 0.000000 -8.393742 -0.582343 -11.375386 10.066430 -1.405517 15.088772 -4.842791 -17.505759 33.202492 0.000000 0.000000 0.000000 2.118034 5.076671 -37.546737 1.940684 -0.984501 1.945840 -0.852034 1.448922 38.417414 8.859371 -5.275340 -19.926233 0.000000 0.000000 0.000000 14.163112 -1.837195 0.202659 -74.380516 3.576857 -14.902977 -55.391777 -63.421720 42.345953 0.000000 0.000000 0.000000 0.044468 -3.615284 -1.624587 67.297734 -12.433542 -19.321673 40.151199 53.914896 22.848186 0.000000 0.000000 0.000000
0.002552 0.094979 -0.045162 -0.594823 -10.472311 -84.035285 6.269737 0.991424 -10.764353 1.822288 -0.751154 10.064846 -4.879801 5.461587 39.282719 0.000000 0.000000 0.000000 -8.558158 -0.602413 -11.596949 10.581799 -1.528919 15.352098 -5.727425 -18.374443 33.013552 0.000000 0.000000 0.000000 1.987988 5.093149 -38.286581 1.942361 -0.993141 2.358946 -0.845408 1.420195 38.433200 8.286955 -4.930525 -19.609120 0.000000 0.000000 0.000000 14.751611 -1.449519 0.088142 -74.909490 3.425436 -14.937831 -61.057174 -64.336045 47.558389 0.000000 0.000000 0.000000 0.386098 -4.205315 -1.908665 66.745091 -13.199777 -19.532818 39.113145 52.409599 21.490593 0.000000 0.000000 0.000000
0.002351 0.096165 -0.045702 -0.764473 -10.397024 -83.860663 6.490391 1.054097 -10.693424 1.468730 -0.659950 9.891887 -4.793575 5.519785 39.005783 0.000000 0.000000 0.000000 -8.033548 -0.503246 -11.325723 9.906220 -1.395148 15.136151 -5.884408 -18.487602 32.950689 0.000000 0.000000 0.000000 1.920789 5.075288 -38.583820 1.845660 -0.953830 2.728873 -0.704615 1.533483 38.277625 8.312702 -4.954732 -19.333356 0.000000 0.000000 0.000000 14.323125 -1.508640 0.148371 -74.731557 2.847375 -14.675741 -59.547391 -64.419030 46.401664 0.000000 0.000000 0.000000 0.902065 -4.675068 -2.152810 66.104454 -13.274776 -19.286413 35.761949 51.488319 19.304901 0.000000 0.000000 0.000000
0.002274 0.097389 -0.046209 -0.928164 -10.130418 -83.462514 6.346209 0.988896 -10.830550 1.538087 -0.661056 9.501619 -5.059083 5.461849 39.575371 0.000000 0.000000 0.000000 -7.820203 -0.459880 -11.237081 9.645273 -1.355489 14.638798 -6.201900 -18.765188 33.072971 0.000000 0.000000 0.000000 1.909629 5.072337 -39.006339 1.768509 -0.930148 3.290908 -0.820794 1.772230 37.911211 8.135979 -4.722546 -19.504243 0.000000 0.000000 0.000000 14.302074 -1.436001 0.189179 -75.291662 2.391981 -14.675545 -54.497638 -63.993326 42.081622 0.000000 0.000000 0.000000 1.737894 -5.025974 -2.368689 65.810212 -12.924575 -18.837050 30.494058 49.826685 16.089653 0.000000 0.000000 0.000000
0.002332 0.098575 -0.046589 -1.175511 -9.776669 -83.334509 6.550225 1.042723 -10.598044 1.057153 -0.528856 8.933701 -4.879432 5.692618 39.398087 0.000000 0.000000 0.000000 -7.280101 -0.383034 -10.689780 8.733263 -1.184818 13.678628 -6.290908 -18.784545 33.249226 0.000000 0.000000 0.000000 1.833018 5.008570 -39.430134 1.499258 -0.805163 3.653439 -0.804470 1.729950 37.674607 8.190095 -4.689633 -19.546148 0.000000 0.000000 0.000000 14.176229 -1.515213 0.268783 -75.724999 2.289145 -14.872155 -46.337079 -62.850695 35.065273 0.000000 0.000000 0.000000 1.547687 -5.334800 -2.481956 66.027281 -12.809541 -18.727285 27.065912 47.179458 13.550944 0.000000 0.000000 0.000000
0.002368 0.099202 -0.046900 -1.440371 -9.384098 -82.966174 6.391616 0.974927 -10.552581 1.030464 -0.501511 8.331874 -4.810520 5.898287 39.687325 0.000000 0.000000 0.000000 -7.242942 -0.408568 -10.286238 8.661861 -1.187563 12.374639 -6.153360 -18.645737 34.141478 0.000000 0.000000 0.000000 1.681915 4.852763 -39.777771 1.356052 -0.742101 3.962763 -0.755531 1.983360 37.288030 8.285426 -4.625674 -19.747353 0.000000 0.000000 0.000000 14.210552 -1.685130 0.373706 -76.429434 2.132814 -15.097792 -38.331815 -59.768383 27.580832 0.000000 0.000000 0.000000 1.948928 -5.441265 -2.542870 65.960647 -12.300899 -18.260071 24.086897 44.452028 11.460887 0.000000 0.000000 0.000000
0.002453 0.099627 -0.047159 -1.535529 -8.973261 -83.031048 6.368943 0.999633 -9.336642 0.817326 -0.382003 6.433339 -4.356249 6.235501 39.002485 0.000000 0.000000 0.000000 -7.026341 -0.460193 -8.966158 8.049395 -1.075386 10.064469 -5.602549 -18.108819 34.840879 0.000000 0.000000 0.000000 1.744514 4.787633 -39.656586 1.191200 -0.660591 3.841653 -0.841135 2.056130 37.154988 8.136812 -4.410261 -19.964953 0.000000 0.000000 0.000000 15.072301 -1.543098 0.378723 -77.356596 2.727398 -15.788795 -33.376126 -57.054317 22.819147 0.000000 0.000000 0.000000 0.648411 -5.543849 -2.463894 67.308532 -11.875226 -18.272253 22.465198 40.774351 9.778693 0.000000 0.000000 0.000000
0.002487 0.100526 -0.047507 -1.658699 -8.721374 -82.476713 6.196150 0.940491 -8.837629 0.775789 -0.289998 4.350210 -3.792699 6.866959 39.364937 0.000000 0.000000 0.000000 -6.466958 -0.374613 -8.331549 7.649977 -0.998926 7.726610 -5.979988 -18.517448 35.597766 0.000000 0.000000 0.000000 1.750361 4.765258 -40.074569 1.154953 -0.632277 3.321057 -1.020087 2.208976 37.017450 8.395706 -4.368711 -20.825669 0.000000 0.000000 0.000000 16.112824 -1.073420 0.298557 -78.012415 3.997634 -16.836977 -31.499819 -53.469529 19.847854 0.000000 0.000000 0.000000 -0.272075 -5.772852 -2.471801 67.858205 -12.052991 -18.351698 22.169934 37.325963 8.693748 0.000000 0.000000 0.000000
0.002554 0.101888 -0.047872 -1.772917 -8.445319 -82.041323 6.176448 0.955878 -7.670894 0.181554 -0.083828 1.619605 -3.457213 7.162506 38.949618 0.000000 0.000000 0.000000 -5.881636 -0.312150 -7.435176 6.971131 -0.880414 5.247306 -5.756166 -18.309446 36.446071 0.000000 0.000000 0.000000 1.801544 4.749044 -40.219814 1.246213 -0.676754 3.039786 -1.222438 2.332997 36.794181 8.477513 -4.353222 -20.852071 0.000000 0.000000 0.000000 16.172447 -1.042463 0.346858 -77.221231 4.980462 -17.465911 -30.506274 -50.752776 17.902577 0.000000 0.000000 0.000000 -0.668033 -6.025026 -2.540711 67.810321 -12.890400 -18.649398 22.765823 34.867523 8.191145 0.000000 0.000000 0.000000
0.002522 0.103404 -0.048302 -1.805073 -8.310464 -81.529573 6.025437 0.918479 -7.151021 0.225710 -0.037341 0.067176 -3.125303 7.335511 38.266516 0.000000 0.000000 0.000000 -4.992193 -0.166599 -6.870027 6.075325 -0.740367 3.140798 -6.320255 -18.862818 36.698861 0.000000 0.000000 0.000000 1.816834 4.742633 -40.338059 1.414197 -0.762149 2.979121 -1.468014 2.337480 36.358603 8.893359 -4.636969 -20.644337 0.000000 0.000000 0.000000 15.921076 -0.580650 0.240763 -76.581078 6.157833 -18.066232 -29.648789 -48.030207 16.242592 0.000000 0.000000 0.000000 -0.556776 -5.891311 -2.494170 67.196419 -13.355598 -18.624726 22.797630 32.977274 7.655124 0.000000 0.000000 0.000000
0.002460 0.103931 -0.048863 -1.848197 -8.124782 -81.261553 6.037364 0.918475 -6.910212 0.169618 0.004601 -0.922599 -3.058590 7.398799 38.063566 0.000000 0.000000 0.000000 -4.636742 -0.122554 -6.515509 5.299741 -0.638102 1.745905 -6.436743 -18.974993 37.460023 0.000000 0.000000 0.000000 1.820361 4.740856 -40.538843 1.322538 -0.723106 3.179720 -1.335145 2.420721 36.329556 8.738215 -4.590971 -20.123011 0.000000 0.000000 0.000000 15.631592 -0.237324 0.178288 -75.302812 6.974385 -18.436260 -29.559587 -46.065261 15.300671 0.000000 0.000000 0.000000 0.155674 -5.853729 -2.532264 66.086742 -14.036552 -18.604265 23.554067 31.080747 7.347698 0.000000 0.000000 0.000000
0.002337 0.105457 -0.049759 -1.902553 -7.883432 -81.135707 5.939450 0.894580 -6.546001 0.058032 0.043561 -1.635955 -2.882564 7.576056 37.867620 0.000000 0.000000 0.000000 -4.364255 -0.126624 -5.790190 4.563648 -0.553435 -0.124035 -6.864067 -19.406994 38.547082 0.000000 0.000000 0.000000 1.877220 4.763847 -40.842827 1.302487 -0.711592 3.040517 -1.355363 2.232479 36.645357 8.507815 -4.451080 -20.179772 0.000000 0.000000 0.000000 16.014628 0.695598 -0.069522 -75.067445 8.095292 -19.131195 -30.059341 -44.454696 14.859169 0.000000 0.000000 0.000000 0.001985 -6.207769 -2.684585 65.284453 -15.176674 -18.972138 25.448544 30.398704 7.630734 0.000000 0.000000 0.000000
0.002168 0.107509 -0.050755 -1.898933 -7.785018 -81.036995 5.697249 0.834184 -6.608713 0.337288 0.006023 -1.625809 -2.752854 7.476103 36.887984 0.000000 0.000000 0.000000 -4.175526 -0.135796 -5.239678 4.351854 -0.536776 -1.506272 -7.726308 -20.250177 38.550676 0.000000 0.000000 0.000000 1.895760 4.790283 -41.013441 1.373886 -0.763269 3.481328 -1.402642 2.352602 36.156427 8.427981 -4.429348 -19.731565 0.000000 0.000000 0.000000 15.531902 1.379026 -0.222234 -74.008935 8.445039 -19.112735 -30.204528 -42.829191 14.229878 0.000000 0.000000 0.000000 0.641759 -6.104720 -2.685657 64.318414 -15.591585 -18.797598 25.691878 29.453293 7.395016 0.000000 0.000000 0.000000
0.001987 0.109688 -0.051785 -2.016555 -7.436489 -80.985931 5.288670 0.735418 -6.470372 0.361430 0.010996 -1.848714 -2.439903 7.601004 35.930034 0.000000 0.000000 0.000000 -3.914839 -0.138939 -4.650234 3.469952 -0.454346 -2.148811 -8.249250 -20.705839 38.638599 0.000000 0.000000 0.000000 1.627301 4.630478 -41.695413 1.596105 -0.903508 4.136025 -1.451750 2.508419 36.138125 8.721896 -4.671069 -19.273504 0.000000 0.000000 0.000000 14.897654 1.845517 -0.345220 -73.496596 8.141875 -18.957335 -28.203422 -41.298897 12.805550 0.000000 0.000000 0.000000 1.219193 -6.629032 -2.954365 63.565903 -16.185186 -18.842143 25.722555 29.439306 7.402122 0.000000 0.000000 0.000000
0.001885 0.110766 -0.052682 -2.020946 -7.236453 -81.127319 5.065345 0.675234 -6.673635 0.439718 -0.034055 -0.866138 -2.162247 7.853858 35.771562 0.000000 0.000000 0.000000 -3.565862 -0.053640 -4.972224 2.629054 -0.350836 -1.059076 -8.806372 -21.166514 38.474394 0.000000 0.000000 0.000000 1.701940 4.663997 -41.882396 1.257184 -0.739285 4.481664 -1.359007 2.396238 35.960926 8.338752 -4.518774 -18.584579 0.000000 0.000000 0.000000 14.353227 2.127806 -0.431144 -73.102227 7.809493 -18.715671 -26.546847 -40.364971 11.804658 0.000000 0.000000 0.000000 2.005663 -6.519389 -2.974897 62.120795 -17.244391 -18.894691 26.700902 30.270151 7.828751 0.000000 0.000000 0.000000
0.001956 0.111026 -0.053281 -2.128593 -6.993176 -81.438193 4.680772 0.582362 -6.746696 0.549383 -0.085580 0.116585 -2.023876 7.980922 35.638662 0.000000 0.000000 0.000000 -3.420805 -0.030288 -4.996537 1.973493 -0.253456 -0.066429 -8.907366 -21.179478 38.075999 0.000000 0.000000 0.000000 1.759979 4.653943 -41.994743 1.020774 -0.647177 5.351272 -1.199393 2.551110 35.933776 8.186454 -4.563796 -17.418911 0.000000 0.000000 0.000000 13.516030 2.067840 -0.409519 -72.583223 6.394967 -17.934267 -24.532653 -39.205424 10.660269 0.000000 0.000000 0.000000 2.358982 -6.858796 -3.141250 61.925634 -17.299707 -18.824524 26.057982 30.543796 7.785773 0.000000 0.000000 0.000000
0.002172 0.111540 -0.053860 -2.198968 -6.701995 -81.498489 4.303589 0.481893 -6.862285 0.427281 -0.097638 0.949596 -1.755118 8.106185 34.942694 0.000000 0.000000 0.000000 -3.232510 0.046160 -5.508274 1.102100 -0.104776 1.112365 -8.697200 -20.859433 37.491599 0.000000 0.000000 0.000000 1.796411 4.621180 -42.153473 0.677219 -0.488841 6.075725 -0.968427 2.636800 35.636112 7.695247 -4.334281 -16.468444 0.000000 0.000000 0.000000 12.985131 1.906904 -0.361110 -72.672079 5.638720 -17.638209 -23.525270 -38.788399 10.177363 0.000000 0.000000 0.000000 2.940812 -6.695199 -3.088885 61.263938 -17.388946 -18.606285 25.966884 31.603144 8.095308 0.000000 0.000000 0.000000
0.002441 0.110494 -0.054416 -2.290628 -6.318438 -81.795631 3.775097 0.353549 -6.856933 0.437454 -0.112773 1.328617 -1.774183 8.250858 35.514260 0.000000 0.000000 0.000000 -3.426542 0.006534 -5.586432 0.540611 -0.004252 1.690769 -7.928981 -20.004586 37.585989 0.000000 0.000000 0.000000 1.729158 4.490739 -42.171336 0.267551 -0.286934 6.480310 -0.663298 2.938380 35.836782 7.433158 -4.169038 -15.804430 0.000000 0.000000 0.000000 13.017543 1.681301 -0.248949 -72.916510 4.648591 -17.395615 -22.877729 -39.430968 10.117795 0.000000 0.000000 0.000000 3.034196 -6.752188 -3.079918 61.474379 -17.508093 -18.685078 26.550155 32.201080 8.529700 0.000000 0.000000 0.000000
0.002663 0.110544 -0.055160 -2.586201 -6.120560 -81.806426 3.459666 0.274841 -6.874600 0.211230 -0.073419 1.239481 -1.888617 8.286935 36.004301 0.000000 0.000000 0.000000 -3.186872 0.055095 -5.612261 -0.045718 0.091896 1.927669 -7.859640 -19.845717 37.447104 0.000000 0.000000 0.000000 1.320820 4.130841 -41.978963 0.304394 -0.339082 7.487645 -0.453674 3.096283 35.085349 7.393727 -4.195488 -15.146881 0.000000 0.000000 0.000000 12.652988 0.958261 -0.031175 -73.512817 3.724891 -16.974712 -21.599334 -41.203792 10.176259 0.000000 0.000000 0.000000 3.784783 -6.740088 -3.089911 61.381937 -16.912310 -18.297331 26.644043 32.541915 8.748750 0.000000 0.000000 0.000000
0.002699 0.109422 -0.055887 -2.815670 -5.954489 -81.603293 3.491261 0.257851 -7.249162 -0.222809 -0.000202 1.084262 -2.036235 8.229865 36.146446 0.000000 0.000000 0.000000 -3.106937 0.118916 -6.146601 -0.215719 0.149150 2.583886 -7.634185 -19.508199 36.761003 0.000000 0.000000 0.000000 1.089220 3.921078 -41.877918 0.272573 -0.340296 7.889474 -0.509237 3.219163 34.908392 7.370406 -4.350572 -13.991505 0.000000 0.000000 0.000000 11.576143 0.685842 0.016231 -73.248040 3.492536 -16.887150 -21.747095 -43.361691 10.921459 0.000000 0.000000 0.000000 5.747062 -6.361624 -2.988210 60.636027 -16.558786 -17.951624 26.268523 33.613411 9.040440 0.000000 0.000000 0.000000
0.002608 0.109435 -0.056612 -2.992067 -6.068183 -81.375401 3.699752 0.301593 -7.395858 -0.674258 0.081743 0.638204 -2.393641 8.009168 36.568399 0.000000 0.000000 0.000000 -3.258029 0.116691 -6.421139 0.099927 0.120014 3.010935 -7.371518 -19.217780 35.979159 0.000000 0.000000 0.000000 0.915552 3.827171 -41.891999 0.199726 -0.308098 8.253522 -0.272676 3.295125 34.579563 7.573750 -4.590844 -13.406033 0.000000 0.000000 0.000000 11.536932 0.020410 0.213233 -73.974498 3.259570 -16.921599 -20.924638 -45.477302 11.229231 0.000000 0.000000 0.000000 6.752409 -6.276255 -2.982495 60.430249 -16.500591 -17.866950 26.594447 33.041268 9.004909 0.000000 0.000000 0.000000
0.002348 0.109617 -0.057405 -3.083864 -6.229321 -81.165952 4.051838 0.378004 -7.629028 -0.979515 0.125437 0.725480 -2.729563 7.646465 36.264402 0.000000 0.000000 0.000000 -3.308159 0.109543 -6.421631 0.905779 -0.011380 2.913114 -7.648569 -19.514577 35.157393 0.000000 0.000000 0.000000 0.756230 3.742023 -41.647977 0.194984 -0.311229 8.681569 -0.304876 3.247176 33.649139 7.839711 -5.008746 -12.203305 0.000000 0.000000 0.000000 10.725053 -0.893481 0.463139 -73.855569 3.920785 -17.188474 -20.267628 -47.821051 11.588519 0.000000 0.000000 0.000000 7.890885 -5.552631 -2.684827 60.137562 -16.739459 -17.850238 26.652883 33.149779 9.028929 0.000000 0.000000 0.000000
0.001951 0.110852 -0.058206 -2.942175 -6.319613 -80.875581 4.334624 0.422937 -8.022533 -1.094529 0.131085 1.217072 -2.526392 7.580388 35.224946 0.000000 0.000000 0.000000 -3.765992 0.018392 -6.415388 1.853853 -0.169449 2.537334 -8.261926 -20.208412 33.483609 0.000000 0.000000 0.000000 0.579070 3.672735 -41.712356 0.176401 -0.289799 8.707724 -0.182139 3.518586 33.738863 8.270236 -5.395890 -11.919938 0.000000 0.000000 0.000000 10.620715 -1.159982 0.527779 -73.903672 4.392671 -17.570687 -21.275811 -48.348851 12.223515 0.000000 0.000000 0.000000 8.688812 -5.489506 -2.651617 60.607700 -16.345220 -17.888635 26.477409 31.813486 8.642858 0.000000 0.000000 0.000000
0.001483 0.112118 -0.059197 -2.613180 -6.607280 -80.504058 4.442187 0.427274 -8.454943 -0.889490 0.093153 1.448924 -2.679053 7.431117 35.614218 0.000000 0.000000 0.000000 -3.369572 0.123947 -6.611832 2.123932 -0.215438 2.242267 -8.238533 -20.244219 33.473994 0.000000 0.000000 0.000000 1.039588 4.075376 -41.723449 -0.171518 -0.081924 9.000332 -0.193234 3.567883 33.762106 8.332301 -5.805924 -10.172609 0.000000 0.000000 0.000000 9.293255 -1.686671 0.658194 -72.737495 4.566617 -17.431265 -21.121856 -47.164701 11.779120 0.000000 0.000000 0.000000 9.760122 -4.744122 -2.288302 60.742651 -16.049593 -17.864114 25.683050 30.594906 8.084324 0.000000 0.000000 0.000000
0.000983 0.113296 -0.060511 -2.334413 -6.672012 -80.069909 4.693872 0.491686 -8.235945 -1.117362 0.145133 0.703512 -2.985308 7.139693 35.766803 0.000000 0.000000 0.000000 -2.974817 0.243004 -6.971951 2.409978 -0.260839 2.070715 -7.777474 -19.778375 33.836097 0.000000 0.000000 0.000000 1.070792 4.198951 -41.991273 -0.332356 -0.002938 10.391835 -0.142500 3.642279 32.802127 8.542811 -6.230796 -8.798280 0.000000 0.000000 0.000000 7.638489 -2.120609 0.779280 -70.964178 5.396171 -17.446428 -22.990064 -45.704987 12.077342 0.000000 0.000000 0.000000 11.211930 -4.251071 -2.054727 59.989717 -14.908424 -17.067174 24.254650 30.051549 7.587740 0.000000 0.000000 0.000000
0.000543 0.112801 -0.061829 -1.840460 -7.004777 -79.862423 5.196165 0.636276 -7.791978 -2.026236 0.300436 -0.606654 -2.987236 7.190596 36.327531 0.000000 0.000000 0.000000 -2.747706 0.326702 -7.313530 3.372137 -0.390248 2.297184 -8.316454 -20.424165 32.913098 0.000000 0.000000 0.000000 1.428519 4.522328 -41.557354 -0.644035 0.205740 10.923207 0.026378 4.406126 32.336725 8.967644 -6.931223 -6.899479 0.000000 0.000000 0.000000 5.542975 -2.866558 1.004923 -68.408684 5.516426 -17.005475 -24.894219 -41.538956 11.426846 0.000000 0.000000 0.000000 13.791492 -4.097490 -1.898862 58.990155 -14.067204 -16.444655 22.709959 29.424512 7.106962 0.000000 0.000000 0.000000
0.000019 0.110519 -0.063064 -1.292307 -6.985039 -79.540736 5.444634 0.698106 -7.601508 -2.517602 0.382775 -2.266579 -3.173244 6.934434 36.163051 0.000000 0.000000 0.000000 -2.102861 0.461984 -7.308991 2.982839 -0.359681 0.975087 -9.221706 -21.417779 33.074884 0.000000 0.000000 0.000000 1.595370 4.864026 -42.604040 -1.317541 0.614591 11.499206 0.393792 4.703637 32.818306 8.238155 -6.876701 -4.165401 0.000000 0.000000 0.000000 3.815437 -3.290950 1.116440 -66.755749 5.692268 -16.955448 -25.575630 -37.545578 10.363939 0.000000 0.000000 0.000000 16.878352 -3.994903 -1.742044 56.575615 -14.073756 -15.998255 22.151261 29.957255 7.151485 0.000000 0.000000 0.000000
-0.000586 0.110983 -0.064029 -1.054605 -6.963641 -79.622769 5.414164 0.746174 -6.161262 -3.154943 0.471392 -5.160124 -0.569750 9.785868 38.164348 0.000000 0.000000 0.000000 -2.610850 0.242371 -6.175619 4.398306 -0.554931 -1.385519 -10.255817 -22.566836 33.962305 0.000000 0.000000 0.000000 1.659129 4.867640 -42.094310 -2.294673 1.216328 12.231734 1.030598 4.367107 31.860893 7.739634 -6.998826 -1.566951 0.000000 0.000000 0.000000 1.028686 -4.073711 1.378227 -63.869121 5.668981 -16.018166 -23.303640 -36.956319 9.297882 0.000000 0.000000 0.000000 16.862348 -3.057568 -1.224016 56.888678 -13.587809 -15.834776 20.558697 28.885948 6.450048 0.000000 0.000000 0.000000
-0.001230 0.113393 -0.064899 -1.003531 -7.462375 -79.191385 6.946329 1.092699 -6.039249 -3.153611 0.475479 -6.718802 -4.147717 7.344212 42.160084 0.000000 0.000000 0.000000 -3.039561 0.120439 -5.647624 6.525311 -0.730533 -3.483006 -10.585631 -23.077990 35.219331 0.000000 0.000000 0.000000 2.021652 5.231547 -42.356517 -2.074602 1.108229 12.183376 0.943565 4.636977 31.699441 10.124802 -9.259037 -1.709101 0.000000 0.000000 0.000000 2.018102 -5.374803 1.899615 -64.035534 5.946137 -16.188787 -24.701275 -35.562940 9.287275 0.000000 0.000000 0.000000 17.566562 -2.914951 -1.170897 56.205702 -13.738112 -15.676827 21.163626 28.268213 6.404102 0.000000 0.000000 0.000000
-0.001904 0.112774 -0.065516 -2.105230 -6.712448 -79.170452 6.295784 0.912646 -6.151353 -3.492585 0.502240 -5.311540 -3.405330 7.516090 39.117821 0.000000 0.000000 0.000000 -5.000949 -0.325434 -4.607237 9.072364 -0.863723 -5.346635 -11.017339 -23.313824 38.649549 0.000000 0.000000 0.000000 0.697995 3.989289 -42.124646 -3.449222 2.001970 16.673005 3.444584 3.881683 28.175933 8.216872 -9.956114 8.602446 0.000000 0.000000 0.000000 -2.521150 -7.669046 2.867097 -61.652900 5.292706 -14.716011 -17.915568 -37.361954 7.541492 0.000000 0.000000 0.000000 23.009949 -1.601281 -0.584779 49.810787 -12.787249 -13.379090 21.927111 27.407152 6.321220 0.000000 0.000000 0.000000
-0.002654 0.114481 -0.066400 -0.687189 -10.320058 -80.059074 9.986735 1.888550 -4.370905 -2.163487 0.396644 -6.444616 -5.887293 4.631667 38.287453 0.000000 0.000000 0.000000 -2.002076 0.072406 -2.984687 10.285771 -0.714490 -8.024796 -10.511579 -23.340575 39.330513 0.000000 0.000000 0.000000 2.859424 6.839389 -43.649629 0.271510 -0.257234 16.961390 0.466343 2.425746 32.848883 7.401750 -9.217416 7.775155 0.000000 0.000000 0.000000 -4.293334 -7.753520 3.308361 -57.633567 7.351827 -15.206482 -29.568167 -38.541554 12.174636 0.000000 0.000000 0.000000 19.535146 -0.435218 -0.398676 56.456748 -11.729761 -15.547899 14.611307 24.956366 4.098132 0.000000 0.000000 0.000000
-0.003362 0.110937 -0.067668 -2.783807 -7.605557 -81.195689 4.775870 0.498708 -8.992929 1.495289 -0.430509 4.450863 -9.206905 0.821535 35.732583 0.000000 0.000000 0.000000 -4.925052 -0.195811 -6.482274 8.884467 -1.114369 0.224394 -11.614229 -23.645660 39.067197 0.000000 0.000000 0.000000 -0.494305 2.889547 -38.364221 -0.186749 -0.095403 17.231950 3.392402 3.622176 31.347662 2.472807 -3.349948 8.260901 0.000000 0.000000 0.000000 -2.528192 -8.394046 3.289735 -62.019350 5.190890 -14.903240 -21.711819 -40.620966 10.085347 0.000000 0.000000 0.000000 18.813628 -2.146818 -1.054599 58.530592 -7.326292 -13.907819 7.888265 24.279770 2.826925 0.000000 0.000000 0.000000
