HIERARCHY
ROOT Hips
{
	OFFSET -0.001795 -0.223333 0.028219
	CHANNELS 6 Xposition Yposition Zposition Zrotation Yrotation Xrotation
	JOINT LeftUpLeg
	{
		OFFSET 0.069520 -0.091406 -0.006815
		CHANNELS 3 Zrotation Yrotation Xrotation
		JOINT LeftLeg
		{
			OFFSET 0.034277 -0.375199 -0.004496
			CHANNELS 3 Zrotation Yrotation Xrotation
			JOINT LeftFoot
			{
				OFFSET -0.013596 -0.397961 -0.043693
				CHANNELS 3 Zrotation Yrotation Xrotation
				JOINT LeftToe
				{
					OFFSET 0.026358 -0.055791 0.119288
					CHANNELS 3 Zrotation Yrotation Xrotation
					End Site
					{
						OFFSET 0.000000 0.000000 0.000000
					}
				}
			}
		}
	}
	JOINT RightUpLeg
	{
		OFFSET -0.067670 -0.090522 -0.004320
		CHANNELS 3 Zrotation Yrotation Xrotation
		JOINT RightLeg
		{
			OFFSET -0.038290 -0.382569 -0.008850
			CHANNELS 3 Zrotation Yrotation Xrotation
			JOINT RightFoot
			{
				OFFSET 0.015774 -0.398415 -0.042312
				CHANNELS 3 Zrotation Yrotation Xrotation
				JOINT RightToe
				{
					OFFSET -0.025372 -0.048144 0.123348
					CHANNELS 3 Zrotation Yrotation Xrotation
					End Site
					{
						OFFSET 0.000000 0.000000 0.000000
					}
				}
			}
		}
	}
	JOINT Spine
	{
		OFFSET -0.002533 0.108963 -0.026696
		CHANNELS 3 Zrotation Yrotation Xrotation
		JOINT Spine1
		{
			OFFSET 0.005487 0.135180 0.001092
			CHANNELS 3 Zrotation Yrotation Xrotation
			JOINT Spine2
			{
				OFFSET 0.001457 0.052922 0.025425
				CHANNELS 3 Zrotation Yrotation Xrotation
				JOINT Neck
				{
					OFFSET -0.002778 0.213870 -0.042857
					CHANNELS 3 Zrotation Yrotation Xrotation
					JOINT Head
					{
						OFFSET 0.005152 0.064970 0.051349
						CHANNELS 3 Zrotation Yrotation Xrotation
						End Site
						{
							OFFSET 0.000000 0.000000 0.000000
						}
					}
				}
				JOINT LeftShoulder
				{
					OFFSET 0.078845 0.121749 -0.034090
					CHANNELS 3 Zrotation Yrotation Xrotation
					JOINT LeftArm
					{
						OFFSET 0.090977 0.030469 -0.008868
						CHANNELS 3 Zrotation Yrotation Xrotation
						JOINT LeftForeArm
						{
							OFFSET 0.259612 -0.012772 -0.027456
							CHANNELS 3 Zrotation Yrotation Xrotation
							JOINT LeftHand
							{
								OFFSET 0.249234 0.008986 -0.001171
								CHANNELS 3 Zrotation Yrotation Xrotation
								End Site
								{
									OFFSET 0.000000 0.000000 0.000000
								}
							}
						}
					}
				}
				JOINT RightShoulder
				{
					OFFSET -0.081759 0.118833 -0.038615
					CHANNELS 3 Zrotation Yrotation Xrotation
					JOINT RightArm
					{
						OFFSET -0.096012 0.032551 -0.009143
						CHANNELS 3 Zrotation Yrotation Xrotation
						JOINT RightForeArm
						{
							OFFSET -0.253742 -0.013329 -0.021401
							CHANNELS 3 Zrotation Yrotation Xrotation
							JOINT RightHand
							{
								OFFSET -0.255298 0.007772 -0.005559
								CHANNELS 3 Zrotation Yrotation Xrotation
								End Site
								{
									OFFSET 0.000000 0.000000 0.000000
								}
							}
						}
					}
				}
			}
		}
	}
}
MOTION
Frames: 76
Frame Time: 0.050000
0.000000 0.923795 0.000000 0.201739 6.418365 -27.163381 2.259960 1.336631 29.950929 -0.156268 0.178265 -5.064858 1.275578 4.559867 4.016534 0.000000 0.000000 0.000000 -5.733046 -2.188266 27.320300 1.537325 -0.164318 0.832066 -4.625116 -12.827643 4.820986 0.000000 0.000000 0.000000 2.655428 -4.941513 55.168465 -66.329922 -22.315495 -101.779991 19.075350 -63.422663 85.745375 3.859746 -23.632101 -34.132066 0.000000 0.000000 0.000000 -38.620928 -8.194949 32.927295 -32.302501 -26.548839 -12.490931 4.809532 -25.879454 -2.334129 0.000000 0.000000 0.000000 25.654493 13.364756 -20.630439 47.571417 -9.578749 -13.292568 7.996683 22.055468 0.541146 0.000000 0.000000 0.000000
0.000865 0.922485 -0.001220 0.271079 5.959502 -27.373306 2.463876 1.345779 30.182238 -0.723470 0.213011 -5.060863 1.484786 4.806302 3.690471 0.000000 0.000000 0.000000 -5.841771 -2.136125 27.503804 1.454166 -0.156433 0.665889 -4.480931 -12.451665 4.424000 0.000000 0.000000 0.000000 3.375442 -4.829078 52.937228 -76.662485 -25.670033 -98.843875 27.343222 -71.974191 79.415257 4.957522 -25.521615 -33.522418 0.000000 0.000000 0.000000 -36.451216 -6.742394 33.959311 -34.230201 -28.236256 -11.181258 5.289689 -26.446175 -2.694469 0.000000 0.000000 0.000000 23.632570 14.874108 -25.294471 49.613914 -15.920707 -13.873374 8.440911 22.653689 -0.285560 0.000000 0.000000 0.000000
0.001330 0.920988 -0.001720 0.308478 5.647814 -28.437078 3.119537 1.218063 30.040232 -1.893239 0.247774 -2.643755 1.722169 4.857546 2.713014 0.000000 0.000000 0.000000 -6.096128 -2.084459 27.879429 1.567402 -0.138644 1.967894 -4.378741 -12.147088 3.786131 0.000000 0.000000 0.000000 3.765184 -4.797433 52.330682 -83.596696 -27.761419 -97.294242 34.928855 -77.987416 73.605529 4.178576 -26.024006 -35.536358 0.000000 0.000000 0.000000 -34.327187 -6.746021 35.037008 -35.047550 -29.295164 -9.856781 5.578295 -26.093211 -3.055574 0.000000 0.000000 0.000000 21.526047 15.405701 -28.145671 49.419192 -19.744851 -14.429844 11.095080 20.542636 -0.513163 0.000000 0.000000 0.000000
0.001784 0.917265 -0.001711 0.534351 5.639897 -29.251016 2.773394 1.323128 30.479784 -1.696052 0.215244 -1.730979 2.071264 4.997517 1.401642 0.000000 0.000000 0.000000 -6.108727 -2.075792 27.785814 0.953670 -0.001609 3.813839 -4.567016 -12.398166 2.281247 0.000000 0.000000 0.000000 4.861034 -4.635600 48.337983 -113.018102 -18.502003 -79.558010 141.741819 -68.758323 -39.812079 4.312506 -16.211848 -33.325852 0.000000 0.000000 0.000000 -31.958878 -2.779753 51.763368 -29.186966 -42.234384 -6.744809 14.466311 -23.799298 -5.461147 0.000000 0.000000 0.000000 15.886265 16.506229 -36.283531 49.566426 -29.089946 -16.084008 13.635074 19.614132 -2.060974 0.000000 0.000000 0.000000
0.001963 0.911860 -0.001786 0.478735 4.174015 -30.342016 2.870746 1.472372 30.243819 -1.565931 0.141713 1.214407 3.150823 6.319953 -0.861900 0.000000 0.000000 0.000000 -5.876497 -1.920104 27.061118 0.635562 0.150151 6.921006 -4.431225 -11.620127 -0.007369 0.000000 0.000000 0.000000 5.699956 -4.630536 47.784617 -125.288576 -11.702458 -73.909483 147.603207 -56.453177 -51.039788 4.146148 -10.661510 -31.294487 0.000000 0.000000 0.000000 -30.427402 -0.366405 59.090962 -24.212559 -46.927669 -7.511761 16.197247 -22.564890 -6.027060 0.000000 0.000000 0.000000 13.564377 15.910886 -37.630432 49.149621 -32.666121 -18.448453 16.140087 18.127651 -2.297069 0.000000 0.000000 0.000000
0.002058 0.900775 -0.002525 0.482915 3.450535 -31.328066 2.882739 1.536926 29.729189 -1.513708 0.058343 4.354531 4.352141 7.352198 -5.158962 0.000000 0.000000 0.000000 -5.594443 -1.754852 24.852791 0.238742 0.429387 12.796395 -4.857371 -11.892314 -4.071966 0.000000 0.000000 0.000000 6.390936 -4.675276 47.307709 -133.051842 -6.053131 -70.706837 149.348535 -48.048588 -56.439267 4.846603 -7.564832 -31.831526 0.000000 0.000000 0.000000 -28.844875 0.782802 63.007207 -22.443754 -48.561512 -7.624687 17.294253 -22.489857 -6.516628 0.000000 0.000000 0.000000 12.301985 16.300052 -38.020291 48.650826 -34.802727 -19.758808 16.811696 16.261637 -2.458487 0.000000 0.000000 0.000000
0.002033 0.887651 -0.004818 0.934524 2.800791 -32.266481 2.315640 1.713061 28.734564 -1.405636 -0.063571 8.210228 5.618198 8.748878 -9.991443 0.000000 0.000000 0.000000 -5.988919 -1.411921 21.504026 0.245885 0.717766 20.521036 -5.291070 -12.137491 -8.040069 0.000000 0.000000 0.000000 6.396732 -4.585851 47.491622 -139.548097 0.493151 -69.417173 150.781219 -40.647022 -61.574593 5.169808 -4.811514 -31.515495 0.000000 0.000000 0.000000 -27.691193 2.375328 67.979814 -17.424301 -51.593926 -9.519915 19.155965 -20.972817 -6.793146 0.000000 0.000000 0.000000 10.364102 17.056680 -38.392362 48.598455 -35.807461 -21.270983 18.557707 16.245582 -2.808079 0.000000 0.000000 0.000000
0.001935 0.863424 -0.009205 1.838433 0.707516 -33.862664 2.029000 1.882090 25.980939 -2.695630 0.064775 16.962807 7.475443 12.166622 -18.000418 0.000000 0.000000 0.000000 -6.739878 -0.921439 17.091269 0.208519 1.361469 30.859411 -5.819032 -11.434183 -14.192246 0.000000 0.000000 0.000000 7.587282 -4.792075 49.593934 -144.973592 1.419360 -68.443941 154.359127 -37.058018 -64.208726 5.400705 -4.770060 -34.636124 0.000000 0.000000 0.000000 -25.990636 3.868790 70.132313 -13.442331 -52.392364 -10.075788 18.288755 -21.021378 -6.822988 0.000000 0.000000 0.000000 8.898182 17.908514 -40.375656 48.196148 -38.036531 -22.710738 19.551633 16.362186 -3.081711 0.000000 0.000000 0.000000
0.000852 0.835773 -0.015650 2.274096 -0.323476 -36.063120 1.786112 1.817454 23.158287 -3.208542 0.159934 26.660290 8.640030 15.062259 -25.561087 0.000000 0.000000 0.000000 -7.985323 -0.602669 12.086281 2.968198 0.816662 41.476547 -7.324051 -16.306034 -15.418618 0.000000 0.000000 0.000000 6.119830 -4.479106 53.396683 -160.758621 1.918760 -67.176757 163.766620 -23.299342 -70.154200 10.411534 4.764022 -35.035739 0.000000 0.000000 0.000000 -14.015913 6.761465 89.809905 14.460359 -61.988174 -20.760254 26.226571 -14.225942 -7.448332 0.000000 0.000000 0.000000 4.357653 20.596017 -61.840421 35.864057 -56.861739 -23.054103 25.753205 11.953657 -4.163807 0.000000 0.000000 0.000000
-0.001304 0.798192 -0.023886 2.540158 -3.038994 -37.718208 2.776247 1.440113 17.855812 -4.990712 1.420144 39.979076 9.343035 19.175329 -32.457539 0.000000 0.000000 0.000000 -9.046981 -0.315443 3.768425 7.299895 -0.504190 51.754699 -11.466225 -28.441118 -7.930399 0.000000 0.000000 0.000000 9.264869 -5.401420 55.038828 159.362344 42.321766 -74.064431 143.335582 21.806273 -84.402990 11.013535 13.835478 -30.128605 0.000000 0.000000 0.000000 -10.013310 8.856496 100.965147 32.875453 -62.148853 -31.656575 27.605504 -8.859711 -6.186314 0.000000 0.000000 0.000000 2.073556 20.632961 -63.775747 33.004683 -59.529627 -23.620916 27.416195 11.162478 -4.783222 0.000000 0.000000 0.000000
-0.004463 0.761749 -0.030301 2.925015 -6.288198 -40.100268 3.693985 0.936882 10.455901 -5.293768 3.462650 57.006825 10.028541 22.914372 -27.666510 0.000000 0.000000 0.000000 -8.999718 -0.106548 -3.545238 10.104549 -1.050923 54.982116 -19.164115 -36.963114 15.060085 0.000000 0.000000 0.000000 17.060551 -8.965134 61.955328 159.759182 47.055782 -69.795025 145.855574 18.521440 -89.008163 22.646901 26.826023 -16.766380 0.000000 0.000000 0.000000 -11.561905 10.139239 106.610068 30.505191 -57.405014 -29.466019 31.096311 -8.995766 -7.394115 0.000000 0.000000 0.000000 0.798047 20.606212 -81.646904 -17.557534 -66.809667 13.612501 32.188262 6.180452 -5.457921 0.000000 0.000000 0.000000
-0.009083 0.714940 -0.029101 3.857995 -9.219847 -44.160249 4.923971 0.490247 1.536000 -5.091761 6.398698 72.866666 10.471368 21.627649 -7.164453 0.000000 0.000000 0.000000 -10.873240 -0.057569 -8.493958 12.524328 -1.425108 53.334253 -27.421235 -41.588419 31.315884 0.000000 0.000000 0.000000 36.440597 -13.102495 57.887878 109.317611 74.695669 -113.774257 128.099783 21.628438 -102.754707 37.353603 28.227048 4.870778 0.000000 0.000000 0.000000 -22.310876 8.116928 74.000605 -12.791185 -43.999379 -7.164248 17.901971 -25.671591 -7.757609 0.000000 0.000000 0.000000 17.504921 16.717986 -43.646838 19.260388 -45.656048 -5.591196 27.017458 18.596307 -0.441403 0.000000 0.000000 0.000000
-0.016451 0.661615 -0.014015 5.323969 -12.841250 -52.052292 8.050755 0.871804 -1.529763 -3.119234 7.967467 83.560226 9.832715 19.865364 -1.197550 0.000000 0.000000 0.000000 -11.965564 -0.112088 -8.513337 11.847612 0.110281 48.911234 -15.379427 -31.525091 14.258842 0.000000 0.000000 0.000000 83.983057 17.782884 20.627955 0.806041 31.792099 129.784828 104.756214 -28.201791 -97.249726 55.995649 17.834465 16.398332 0.000000 0.000000 0.000000 -20.878746 0.729525 38.918695 -30.450782 -17.475557 -1.566678 4.156587 -33.324309 -0.757592 0.000000 0.000000 0.000000 31.987056 16.359617 -28.751495 14.907622 -33.373413 0.523453 21.292384 26.244601 4.045304 0.000000 0.000000 0.000000
-0.029942 0.590994 0.016244 6.998031 -13.713909 -58.666651 9.719675 1.283031 -6.027726 1.542210 3.854278 91.915931 9.855789 19.105228 -10.806842 0.000000 0.000000 0.000000 -16.836543 -0.419290 -7.608931 12.106802 0.426029 46.487553 -8.298682 -17.187834 -8.247555 0.000000 0.000000 0.000000 47.141935 45.161238 -39.120333 -4.337951 -8.301612 127.634937 43.732218 -56.307685 -43.302573 20.638713 -2.602286 -10.961257 0.000000 0.000000 0.000000 -13.071482 -4.819505 11.712442 -33.430247 -9.530044 -1.261895 -1.501371 -31.946461 3.027219 0.000000 0.000000 0.000000 28.460702 15.173677 -24.270523 21.816666 -23.977723 -0.655815 13.357222 35.960853 2.269033 0.000000 0.000000 0.000000
-0.049782 0.509149 0.056644 8.564653 -13.937935 -63.954274 8.548716 1.191971 -11.115407 8.152223 -3.376705 94.226842 10.588681 20.593837 -29.229549 0.000000 0.000000 0.000000 -20.870044 -0.634694 -8.626976 17.965783 -1.894974 46.240228 -8.436384 -14.868856 -15.024607 0.000000 0.000000 0.000000 19.999173 28.367252 -56.109188 1.995379 -20.998993 112.051830 10.328451 -49.492258 -26.721945 13.567838 -5.707078 15.577908 0.000000 0.000000 0.000000 -33.494820 -6.404460 17.901383 -23.105688 -6.118176 -4.614598 0.420325 -34.572056 1.252956 0.000000 0.000000 0.000000 13.170455 4.476513 -7.722273 27.797068 -11.452638 -2.822817 -0.251694 40.339911 -3.872768 0.000000 0.000000 0.000000
-0.072294 0.420541 0.098791 10.304944 -16.642649 -69.788257 11.261635 2.324942 -13.239684 20.229551 -17.783553 97.978457 8.427751 3.795224 -35.965353 0.000000 0.000000 0.000000 -20.859681 -0.606249 -12.677941 24.119026 -3.518678 54.513483 -10.417401 -20.396985 -25.612296 0.000000 0.000000 0.000000 18.207127 24.968059 -51.603795 8.185333 -11.422322 77.379826 -8.689316 -43.739831 2.777916 13.956343 -11.004685 28.825600 0.000000 0.000000 0.000000 -44.600696 -11.123499 25.802500 -16.386476 -0.532037 -4.471629 7.847478 -34.624590 -2.479014 0.000000 0.000000 0.000000 10.338635 -2.061000 -6.482176 23.606623 -10.146634 -3.109670 -8.012314 49.370945 -7.691411 0.000000 0.000000 0.000000
-0.092434 0.331518 0.132704 10.862289 -19.059862 -74.830915 11.284940 3.141703 -19.316433 40.060112 -32.621361 84.426810 0.715200 -25.514426 -27.726030 0.000000 0.000000 0.000000 -18.316855 -0.145494 -19.836514 31.850400 -7.283671 62.227480 -11.348720 -29.774051 -22.955086 0.000000 0.000000 0.000000 17.884758 21.758258 -45.582866 8.296622 -4.965771 32.324696 -34.670985 -30.584210 48.696670 6.012316 -8.393698 11.515662 0.000000 0.000000 0.000000 -30.096527 -7.441925 18.482621 -28.188434 -9.238632 -7.123084 7.437515 -39.640974 -0.605488 0.000000 0.000000 0.000000 -2.516233 2.386897 -1.655290 41.117472 -2.452302 -8.417361 -19.535399 54.691262 -17.807820 0.000000 0.000000 0.000000
-0.105264 0.267030 0.153350 11.086536 -19.307544 -77.488359 8.469039 2.684930 -25.241094 39.202226 -24.555657 70.710673 -11.651711 -26.069065 -3.133193 0.000000 0.000000 0.000000 -17.135769 0.262214 -24.570320 39.194480 -11.595307 62.792772 -12.280926 -40.680851 -27.230006 0.000000 0.000000 0.000000 16.184818 19.470085 -43.661642 6.171570 -2.893878 21.961606 -28.386018 -22.885043 50.180996 8.966533 -12.734413 2.210556 0.000000 0.000000 0.000000 -25.605284 -9.495193 16.741783 -34.312220 -15.046967 -6.575575 4.717946 -44.590921 1.737801 0.000000 0.000000 0.000000 -7.829106 2.723837 0.738036 47.001342 2.360914 -10.068887 -23.995555 59.976335 -21.543402 0.000000 0.000000 0.000000
-0.113546 0.204079 0.165367 10.709859 -19.940454 -78.897099 5.316093 1.561986 -26.731136 24.696879 -10.826710 55.922862 -5.225021 -4.495296 11.041539 0.000000 0.000000 0.000000 -11.247317 1.684341 -27.277336 34.965588 -8.990920 60.238993 -10.923835 -42.082405 -37.542165 0.000000 0.000000 0.000000 15.308793 19.148809 -44.199840 2.288297 -0.560905 15.950476 -19.296607 -17.969570 51.295293 11.076249 -13.859639 -7.156398 0.000000 0.000000 0.000000 -16.747010 -11.855296 12.448485 -48.360307 -18.195539 -4.129354 -1.452410 -44.196917 5.182506 0.000000 0.000000 0.000000 -15.023781 -0.589401 2.158651 54.925431 6.123923 -12.681171 -9.218530 64.636857 -11.153801 0.000000 0.000000 0.000000
-0.122324 0.156687 0.173843 8.880847 -19.146112 -79.361996 2.765060 0.358565 -27.466383 14.407255 -4.852486 41.649472 -5.806810 -1.272372 24.941116 0.000000 0.000000 0.000000 -11.280301 1.919886 -30.176858 34.532382 -9.058495 55.303499 -11.134807 -45.475616 -39.463907 0.000000 0.000000 0.000000 12.784706 17.051160 -44.875621 1.724499 -0.464360 11.801463 -15.048470 -14.063886 51.277043 10.656382 -12.407254 -10.959061 0.000000 0.000000 0.000000 -9.187593 -14.487625 9.728263 -58.881293 -17.215891 -2.131157 0.528982 -46.553230 5.036979 0.000000 0.000000 0.000000 -14.205690 1.847163 2.473455 57.851185 9.504300 -11.622664 -7.578064 62.327607 -7.629111 0.000000 0.000000 0.000000
-0.135631 0.117643 0.181021 5.326268 -17.731388 -78.592814 -1.292160 -1.602179 -29.352061 11.526150 -3.929320 34.703351 -4.644817 -0.030477 24.596256 0.000000 0.000000 0.000000 -10.150674 2.002014 -31.288557 32.767981 -8.618528 47.018363 -9.355316 -50.337528 -48.161162 0.000000 0.000000 0.000000 9.391988 13.998228 -45.984935 1.608493 -0.638240 7.417018 -11.465068 -12.687766 51.897589 8.966850 -10.150138 -14.822238 0.000000 0.000000 0.000000 2.720967 -14.044501 4.570185 -70.710361 -16.140623 1.850432 -4.056240 -44.116258 6.173608 0.000000 0.000000 0.000000 -17.734101 -1.689458 2.167025 64.062061 12.009217 -12.283495 12.751117 59.329858 5.766045 0.000000 0.000000 0.000000
-0.153201 0.093614 0.183416 5.052459 -19.703316 -79.096915 0.894718 -0.401297 -31.263703 9.309641 -2.880767 28.247473 -2.147185 4.848157 34.454205 0.000000 0.000000 0.000000 -8.413855 3.398210 -34.668588 33.924666 -8.447139 43.337772 -12.750551 -55.685352 -38.876960 0.000000 0.000000 0.000000 9.764296 14.977631 -46.341420 1.768881 -0.697499 7.873157 -10.092086 -10.625470 48.581519 10.103992 -10.010387 -15.185169 0.000000 0.000000 0.000000 11.260382 -16.018188 2.416078 -74.277919 -14.820208 3.280972 -5.250239 -45.030376 6.228107 0.000000 0.000000 0.000000 -18.916020 -1.789559 2.267608 70.064188 11.827333 -12.702514 18.153950 54.760965 9.230543 0.000000 0.000000 0.000000
-0.172155 0.079946 0.179787 4.884546 -18.045307 -80.879088 -0.141827 -1.082380 -32.115615 10.825097 -3.354419 21.974869 -4.209762 4.404697 40.082069 0.000000 0.000000 0.000000 -11.849759 1.818156 -33.936172 36.468701 -8.662404 37.561798 -19.445362 -58.804108 -25.556783 0.000000 0.000000 0.000000 7.580591 13.296629 -47.016331 0.517460 -0.111010 5.406556 -7.930448 -9.387175 52.135428 8.277077 -8.284373 -18.221334 0.000000 0.000000 0.000000 14.919736 -14.646993 0.962557 -75.951238 -14.691899 3.688744 -4.499047 -45.802714 5.806693 0.000000 0.000000 0.000000 -21.657721 -1.422649 2.476441 75.810920 11.279114 -14.603983 27.232513 51.944501 14.150241 0.000000 0.000000 0.000000
-0.190561 0.082244 0.171593 6.204527 -17.297756 -81.600549 0.936627 -0.450430 -34.485711 8.965743 -2.765546 21.144734 -7.313295 3.223701 44.634158 0.000000 0.000000 0.000000 -14.244202 1.244308 -34.919170 34.054003 -7.712511 36.665823 -26.921215 -52.469698 -1.058158 0.000000 0.000000 0.000000 8.503711 14.191204 -47.423023 -0.164472 0.226090 5.097073 -7.927678 -6.753352 52.106642 8.539498 -8.265099 -16.621000 0.000000 0.000000 0.000000 14.812468 -14.288000 1.263376 -73.350845 -13.957823 0.981406 -10.271002 -51.279708 9.908871 0.000000 0.000000 0.000000 -17.543314 -1.891550 1.222683 77.203384 6.515435 -16.091883 27.074927 54.576108 15.772599 0.000000 0.000000 0.000000
-0.209951 0.087754 0.163320 7.049356 -16.611887 -82.377347 1.986004 -0.051287 -33.236636 8.418781 -2.514982 18.739453 -5.899702 5.018962 47.221347 0.000000 0.000000 0.000000 -17.260654 0.106321 -33.992442 33.386241 -7.172696 35.788727 -26.020126 -43.394155 15.795319 0.000000 0.000000 0.000000 9.328713 14.588474 -46.834990 -1.009415 0.679939 5.608829 -7.888865 -7.195331 51.122682 8.879018 -8.352434 -17.286304 0.000000 0.000000 0.000000 13.510220 -14.621473 1.814733 -69.817821 -11.149518 -1.615923 -14.183014 -58.865746 14.528849 0.000000 0.000000 0.000000 -17.192957 -1.445628 1.286315 77.625621 0.091888 -20.536867 38.562673 55.262519 21.915169 0.000000 0.000000 0.000000
-0.230999 0.093782 0.157573 8.310445 -16.041291 -84.054030 3.241490 0.397590 -28.038212 11.977226 -3.321885 15.371824 -1.562325 7.882147 45.362309 0.000000 0.000000 0.000000 -19.977397 -0.977080 -29.588789 31.362416 -5.920011 32.648185 -22.462946 -37.079648 24.132562 0.000000 0.000000 0.000000 10.339060 15.254649 -46.182836 -0.501020 0.392607 5.391618 -9.141667 -6.125088 52.271973 10.015988 -9.317038 -16.614889 0.000000 0.000000 0.000000 8.474040 -15.618120 3.587113 -62.408322 -8.318304 -5.264555 -16.376521 -70.377441 20.442047 0.000000 0.000000 0.000000 -15.513929 -3.915841 0.136645 74.983158 -7.890898 -24.277818 55.209473 58.218981 33.238931 0.000000 0.000000 0.000000
-0.252444 0.106530 0.155453 8.036506 -13.620177 -83.263863 3.930632 0.420738 -27.939785 13.641988 -4.234854 18.796744 -6.881702 3.045625 41.423191 0.000000 0.000000 0.000000 -24.523102 -2.489267 -27.133580 29.424419 -5.501169 31.015170 -11.957656 -25.523561 26.702451 0.000000 0.000000 0.000000 7.960955 13.980941 -49.281470 -1.330308 0.923270 10.014847 -7.810943 -8.680178 50.290579 8.771889 -8.857569 -14.243067 0.000000 0.000000 0.000000 3.433927 -10.957498 3.671429 -59.619878 -7.422197 -6.444990 -14.296026 -84.169818 26.077461 0.000000 0.000000 0.000000 -14.412433 -3.919651 0.091084 71.278239 -12.034042 -25.564979 71.974077 60.304813 45.098645 0.000000 0.000000 0.000000
-0.273455 0.110819 0.156301 7.055939 -14.299648 -82.745975 6.290283 1.481891 -26.884253 14.942056 -4.712739 18.817235 -10.587519 -0.478058 39.173045 0.000000 0.000000 0.000000 -20.620235 -1.554188 -27.299331 23.706120 -4.181641 30.967661 -8.320334 -21.481937 29.135509 0.000000 0.000000 0.000000 6.593674 13.563678 -50.629103 1.330365 -0.603197 10.567835 -10.160343 -9.215372 49.820276 11.959608 -11.602775 -13.472248 0.000000 0.000000 0.000000 0.634347 -10.603133 4.328470 -56.637572 -5.496892 -7.699452 92.717086 -88.193559 -76.213928 0.000000 0.000000 0.000000 -12.306608 -6.675887 -1.173441 65.631102 -18.687604 -26.671521 85.957841 56.402771 50.159234 0.000000 0.000000 0.000000
-0.291834 0.109739 0.158821 5.226407 -13.283687 -82.553462 6.742994 1.415525 -25.411599 14.168460 -4.594064 18.945248 -9.525614 2.084089 43.673995 0.000000 0.000000 0.000000 -18.188634 -1.230494 -28.062567 19.571625 -3.510412 34.298841 -4.956666 -17.711028 33.229495 0.000000 0.000000 0.000000 3.436255 10.561593 -50.539275 1.272179 -0.614046 10.536445 -7.717525 -9.578471 48.714855 10.788084 -10.614217 -12.986776 0.000000 0.000000 0.000000 2.532921 -10.060444 3.695161 -57.744695 -4.372102 -7.955320 116.291920 -86.405303 -98.115937 0.000000 0.000000 0.000000 -13.924705 -7.953764 -1.143247 63.364042 -22.441884 -27.576678 90.588063 54.669969 50.849216 0.000000 0.000000 0.000000
-0.305288 0.106512 0.161411 5.159263 -14.015545 -82.783191 9.038382 2.383959 -24.676562 12.378272 -4.446125 22.601732 -8.745504 2.311919 42.017599 0.000000 0.000000 0.000000 -15.597346 -0.389951 -28.162591 15.796368 -2.192777 33.949772 -2.425500 -15.475451 36.701456 0.000000 0.000000 0.000000 5.249470 11.449139 -48.690157 1.696774 -0.853713 9.945389 -9.240413 -9.370793 49.167136 10.118810 -10.848957 -9.914506 0.000000 0.000000 0.000000 2.208844 -5.984006 2.202749 -58.623804 -5.669249 -7.640810 -78.646359 -89.150937 93.633342 0.000000 0.000000 0.000000 -12.442441 -10.292155 -2.293333 56.279827 -24.368561 -24.461864 86.324999 53.844507 45.202473 0.000000 0.000000 0.000000
-0.315041 0.109016 0.164166 4.059610 -14.784189 -82.531760 10.051753 2.743077 -24.168193 10.700604 -3.995562 23.583342 -8.586352 2.356350 41.858056 0.000000 0.000000 0.000000 -14.148366 -0.324134 -24.826517 13.244488 -1.423433 28.750784 2.499223 -11.603618 41.707738 0.000000 0.000000 0.000000 5.339588 11.433993 -48.523731 1.157897 -0.515469 8.245013 -8.303409 -11.483330 51.481925 7.924625 -9.689283 -9.109025 0.000000 0.000000 0.000000 -5.496840 -4.616040 3.846006 -52.628715 -4.693014 -8.802512 -95.249489 -87.133361 108.190703 0.000000 0.000000 0.000000 -15.041093 -7.819245 -0.831161 54.180904 -26.168769 -25.066825 76.358049 51.877313 34.692874 0.000000 0.000000 0.000000
-0.323340 0.111132 0.167570 1.998720 -15.189909 -81.464795 10.418426 2.860682 -25.121958 8.217972 -3.298913 24.943017 -6.245451 4.433521 41.762989 0.000000 0.000000 0.000000 -11.823536 0.039058 -22.356475 11.029968 -1.041418 24.724691 3.689562 -10.413115 41.780804 0.000000 0.000000 0.000000 3.893691 10.411580 -49.545845 1.055748 -0.487112 7.950045 -6.019060 -10.935030 49.899504 10.365312 -11.139272 -9.482083 0.000000 0.000000 0.000000 -0.190188 -6.521943 3.177738 -58.152075 -3.398876 -8.733957 -60.466955 -83.947935 70.032424 0.000000 0.000000 0.000000 -16.383390 -8.862805 -0.785153 49.888115 -27.267439 -22.759106 72.207144 45.275876 26.376406 0.000000 0.000000 0.000000
-0.330018 0.109138 0.170600 2.619238 -15.871910 -82.620107 10.252471 2.731307 -22.602838 7.147388 -2.687476 22.586052 -5.714140 5.315099 44.147187 0.000000 0.000000 0.000000 -7.670809 0.491602 -16.644445 5.355579 0.077778 17.328260 5.916136 -8.244977 40.410043 0.000000 0.000000 0.000000 6.185605 11.921766 -48.319397 1.088476 -0.491901 6.797780 -7.663725 -8.655820 51.809631 9.036766 -10.280017 -8.653586 0.000000 0.000000 0.000000 2.211493 -5.969766 2.196349 -60.397989 -2.293430 -9.550772 -47.176576 -77.561278 51.242477 0.000000 0.000000 0.000000 -14.737549 -10.865440 -2.124432 47.870631 -27.603058 -21.403657 70.311628 41.452301 23.127101 0.000000 0.000000 0.000000
-0.334466 0.112387 0.172962 2.434813 -14.455656 -82.475955 9.673636 2.289016 -20.990354 5.049290 -1.928141 20.301889 -6.256529 4.685325 43.157063 0.000000 0.000000 0.000000 -9.266630 -0.194423 -13.303518 3.325309 0.262970 13.776697 6.759347 -6.125025 35.695910 0.000000 0.000000 0.000000 4.354803 10.851116 -50.513524 -1.272832 0.782886 9.172269 -4.028651 -9.775727 51.029958 9.377168 -10.041584 -10.826013 0.000000 0.000000 0.000000 0.983228 -5.363375 2.346205 -59.793868 -0.059731 -10.805188 -54.975956 -75.786066 55.941361 0.000000 0.000000 0.000000 -17.039319 -8.264818 -0.733166 47.948757 -25.689587 -20.813936 67.020026 36.865037 18.468166 0.000000 0.000000 0.000000
-0.336256 0.116935 0.175273 2.027272 -15.186794 -82.371144 10.301422 2.378695 -16.878192 5.039184 -1.554300 12.906902 -6.478749 4.656959 43.967310 0.000000 0.000000 0.000000 -7.836770 -0.076033 -10.772904 0.660023 0.527122 10.104463 5.185416 -7.824351 35.059064 0.000000 0.000000 0.000000 4.891650 11.000550 -49.185236 -0.460094 0.304063 8.011887 -5.212014 -8.183958 50.253633 11.694780 -11.400993 -12.558000 0.000000 0.000000 0.000000 2.945876 -5.884997 2.070416 -60.761673 0.523427 -11.105346 -46.151598 -70.381901 43.290210 0.000000 0.000000 0.000000 -14.835401 -7.646120 -1.054955 47.145435 -24.838400 -19.571432 64.787964 36.003434 17.750076 0.000000 0.000000 0.000000
-0.336282 0.121700 0.177156 2.690583 -16.046769 -82.401150 9.339608 1.988760 -14.183636 6.988169 -1.643462 7.500398 -7.093174 4.251496 45.723254 0.000000 0.000000 0.000000 -6.664090 -0.067911 -8.178692 -0.870774 0.409924 5.252312 8.236279 -5.581200 38.189590 0.000000 0.000000 0.000000 5.103544 11.585033 -49.480068 -0.937953 0.585911 7.265526 -4.335772 -8.515810 51.618649 11.305343 -11.763081 -10.403464 0.000000 0.000000 0.000000 -0.280053 -5.619603 2.690887 -58.508662 1.263843 -11.734669 -43.106719 -68.432482 39.238691 0.000000 0.000000 0.000000 -13.470956 -7.721972 -1.257322 46.085744 -22.453049 -18.364137 63.017266 37.766411 17.959125 0.000000 0.000000 0.000000
-0.335614 0.130978 0.178104 1.941816 -17.019822 -81.469514 8.639413 1.747476 -12.971755 9.138927 -1.798092 4.429376 -8.191418 3.170321 45.810393 0.000000 0.000000 0.000000 -5.125465 0.049568 -6.505409 -1.149980 0.212239 1.910576 6.086240 -7.985289 37.901276 0.000000 0.000000 0.000000 3.569630 11.087462 -50.682641 0.685013 -0.260803 7.810431 -5.115401 -8.889522 51.680071 12.174943 -12.868626 -9.366173 0.000000 0.000000 0.000000 -3.269833 -6.791542 3.922601 -55.499754 2.554313 -12.226194 -41.596187 -67.029157 36.606888 0.000000 0.000000 0.000000 -9.174050 -5.683982 -1.338377 42.450994 -21.301370 -16.196726 61.854786 40.196768 18.377906 0.000000 0.000000 0.000000
-0.335463 0.133927 0.178584 1.583531 -17.483977 -81.722392 8.854562 1.847450 -12.496280 9.251997 -1.853859 4.709201 -8.235692 2.771586 44.545241 0.000000 0.000000 0.000000 -4.630664 0.158671 -6.921308 -0.918702 0.402738 5.043129 4.999082 -8.633147 35.842889 0.000000 0.000000 0.000000 2.458737 10.522046 -50.933479 1.065168 -0.455879 8.453877 -4.505872 -9.095703 51.774360 11.005716 -12.461949 -6.632350 0.000000 0.000000 0.000000 -4.459480 -6.836312 4.290250 -54.736979 1.041727 -11.770995 -35.381876 -64.571040 30.469121 0.000000 0.000000 0.000000 -7.232498 -5.380540 -1.637431 40.142614 -20.870693 -14.976008 63.916208 41.950840 19.876928 0.000000 0.000000 0.000000
-0.336454 0.133519 0.178575 2.060046 -18.344347 -82.054262 9.006913 2.020732 -14.497877 10.894359 -2.704888 10.153180 -10.043430 1.005872 44.111847 0.000000 0.000000 0.000000 -3.653022 0.534821 -9.043865 -0.718533 0.783296 9.841305 5.624818 -8.053909 36.088920 0.000000 0.000000 0.000000 2.466831 10.887513 -50.843272 1.414997 -0.606830 8.554057 -4.993919 -8.841302 52.274640 11.198241 -12.828852 -5.257317 0.000000 0.000000 0.000000 -4.986294 -6.367073 4.231752 -54.613994 0.077260 -11.346100 -33.272322 -65.331280 29.547046 0.000000 0.000000 0.000000 -7.572041 -5.152184 -1.473404 42.057845 -20.930584 -15.991311 65.685096 44.410205 22.414440 0.000000 0.000000 0.000000
-0.338186 0.135483 0.178807 1.200102 -18.022782 -82.289722 8.686536 1.997197 -16.557427 10.194397 -3.091446 15.824191 -11.295131 0.218380 44.015713 0.000000 0.000000 0.000000 -2.871071 0.810398 -10.180347 -1.634372 1.445721 14.261171 6.130735 -5.179998 30.214124 0.000000 0.000000 0.000000 1.379671 9.617331 -49.967409 1.112858 -0.468133 6.164002 -3.783716 -7.672627 53.790840 10.281834 -11.568420 -7.436937 0.000000 0.000000 0.000000 -2.257661 -7.185550 3.801782 -56.931380 -1.522335 -10.902508 -27.983917 -62.473406 24.507931 0.000000 0.000000 0.000000 -8.278724 -5.989636 -1.687784 44.362419 -19.856264 -16.730446 64.593777 42.077126 21.305451 0.000000 0.000000 0.000000
-0.340128 0.135304 0.180377 0.562734 -17.685895 -83.056229 7.860738 1.812051 -19.113032 8.661459 -3.071066 21.002886 -9.511473 2.307026 44.907013 0.000000 0.000000 0.000000 -3.140524 0.813976 -10.599208 -1.097398 1.557304 16.400078 5.903759 -5.143535 30.077414 0.000000 0.000000 0.000000 0.658319 8.460567 -48.338623 0.614030 -0.233191 4.386227 -2.571217 -7.082365 52.905792 8.821900 -9.960644 -7.413570 0.000000 0.000000 0.000000 2.183952 -7.462073 2.818173 -60.835410 -1.699410 -10.520472 -24.010212 -61.193605 21.182977 0.000000 0.000000 0.000000 -11.216830 -6.724043 -1.417955 46.502084 -21.516593 -18.264003 69.143818 38.644097 21.075648 0.000000 0.000000 0.000000
-0.341378 0.135728 0.183201 1.161853 -18.974802 -84.525400 8.970049 2.238634 -17.184580 8.495438 -2.951476 20.853334 -6.573074 4.399835 44.132238 0.000000 0.000000 0.000000 -1.310130 0.776586 -7.663262 -2.108203 1.303013 12.087943 4.632515 -7.877309 32.306978 0.000000 0.000000 0.000000 2.054789 9.513021 -47.206908 1.440422 -0.623787 4.023317 -3.893138 -5.974422 52.160786 7.756650 -8.672595 -9.050597 0.000000 0.000000 0.000000 4.505693 -6.657135 1.993160 -63.384234 -2.364730 -9.917831 -24.035267 -60.922146 21.254126 0.000000 0.000000 0.000000 -12.051570 -5.923492 -1.007503 50.265466 -21.776665 -20.126776 67.007642 38.098984 20.548948 0.000000 0.000000 0.000000
-0.342010 0.136918 0.187690 -0.297777 -16.771555 -84.028977 6.706357 1.296880 -14.275750 7.322880 -2.398465 16.284855 -6.441517 4.271676 42.395600 0.000000 0.000000 0.000000 -3.944560 0.153601 -6.176867 -1.597221 0.861955 8.959056 7.766967 -4.003384 33.764050 0.000000 0.000000 0.000000 -0.455217 7.360066 -48.587977 -0.043657 0.074733 5.114982 -0.921191 -6.369676 51.048439 7.624888 -7.686927 -12.821611 0.000000 0.000000 0.000000 5.680295 -5.099097 1.353439 -65.916261 -1.991629 -10.417548 -29.281014 -62.176857 25.087626 0.000000 0.000000 0.000000 -12.017518 -5.814325 -1.035629 53.276578 -20.654689 -20.806898 65.751764 38.192637 20.960085 0.000000 0.000000 0.000000
-0.341799 0.137597 0.192120 0.094654 -16.492558 -83.203124 5.841929 0.981138 -11.725527 8.129517 -2.022663 8.982356 -6.161795 4.701839 43.898925 0.000000 0.000000 0.000000 -3.073054 0.380119 -6.932304 -3.409583 0.911187 6.079454 8.797110 -4.166730 38.023470 0.000000 0.000000 0.000000 -0.431378 7.826908 -50.612012 -0.063717 0.075124 5.103015 -1.213869 -5.655280 51.064002 6.813720 -6.917461 -12.359917 0.000000 0.000000 0.000000 6.692250 -4.991682 1.185146 -67.258672 -0.016234 -11.742950 -30.224070 -62.262886 25.165306 0.000000 0.000000 0.000000 -11.620150 -6.213929 -1.266053 57.780069 -20.644358 -22.802895 62.535039 40.057700 22.114008 0.000000 0.000000 0.000000
-0.340837 0.140714 0.195612 -0.696916 -15.380027 -82.550157 4.850497 0.689341 -8.967953 8.132556 -1.410732 2.041506 -7.716112 3.851931 45.265308 0.000000 0.000000 0.000000 -2.852016 0.258999 -5.541577 -4.838701 0.746121 1.998435 8.808751 -4.974681 41.882935 0.000000 0.000000 0.000000 -1.546387 6.706775 -51.316270 0.082283 -0.018079 2.522842 -1.314458 -4.838098 52.160994 7.548711 -6.995645 -14.005301 0.000000 0.000000 0.000000 10.327612 -4.058136 0.428780 -69.089246 3.986067 -14.065229 -36.591211 -56.634544 25.440878 0.000000 0.000000 0.000000 -12.018989 -6.719911 -1.446153 60.817591 -21.628760 -24.425058 57.073739 37.774252 19.040168 0.000000 0.000000 0.000000
-0.339924 0.143197 0.197746 -0.506892 -14.842605 -82.546495 3.353759 0.343397 -7.724292 9.168918 -1.249262 -1.075884 -7.974529 3.917310 46.453421 0.000000 0.000000 0.000000 -2.664806 0.182551 -4.637428 -5.495985 0.675672 0.315946 10.060187 -4.583684 45.525602 0.000000 0.000000 0.000000 -1.555904 6.478108 -50.922277 -0.159187 0.098597 1.561487 -0.964777 -4.613713 51.642697 6.490903 -5.918196 -14.959098 0.000000 0.000000 0.000000 11.378565 -3.016333 0.041436 -69.340257 6.646932 -15.507405 -37.897896 -50.482056 22.468027 0.000000 0.000000 0.000000 -12.255925 -6.231244 -1.259439 61.375164 -21.674433 -24.536339 54.018004 35.375349 16.535332 0.000000 0.000000 0.000000
-0.339512 0.143689 0.198722 -0.650343 -14.640274 -82.635065 2.730545 0.193309 -7.692262 9.487377 -1.315963 -0.785424 -8.083407 4.260700 47.831684 0.000000 0.000000 0.000000 -2.436006 0.180866 -4.323351 -5.756134 0.763035 0.803854 10.093837 -4.619841 46.104115 0.000000 0.000000 0.000000 -1.588372 6.362882 -50.929683 -0.471082 0.243653 1.673243 -0.539382 -4.843532 51.739339 5.341757 -5.125278 -14.249619 0.000000 0.000000 0.000000 11.760364 -2.780417 -0.068436 -68.481877 8.244129 -16.245913 -39.093626 -45.338079 20.096934 0.000000 0.000000 0.000000 -11.816895 -6.382795 -1.385132 61.185360 -21.492662 -24.335131 54.089866 33.446116 15.453576 0.000000 0.000000 0.000000
-0.339280 0.146137 0.198623 -0.965238 -14.461461 -82.784107 2.062494 0.064403 -6.968674 10.123490 -1.362487 -1.158290 -8.981018 3.804940 48.728875 0.000000 0.000000 0.000000 -1.608094 0.152465 -2.978643 -7.229192 0.856020 -0.260725 11.081450 -3.665319 46.752399 0.000000 0.000000 0.000000 -1.805888 5.942432 -50.183244 -0.329891 0.176660 1.268230 -0.539417 -5.099460 51.575856 3.666363 -3.809561 -14.826917 0.000000 0.000000 0.000000 11.730162 -1.291709 -0.537802 -68.740373 8.645371 -16.302775 -38.068256 -42.078032 18.063473 0.000000 0.000000 0.000000 -11.310597 -6.662654 -1.521267 60.468335 -21.942671 -24.239998 55.857694 32.614752 15.325819 0.000000 0.000000 0.000000
-0.339221 0.148103 0.198237 -0.872654 -14.335379 -83.295746 1.321330 -0.145915 -7.807352 10.099132 -1.618891 1.119684 -8.879922 3.593806 47.727024 0.000000 0.000000 0.000000 -0.660275 0.251275 -2.697187 -8.327661 1.139794 0.816204 10.621532 -3.702366 45.611907 0.000000 0.000000 0.000000 -1.921020 5.776641 -49.791388 -0.773230 0.384295 1.274787 0.247544 -4.553414 51.123334 2.511690 -2.687961 -15.214507 0.000000 0.000000 0.000000 13.034325 -0.742211 -0.725141 -70.077460 8.759872 -16.741013 -38.279563 -41.343298 17.747536 0.000000 0.000000 0.000000 -11.038007 -6.532190 -1.558991 61.378231 -22.706601 -24.816837 57.052984 32.137424 15.644584 0.000000 0.000000 0.000000
-0.338990 0.151168 0.197711 -1.289473 -14.438755 -83.327517 1.571979 -0.141229 -8.977938 9.946593 -1.895680 3.854938 -8.564077 3.439383 46.124074 0.000000 0.000000 0.000000 -0.171220 0.292745 -2.445407 -8.797808 1.339377 1.836610 10.770213 -3.047873 44.233894 0.000000 0.000000 0.000000 -2.145158 5.628428 -50.120552 -0.819504 0.405183 1.556371 0.510210 -4.496607 51.234781 1.755037 -2.026985 -15.560573 0.000000 0.000000 0.000000 14.165620 0.141786 -1.053839 -71.250218 8.158734 -16.513574 -37.767452 -44.531793 19.194015 0.000000 0.000000 0.000000 -10.535631 -7.312051 -1.904933 62.008799 -23.608572 -25.521036 59.456951 32.626658 16.821814 0.000000 0.000000 0.000000
-0.338604 0.150690 0.197139 -1.416972 -14.340298 -83.765384 1.765064 -0.180424 -10.992664 9.136936 -2.256897 8.906110 -7.755164 3.514926 43.658264 0.000000 0.000000 0.000000 -0.617199 0.272356 -2.772118 -8.668152 1.586790 3.795005 10.590354 -2.520770 42.052935 0.000000 0.000000 0.000000 -2.525843 5.275523 -49.859701 -0.788218 0.390760 1.788592 0.682946 -4.275660 51.275263 1.343975 -1.728657 -14.507969 0.000000 0.000000 0.000000 13.244331 0.093294 -0.963737 -70.223010 6.530697 -15.577803 -40.194554 -50.021905 23.508146 0.000000 0.000000 0.000000 -8.332918 -6.870324 -2.094324 60.050769 -23.312361 -24.368611 62.060896 36.121543 19.871632 0.000000 0.000000 0.000000
-0.338064 0.150214 0.196606 -1.127256 -15.241661 -83.657145 3.271782 0.153254 -14.662832 7.180769 -2.452353 17.312361 -6.558108 3.263052 38.981098 0.000000 0.000000 0.000000 0.179854 0.570279 -4.121565 -8.740602 1.922678 6.150830 9.941518 -2.745780 39.929493 0.000000 0.000000 0.000000 -2.654240 5.839721 -51.492384 -0.146882 0.093984 3.148780 0.504650 -4.847514 51.595327 0.116772 -0.990356 -13.197435 0.000000 0.000000 0.000000 14.237829 0.602131 -1.356027 -70.232084 6.387399 -14.940257 -50.948541 -54.885155 33.529437 0.000000 0.000000 0.000000 -9.729587 -6.363963 -1.694535 58.714818 -24.327411 -24.555661 69.598885 37.604438 23.289274 0.000000 0.000000 0.000000
-0.337617 0.148662 0.197020 -1.763035 -14.715004 -83.616423 3.579180 0.197580 -16.544482 5.432268 -2.238642 21.862481 -2.940063 5.395382 32.878934 0.000000 0.000000 0.000000 -0.492160 0.451723 -3.982074 -7.718670 1.862284 7.033046 8.655619 -3.131714 37.150193 0.000000 0.000000 0.000000 -3.017188 5.216871 -50.988446 -0.506505 0.260492 2.630932 1.418099 -3.842381 52.439908 1.445949 -1.812026 -13.189751 0.000000 0.000000 0.000000 16.194366 -1.367556 -0.912741 -70.313220 3.950905 -14.016769 -62.077494 -59.936358 45.491153 0.000000 0.000000 0.000000 -10.254470 -6.696050 -1.888462 56.400336 -24.448320 -23.140690 76.964751 40.010777 28.994229 0.000000 0.000000 0.000000
-0.336953 0.149234 0.199175 -0.985162 -15.197283 -84.684703 5.100242 0.744996 -17.215649 2.916121 -1.487841 26.420677 1.918677 8.653086 23.861134 0.000000 0.000000 0.000000 0.021211 0.492481 -3.632344 -6.943130 1.811710 7.757597 7.910479 -3.380123 34.595461 0.000000 0.000000 0.000000 -1.855875 6.237868 -50.619879 -0.495847 0.271252 4.732490 1.100896 -3.954801 50.901368 -0.161439 -0.545852 -13.135121 0.000000 0.000000 0.000000 16.350830 -0.546745 -1.164970 -68.159581 4.232426 -13.590699 -80.121627 -60.775043 61.436275 0.000000 0.000000 0.000000 -11.696234 -6.760889 -1.711326 55.737870 -23.791498 -22.541920 86.893209 41.553552 35.766310 0.000000 0.000000 0.000000
-0.336100 0.153929 0.202721 -1.734078 -14.570224 -84.461701 5.433854 0.855817 -15.712595 1.522063 -1.017407 25.429605 5.909493 12.583477 18.569894 0.000000 0.000000 0.000000 -0.444312 0.308682 -2.738219 -7.198488 1.873788 7.645949 6.966369 -3.126053 31.204809 0.000000 0.000000 0.000000 -2.588237 5.395412 -50.374118 -0.003039 -0.000081 5.695529 1.187922 -2.806421 49.583685 1.184594 -1.278758 -14.204947 0.000000 0.000000 0.000000 16.667347 -1.287808 -0.789692 -66.441312 2.785218 -13.015209 -95.977560 -61.863469 77.457621 0.000000 0.000000 0.000000 -10.818517 -6.485295 -1.831596 54.043373 -22.637023 -20.776349 94.204022 44.750468 44.837577 0.000000 0.000000 0.000000
-0.335041 0.157064 0.206163 -1.542753 -13.883919 -83.698247 4.474861 0.518134 -15.021114 2.122067 -1.208486 24.135832 6.512216 13.177790 16.705891 0.000000 0.000000 0.000000 -1.875743 0.035474 -2.316781 -7.556884 1.653789 5.395114 7.825442 -1.844187 30.719794 0.000000 0.000000 0.000000 -2.771225 5.495526 -52.717448 -0.683076 0.328358 7.534035 1.640042 -3.285987 49.737648 -0.900010 0.341431 -11.678085 0.000000 0.000000 0.000000 14.787640 0.159637 -0.999435 -64.197511 3.439015 -13.403977 -111.375229 -60.940867 93.213564 0.000000 0.000000 0.000000 -9.287497 -6.025520 -1.855375 52.521340 -20.871827 -19.430434 101.957884 48.307240 55.425404 0.000000 0.000000 0.000000
-0.333833 0.162567 0.208638 -2.587009 -13.665283 -82.653011 5.167111 0.723951 -14.246574 1.474097 -0.989529 22.600369 4.461766 10.823218 17.608854 0.000000 0.000000 0.000000 -2.209706 -0.069873 -1.775425 -8.332243 1.533613 3.362190 8.650763 -1.590257 33.420364 0.000000 0.000000 0.000000 -4.193587 4.367365 -53.389789 0.478639 -0.292296 6.570558 1.320982 -2.720082 50.773551 0.448010 -0.795447 -9.563433 0.000000 0.000000 0.000000 13.512744 0.023351 -0.850504 -62.035156 3.531724 -13.604110 -115.862048 -58.318891 95.401110 0.000000 0.000000 0.000000 -4.654803 -4.996748 -1.963762 47.998632 -19.009174 -16.828889 104.286980 50.699080 60.213230 0.000000 0.000000 0.000000
-0.333164 0.164259 0.210509 -2.728415 -13.290125 -82.329072 4.939855 0.644044 -13.846632 1.032096 -0.821723 21.631090 4.956717 11.606929 18.740001 0.000000 0.000000 0.000000 -2.625514 -0.120081 -1.856558 -8.578146 1.614222 3.651608 9.349698 -1.040582 34.554183 0.000000 0.000000 0.000000 -4.550825 3.956905 -53.359768 -0.081542 -0.011326 6.959939 2.456831 -2.411147 50.076717 -0.104417 -0.219999 -8.330617 0.000000 0.000000 0.000000 12.522146 -0.868548 -0.471559 -60.252424 3.742344 -13.669511 -116.770416 -58.356112 95.889039 0.000000 0.000000 0.000000 -2.746408 -4.602384 -1.941168 44.077607 -18.254354 -14.921131 108.417956 52.245453 65.759496 0.000000 0.000000 0.000000
-0.333000 0.160698 0.212065 -2.755572 -13.171964 -82.370281 5.214425 0.718122 -13.286461 1.002714 -0.782893 20.117714 3.269923 10.107078 21.758146 0.000000 0.000000 0.000000 -2.681239 -0.060785 -2.491774 -9.260949 1.854819 4.516836 9.653557 -0.560192 34.460775 0.000000 0.000000 0.000000 -4.389787 3.925289 -52.699258 -0.536425 0.225217 7.051707 2.957551 -2.152342 51.070215 -0.889994 0.492525 -4.183968 0.000000 0.000000 0.000000 10.525981 0.280833 -0.720423 -57.962820 4.266008 -13.953353 -113.070571 -55.013708 87.214202 0.000000 0.000000 0.000000 2.651196 -4.739487 -2.417545 40.114345 -16.512247 -13.094354 105.204603 53.394005 63.767553 0.000000 0.000000 0.000000
-0.333232 0.157508 0.213102 -2.717834 -12.750785 -82.129985 4.906993 0.616483 -12.473753 1.258877 -0.789845 17.353490 1.097456 8.348967 25.520142 0.000000 0.000000 0.000000 -3.572122 -0.081661 -3.577578 -8.939496 2.047394 6.278376 9.472956 -0.422290 33.617829 0.000000 0.000000 0.000000 -4.481909 3.688082 -52.295851 -1.592924 0.780775 8.449392 4.845160 -1.095636 51.742761 -0.565499 0.270343 2.347494 0.000000 0.000000 0.000000 6.040613 -0.402126 -0.206052 -54.378041 3.625675 -13.931905 -108.765006 -54.446526 80.318102 0.000000 0.000000 0.000000 10.252600 -4.258964 -2.440017 35.790677 -15.936269 -11.742214 104.656648 54.311988 64.737383 0.000000 0.000000 0.000000
-0.333463 0.154815 0.214502 -2.357995 -13.000938 -81.814689 5.002123 0.643691 -12.195424 2.212569 -1.013107 15.982570 0.338341 7.277752 24.609363 0.000000 0.000000 0.000000 -3.523029 0.006938 -4.327194 -8.767596 2.083892 6.819643 7.116427 -2.748692 31.367683 0.000000 0.000000 0.000000 -3.777564 4.330524 -52.154171 -2.121818 1.110950 10.679959 6.073307 -0.043588 52.110715 0.509901 -1.360363 10.383099 0.000000 0.000000 0.000000 1.551643 -1.186569 0.319878 -51.057405 4.168593 -14.134549 -105.554188 -52.723495 73.541931 0.000000 0.000000 0.000000 17.458721 -3.927046 -2.263964 31.119557 -15.957664 -10.365668 102.660783 56.085314 64.602544 0.000000 0.000000 0.000000
-0.333634 0.150786 0.216089 -1.845157 -13.366290 -81.797488 4.485061 0.507757 -11.870537 3.450664 -1.301531 14.835917 1.016551 7.692515 23.423631 0.000000 0.000000 0.000000 -3.788561 0.076392 -5.375085 -8.055626 2.160107 8.492703 6.358577 -3.559193 30.355681 0.000000 0.000000 0.000000 -3.175514 4.810940 -51.165078 -2.772331 1.534711 11.686900 7.407871 1.332046 54.092628 2.078739 -4.492669 17.112279 0.000000 0.000000 0.000000 -2.126348 -2.653730 1.063015 -49.084714 4.019313 -14.333188 -100.786869 -53.969356 69.239931 0.000000 0.000000 0.000000 22.991294 -3.082967 -1.259881 29.459126 -14.652121 -10.034517 97.388531 57.707126 62.332016 0.000000 0.000000 0.000000
-0.333835 0.149826 0.217652 -1.727946 -13.770333 -81.318054 3.860910 0.327678 -12.289847 4.929829 -1.715359 15.072556 0.528186 7.082956 23.665980 0.000000 0.000000 0.000000 -3.728019 0.181677 -6.216699 -7.874514 2.234716 9.335097 5.363167 -4.385688 28.709394 0.000000 0.000000 0.000000 -2.864059 5.263722 -51.407182 -3.039187 1.828749 15.594772 8.723210 2.404286 54.647331 2.222101 -6.779568 25.562893 0.000000 0.000000 0.000000 -8.618741 -4.050434 1.955978 -44.847973 3.642158 -13.805001 -97.141508 -54.995391 65.774814 0.000000 0.000000 0.000000 30.387348 -2.042171 0.172463 25.027442 -13.766175 -8.702061 90.981987 60.011121 58.582966 0.000000 0.000000 0.000000
-0.334071 0.148724 0.218960 -1.212779 -14.557916 -80.953519 3.981639 0.361430 -12.855858 6.508886 -2.170110 15.646640 -0.147974 5.967337 22.735053 0.000000 0.000000 0.000000 -3.327718 0.349235 -7.096222 -7.658086 2.331501 10.380312 3.800047 -6.055015 26.748731 0.000000 0.000000 0.000000 -2.212627 6.063092 -51.285754 -3.162153 2.091102 18.463402 9.304345 3.361090 54.663846 2.148120 -8.862982 31.749025 0.000000 0.000000 0.000000 -12.552155 -5.096088 2.598017 -42.882159 3.346405 -13.441042 -91.369291 -54.122540 59.199055 0.000000 0.000000 0.000000 33.351594 -2.116737 0.653939 24.284367 -13.489515 -8.651041 87.720445 57.126457 53.052618 0.000000 0.000000 0.000000
-0.334378 0.150440 0.219892 -1.399240 -15.310081 -80.364773 3.343250 0.192764 -12.943899 7.637285 -2.419025 15.038865 0.826112 6.617406 20.760182 0.000000 0.000000 0.000000 -2.707878 0.538113 -7.729870 -7.884972 2.574227 11.643015 3.156672 -6.899866 26.398942 0.000000 0.000000 0.000000 -2.299735 6.357233 -51.795437 -2.891874 2.143519 22.304462 9.550174 4.143915 53.473303 2.697578 -12.028651 35.055712 0.000000 0.000000 0.000000 -16.260953 -7.720894 4.122479 -41.758917 2.602949 -13.016593 -84.793034 -56.307588 55.894988 0.000000 0.000000 0.000000 36.401841 -1.319797 1.676996 23.578692 -12.806561 -8.404308 79.693791 57.113494 47.054566 0.000000 0.000000 0.000000
-0.334537 0.151907 0.220832 -1.255424 -16.333631 -80.040822 3.534004 0.268389 -13.251028 7.771003 -2.456176 15.544403 1.129437 6.368427 18.010872 0.000000 0.000000 0.000000 -1.992858 0.832391 -9.031758 -6.898509 2.720035 14.145956 1.561604 -8.780797 24.968580 0.000000 0.000000 0.000000 -1.611162 7.182754 -51.588207 -2.457652 2.050336 24.556222 8.849296 4.275047 52.738846 2.294916 -14.399989 41.184804 0.000000 0.000000 0.000000 -19.559646 -8.098059 4.576221 -40.957079 0.724017 -12.345769 -78.617024 -56.681366 51.808370 0.000000 0.000000 0.000000 37.897069 -0.842841 1.951265 23.557548 -12.227004 -8.343358 75.062320 56.435340 43.307357 0.000000 0.000000 0.000000
-0.334916 0.153587 0.222488 -0.908682 -17.070153 -80.135027 3.441216 0.247364 -14.495086 7.640091 -2.589288 18.780794 1.449543 6.238714 15.347837 0.000000 0.000000 0.000000 -2.874540 0.912820 -10.896375 -4.292769 2.597608 17.869160 1.148834 -9.341413 24.528800 0.000000 0.000000 0.000000 -1.554863 7.736545 -52.320076 -1.905556 1.782125 25.548760 8.318271 4.539401 52.209763 2.664271 -15.876430 41.732698 0.000000 0.000000 0.000000 -20.946311 -8.399072 4.842771 -41.062373 -0.963293 -11.939987 -74.305209 -57.099304 49.387518 0.000000 0.000000 0.000000 37.562372 -0.991236 1.873849 24.699389 -12.636229 -8.831916 72.715963 55.423311 41.228081 0.000000 0.000000 0.000000
-0.335691 0.155625 0.225301 -0.690051 -17.652992 -80.174988 4.602655 0.635218 -16.495681 5.441953 -2.041134 22.982252 2.317634 6.905100 12.354721 0.000000 0.000000 0.000000 -2.939018 1.077444 -12.181260 -3.239392 2.584562 19.711490 1.405055 -9.917630 27.562811 0.000000 0.000000 0.000000 -1.108882 8.578329 -53.489503 -1.806921 1.624755 23.781386 7.478511 3.673261 52.343745 3.826840 -14.891672 35.920715 0.000000 0.000000 0.000000 -18.225631 -7.975416 4.601469 -45.226546 -1.708172 -12.618161 -70.490440 -58.565264 48.790924 0.000000 0.000000 0.000000 31.603377 -2.018664 0.704349 29.396466 -14.703025 -10.813531 74.923241 53.740291 42.429252 0.000000 0.000000 0.000000
-0.337426 0.155992 0.228758 -0.861300 -17.014030 -80.611092 4.183946 0.486426 -16.734316 4.407911 -1.766258 24.519407 2.687814 7.120281 10.325024 0.000000 0.000000 0.000000 -3.782008 0.931290 -12.442651 -2.311388 2.496569 21.162730 0.832882 -10.372442 27.169755 0.000000 0.000000 0.000000 -1.264333 7.779512 -51.818193 -2.722364 1.979379 18.169018 7.667405 4.073648 54.691487 4.862508 -14.570277 30.163386 0.000000 0.000000 0.000000 -15.092882 -8.492392 4.620968 -48.758446 -2.906985 -13.130520 -64.869535 -59.909165 46.227844 0.000000 0.000000 0.000000 28.094222 -2.679991 0.325039 31.423920 -15.666438 -11.742442 78.813655 52.124152 43.795627 0.000000 0.000000 0.000000
-0.339428 0.157153 0.232478 0.051484 -17.362875 -82.052804 5.069858 0.840608 -16.170962 3.026217 -1.231813 25.461637 4.067180 9.094691 10.669406 0.000000 0.000000 0.000000 -4.759968 0.645850 -11.767261 -0.368648 2.076052 22.050976 0.581167 -10.051250 24.129203 0.000000 0.000000 0.000000 -0.661377 8.440424 -51.499586 -3.626226 2.680203 19.425235 7.883038 4.311403 52.129150 3.656407 -10.226531 26.472301 0.000000 0.000000 0.000000 -12.592131 -7.588871 3.741986 -51.415199 -4.645722 -12.566242 -61.710259 -58.531976 43.038134 0.000000 0.000000 0.000000 24.343414 -2.433455 0.491785 35.567084 -16.370273 -13.211531 80.611110 53.391743 47.720860 0.000000 0.000000 0.000000
-0.341416 0.157041 0.235793 -0.368029 -16.777425 -82.740282 4.867629 0.764625 -13.401301 3.968320 -1.538965 20.546317 4.017564 9.378426 12.903328 0.000000 0.000000 0.000000 -3.919230 0.567784 -9.781339 -3.330671 2.641888 19.791684 1.063409 -8.904012 22.972460 0.000000 0.000000 0.000000 -2.263926 6.845010 -50.734417 -3.506260 2.297026 14.999605 8.329042 5.191542 53.916356 3.575006 -9.663672 25.069335 0.000000 0.000000 0.000000 -9.743058 -7.784521 3.544750 -53.022188 -5.937921 -12.537556 -60.215445 -59.548084 42.584171 0.000000 0.000000 0.000000 24.314690 -2.400450 0.612289 34.703838 -16.665227 -12.965608 83.226481 56.564094 51.979833 0.000000 0.000000 0.000000
-0.342603 0.156216 0.238462 0.616195 -16.353315 -82.815086 5.001185 0.794021 -11.662208 4.456223 -1.484722 15.060827 3.761812 10.201492 23.035972 0.000000 0.000000 0.000000 -4.518005 0.268932 -8.160742 -4.015915 2.199491 15.336568 2.365091 -7.093631 22.411297 0.000000 0.000000 0.000000 -2.308721 7.269629 -52.519447 -5.131033 3.302481 15.598980 9.612518 4.572166 54.985744 1.835201 -5.944687 24.025908 0.000000 0.000000 0.000000 -10.857422 -7.104066 3.203013 -51.488318 -7.118377 -12.013328 -61.818564 -63.014028 46.227100 0.000000 0.000000 0.000000 21.043238 -2.990061 0.204358 37.837648 -15.284478 -14.114194 82.884825 56.824136 53.319191 0.000000 0.000000 0.000000
-0.342248 0.160817 0.241121 -0.345046 -16.884628 -82.244156 8.309923 1.704520 -9.699528 3.336042 -0.952580 8.816547 -4.147732 4.140830 34.212998 0.000000 0.000000 0.000000 -3.863283 0.217852 -6.489780 -4.329450 1.680845 10.985119 2.298787 -9.604456 30.033985 0.000000 0.000000 0.000000 -4.010621 6.281304 -53.314322 -3.176801 2.047666 14.507108 9.099605 3.779055 56.154488 3.698870 -12.126885 31.078823 0.000000 0.000000 0.000000 -9.619889 -8.621213 4.162629 -50.693930 -7.192138 -11.887730 -69.700988 -66.397566 55.526055 0.000000 0.000000 0.000000 21.207842 -2.659930 -0.065369 37.057750 -15.608947 -13.847864 83.313217 58.928937 54.561022 0.000000 0.000000 0.000000
-0.340144 0.163504 0.244987 -1.153719 -17.066932 -81.160707 7.890791 1.562023 -10.912816 3.287258 -0.948450 9.086820 -1.798765 6.735742 36.050644 0.000000 0.000000 0.000000 -4.872332 0.007967 -5.729019 -2.386451 0.965261 8.435685 -0.868339 -13.974224 32.106995 0.000000 0.000000 0.000000 -5.507406 5.108066 -53.352242 -3.210380 2.194413 16.216500 10.322219 2.198254 53.798485 2.947100 -11.074084 36.026472 0.000000 0.000000 0.000000 -14.354556 -10.431255 6.047122 -45.595346 -7.250286 -10.805238 -64.025321 -72.434018 55.772233 0.000000 0.000000 0.000000 23.061441 -1.979369 -0.435415 33.392951 -15.417143 -12.123435 83.187227 59.280724 53.020432 0.000000 0.000000 0.000000
-0.335827 0.166869 0.249619 0.713976 -20.889830 -81.263617 11.863788 2.921701 -10.635638 3.187573 -0.880661 9.171441 -5.723998 3.335244 38.289011 0.000000 0.000000 0.000000 -3.567163 0.462405 -7.750909 0.730015 0.588477 10.475329 -0.394463 -14.400684 33.418877 0.000000 0.000000 0.000000 -2.798490 8.894177 -53.544652 0.177602 0.239072 14.630375 5.707331 0.913253 55.261635 3.414332 -12.384092 38.910316 0.000000 0.000000 0.000000 -16.031304 -11.462661 7.646125 -41.451167 -2.301656 -11.470318 -98.020905 -73.749091 88.367287 0.000000 0.000000 0.000000 21.516026 -1.727704 -1.102053 36.077918 -17.257191 -13.638962 77.670223 60.169692 49.415623 0.000000 0.000000 0.000000
-0.330758 0.167584 0.253962 -0.993117 -18.664156 -80.049087 7.587630 1.581099 -15.312637 6.128127 -2.073203 17.868401 -10.194446 -2.970237 31.252598 0.000000 0.000000 0.000000 -8.253508 0.094196 -12.229946 2.178641 0.836630 17.042471 -1.836232 -15.442984 33.860167 0.000000 0.000000 0.000000 -4.084977 5.902942 -50.272462 0.014627 0.350683 15.071286 5.622095 1.359042 52.533313 1.610843 -5.034811 29.203682 0.000000 0.000000 0.000000 -17.607892 -9.972400 7.058736 -38.962199 -2.382164 -10.441066 -86.420435 -73.303038 76.010829 0.000000 0.000000 0.000000 22.541479 -4.564571 -3.273187 35.301852 -15.625314 -12.559899 72.398960 60.389716 46.292629 0.000000 0.000000 0.000000
