HIERARCHY
ROOT Hips
{
	OFFSET -0.001795 -0.223333 0.028219
	CHANNELS 6 Xposition Yposition Zposition Zrotation Yrotation Xrotation
	JOINT LeftUpLeg
	{
		OFFSET 0.069520 -0.091406 -0.006815
		CHANNELS 3 Zrotation Yrotation Xrotation
		JOINT LeftLeg
		{
			OFFSET 0.034277 -0.375199 -0.004496
			CHANNELS 3 Zrotation Yrotation Xrotation
			JOINT LeftFoot
			{
				OFFSET -0.013596 -0.397961 -0.043693
				CHANNELS 3 Zrotation Yrotation Xrotation
				JOINT LeftToe
				{
					OFFSET 0.026358 -0.055791 0.119288
					CHANNELS 3 Zrotation Yrotation Xrotation
					End Site
					{
						OFFSET 0.000000 0.000000 0.000000
					}
				}
			}
		}
	}
	JOINT RightUpLeg
	{
		OFFSET -0.067670 -0.090522 -0.004320
		CHANNELS 3 Zrotation Yrotation Xrotation
		JOINT RightLeg
		{
			OFFSET -0.038290 -0.382569 -0.008850
			CHANNELS 3 Zrotation Yrotation Xrotation
			JOINT RightFoot
			{
				OFFSET 0.015774 -0.398415 -0.042312
				CHANNELS 3 Zrotation Yrotation Xrotation
				JOINT RightToe
				{
					OFFSET -0.025372 -0.048144 0.123348
					CHANNELS 3 Zrotation Yrotation Xrotation
					End Site
					{
						OFFSET 0.000000 0.000000 0.000000
					}
				}
			}
		}
	}
	JOINT Spine
	{
		OFFSET -0.002533 0.108963 -0.026696
		CHANNELS 3 Zrotation Yrotation Xrotation
		JOINT Spine1
		{
			OFFSET 0.005487 0.135180 0.001092
			CHANNELS 3 Zrotation Yrotation Xrotation
			JOINT Spine2
			{
				OFFSET 0.001457 0.052922 0.025425
				CHANNELS 3 Zrotation Yrotation Xrotation
				JOINT Neck
				{
					OFFSET -0.002778 0.213870 -0.042857
					CHANNELS 3 Zrotation Yrotation Xrotation
					JOINT Head
					{
						OFFSET 0.005152 0.064970 0.051349
						CHANNELS 3 Zrotation Yrotation Xrotation
						End Site
						{
							OFFSET 0.000000 0.000000 0.000000
						}
					}
				}
				JOINT LeftShoulder
				{
					OFFSET 0.078845 0.121749 -0.034090
					CHANNELS 3 Zrotation Yrotation Xrotation
					JOINT LeftArm
					{
						OFFSET 0.090977 0.030469 -0.008868
						CHANNELS 3 Zrotation Yrotation Xrotation
						JOINT LeftForeArm
						{
							OFFSET 0.259612 -0.012772 -0.027456
							CHANNELS 3 Zrotation Yrotation Xrotation
							JOINT LeftHand
							{
								OFFSET 0.249234 0.008986 -0.001171
								CHANNELS 3 Zrotation Yrotation Xrotation
								End Site
								{
									OFFSET 0.000000 0.000000 0.000000
								}
							}
						}
					}
				}
				JOINT RightShoulder
				{
					OFFSET -0.081759 0.118833 -0.038615
					CHANNELS 3 Zrotation Yrotation Xrotation
					JOINT RightArm
					{
						OFFSET -0.096012 0.032551 -0.009143
						CHANNELS 3 Zrotation Yrotation Xrotation
						JOINT RightForeArm
						{
							OFFSET -0.253742 -0.013329 -0.021401
							CHANNELS 3 Zrotation Yrotation Xrotation
							JOINT RightHand
							{
								OFFSET -0.255298 0.007772 -0.005559
								CHANNELS 3 Zrotation Yrotation Xrotation
								End Site
								{
									OFFSET 0.000000 0.000000 0.000000
								}
							}
						}
					}
				}
			}
		}
	}
}
MOTION
Frames: 76
Frame Time: 0.050000
0.000000 0.074921 0.000000 -7.268312 -8.611563 80.956375 6.268658 -1.313001 4.143119 -19.761820 4.900489 11.874191 4.130496 27.684164 -55.959350 0.000000 0.000000 0.000000 -7.564588 2.073938 -1.095277 17.677478 -2.415099 25.889217 -9.354508 -20.244507 -51.106937 0.000000 0.000000 0.000000 -1.373554 0.790542 34.349364 -1.255971 1.533170 -41.199185 -1.212615 5.341520 20.297008 7.408551 -1.166065 -24.891789 0.000000 0.000000 0.000000 -1.427177 4.459773 -2.324808 -13.652960 0.074773 -1.370399 147.459928 -40.848161 -87.488312 0.000000 0.000000 0.000000 3.609441 -7.318829 -4.087505 10.743100 -0.440176 -0.791512 -149.147040 53.047322 -109.479724 0.000000 0.000000 0.000000
-0.000854 0.067056 0.000549 -8.194873 -8.622811 82.824151 9.695542 -2.196409 3.158648 -21.016851 4.777735 8.879096 3.616839 21.399765 -56.529626 0.000000 0.000000 0.000000 -4.703475 1.621922 -5.807198 11.749045 -0.933560 32.731461 -9.588835 -16.540105 -45.401602 0.000000 0.000000 0.000000 -1.132059 0.644598 32.514547 -2.982244 1.554859 -41.823523 -0.288645 4.729367 18.946852 6.589452 -0.583026 -26.340313 0.000000 0.000000 0.000000 -6.352357 4.083021 -2.630477 -5.074923 0.832726 -0.398090 145.246760 -38.230448 -79.437282 0.000000 0.000000 0.000000 -0.506328 -10.755262 -4.886276 12.641814 1.211689 -1.011146 -162.007130 58.021778 -134.436694 0.000000 0.000000 0.000000
-0.001224 0.067468 0.001753 -5.832172 -10.065242 82.883844 7.774968 -1.681006 4.932215 -15.889796 3.614564 9.631885 3.733850 2.919785 -53.073679 0.000000 0.000000 0.000000 -7.755415 2.403847 -5.447309 13.410145 -1.466595 33.017831 -9.499419 -14.055618 -47.734782 0.000000 0.000000 0.000000 -1.274179 0.959186 34.445303 -2.332829 1.695446 -43.602177 -4.266571 3.878641 19.225841 9.918685 -1.166923 -29.677096 0.000000 0.000000 0.000000 0.000918 5.072875 -2.251247 -12.178755 0.446322 -1.163019 153.986201 -41.167379 -96.777849 0.000000 0.000000 0.000000 3.116295 -10.071505 -5.516531 9.071587 -0.381310 -0.657564 -167.075537 55.760926 -142.562860 0.000000 0.000000 0.000000
-0.002059 0.060658 0.003381 -5.643343 -10.513290 84.411872 9.427914 -2.180079 3.253364 -18.469817 4.259220 9.013301 3.295844 2.877300 -51.438578 0.000000 0.000000 0.000000 -7.342123 2.462222 -7.529825 12.694994 -1.293126 34.316976 -9.420646 -13.596337 -47.473281 0.000000 0.000000 0.000000 -0.325452 0.224343 31.478428 -5.004449 1.643424 -44.763259 -3.828372 2.453185 19.235366 8.646349 -1.284557 -24.725297 0.000000 0.000000 0.000000 -3.818725 4.270512 -2.029538 -7.080110 2.827315 -0.347496 153.033076 -38.004307 -90.368321 0.000000 0.000000 0.000000 6.064592 -9.997848 -6.480442 3.981239 -0.869931 -0.187320 -168.971786 54.077776 -145.531422 0.000000 0.000000 0.000000
-0.003023 0.064335 0.004887 -4.111405 -11.074803 84.286244 9.495826 -2.245207 4.361530 -20.406287 4.226877 7.082237 3.677387 5.846498 -55.993078 0.000000 0.000000 0.000000 -8.411079 2.756819 -7.046940 15.465984 -2.238209 34.044256 -9.133610 -15.948165 -51.285490 0.000000 0.000000 0.000000 0.050094 0.012948 31.809821 -6.462233 1.537548 -44.497950 -4.162392 0.399716 20.160195 9.446426 -1.677530 -23.248673 0.000000 0.000000 0.000000 -5.647106 5.192966 -2.373897 -6.383664 2.310216 -0.258533 156.489835 -38.857315 -97.300750 0.000000 0.000000 0.000000 6.751511 -10.239177 -7.246859 3.335036 -0.472831 -0.231683 -170.099287 53.619621 -148.153300 0.000000 0.000000 0.000000
-0.003807 0.065218 0.006001 -4.104681 -11.390365 84.748183 10.482743 -2.454375 6.484961 -24.632648 4.038770 1.198206 3.357706 12.348463 -58.709422 0.000000 0.000000 0.000000 -10.288869 3.329592 -6.806127 18.435132 -2.963129 33.007931 -8.752923 -16.949749 -53.557953 0.000000 0.000000 0.000000 0.875243 -0.483927 31.496381 -8.050503 1.486173 -46.160396 -4.384080 0.382805 20.906762 8.901784 -1.387297 -23.238756 0.000000 0.000000 0.000000 -8.533964 3.331022 -1.425855 -4.156367 3.702026 0.247191 158.138797 -38.765934 -101.606415 0.000000 0.000000 0.000000 6.477101 -9.206361 -6.602133 3.587336 -1.917658 -0.032717 -174.776789 51.234812 -156.981877 0.000000 0.000000 0.000000
-0.004471 0.071672 0.006605 -2.867723 -11.863778 84.456086 13.201664 -3.202913 6.973820 -31.618191 5.199548 -1.087694 3.875679 11.188479 -64.978645 0.000000 0.000000 0.000000 -12.190375 4.020690 -5.183139 24.950736 -4.105012 30.589932 -8.092848 -17.667775 -61.324325 0.000000 0.000000 0.000000 1.295483 -0.720100 32.007409 -10.440347 1.195746 -49.157072 -4.229282 -1.306199 21.981144 10.397634 -2.874513 -11.456822 0.000000 0.000000 0.000000 -13.438118 0.898901 0.345906 -0.733761 5.948280 1.328089 159.646838 -36.647444 -103.445406 0.000000 0.000000 0.000000 11.321526 -7.201855 -7.426717 -1.045177 -3.056309 0.520728 179.811613 49.456602 -168.466527 0.000000 0.000000 0.000000
-0.004658 0.076455 0.006331 -2.382532 -12.085968 84.533411 15.795123 -3.934334 8.783667 -39.271918 5.793414 -5.705334 4.575778 9.148304 -68.302120 0.000000 0.000000 0.000000 -14.735510 5.080592 -3.603235 33.505243 -4.510169 25.855486 -7.117186 -18.297639 -66.625989 0.000000 0.000000 0.000000 1.754264 -0.987982 32.730731 -12.197207 0.799089 -54.418233 -4.204013 -2.277196 26.192100 12.809160 -4.838000 -1.963578 0.000000 0.000000 0.000000 -18.318519 0.006926 1.415656 2.495547 6.101061 2.145803 159.637457 -35.821574 -104.889918 0.000000 0.000000 0.000000 15.773954 -4.682644 -7.532065 -5.705229 -4.202992 1.200697 178.180725 48.869722 -173.507346 0.000000 0.000000 0.000000
-0.004713 0.082774 0.004885 -1.357802 -12.839870 83.451238 19.912219 -4.909259 9.957864 -49.803939 8.167367 -8.205420 5.831812 5.070052 -69.347834 0.000000 0.000000 0.000000 -18.389950 6.794740 -0.735720 45.301550 -3.819145 19.325630 -6.012444 -18.790963 -71.352904 0.000000 0.000000 0.000000 1.876013 -0.972893 33.724438 -14.444819 0.167927 -58.798331 -4.131561 -3.981276 29.053100 12.898210 -5.781672 7.270134 0.000000 0.000000 0.000000 -22.667444 -1.337580 3.210089 5.602146 6.450680 3.008831 160.113031 -34.151875 -105.822528 0.000000 0.000000 0.000000 18.470085 -2.838035 -7.606712 -8.340097 -5.565613 1.755238 176.175275 47.374928 -179.649781 0.000000 0.000000 0.000000
-0.004702 0.089625 0.002379 -0.101076 -13.761995 81.881309 24.302631 -5.859213 11.690772 -61.674629 11.012151 -11.126508 7.622127 1.615330 -70.620040 0.000000 0.000000 0.000000 -22.824393 9.473468 3.526724 60.030263 0.646763 8.053919 -4.915279 -19.314369 -75.494461 0.000000 0.000000 0.000000 2.183781 -1.042085 35.235314 -18.407704 -1.311548 -65.841005 -3.640911 -7.060678 36.654261 14.693968 -8.864668 22.341700 0.000000 0.000000 0.000000 -27.482655 -1.739522 5.175809 7.272227 5.528384 3.538067 159.535610 -33.553590 -108.292558 0.000000 0.000000 0.000000 23.029019 -0.150436 -7.896593 -12.386168 -6.701275 2.501597 175.119388 47.657748 174.228343 0.000000 0.000000 0.000000
-0.004693 0.097363 -0.000560 1.270563 -14.737274 79.602531 28.049266 -6.525879 14.272476 -72.338882 13.325823 -14.014504 9.753193 -4.217223 -70.543987 0.000000 0.000000 0.000000 -26.538673 12.384028 8.488036 70.405879 6.867583 -2.998762 -4.372150 -18.953086 -75.119651 0.000000 0.000000 0.000000 2.312265 -0.864302 38.290801 -23.224185 -4.137429 -76.114685 -3.164494 -11.161815 47.951008 15.280588 -13.332277 38.807648 0.000000 0.000000 0.000000 -33.070186 -2.120862 7.714141 10.284657 4.225596 4.359941 155.872205 -32.620702 -106.809956 0.000000 0.000000 0.000000 26.676389 2.059233 -8.078344 -15.014550 -7.044237 3.013114 175.952523 49.622974 170.598274 0.000000 0.000000 0.000000
-0.004763 0.103160 -0.003484 3.771787 -15.580024 77.919691 32.549518 -7.478942 14.780295 -83.614952 17.273661 -14.724753 11.900372 -10.428030 -70.221704 0.000000 0.000000 0.000000 -32.134943 18.124043 14.820177 80.984136 17.142144 -18.645069 -3.262763 -18.581087 -71.420192 0.000000 0.000000 0.000000 3.146186 -1.332033 40.913440 -32.224459 -12.176581 -92.950596 -2.532940 -19.522389 71.023969 9.306522 -31.112048 76.282244 0.000000 0.000000 0.000000 -38.671684 -0.459708 9.979406 12.555736 0.575054 4.796201 150.966771 -29.771301 -105.727538 0.000000 0.000000 0.000000 28.334289 2.909975 -9.161734 -15.373148 -5.217746 2.661847 179.406621 51.145039 167.165071 0.000000 0.000000 0.000000
-0.004925 0.106569 -0.006136 5.702939 -16.712643 75.621142 41.180444 -8.327510 16.092550 -98.224799 26.365751 -13.434646 13.704015 -26.772228 -62.960896 0.000000 0.000000 0.000000 -38.671656 29.295202 28.005993 88.345857 27.663779 -39.575235 -3.176178 -15.999830 -51.795657 0.000000 0.000000 0.000000 3.020514 -0.787827 44.845336 -39.661710 -27.487690 -117.424201 -5.941023 -29.198115 102.348322 -68.338298 -14.578145 -134.301311 0.000000 0.000000 0.000000 -38.071771 1.657052 10.297437 11.181553 -3.038519 3.340716 148.365439 -27.400037 -105.919599 0.000000 0.000000 0.000000 25.380277 2.271456 -9.581424 -12.884119 -3.236184 1.000262 -178.271196 52.992994 162.920255 0.000000 0.000000 0.000000
-0.005092 0.109234 -0.008501 9.641540 -17.875055 73.319415 51.459149 -7.863441 12.576348 -107.214339 40.608427 -7.523979 7.444217 -44.250923 -44.813391 0.000000 0.000000 0.000000 -37.060807 43.049585 53.773172 94.697223 36.146822 -57.664498 -1.822501 -3.202032 -1.976749 0.000000 0.000000 0.000000 3.763448 -0.949863 49.707347 -47.245045 -43.096398 -129.479592 -11.972875 -36.445119 114.368882 12.123730 -13.825162 -16.095358 0.000000 0.000000 0.000000 -33.689223 2.152152 10.737804 6.971536 -2.087980 0.992007 150.179332 -30.680696 -107.946843 0.000000 0.000000 0.000000 23.438378 1.072425 -10.575608 -9.933842 -4.097603 -0.313781 169.572847 53.920906 142.930996 0.000000 0.000000 0.000000
-0.005394 0.109350 -0.010845 15.473949 -19.377572 68.031848 65.478329 -2.552366 5.749198 -97.404165 65.443764 18.848600 -36.983727 -53.006892 20.815467 0.000000 0.000000 0.000000 -20.762716 49.743013 103.854338 116.980960 43.452381 -54.654454 15.182614 11.614217 36.557638 0.000000 0.000000 0.000000 4.003379 0.425344 58.969936 -57.972327 -55.497850 -129.194825 -23.653384 -41.293840 118.936214 9.609105 -10.994871 32.470535 0.000000 0.000000 0.000000 -32.226305 3.096379 12.196163 5.752610 0.076183 0.234253 151.008842 -34.625648 -109.393290 0.000000 0.000000 0.000000 22.199290 -0.754903 -12.096775 -8.861760 -4.365178 -0.129654 156.954949 53.550553 123.737597 0.000000 0.000000 0.000000
-0.005428 0.108142 -0.013448 23.013890 -20.920224 63.834911 71.948837 7.144302 -5.708897 -16.500961 69.263437 108.024419 -53.058042 -39.363398 51.084426 0.000000 0.000000 0.000000 -12.904857 41.227605 133.139147 128.581682 48.049059 -47.804868 21.806996 13.366579 44.222262 0.000000 0.000000 0.000000 6.084972 1.214977 71.011013 -87.926874 -65.173141 -106.047726 -41.163996 -45.524036 116.667155 12.873673 -9.450156 41.796108 0.000000 0.000000 0.000000 -28.770912 3.454294 14.477241 3.043379 3.612913 -0.263464 154.177890 -40.435389 -113.309049 0.000000 0.000000 0.000000 17.199416 -3.501449 -14.046461 -6.212932 -7.569653 0.493789 144.895290 48.257478 104.261974 0.000000 0.000000 0.000000
-0.005422 0.107217 -0.016295 36.049796 -19.807255 50.064332 69.477611 12.954474 -16.266912 11.029245 40.831994 138.790048 -60.166743 -34.194553 64.484397 0.000000 0.000000 0.000000 -13.544171 29.814537 145.359556 123.218619 50.257622 -50.910247 20.213400 16.099768 35.736056 0.000000 0.000000 0.000000 12.251121 -1.802351 93.989444 -134.530006 -58.688827 -60.613007 -70.436093 -44.928475 129.078977 29.507387 -8.897975 52.035826 0.000000 0.000000 0.000000 -32.531988 4.837380 21.346875 4.670666 2.968596 0.685661 147.328937 -38.947091 -103.952317 0.000000 0.000000 0.000000 10.578963 -3.658182 -22.451431 -4.655360 -11.171652 0.136183 135.509575 40.916075 89.565777 0.000000 0.000000 0.000000
-0.005430 0.107970 -0.018871 46.968738 20.618647 -9.316464 53.005298 7.271823 -35.954332 -3.631166 -13.522778 137.746262 -50.743904 -30.607642 56.034729 0.000000 0.000000 0.000000 -175.663944 19.480589 1.178094 10.031435 3.590076 128.906749 96.791581 56.182773 76.223075 0.000000 0.000000 0.000000 10.009471 -36.049951 120.351582 -83.511838 -3.995534 -67.019486 -102.831523 -50.865401 121.636309 31.178288 -46.177945 87.609188 0.000000 0.000000 0.000000 -45.902468 6.417254 32.380557 17.930408 7.600783 5.633786 131.530143 -26.127944 -95.297205 0.000000 0.000000 0.000000 38.910381 10.728839 -47.872718 -29.960621 -4.529467 2.194877 126.068806 28.486734 81.414812 0.000000 0.000000 0.000000
-0.005678 0.106742 -0.020170 11.283230 17.330388 -71.968442 64.953335 15.790300 -29.582649 -31.156715 -68.767070 160.324332 -68.847239 -40.203697 33.531442 0.000000 0.000000 0.000000 -67.943824 -60.311207 -85.854426 -87.742020 -45.535305 -76.337918 -139.824457 -32.362383 121.364604 0.000000 0.000000 0.000000 7.745751 -58.807522 143.637554 -42.248183 29.037064 -43.566161 -100.642083 -54.527442 67.762694 33.240251 -37.084558 81.753274 0.000000 0.000000 0.000000 -42.355567 4.552943 37.076581 14.480852 14.668136 5.245538 133.801726 -36.405140 -100.800416 0.000000 0.000000 0.000000 30.610694 8.653158 -46.059700 -38.008603 -12.060325 4.555003 128.590676 14.310757 80.130827 0.000000 0.000000 0.000000
-0.006213 0.108511 -0.018882 7.043485 11.183602 -82.653244 60.117507 18.255741 -33.956663 -80.394521 -84.812503 -145.138222 -79.830581 -39.773702 42.188765 0.000000 0.000000 0.000000 -63.092142 -51.593067 -76.111219 -76.231711 -52.921428 -89.765456 -138.203605 -42.926594 128.966685 0.000000 0.000000 0.000000 32.908786 -73.007424 122.945456 -116.494792 61.356133 -53.239058 -154.735050 -32.690238 -178.114419 -7.673829 -9.147704 113.050436 0.000000 0.000000 0.000000 -40.353485 16.635146 84.651327 12.922695 11.174751 3.048474 127.410071 12.682837 -36.283230 0.000000 0.000000 0.000000 19.576774 8.985801 -121.176412 -33.795110 13.498539 1.044940 138.067870 -30.732122 2.677022 0.000000 0.000000 0.000000
-0.007217 0.110168 -0.016518 5.687332 7.633695 -87.473672 53.950804 19.390221 -42.568254 -177.648794 -83.436307 -41.164470 -65.280555 -49.868988 34.737157 0.000000 0.000000 0.000000 -56.157133 -41.129118 -69.978046 -58.363281 -60.564502 -110.191666 -127.571489 -61.969354 126.800273 0.000000 0.000000 0.000000 133.178144 -58.180333 26.513391 15.169721 60.575025 136.485824 171.532659 -10.869327 -130.193824 -69.500534 50.606687 79.745666 0.000000 0.000000 0.000000 -14.965352 12.551913 142.782729 7.933981 -2.759535 0.754526 159.920887 45.036885 65.374914 0.000000 0.000000 0.000000 0.500960 -22.366228 160.060356 -13.812246 17.484294 -1.058630 -135.079547 -25.657822 88.061327 0.000000 0.000000 0.000000
-0.008569 0.110170 -0.013927 5.233853 4.731643 -89.114045 48.389230 19.905375 -50.344086 -36.985662 -85.590433 -174.154571 -14.981661 -64.650499 -23.161391 0.000000 0.000000 0.000000 -53.145641 -33.634065 -65.202613 -92.468572 -68.276838 -80.372561 -168.582974 -55.209648 152.237387 0.000000 0.000000 0.000000 141.209883 -25.853073 21.965084 5.125973 30.529981 136.015093 161.917558 -19.777662 -143.029622 -123.268714 44.600655 40.022413 0.000000 0.000000 0.000000 -2.975352 9.922406 112.304777 7.353562 -8.533733 0.170072 131.021883 19.771032 36.000432 0.000000 0.000000 0.000000 -12.283476 -0.701646 -135.939225 -38.878132 19.519729 -2.269718 -171.195895 -34.616821 164.814733 0.000000 0.000000 0.000000
-0.010099 0.112407 -0.012243 5.445069 4.705991 -90.432674 35.661749 15.325364 -52.108840 -11.745653 -45.840422 167.433405 0.418424 -31.503347 -29.924981 0.000000 0.000000 0.000000 -45.504735 -26.034939 -59.452310 -149.160884 -61.333172 -30.181993 151.067660 -38.604114 162.883399 0.000000 0.000000 0.000000 164.607503 43.471020 35.045935 -18.499432 20.432152 131.509150 172.225883 -83.018002 -135.135920 88.992849 -23.313955 37.501255 0.000000 0.000000 0.000000 2.884323 -5.309132 7.711753 0.440310 1.846782 0.370749 145.789919 -60.448545 -75.481588 0.000000 0.000000 0.000000 7.396675 6.703625 -28.536767 -26.816586 -23.992024 5.496387 161.918024 9.180181 37.307526 0.000000 0.000000 0.000000
-0.011360 0.112729 -0.010770 4.209159 1.792632 -88.790305 30.433068 13.492694 -55.960674 -9.275700 -21.405593 163.901396 2.732960 -11.056380 -32.102674 0.000000 0.000000 0.000000 -37.663585 -19.544112 -57.181655 -176.103086 7.248657 -12.502041 -76.058104 -6.640778 -160.080527 0.000000 0.000000 0.000000 173.946481 58.772407 60.516679 -21.690748 22.288026 130.959432 48.247685 -73.811754 -6.851802 67.295185 -15.566242 30.822783 0.000000 0.000000 0.000000 17.353261 -6.698744 -4.123821 -7.915931 -1.790250 -0.709918 150.443570 -62.445270 -75.905088 0.000000 0.000000 0.000000 12.151678 7.404266 -21.731009 -18.525186 -22.503303 3.492868 173.889224 13.861097 -175.290112 0.000000 0.000000 0.000000
-0.012694 0.118114 -0.009706 4.573923 0.517226 -88.745185 25.443755 11.025255 -53.559610 -9.573481 -2.583910 156.806110 3.728076 5.453977 -33.086720 0.000000 0.000000 0.000000 -30.652200 -13.242371 -50.846805 6.742404 1.138663 170.113617 -1.996287 -18.596913 -38.873925 0.000000 0.000000 0.000000 122.644128 56.679234 43.307798 -15.217118 24.184763 123.189251 82.896167 -53.722278 -52.484326 75.232393 -4.993192 21.624863 0.000000 0.000000 0.000000 13.951722 -5.383336 1.103061 -5.004850 -12.174410 -0.733644 128.523873 -46.911627 -43.723403 0.000000 0.000000 0.000000 19.687103 10.729799 -23.459883 -18.348820 -14.022199 0.480902 -169.365519 25.052133 -74.774422 0.000000 0.000000 0.000000
-0.014409 0.121610 -0.007943 4.356825 -0.538995 -87.917184 23.050731 9.691081 -52.549295 -9.907687 -0.359181 150.124816 4.486418 9.082978 -32.562025 0.000000 0.000000 0.000000 -25.674794 -9.319813 -47.478980 8.974470 -18.289476 160.243804 -1.011235 -33.282145 -49.218242 0.000000 0.000000 0.000000 71.587304 42.269223 17.294057 -3.897187 29.287942 121.102728 78.745193 -29.104754 -73.638933 61.049053 8.525903 14.904744 0.000000 0.000000 0.000000 2.178867 -7.029269 9.033470 0.587010 -20.947912 -1.721794 122.150732 -31.306392 -30.670858 0.000000 0.000000 0.000000 11.719520 4.127238 -10.542789 -8.235274 -2.437476 -1.622053 -151.283686 26.956232 -51.246237 0.000000 0.000000 0.000000
-0.016637 0.127754 -0.005694 4.282265 -0.919168 -88.542462 21.931850 9.085796 -50.413252 -9.983890 -0.521794 145.457337 4.542167 7.315780 -29.447084 0.000000 0.000000 0.000000 -23.719328 -7.879162 -44.163596 10.936537 -19.224527 154.279510 -1.465920 -33.578797 -51.409746 0.000000 0.000000 0.000000 42.833802 29.612996 1.751176 0.760311 27.173249 119.302380 57.455745 -14.137781 -80.253346 31.823664 7.207738 7.586392 0.000000 0.000000 0.000000 -3.794015 -10.412931 10.021499 0.884401 -24.890180 -2.161296 123.385475 -25.949254 -30.248982 0.000000 0.000000 0.000000 -0.487477 -0.562156 1.372208 -3.438924 11.585557 -1.047999 -134.840453 24.400080 -41.398034 0.000000 0.000000 0.000000
-0.019402 0.130846 -0.003203 4.327786 -1.366916 -87.760317 21.286085 8.812268 -50.671218 -9.510021 -1.334329 143.273178 4.584429 6.088491 -28.279177 0.000000 0.000000 0.000000 -22.720288 -7.034819 -42.952943 12.884554 -24.209335 150.107843 -1.553143 -36.910947 -51.800682 0.000000 0.000000 0.000000 32.213524 22.826062 -4.046416 2.085047 26.877075 115.703439 46.550386 -9.939702 -82.947843 18.989391 4.039491 4.595129 0.000000 0.000000 0.000000 -3.660836 -12.199954 8.732507 -3.585876 -27.426096 -0.992368 127.074185 -23.224431 -30.588117 0.000000 0.000000 0.000000 -6.916016 -1.586956 5.365535 -1.440555 19.273192 -0.134432 -127.563708 24.754498 -41.664209 0.000000 0.000000 0.000000
-0.022380 0.136921 -0.001700 3.993306 -1.092747 -87.310711 21.456894 8.650455 -48.654585 -9.791850 -0.816398 139.812304 4.616118 5.301732 -27.573186 0.000000 0.000000 0.000000 -21.777539 -6.544963 -40.895862 15.095561 -26.166123 144.973692 -1.854821 -36.959875 -53.380538 0.000000 0.000000 0.000000 22.422201 16.691007 -9.476257 1.033424 22.032558 109.917165 32.884424 -6.861097 -82.811821 12.212811 1.182999 3.787237 0.000000 0.000000 0.000000 -0.108161 -13.374209 6.657239 -9.447336 -28.653461 1.231664 128.352919 -22.532159 -32.388357 0.000000 0.000000 0.000000 -11.637778 -1.127061 6.008380 3.109710 24.921720 1.339180 -123.995092 25.733190 -41.522800 0.000000 0.000000 0.000000
-0.025361 0.140846 -0.000863 3.785217 -1.074160 -86.561666 21.299866 8.417041 -48.384168 -8.887844 -3.085561 138.552914 4.253384 1.421216 -27.518479 0.000000 0.000000 0.000000 -20.196497 -5.591413 -40.439725 17.122513 -28.793762 140.401377 -2.227597 -38.846918 -52.667765 0.000000 0.000000 0.000000 16.501884 12.229604 -12.384688 -0.181606 18.924013 100.215546 22.872352 -6.044505 -78.777130 9.971391 -1.232315 5.436431 0.000000 0.000000 0.000000 1.934359 -14.154806 5.685535 -13.713672 -28.911571 3.147747 130.599617 -21.263557 -34.178943 0.000000 0.000000 0.000000 -13.027912 -0.441782 5.291034 6.807277 25.799974 2.589602 -125.121741 29.378472 -46.479682 0.000000 0.000000 0.000000
-0.028001 0.143620 -0.000489 3.506554 -1.041975 -86.247558 21.226422 8.238426 -47.603678 -8.846068 -2.262935 139.257565 4.494415 2.309613 -28.346616 0.000000 0.000000 0.000000 -19.140649 -5.034591 -38.924262 19.167045 -31.282806 136.636489 -2.186505 -39.858970 -54.121301 0.000000 0.000000 0.000000 13.471143 10.156224 -14.460417 -1.394563 14.863281 92.919333 16.314146 -5.506167 -73.639976 8.800805 -2.505966 8.416328 0.000000 0.000000 0.000000 3.568067 -13.744015 5.098734 -15.826197 -28.369861 3.892858 133.208819 -22.811579 -39.704857 0.000000 0.000000 0.000000 -12.172307 0.887452 4.312205 9.078154 25.619478 3.178647 -128.489536 30.143723 -48.760737 0.000000 0.000000 0.000000
-0.030275 0.145777 -0.000148 3.380452 -0.772839 -86.143080 20.006190 7.337573 -46.884928 -8.043297 -3.640676 140.366498 4.542396 0.014939 -30.307245 0.000000 0.000000 0.000000 -18.404873 -4.673409 -37.318913 20.813465 -32.116055 132.793132 -1.512201 -40.761408 -58.582248 0.000000 0.000000 0.000000 10.389280 8.127110 -16.692714 -2.318264 11.025310 84.041558 9.840861 -4.303311 -65.887462 8.507705 -4.433894 13.250661 0.000000 0.000000 0.000000 3.279671 -14.278757 5.055493 -16.013236 -26.898467 3.772598 133.883567 -24.437790 -43.282176 0.000000 0.000000 0.000000 -8.561063 2.077435 2.937437 10.215100 23.804664 3.102220 -132.756733 33.670021 -54.897588 0.000000 0.000000 0.000000
-0.031970 0.147880 0.000379 3.202735 -0.723471 -86.486090 18.635726 6.453452 -45.968303 -7.618413 -3.988947 140.739567 4.796995 0.161962 -31.481902 0.000000 0.000000 0.000000 -17.726772 -4.388054 -34.862457 20.865084 -28.905301 129.833254 -0.923400 -39.920550 -64.517968 0.000000 0.000000 0.000000 9.822378 7.518194 -16.755497 -3.358025 10.146144 75.294274 7.802132 -4.224932 -58.428330 8.203240 -5.266376 16.314831 0.000000 0.000000 0.000000 2.806901 -14.306261 5.143104 -17.491798 -26.231454 3.684934 136.529476 -28.913905 -54.167714 0.000000 0.000000 0.000000 -5.842749 2.412730 2.328842 11.453537 22.958264 2.909897 -137.356143 36.812581 -64.210075 0.000000 0.000000 0.000000
-0.033151 0.148284 0.001279 3.183140 -0.692120 -86.514951 17.039196 5.474196 -46.118200 -7.362012 -2.906994 141.713411 5.081208 2.268440 -31.063042 0.000000 0.000000 0.000000 -17.744777 -4.373144 -33.309397 21.861981 -27.518672 125.937885 0.328043 -41.126308 -70.772004 0.000000 0.000000 0.000000 7.916926 6.192916 -17.353154 -2.998044 6.788480 66.411537 3.252621 -2.913865 -49.999765 6.953265 -6.194965 20.828621 0.000000 0.000000 0.000000 1.747055 -15.877352 5.615227 -17.495184 -24.332129 3.088835 135.605300 -34.047114 -61.526044 0.000000 0.000000 0.000000 -1.967418 3.074537 1.623716 11.591892 21.620144 2.319996 -141.626018 42.986994 -77.083740 0.000000 0.000000 0.000000
-0.034038 0.148638 0.003052 3.054024 -0.910811 -86.559711 15.993103 4.869042 -46.419987 -7.373719 -1.453345 142.440229 5.417742 4.481011 -31.368746 0.000000 0.000000 0.000000 -17.507249 -4.255473 -31.773901 22.456054 -26.450111 123.248682 1.861266 -43.791623 -74.982050 0.000000 0.000000 0.000000 8.754790 6.522514 -16.616935 -4.555769 8.802425 57.756318 5.271090 -3.605352 -41.263998 6.682583 -6.134368 23.206808 0.000000 0.000000 0.000000 -1.318407 -16.745713 6.334316 -17.011998 -23.534016 2.223300 135.659876 -43.644107 -75.572889 0.000000 0.000000 0.000000 0.174857 2.738191 1.254888 12.188971 20.642384 1.746252 -145.974707 53.591075 -98.376564 0.000000 0.000000 0.000000
-0.034581 0.149626 0.005792 2.857564 -1.090673 -86.732870 15.158497 4.365591 -46.186846 -7.930568 1.818897 142.896926 5.985620 9.100438 -31.962054 0.000000 0.000000 0.000000 -16.830940 -3.951283 -30.565873 22.643549 -25.693066 121.370607 1.836992 -42.939371 -77.392127 0.000000 0.000000 0.000000 8.297168 6.125902 -16.261160 -4.270541 7.373276 54.497496 3.795290 -3.102920 -37.687808 6.444373 -7.101620 26.794170 0.000000 0.000000 0.000000 -3.471836 -17.801686 6.764109 -18.118832 -22.413512 2.119149 138.461178 -52.126916 -91.282135 0.000000 0.000000 0.000000 2.844741 3.323579 1.204757 13.184775 20.269876 1.659025 -157.418149 64.677505 -127.270505 0.000000 0.000000 0.000000
-0.035007 0.149165 0.009670 2.378905 -1.183559 -86.820299 14.311111 3.789914 -44.907943 -7.960275 2.344507 142.776279 6.372266 10.962657 -34.093972 0.000000 0.000000 0.000000 -15.857409 -3.553993 -29.677558 21.413877 -24.735803 122.625167 -0.043466 -40.060362 -74.114052 0.000000 0.000000 0.000000 8.668700 6.016356 -14.801684 -5.063293 7.469509 47.720962 4.074866 -3.443893 -30.296625 6.031601 -7.489423 29.897645 0.000000 0.000000 0.000000 -7.871707 -18.888395 7.747440 -17.545273 -20.544249 1.309125 146.030710 -60.377010 -111.413895 0.000000 0.000000 0.000000 6.036995 2.888712 0.784889 14.005899 20.010708 1.311150 -177.309628 75.947216 -161.664419 0.000000 0.000000 0.000000
-0.035128 0.151353 0.014553 2.333493 -1.402783 -86.209707 14.139789 3.697914 -45.235062 -8.041188 3.328784 143.321143 6.665766 13.862171 -34.684824 0.000000 0.000000 0.000000 -15.229150 -3.182627 -30.479947 20.436757 -24.126573 123.845020 -1.265345 -38.140181 -70.772039 0.000000 0.000000 0.000000 8.984028 5.979475 -13.857801 -5.340761 7.992501 47.622322 4.414176 -3.540071 -29.296762 6.160318 -8.328507 32.791676 0.000000 0.000000 0.000000 -10.716981 -19.224608 8.100062 -21.470110 -19.169860 1.674581 160.890355 -70.507375 -141.700325 0.000000 0.000000 0.000000 9.871669 2.345201 0.452294 16.292037 19.829746 1.581775 126.927306 79.716994 130.548027 0.000000 0.000000 0.000000
-0.034652 0.153597 0.020564 2.722449 -1.398364 -85.320391 13.849889 3.575521 -44.526367 -7.972022 4.059029 143.123976 6.952128 14.028138 -37.439659 0.000000 0.000000 0.000000 -14.761728 -2.845197 -31.036633 19.441677 -23.129503 125.363862 -3.418804 -32.340498 -67.011334 0.000000 0.000000 0.000000 10.501327 6.363646 -11.919565 -6.577424 10.851295 50.301870 6.605043 -4.757994 -32.554428 6.254962 -8.897402 36.285697 0.000000 0.000000 0.000000 -14.960534 -19.119222 8.375263 -24.847017 -17.407481 2.168622 -159.810341 -82.138040 165.720072 0.000000 0.000000 0.000000 13.053326 2.684875 0.657152 18.640287 18.714698 2.155472 66.371139 73.973344 61.100226 0.000000 0.000000 0.000000
-0.033449 0.159211 0.027392 3.012301 -1.396531 -83.435975 13.956968 3.634495 -45.241170 -7.805839 4.533385 143.522862 7.205515 15.901675 -37.744331 0.000000 0.000000 0.000000 -14.857839 -2.711838 -32.535068 18.757284 -22.589372 126.503924 -4.772422 -27.356181 -64.624041 0.000000 0.000000 0.000000 11.697111 6.597135 -10.465883 -6.741529 13.930145 59.793909 9.558349 -5.329704 -42.306081 6.399061 -8.983876 38.388014 0.000000 0.000000 0.000000 -18.068324 -18.556674 8.014036 -29.902079 -15.616272 3.215115 -43.882615 -79.290541 42.640001 0.000000 0.000000 0.000000 13.856530 2.122986 0.725969 22.497839 18.698371 3.613153 49.393169 64.458590 37.745914 0.000000 0.000000 0.000000
-0.031614 0.164203 0.034915 3.218473 -1.381948 -80.798767 14.061596 3.636963 -47.626238 -7.336808 4.389360 144.460282 7.273612 15.076157 -37.164612 0.000000 0.000000 0.000000 -15.235822 -2.628396 -35.657936 18.046149 -22.291859 127.784867 -5.536256 -23.834035 -63.430070 0.000000 0.000000 0.000000 13.159408 6.697887 -8.453857 -6.572154 18.259013 69.177234 13.903326 -5.920624 -52.460437 8.061491 -9.450995 37.337839 0.000000 0.000000 0.000000 -22.267764 -17.442868 7.534023 -34.050979 -15.613567 4.494689 -28.203286 -68.614677 23.080336 0.000000 0.000000 0.000000 15.158952 2.131846 1.109299 24.282561 18.664217 4.806206 44.291475 56.795082 27.625200 0.000000 0.000000 0.000000
-0.029719 0.168368 0.042683 3.218383 -1.757836 -79.251731 14.347823 3.878442 -48.936280 -6.681432 2.979660 146.327744 7.278622 15.174110 -36.160308 0.000000 0.000000 0.000000 -15.840711 -2.711442 -37.581825 18.328752 -23.301929 128.337732 -5.782824 -22.242191 -62.028076 0.000000 0.000000 0.000000 14.794311 6.473305 -4.317752 -6.544951 22.118044 72.662969 17.917068 -6.710493 -57.124534 10.484401 -9.629857 36.471970 0.000000 0.000000 0.000000 -26.869454 -18.513014 9.333070 -34.464356 -17.105645 5.215098 -20.666684 -60.138682 14.628410 0.000000 0.000000 0.000000 16.764577 2.530984 1.051839 24.742096 18.488906 5.365673 40.058867 48.765063 20.073561 0.000000 0.000000 0.000000
-0.027855 0.173669 0.050378 3.362273 -1.987251 -76.520117 15.475123 4.638003 -51.409720 -5.933976 0.074640 148.240100 6.875601 11.833540 -33.774630 0.000000 0.000000 0.000000 -16.719938 -2.837093 -41.312830 19.246173 -26.011396 128.093608 -5.266860 -24.808420 -60.611350 0.000000 0.000000 0.000000 16.382427 6.101228 -0.766921 -5.084760 25.830682 79.807246 21.776010 -7.357023 -65.046418 13.181689 -8.789655 33.640080 0.000000 0.000000 0.000000 -31.217538 -19.631110 11.445820 -33.688703 -20.403481 6.318465 -16.876003 -55.777693 10.847981 0.000000 0.000000 0.000000 16.754106 2.199460 1.226207 25.818350 19.792597 6.557509 39.665375 44.354215 16.607522 0.000000 0.000000 0.000000
-0.025939 0.179814 0.057908 3.338765 -2.044373 -73.868281 16.184622 5.070467 -52.666553 -5.922189 0.962370 150.302284 7.089845 13.135447 -34.857039 0.000000 0.000000 0.000000 -17.100607 -2.842629 -44.238242 19.570160 -27.758450 128.139564 -5.097150 -26.748734 -58.223364 0.000000 0.000000 0.000000 18.463677 5.557489 3.938549 -4.088902 28.987654 85.489452 26.055647 -7.532354 -70.857504 18.191282 -8.498322 30.992536 0.000000 0.000000 0.000000 -34.555160 -21.205186 15.081160 -30.062374 -25.448045 6.860028 -13.096799 -50.758769 7.912907 0.000000 0.000000 0.000000 16.138303 1.946094 1.076820 25.327964 21.559916 7.395932 37.148028 41.249175 13.486599 0.000000 0.000000 0.000000
-0.023787 0.188864 0.064951 3.576138 -2.392026 -70.218800 18.860571 6.926861 -54.723209 -6.522713 4.713737 151.840528 7.066486 14.221510 -33.392075 0.000000 0.000000 0.000000 -18.153869 -3.012022 -49.521162 20.537283 -31.266952 128.162492 -4.849982 -29.955142 -54.528636 0.000000 0.000000 0.000000 20.611458 4.651502 8.809564 -1.110245 31.177505 95.109188 30.848544 -7.174944 -79.875198 22.099154 -4.801063 25.682691 0.000000 0.000000 0.000000 -37.360385 -21.752165 18.587178 -24.446335 -29.523630 6.292771 -8.951219 -51.490394 6.040064 0.000000 0.000000 0.000000 13.866491 2.030000 1.825465 23.684736 24.772778 8.314526 35.486694 43.150924 12.353811 0.000000 0.000000 0.000000
-0.021500 0.199639 0.071871 3.714985 -2.408672 -67.079513 21.577088 8.587373 -55.067248 -6.856144 6.362631 152.845018 7.038019 13.212587 -35.602119 0.000000 0.000000 0.000000 -18.883234 -3.255429 -52.877415 22.557715 -35.454668 126.270604 -5.039185 -33.640778 -50.311523 0.000000 0.000000 0.000000 23.275648 3.449121 14.478019 -0.268025 36.273196 97.192952 37.785180 -7.590921 -83.115926 26.439972 -0.860785 21.920163 0.000000 0.000000 0.000000 -42.340536 -24.270311 28.056798 -13.720127 -30.780383 2.775390 -1.822182 -51.928795 2.525917 0.000000 0.000000 0.000000 12.138285 2.272894 2.652874 21.622109 26.220677 8.097823 32.926676 44.337114 10.788564 0.000000 0.000000 0.000000
-0.019754 0.212999 0.078876 4.201249 -2.559207 -63.427921 25.547604 11.237104 -56.376905 -7.560489 9.884866 152.772307 6.791120 12.613408 -33.041073 0.000000 0.000000 0.000000 -21.067997 -4.244289 -57.549817 23.713197 -38.187596 125.748535 -5.849731 -36.113976 -43.682607 0.000000 0.000000 0.000000 25.749956 1.890797 20.376908 3.613570 39.648534 110.547069 46.430330 -3.400743 -92.212688 26.804569 6.425887 13.963449 0.000000 0.000000 0.000000 -41.518626 -25.011812 34.286980 -3.905041 -31.844681 -0.073759 10.935483 -54.576082 -4.252312 0.000000 0.000000 0.000000 10.140394 4.487720 4.448570 16.304922 28.586232 7.239472 28.223655 48.913686 8.744000 0.000000 0.000000 0.000000
-0.019054 0.229343 0.087237 4.619283 -2.565886 -59.417496 29.559547 13.596486 -56.124910 -8.904204 17.311420 152.144031 7.067466 15.565414 -31.592891 0.000000 0.000000 0.000000 -22.444749 -4.999718 -61.325713 25.982558 -40.870238 122.733859 -7.089522 -36.427459 -37.465327 0.000000 0.000000 0.000000 29.115293 -1.189471 30.494942 8.439279 50.881533 120.006498 61.959714 0.887026 -97.367767 25.431529 12.888630 6.943748 0.000000 0.000000 0.000000 -38.772224 -25.614059 46.232121 8.057843 -30.878549 -3.619591 27.395399 -49.840206 -13.276863 0.000000 0.000000 0.000000 8.201577 5.381140 7.034415 10.813964 30.639496 4.802090 19.901823 50.911297 3.378284 0.000000 0.000000 0.000000
-0.020210 0.246639 0.096654 5.648553 -3.092064 -55.144909 34.180791 16.632941 -56.049038 -10.039280 21.143627 150.114935 6.587353 12.615727 -28.030987 0.000000 0.000000 0.000000 -23.986421 -5.579232 -65.221342 29.388993 -44.801538 119.106957 -8.776547 -36.651025 -28.559637 0.000000 0.000000 0.000000 29.968734 -4.922719 40.515068 15.413875 62.203625 129.754994 76.081013 4.631264 -99.521232 24.067030 18.352014 1.502526 0.000000 0.000000 0.000000 -34.577283 -24.714872 57.328217 16.673985 -26.569412 -4.871852 38.788809 -40.592905 -17.451842 0.000000 0.000000 0.000000 7.254566 9.390023 8.507138 5.279279 27.928610 2.118296 14.458072 54.057120 -0.317500 0.000000 0.000000 0.000000
-0.023282 0.262569 0.107275 6.153856 -3.022478 -50.317958 38.653273 18.965366 -55.716946 -12.733792 28.749769 145.642692 7.305929 16.203835 -27.782021 0.000000 0.000000 0.000000 -25.298539 -6.542741 -68.740747 34.327056 -48.619205 113.094641 -10.585437 -38.761948 -21.953534 0.000000 0.000000 0.000000 28.440649 -8.724682 51.150205 68.269605 83.751500 179.343309 100.449185 3.311523 -92.926304 15.021725 15.407765 -8.435435 0.000000 0.000000 0.000000 -28.595920 -22.899816 69.615489 24.233108 -21.972570 -5.305606 45.622340 -26.262653 -16.772710 0.000000 0.000000 0.000000 7.504123 13.153369 4.992697 2.167385 24.737609 -0.723990 16.780338 53.017668 -1.694528 0.000000 0.000000 0.000000
-0.027499 0.277876 0.117068 6.569458 -3.042175 -45.332928 42.892942 21.028228 -55.060693 -15.610902 35.425272 141.509027 6.993072 14.523053 -23.357777 0.000000 0.000000 0.000000 -26.843939 -7.768497 -71.881325 39.144428 -51.718545 107.516253 -12.309450 -39.971493 -16.078468 0.000000 0.000000 0.000000 23.769904 -11.011973 61.641535 -163.496986 66.192807 -64.779618 121.443621 -11.524911 -83.065347 8.076446 6.679602 -17.118906 0.000000 0.000000 0.000000 -23.154410 -22.211366 78.518502 28.110224 -16.542348 -4.256781 45.921231 -11.804323 -11.137139 0.000000 0.000000 0.000000 7.650542 21.098637 -6.119257 2.935705 16.624291 -0.927810 26.503062 51.542908 1.030985 0.000000 0.000000 0.000000
-0.031107 0.293665 0.125419 5.801442 -2.646271 -39.787075 44.953316 21.814857 -55.968076 -20.581410 43.896568 134.763543 7.348623 15.546323 -21.508982 0.000000 0.000000 0.000000 -28.792413 -9.741576 -73.263493 46.602892 -55.139478 99.260091 -12.931255 -40.564173 -14.881674 0.000000 0.000000 0.000000 18.221195 -11.491138 70.163323 -139.083950 40.392279 -62.071063 132.611084 -35.934923 -73.439843 5.347698 -0.751103 -23.684958 0.000000 0.000000 0.000000 -20.509409 -23.022446 85.555650 30.804233 -9.653574 -2.631666 43.431315 -2.218858 -6.570505 0.000000 0.000000 0.000000 8.512073 28.092797 -18.063123 2.209029 10.402340 -0.956415 31.120384 46.043128 4.296547 0.000000 0.000000 0.000000
-0.033145 0.310717 0.132169 5.320111 -2.136582 -34.198622 46.989945 22.747838 -57.142317 -26.487828 50.672064 127.358061 6.516650 12.155885 -18.412708 0.000000 0.000000 0.000000 -31.694311 -12.394354 -74.168220 59.362818 -57.803625 84.779195 -16.505274 -47.178226 -10.704991 0.000000 0.000000 0.000000 13.772631 -12.235642 81.577115 -90.240644 4.207467 -69.603157 38.013848 -74.314233 37.402512 12.298834 -25.946466 -24.088371 0.000000 0.000000 0.000000 -30.892367 -30.992661 56.579136 27.120817 -7.706283 -0.041062 30.862941 -23.749325 -10.072227 0.000000 0.000000 0.000000 19.321831 34.195482 -19.265923 -4.583978 7.981760 -3.070932 32.049297 43.689316 10.560624 0.000000 0.000000 0.000000
-0.033394 0.329518 0.138587 4.873305 -1.730351 -28.078511 47.016617 23.065658 -59.443674 -35.193120 56.380507 116.332104 7.195934 14.462760 -15.150717 0.000000 0.000000 0.000000 -33.760727 -14.278119 -74.240721 77.692193 -58.892863 64.887864 -22.244206 -58.019684 -8.610919 0.000000 0.000000 0.000000 9.512620 -10.832394 87.562546 -42.821024 2.307903 -65.528736 2.868378 -28.917178 50.931112 16.072447 -29.157944 2.449586 0.000000 0.000000 0.000000 -39.541212 -39.551112 39.968301 25.654902 -6.223852 2.826842 11.519190 -33.628889 -5.451864 0.000000 0.000000 0.000000 37.634750 28.989531 5.934037 -13.367334 11.218673 -1.273438 10.515442 45.637586 3.892591 0.000000 0.000000 0.000000
-0.032307 0.349179 0.145381 4.852237 -1.275471 -22.240856 47.302835 22.720817 -59.424513 -45.458823 59.847320 103.617696 7.429661 14.473597 -16.147588 0.000000 0.000000 0.000000 -35.975301 -16.026509 -73.463517 93.864238 -56.640768 46.950990 -27.327854 -66.316217 -7.640469 0.000000 0.000000 0.000000 6.525725 -9.833368 93.692818 -22.921819 1.397752 -57.806188 -3.613511 -11.588134 38.089940 16.711504 -27.140717 3.716077 0.000000 0.000000 0.000000 -33.593514 -43.512635 31.387782 21.763647 -5.655083 2.582527 4.747534 -36.625190 -2.356996 0.000000 0.000000 0.000000 39.419585 28.699755 15.048474 -13.510120 11.545178 -0.080873 1.974491 44.762298 0.334385 0.000000 0.000000 0.000000
-0.030515 0.368586 0.152424 4.816563 -0.883538 -16.932728 46.756843 22.249621 -60.236431 -57.584350 61.333057 88.524392 9.806223 21.368509 -15.502410 0.000000 0.000000 0.000000 -37.794583 -16.918336 -70.959389 103.676788 -53.103142 35.412994 -22.469789 -69.184727 -18.752795 0.000000 0.000000 0.000000 4.334605 -8.593801 96.808388 -13.417128 1.823242 -48.581853 -7.024326 -5.442864 27.768641 19.878641 -21.708618 -8.635649 0.000000 0.000000 0.000000 -25.247087 -46.851934 27.201814 18.420489 -4.878993 1.892344 5.310258 -40.037140 -1.930288 0.000000 0.000000 0.000000 35.551619 29.512700 16.957917 -10.038371 11.999765 -0.345022 -5.464556 46.234346 -2.309573 0.000000 0.000000 0.000000
-0.028484 0.389086 0.158774 4.620319 -0.648788 -12.099474 46.411020 21.445683 -59.672603 -67.884064 61.517715 75.986467 11.502186 26.289521 -18.660525 0.000000 0.000000 0.000000 -39.890356 -17.439191 -67.415149 110.877031 -48.392147 26.089129 -21.692614 -68.667508 -20.026647 0.000000 0.000000 0.000000 2.762394 -7.663187 99.730121 -9.780652 1.645560 -46.308207 -7.346892 -3.869020 26.552789 20.889979 -16.248815 -21.765531 0.000000 0.000000 0.000000 -15.865468 -47.328819 22.702050 14.931180 -4.598798 1.430309 9.633280 -43.608526 -3.565313 0.000000 0.000000 0.000000 30.366550 31.294929 17.555968 -8.979013 13.267325 -0.659603 -12.001678 45.365050 -4.777945 0.000000 0.000000 0.000000
-0.026482 0.409470 0.163860 4.447017 -0.765257 -6.920853 45.557580 20.986687 -60.131315 -74.881218 60.426443 66.484435 12.513147 29.662979 -21.859499 0.000000 0.000000 0.000000 -40.745600 -17.103201 -64.896627 113.648652 -44.282601 20.720673 -21.539533 -67.477334 -19.932576 0.000000 0.000000 0.000000 1.962722 -6.996914 100.993180 -8.052767 1.697158 -41.787974 -7.455077 -3.397445 24.101237 18.744245 -10.260525 -30.875422 0.000000 0.000000 0.000000 -4.106300 -47.501972 17.643211 10.646341 -4.801839 0.842548 15.480055 -47.121411 -5.965313 0.000000 0.000000 0.000000 22.334978 32.513051 16.436825 -5.009046 13.968854 -0.860055 -19.806020 44.879195 -7.592196 0.000000 0.000000 0.000000
-0.024864 0.428744 0.167448 4.370792 -1.455373 -2.849786 44.363883 20.648496 -60.343750 -79.635191 58.373286 58.782925 13.850903 34.203816 -23.373557 0.000000 0.000000 0.000000 -40.733182 -16.422687 -64.239121 114.252668 -40.173672 16.905708 -31.934073 -71.712750 -7.021463 0.000000 0.000000 0.000000 1.158799 -5.694827 101.849303 -6.797135 1.600374 -39.845123 -7.335466 -3.203246 23.946397 16.097794 -6.516863 -36.956308 0.000000 0.000000 0.000000 4.655044 -45.620859 13.404047 7.414730 -7.038823 0.220070 19.747882 -47.993125 -7.725711 0.000000 0.000000 0.000000 15.552618 33.267897 15.229068 -2.575733 15.499655 -1.062594 -26.191472 43.229196 -9.656196 0.000000 0.000000 0.000000
-0.023744 0.449232 0.169480 4.061644 -2.104428 1.104904 43.081823 20.461758 -61.146379 -80.880735 56.026483 54.360501 14.654313 37.048277 -24.568731 0.000000 0.000000 0.000000 -39.137372 -15.272430 -65.039060 111.616935 -39.408258 17.319974 -49.659499 -77.082546 10.787936 0.000000 0.000000 0.000000 1.089328 -5.195766 101.862437 -5.247472 1.474423 -37.407650 -8.166852 -2.779186 22.729647 13.887672 -4.178109 -39.978393 0.000000 0.000000 0.000000 10.278280 -45.273055 11.347063 5.016730 -8.566118 -0.157803 21.279767 -46.789495 -7.961237 0.000000 0.000000 0.000000 10.179837 34.134029 14.461319 -1.635611 16.684132 -1.199064 -29.218299 40.177946 -9.811316 0.000000 0.000000 0.000000
-0.023283 0.470165 0.169712 3.769462 -2.867968 4.352301 41.579660 20.164465 -61.788433 -81.177889 53.399652 50.586342 15.918258 41.014966 -24.746137 0.000000 0.000000 0.000000 -37.197681 -13.858171 -65.966334 107.296371 -38.415271 18.544333 -79.139729 -82.971058 35.905021 0.000000 0.000000 0.000000 0.766941 -4.215398 101.601122 -4.617085 1.402943 -35.866778 -7.926754 -3.372869 23.010514 11.872245 -2.770840 -41.930948 0.000000 0.000000 0.000000 15.921868 -43.410017 8.896320 3.375796 -11.614848 -0.519050 21.091127 -44.963173 -7.318235 0.000000 0.000000 0.000000 3.425544 34.834185 12.931471 -1.264954 19.299792 -1.471884 -31.072416 36.074693 -9.270601 0.000000 0.000000 0.000000
-0.023174 0.490692 0.168599 3.249931 -3.515877 6.914207 39.966599 19.929687 -62.914560 -80.685886 50.222010 46.979048 19.211149 48.040954 -21.414944 0.000000 0.000000 0.000000 -34.888625 -12.352448 -67.244238 100.625187 -38.571116 22.232695 -118.158038 -85.445941 71.082702 0.000000 0.000000 0.000000 0.638184 -3.562023 101.676276 -3.901481 1.324453 -33.945078 -8.202500 -3.335298 22.315828 11.084380 -2.038415 -43.004432 0.000000 0.000000 0.000000 20.581416 -42.582179 7.229941 2.059500 -13.043288 -0.667628 22.103269 -42.456189 -7.147141 0.000000 0.000000 0.000000 -1.908516 34.844861 11.609633 -1.502942 21.054870 -1.665914 -31.643205 33.276326 -8.580058 0.000000 0.000000 0.000000
-0.022887 0.508244 0.166593 2.957650 -3.971654 9.169509 38.652648 19.719454 -63.969929 -78.941796 48.089097 45.694221 20.890355 50.592364 -19.449487 0.000000 0.000000 0.000000 -33.230641 -11.244750 -68.168239 95.464213 -38.190846 24.818606 -55.866693 -86.009915 7.222761 0.000000 0.000000 0.000000 0.859057 -3.464730 101.453169 -3.341152 1.244274 -33.088595 -8.439449 -3.361377 22.188614 10.911378 -1.812778 -43.312116 0.000000 0.000000 0.000000 22.750466 -42.269933 6.544628 2.639623 -13.916721 -0.738430 22.439476 -40.231924 -6.824525 0.000000 0.000000 0.000000 -5.575947 35.505085 10.919269 -3.310293 21.773199 -1.921036 -29.962121 29.698561 -7.092263 0.000000 0.000000 0.000000
-0.022147 0.527903 0.164331 2.275019 -4.512529 11.025755 37.533986 19.699864 -64.974242 -76.142566 45.801032 45.162422 24.060109 53.497669 -14.377196 0.000000 0.000000 0.000000 -31.591156 -9.987719 -68.766254 89.074579 -38.248395 28.950057 -24.622341 -79.647056 -23.448012 0.000000 0.000000 0.000000 0.936387 -3.026080 100.154957 -3.307601 1.226604 -32.662875 -8.011708 -2.787526 22.205146 11.731984 -2.036254 -43.284741 0.000000 0.000000 0.000000 22.432849 -42.062569 6.762411 2.600767 -14.839646 -0.843820 22.856834 -38.784330 -6.767979 0.000000 0.000000 0.000000 -5.869135 35.669048 10.991400 -5.260102 21.472757 -2.072627 -28.917180 28.683198 -6.518016 0.000000 0.000000 0.000000
-0.021129 0.545640 0.161890 2.314549 -3.877834 12.053021 36.101932 18.760597 -66.317871 -73.163271 44.462220 46.151597 25.187378 52.512883 -10.159860 0.000000 0.000000 0.000000 -31.067947 -9.936242 -68.295743 83.629705 -38.556604 32.911065 -19.610117 -72.345004 -26.602094 0.000000 0.000000 0.000000 1.021414 -3.581434 98.971757 -3.105147 1.214380 -32.530658 -7.718418 -2.051384 22.738776 11.629502 -1.827232 -43.853640 0.000000 0.000000 0.000000 21.728396 -42.590214 7.144713 3.729423 -14.974938 -0.891136 23.692060 -37.065829 -6.805724 0.000000 0.000000 0.000000 -6.602687 35.127457 10.664028 -6.305843 21.633502 -2.183876 -28.028570 28.414323 -6.212110 0.000000 0.000000 0.000000
-0.020318 0.565262 0.159555 1.828027 -4.060601 12.561800 34.275995 17.521333 -66.042798 -66.542726 42.375488 49.581428 22.850103 49.796747 -12.639821 0.000000 0.000000 0.000000 -29.745706 -8.765694 -67.115547 77.331983 -37.747126 36.877477 -15.002112 -63.842885 -30.559171 0.000000 0.000000 0.000000 1.328274 -3.634605 96.786648 -3.760926 1.319805 -31.986619 -7.048606 -1.270534 23.054929 12.393796 -2.089450 -43.459690 0.000000 0.000000 0.000000 21.245318 -42.992107 7.417860 4.028902 -16.131927 -1.033423 22.853438 -36.419941 -6.475593 0.000000 0.000000 0.000000 -7.074549 34.743262 10.433882 -6.715897 21.379479 -2.158363 -26.634253 29.083774 -5.990664 0.000000 0.000000 0.000000
-0.019893 0.582138 0.157124 1.802886 -3.679478 12.651157 32.935436 16.016240 -65.037054 -61.695827 40.505974 51.904073 19.022099 44.386984 -17.067744 0.000000 0.000000 0.000000 -29.132218 -8.366833 -65.791514 71.947925 -37.276011 40.741223 -13.173310 -55.017825 -30.680519 0.000000 0.000000 0.000000 1.834698 -4.301402 94.016793 -5.065351 1.522755 -32.463715 -6.358869 -0.454006 23.590985 12.708308 -1.931548 -44.780807 0.000000 0.000000 0.000000 18.768939 -44.097144 8.520777 4.469787 -16.765969 -1.143269 22.291540 -36.426551 -6.368403 0.000000 0.000000 0.000000 -5.150803 34.673966 10.984584 -6.233212 20.905628 -2.043445 -24.757255 30.523679 -5.795872 0.000000 0.000000 0.000000
-0.019866 0.602712 0.155333 1.632833 -3.995605 11.826774 31.120634 14.582886 -63.634840 -56.210624 37.955378 54.059784 18.628641 42.607249 -15.621144 0.000000 0.000000 0.000000 -27.480969 -7.177566 -65.389886 64.995220 -35.856721 45.507981 -14.300339 -50.838910 -24.900913 0.000000 0.000000 0.000000 2.143626 -4.159354 90.954388 -5.685552 1.606914 -32.682456 -5.560052 0.620460 23.882277 13.028071 -1.770505 -45.990096 0.000000 0.000000 0.000000 16.659843 -44.297159 9.307320 3.614571 -17.927001 -1.268821 21.234177 -35.717864 -5.977220 0.000000 0.000000 0.000000 -2.086299 34.460467 11.834937 -5.118965 19.949177 -1.808758 -24.091457 31.550677 -5.792997 0.000000 0.000000 0.000000
-0.019824 0.627411 0.154551 1.317149 -3.984747 10.727321 28.826366 12.343479 -60.810940 -50.382174 34.797437 55.890837 16.601327 39.431289 -18.930002 0.000000 0.000000 0.000000 -25.190905 -5.589200 -63.151587 58.730971 -33.734267 49.153412 -13.497092 -45.577824 -23.068879 0.000000 0.000000 0.000000 2.693305 -4.444403 87.251835 -6.405352 1.723693 -32.487236 -4.853137 1.209049 22.594440 12.951636 -1.992393 -44.215661 0.000000 0.000000 0.000000 10.615583 -45.694295 11.983728 2.760603 -16.505876 -1.130386 19.763870 -36.793785 -5.688765 0.000000 0.000000 0.000000 3.147937 33.679121 13.169955 -3.868489 17.733487 -1.478563 -22.185799 34.922126 -5.888354 0.000000 0.000000 0.000000
-0.019500 0.660426 0.155884 1.526524 -3.933854 9.794806 26.247115 9.888655 -57.096817 -45.149840 30.874418 55.677964 14.687866 34.665114 -19.898707 0.000000 0.000000 0.000000 -22.766784 -4.024533 -60.189918 52.662530 -30.275849 50.727149 -13.965002 -44.044646 -19.496265 0.000000 0.000000 0.000000 3.275611 -4.724368 83.207500 -7.273177 1.797779 -33.908154 -4.753048 0.290938 23.404503 13.920399 -2.596747 -44.082793 0.000000 0.000000 0.000000 7.190398 -43.402621 12.628041 0.439325 -15.916566 -1.037587 20.836278 -39.391356 -6.455663 0.000000 0.000000 0.000000 7.602071 32.097782 13.620386 -2.213210 16.624787 -1.340059 -21.371221 36.616580 -6.034410 0.000000 0.000000 0.000000
-0.018994 0.703443 0.159107 1.781468 -3.996613 8.377115 22.815730 7.053721 -51.876711 -40.506543 26.121748 52.608650 14.758498 34.015773 -17.502135 0.000000 0.000000 0.000000 -20.497689 -2.554046 -55.353802 46.666960 -25.753123 50.338404 -14.044523 -40.230520 -14.052323 0.000000 0.000000 0.000000 3.965428 -4.910319 78.288410 -7.944971 1.856734 -34.543900 -5.270813 -0.319130 21.482282 15.003839 -3.617648 -41.667422 0.000000 0.000000 0.000000 -3.913754 -42.760146 16.766523 2.136091 -11.184987 -0.659535 17.918934 -46.317804 -6.507060 0.000000 0.000000 0.000000 17.301049 29.189641 14.598797 -3.601469 12.376888 -0.918823 -15.462251 41.574680 -4.879646 0.000000 0.000000 0.000000
-0.018274 0.754193 0.163845 1.915054 -2.781443 6.493287 19.599104 4.362464 -46.421213 -35.135841 20.590611 49.043443 13.689205 29.282975 -10.151167 0.000000 0.000000 0.000000 -17.903111 -1.509777 -48.198017 39.835434 -20.270553 47.273873 -13.326185 -34.982431 -8.411951 0.000000 0.000000 0.000000 4.422105 -5.422575 72.535861 -8.489343 1.882943 -36.103685 -4.967945 -0.514279 21.672985 16.214872 -4.634489 -39.760414 0.000000 0.000000 0.000000 -10.938417 -38.882108 17.639186 3.484246 -7.707814 -0.263916 16.499622 -54.272383 -7.287129 0.000000 0.000000 0.000000 20.436051 24.495121 12.531461 0.866522 8.995428 -0.704613 -11.240188 44.631827 -3.651361 0.000000 0.000000 0.000000
-0.017439 0.812199 0.168235 1.924815 -2.568208 5.419769 16.448062 2.359469 -39.216813 -30.704364 15.317197 41.736999 12.326079 25.314171 -3.857892 0.000000 0.000000 0.000000 -14.664903 -0.212022 -40.371326 33.083016 -14.441349 41.571399 -11.007107 -27.628143 -4.454443 0.000000 0.000000 0.000000 4.640565 -5.059447 65.674895 -10.132523 2.042629 -36.840160 -3.370205 -1.131427 20.928320 16.324151 -6.892593 -31.596185 0.000000 0.000000 0.000000 -19.140046 -33.822496 18.032548 8.227490 -5.232143 0.457541 14.964853 -58.415783 -7.470002 0.000000 0.000000 0.000000 25.918378 19.100211 9.849956 -2.195590 3.678467 -0.065319 -5.510440 46.738813 -1.664968 0.000000 0.000000 0.000000
-0.016113 0.868854 0.170842 1.093371 -3.479207 4.644786 13.444908 1.111903 -32.174943 -24.663009 10.157235 33.257946 11.415846 22.801594 4.435570 0.000000 0.000000 0.000000 -8.751572 1.474732 -32.895928 24.099320 -8.271628 34.905187 -8.829221 -21.786915 -0.441267 0.000000 0.000000 0.000000 4.280836 -3.926144 57.869955 -9.828207 1.966152 -37.339488 -2.339353 0.455371 22.327328 15.740686 -8.172334 -25.213839 0.000000 0.000000 0.000000 -18.908777 -26.762142 13.791751 8.620987 -5.279252 0.537680 17.343915 -60.819759 -9.604420 0.000000 0.000000 0.000000 27.266777 13.864611 7.057880 -3.138292 0.163305 0.395537 -5.542912 49.276728 -2.035807 0.000000 0.000000 0.000000
-0.013989 0.918419 0.170837 1.070366 -3.490541 4.543048 11.822922 0.425442 -25.816623 -22.298404 7.068788 23.495583 10.341407 20.625098 14.216055 0.000000 0.000000 0.000000 -4.910155 1.828804 -25.238870 17.053245 -4.277265 25.616503 -6.605781 -16.791885 2.970618 0.000000 0.000000 0.000000 2.602821 -2.521367 48.205776 -9.845061 1.933656 -38.174285 -0.261793 0.893307 23.327451 13.955150 -9.539092 -16.041847 0.000000 0.000000 0.000000 -20.357127 -20.736241 10.856565 12.260358 -6.892665 0.684845 11.558799 -66.579780 -7.447988 0.000000 0.000000 0.000000 28.096689 10.702014 5.129547 -6.228112 -3.922870 1.308813 -5.491367 49.541751 -2.335497 0.000000 0.000000 0.000000
-0.010577 0.956178 0.168357 2.002790 -1.393997 3.351230 7.545555 -0.614490 -22.002764 -16.317421 4.133749 19.137388 7.076017 16.502680 21.887890 0.000000 0.000000 0.000000 -3.697804 1.427465 -18.837535 11.093863 -2.074972 16.920232 -4.446002 -13.412957 11.302583 0.000000 0.000000 0.000000 4.482613 -3.248219 41.063744 -12.823735 2.347759 -37.922345 0.196392 -1.178977 24.683368 11.985740 -9.357063 -11.644847 0.000000 0.000000 0.000000 -17.286213 -16.124043 8.256680 10.665858 -7.594487 0.525927 18.510314 -66.482283 -12.049263 0.000000 0.000000 0.000000 22.876221 4.825848 1.156853 -4.965157 -4.084032 1.114381 -0.766138 52.261159 -0.397910 0.000000 0.000000 0.000000
