HIERARCHY
ROOT Hips
{
	OFFSET -0.001795 -0.223333 0.028219
	CHANNELS 6 Xposition Yposition Zposition Zrotation Yrotation Xrotation
	JOINT LeftUpLeg
	{
		OFFSET 0.069520 -0.091406 -0.006815
		CHANNELS 3 Zrotation Yrotation Xrotation
		JOINT LeftLeg
		{
			OFFSET 0.034277 -0.375199 -0.004496
			CHANNELS 3 Zrotation Yrotation Xrotation
			JOINT LeftFoot
			{
				OFFSET -0.013596 -0.397961 -0.043693
				CHANNELS 3 Zrotation Yrotation Xrotation
				JOINT LeftToe
				{
					OFFSET 0.026358 -0.055791 0.119288
					CHANNELS 3 Zrotation Yrotation Xrotation
					End Site
					{
						OFFSET 0.000000 0.000000 0.000000
					}
				}
			}
		}
	}
	JOINT RightUpLeg
	{
		OFFSET -0.067670 -0.090522 -0.004320
		CHANNELS 3 Zrotation Yrotation Xrotation
		JOINT RightLeg
		{
			OFFSET -0.038290 -0.382569 -0.008850
			CHANNELS 3 Zrotation Yrotation Xrotation
			JOINT RightFoot
			{
				OFFSET 0.015774 -0.398415 -0.042312
				CHANNELS 3 Zrotation Yrotation Xrotation
				JOINT RightToe
				{
					OFFSET -0.025372 -0.048144 0.123348
					CHANNELS 3 Zrotation Yrotation Xrotation
					End Site
					{
						OFFSET 0.000000 0.000000 0.000000
					}
				}
			}
		}
	}
	JOINT Spine
	{
		OFFSET -0.002533 0.108963 -0.026696
		CHANNELS 3 Zrotation Yrotation Xrotation
		JOINT Spine1
		{
			OFFSET 0.005487 0.135180 0.001092
			CHANNELS 3 Zrotation Yrotation Xrotation
			JOINT Spine2
			{
				OFFSET 0.001457 0.052922 0.025425
				CHANNELS 3 Zrotation Yrotation Xrotation
				JOINT Neck
				{
					OFFSET -0.002778 0.213870 -0.042857
					CHANNELS 3 Zrotation Yrotation Xrotation
					JOINT Head
					{
						OFFSET 0.005152 0.064970 0.051349
						CHANNELS 3 Zrotation Yrotation Xrotation
						End Site
						{
							OFFSET 0.000000 0.000000 0.000000
						}
					}
				}
				JOINT LeftShoulder
				{
					OFFSET 0.078845 0.121749 -0.034090
					CHANNELS 3 Zrotation Yrotation Xrotation
					JOINT LeftArm
					{
						OFFSET 0.090977 0.030469 -0.008868
						CHANNELS 3 Zrotation Yrotation Xrotation
						JOINT LeftForeArm
						{
							OFFSET 0.259612 -0.012772 -0.027456
							CHANNELS 3 Zrotation Yrotation Xrotation
							JOINT LeftHand
							{
								OFFSET 0.249234 0.008986 -0.001171
								CHANNELS 3 Zrotation Yrotation Xrotation
								End Site
								{
									OFFSET 0.000000 0.000000 0.000000
								}
							}
						}
					}
				}
				JOINT RightShoulder
				{
					OFFSET -0.081759 0.118833 -0.038615
					CHANNELS 3 Zrotation Yrotation Xrotation
					JOINT RightArm
					{
						OFFSET -0.096012 0.032551 -0.009143
						CHANNELS 3 Zrotation Yrotation Xrotation
						JOINT RightForeArm
						{
							OFFSET -0.253742 -0.013329 -0.021401
							CHANNELS 3 Zrotation Yrotation Xrotation
							JOINT RightHand
							{
								OFFSET -0.255298 0.007772 -0.005559
								CHANNELS 3 Zrotation Yrotation Xrotation
								End Site
								{
									OFFSET 0.000000 0.000000 0.000000
								}
							}
						}
					}
				}
			}
		}
	}
}
MOTION
Frames: 76
Frame Time: 0.050000
0.000000 0.748983 0.000000 -69.475213 -34.985574 105.411655 -23.780359 39.885911 -100.790041 37.212419 -18.905767 47.436258 3.654766 -25.794948 -50.429460 0.000000 0.000000 0.000000 -4.748248 11.340879 -33.054299 51.093552 3.213715 81.763313 -0.745326 -45.246960 -54.419998 0.000000 0.000000 0.000000 13.912399 40.073392 91.472015 2.625949 0.290793 -37.161794 -17.656642 -10.421172 17.107694 5.016538 -1.498734 -36.892588 0.000000 0.000000 0.000000 46.291798 -8.700631 -1.069616 8.349622 -37.088669 -0.556970 27.064150 21.312097 6.931944 0.000000 0.000000 0.000000 -29.257242 -5.961842 5.388085 -42.439448 30.831229 -18.608195 -41.413548 -16.704268 5.198272 0.000000 0.000000 0.000000
-0.067036 0.763336 0.073215 -66.067713 -28.840995 109.080772 -19.902130 38.918991 -96.241287 39.999378 -15.362795 35.980510 0.679743 -29.667588 -47.003465 0.000000 0.000000 0.000000 -13.358446 8.013890 -23.620899 54.230603 1.707563 72.301654 -5.564483 -30.722599 -61.434979 0.000000 0.000000 0.000000 7.807532 41.261726 84.184053 7.306313 -0.134670 -33.724234 -16.990799 -17.280566 16.181929 -2.498707 0.170633 -38.331002 0.000000 0.000000 0.000000 39.262006 -10.907949 -1.121455 18.705003 -27.575648 -0.985754 25.360107 25.129860 8.186438 0.000000 0.000000 0.000000 -26.817268 4.442632 7.329523 -51.044856 12.471148 -12.789258 -35.994383 -20.707132 5.322908 0.000000 0.000000 0.000000
-0.146122 0.811343 0.152581 -66.337530 -21.490087 110.647347 -1.319459 52.081900 -79.504341 20.225787 -5.621434 33.023517 -6.958394 -24.516067 -22.729502 0.000000 0.000000 0.000000 -19.935121 9.520042 -17.189841 65.869965 -1.617284 67.237047 2.818615 -48.090056 -70.100266 0.000000 0.000000 0.000000 6.557145 43.791363 83.949545 3.005607 0.153101 -31.183008 -14.900768 -22.554679 20.255450 -11.363293 2.192204 -48.043690 0.000000 0.000000 0.000000 47.004942 -6.073603 -3.312865 16.079623 -24.639321 0.298010 13.549813 27.421962 5.578197 0.000000 0.000000 0.000000 -36.794785 0.024322 10.580008 -40.819200 3.753740 -7.975363 -34.179180 -20.243084 2.662760 0.000000 0.000000 0.000000
-0.231482 0.858708 0.233656 -60.061176 -14.532139 113.457349 4.083642 56.125490 -83.279124 18.959727 -7.978420 47.733438 -9.576739 -29.012098 -13.525211 0.000000 0.000000 0.000000 -32.975518 19.305819 -4.734020 72.571768 -4.509492 49.248848 1.427231 -49.968245 -68.449038 0.000000 0.000000 0.000000 -0.902320 40.380953 73.650379 2.205668 0.456599 -31.034130 -14.489308 -20.473317 25.485659 -12.332803 2.920391 -54.190701 0.000000 0.000000 0.000000 48.655613 -7.299725 -3.165363 20.322521 -17.618318 0.932568 9.414575 27.661879 4.307441 0.000000 0.000000 0.000000 -39.204924 -0.848394 10.091970 -37.667302 -2.650543 -3.499527 -27.678041 -25.056683 2.244488 0.000000 0.000000 0.000000
-0.319974 0.883101 0.314370 -49.837697 -9.488312 118.501293 4.024157 56.011323 -94.499496 13.330326 -12.663893 88.344674 1.169500 -21.764211 -28.678222 0.000000 0.000000 0.000000 -31.699387 35.434293 24.416206 61.953450 4.041545 12.210155 -17.895864 -49.359209 -40.458060 0.000000 0.000000 0.000000 -2.705650 35.907678 69.739848 0.633112 0.731238 -31.000067 -16.222267 -26.810621 24.553244 -14.025724 3.293372 -56.531831 0.000000 0.000000 0.000000 47.281009 -5.823170 -2.244105 26.572015 -16.959636 1.923969 10.026482 25.684960 4.225582 0.000000 0.000000 0.000000 -43.678518 -2.166084 11.453656 -30.847008 -3.237135 -2.267712 -26.525513 -27.307438 1.301929 0.000000 0.000000 0.000000
-0.405637 0.887394 0.396803 -39.154466 -6.596977 125.979838 5.425293 58.170772 -104.038475 11.637551 -15.693444 113.136341 -12.918152 -19.168603 9.776830 0.000000 0.000000 0.000000 -18.494596 35.315971 43.501768 36.457918 6.995705 -12.998676 -41.086972 -42.586882 6.076450 0.000000 0.000000 0.000000 -4.858514 32.572297 61.913251 0.020199 0.822255 -29.654236 -19.404621 -35.865457 27.506634 -19.016626 3.118134 -54.648874 0.000000 0.000000 0.000000 48.432767 -3.902948 -1.721814 28.236978 -15.127997 2.930948 16.083382 20.195749 5.857284 0.000000 0.000000 0.000000 -42.335483 -1.003629 11.136627 -28.578441 -1.892414 -3.736697 -29.983396 -32.032092 0.796268 0.000000 0.000000 0.000000
-0.487705 0.890123 0.485703 -29.297144 2.055554 133.137352 38.899970 68.246583 -77.623358 20.516185 -15.106711 120.035991 -19.770111 -6.860936 41.313101 0.000000 0.000000 0.000000 -7.361190 28.715585 51.662505 17.001540 5.490512 -27.151235 -41.082587 -29.895749 31.661373 0.000000 0.000000 0.000000 -6.360419 29.050795 52.193628 -1.366784 0.880641 -26.654971 -18.046590 -40.162304 28.237641 -15.356002 2.104318 -55.897839 0.000000 0.000000 0.000000 46.174302 -2.193471 -0.406915 33.345713 -16.537267 3.762736 15.595456 19.678690 5.799075 0.000000 0.000000 0.000000 -44.282789 1.565654 11.575243 -20.882662 -0.087442 -2.563060 -29.700752 -36.908805 -0.842544 0.000000 0.000000 0.000000
-0.564694 0.893014 0.578567 -20.019663 8.665398 149.603655 110.347227 -69.345738 -2.408907 95.175529 34.711274 -117.918902 -173.566434 -74.230045 -159.540457 0.000000 0.000000 0.000000 -28.305977 4.669283 27.224312 27.597217 4.807836 -8.737896 -59.936252 15.649155 26.321574 0.000000 0.000000 0.000000 -19.587827 14.441710 33.622537 -2.414204 0.415494 -26.812336 -12.700598 -31.847667 28.491393 -14.434295 -0.778429 -57.254371 0.000000 0.000000 0.000000 45.261880 6.686064 33.851304 41.820322 -1.550871 13.422082 6.918907 28.608098 9.801900 0.000000 0.000000 0.000000 -40.442594 21.421912 -31.248181 -26.629557 -1.192780 -14.163067 -43.422702 -3.722429 -15.334134 0.000000 0.000000 0.000000
-0.636014 0.882346 0.671796 -14.424459 25.540169 167.904222 87.944091 2.866980 6.659624 -100.055180 -59.579383 -8.570084 -78.335504 14.136622 -159.431888 0.000000 0.000000 0.000000 -27.028475 0.009895 3.458474 22.166116 1.367187 -0.001814 -75.631078 9.922523 19.161889 0.000000 0.000000 0.000000 -22.957462 16.506954 8.530205 -3.165442 0.423427 -22.982793 -15.006540 -36.845279 33.839086 -5.308722 -3.418483 -59.880582 0.000000 0.000000 0.000000 41.254182 9.192814 31.023209 41.487150 -7.708308 9.871306 20.727234 30.817485 21.012134 0.000000 0.000000 0.000000 -37.199060 25.867913 -25.235722 -16.932049 1.688064 -8.447986 -54.134557 -16.354009 -21.340789 0.000000 0.000000 0.000000
-0.702770 0.860624 0.762602 -1.543463 19.211307 -151.234179 46.964704 34.911046 -51.600546 -54.609378 18.656206 42.334660 37.742880 57.363322 -42.881717 0.000000 0.000000 0.000000 -21.104053 -2.240808 -31.659885 17.400682 -0.443400 3.780427 -81.839615 -12.628717 35.986976 0.000000 0.000000 0.000000 -22.729431 0.996930 -31.448422 -1.058638 0.201597 -19.220282 -30.301358 -44.995901 48.099511 -3.513016 -0.030422 -59.488729 0.000000 0.000000 0.000000 42.453078 0.320204 6.135822 32.310715 -19.162810 5.423996 31.948046 10.621653 17.172094 0.000000 0.000000 0.000000 -32.627521 21.485259 -4.119635 -13.333469 12.149613 -10.715395 -50.580985 -32.588343 -10.558322 0.000000 0.000000 0.000000
-0.765755 0.821778 0.847071 9.727724 7.549579 -130.902416 38.568776 32.029704 -70.274513 -30.297978 11.633336 45.692940 33.077769 42.556796 -35.567905 0.000000 0.000000 0.000000 -10.638792 -0.699681 -37.583065 6.593578 0.923740 -9.951458 -103.926230 -67.832349 35.531203 0.000000 0.000000 0.000000 -10.489695 -0.087020 -47.189259 -2.715382 0.785461 -16.480255 -45.770854 -52.600994 60.730639 -1.044433 3.463986 -61.612925 0.000000 0.000000 0.000000 46.078538 -1.460211 -5.758687 24.160553 -20.608315 3.855713 36.071193 -1.403561 14.793206 0.000000 0.000000 0.000000 -30.780408 18.130637 1.392801 -12.554082 18.679070 -13.221571 -53.433222 -34.937695 -7.176116 0.000000 0.000000 0.000000
-0.824584 0.778297 0.919145 3.775235 -12.775195 -118.595599 17.646217 17.657901 -91.324927 -9.927898 3.055411 44.615931 15.137492 16.592968 -31.317215 0.000000 0.000000 0.000000 -2.952503 2.982590 -30.092163 -20.673676 -0.173412 -26.629769 14.646411 -44.154205 -120.724029 0.000000 0.000000 0.000000 -12.541143 -2.226993 -48.973025 -0.869338 0.424963 -17.399827 -97.325002 -60.585554 104.212462 0.077096 6.418694 -64.988423 0.000000 0.000000 0.000000 49.941019 0.617219 -6.472224 21.109369 -20.799106 5.509036 33.989457 -2.717749 16.657594 0.000000 0.000000 0.000000 -30.120406 19.595493 -1.329795 -5.044578 24.701296 -15.974614 -58.970170 -25.726953 -14.698028 0.000000 0.000000 0.000000
-0.878628 0.721267 0.974962 -2.689031 -12.329919 -110.866027 20.769877 11.691750 -79.420593 -20.893645 6.598388 30.602297 19.547160 20.563872 22.179746 0.000000 0.000000 0.000000 1.168439 4.520239 -29.771166 -50.815711 -0.331482 -19.520824 -13.214189 -14.857398 -119.685228 0.000000 0.000000 0.000000 -18.530533 -7.708141 -45.319887 -1.177102 0.642853 -17.926578 -106.734949 -60.004743 114.510330 2.288062 8.572429 -65.993981 0.000000 0.000000 0.000000 55.713157 2.023372 -7.621929 19.184866 -21.624740 6.303932 33.850524 -0.730239 18.484507 0.000000 0.000000 0.000000 -16.167056 33.363078 -22.756490 -3.228480 14.034001 -11.177816 -64.740260 -4.959502 -15.247739 0.000000 0.000000 0.000000
-0.926303 0.664841 1.016097 -20.392769 -16.711864 -101.650534 13.801115 -3.973565 -72.262066 -25.600725 6.948964 28.086981 38.587348 31.636592 56.765213 0.000000 0.000000 0.000000 0.751058 3.264720 -27.661024 -45.425347 11.967668 15.314435 -19.484714 -7.037816 -104.482292 0.000000 0.000000 0.000000 -29.791834 -14.838153 -32.194030 1.011350 0.268331 -19.208057 -133.553285 -52.041797 138.093473 -3.656725 15.684194 -76.154654 0.000000 0.000000 0.000000 58.949851 3.297224 -6.303499 23.706522 -23.921427 9.492288 36.668354 7.847237 25.741241 0.000000 0.000000 0.000000 -2.301129 53.631846 -109.174063 -14.515671 28.656617 -10.918596 -6.780349 43.971809 11.785915 0.000000 0.000000 0.000000
-0.964560 0.592635 1.048416 -26.955339 -14.340447 -95.704761 10.396609 -5.347830 -56.108232 -33.435229 6.974845 26.131006 49.628235 37.381724 67.308067 0.000000 0.000000 0.000000 1.482113 3.140924 -34.491199 -23.230176 11.181809 55.525147 -14.259327 -1.337535 -79.189140 0.000000 0.000000 0.000000 -31.240018 -14.823284 -26.194647 -0.863790 0.892684 -17.246244 -129.826694 -51.703908 138.932557 -31.409808 23.170343 -99.497904 0.000000 0.000000 0.000000 70.572986 3.222449 -4.928068 29.940203 -19.497796 11.281097 37.759444 20.520576 36.354587 0.000000 0.000000 0.000000 90.444911 31.130370 -123.045979 88.395047 34.180407 121.170505 -19.359818 9.089566 5.540875 0.000000 0.000000 0.000000
-0.992885 0.506873 1.081054 -30.587049 -12.223796 -90.327238 7.436534 -4.326760 -44.401487 -35.154148 7.537376 34.061792 49.578751 46.501798 46.589970 0.000000 0.000000 0.000000 -0.677434 1.693613 -40.336503 -7.146296 -2.303026 86.385506 -9.734846 -18.734224 -70.922955 0.000000 0.000000 0.000000 -32.942002 -13.947045 -19.368252 3.160156 -0.359348 -16.577385 17.059481 14.167602 51.296241 -37.676674 31.364207 5.450967 0.000000 0.000000 0.000000 94.476783 7.222606 4.561483 -0.968416 27.351809 -1.465932 -98.974115 10.570958 -33.260969 0.000000 0.000000 0.000000 146.538829 9.797363 36.322708 -3.598808 -40.848088 4.934972 34.146309 13.854138 1.699057 0.000000 0.000000 0.000000
-1.014514 0.412272 1.116324 -35.260188 -8.844070 -87.556187 4.828601 -2.781722 -30.405223 -27.769896 3.949219 37.411107 33.168710 38.865380 38.263286 0.000000 0.000000 0.000000 -5.679683 -2.847187 -43.762125 4.812105 -19.811699 93.972491 -9.627538 -27.946995 -57.756803 0.000000 0.000000 0.000000 -29.498737 -10.145488 -10.481745 5.375208 -1.037585 -15.475533 32.148181 19.632969 51.750547 -9.391361 11.110841 9.468215 0.000000 0.000000 0.000000 69.620614 9.474731 9.524587 -34.833913 5.787736 -14.161403 -125.223412 -29.937596 16.114292 0.000000 0.000000 0.000000 98.597298 12.328715 68.836504 14.688829 7.329664 -5.563305 -3.541342 26.689227 -3.110942 0.000000 0.000000 0.000000
-1.035325 0.316488 1.149803 -35.000787 -8.089519 -82.611876 4.903700 -2.153797 -28.050378 -21.925642 2.669153 44.935438 26.541956 39.947144 9.773741 0.000000 0.000000 0.000000 -6.629480 -4.137442 -51.352252 1.085333 -12.601493 110.543625 -9.452229 -6.419283 -39.657394 0.000000 0.000000 0.000000 -25.200292 -7.816427 -9.731149 10.080628 -3.363322 -11.672718 27.760207 20.967082 46.251237 6.275082 -0.311914 -3.191071 0.000000 0.000000 0.000000 61.569514 5.299171 10.175667 -51.885646 -12.100462 -16.899649 -122.078476 -38.443097 43.362235 0.000000 0.000000 0.000000 31.763097 17.891797 27.428420 59.793204 31.941253 2.947650 -11.922113 16.815273 -0.858247 0.000000 0.000000 0.000000
-1.058435 0.234081 1.169388 -34.827403 -5.505090 -80.792539 2.095268 -2.283000 -23.627990 -17.350099 0.424426 47.581384 21.691036 40.157608 -16.788456 0.000000 0.000000 0.000000 -10.940185 -9.704641 -58.677204 1.473520 -8.749840 120.988229 5.304034 7.551029 7.456015 0.000000 0.000000 0.000000 -24.503051 -6.841251 -6.961154 11.529226 -3.913659 -12.234716 23.313226 20.069504 45.126087 6.266489 3.640786 -18.971626 0.000000 0.000000 0.000000 53.728363 3.584224 10.099221 -60.556053 -23.728876 -15.732250 -114.562931 -48.305726 59.858529 0.000000 0.000000 0.000000 -1.705841 13.869525 3.833707 78.980947 29.610617 21.791674 -21.042730 16.424156 -1.136251 0.000000 0.000000 0.000000
-1.080286 0.184693 1.176511 -28.603325 -5.774019 -78.737326 3.717078 -2.547448 -29.533652 -20.554080 3.667225 54.075677 21.382053 46.946821 -24.439545 0.000000 0.000000 0.000000 -4.002156 -3.670533 -74.974432 0.370504 0.905590 134.569237 9.875928 6.832506 23.934606 0.000000 0.000000 0.000000 -22.705558 -6.538689 -10.394466 12.377715 -4.570691 -11.191135 25.591835 27.222014 50.717220 11.020368 0.648964 -17.798738 0.000000 0.000000 0.000000 48.428429 -1.424483 10.850861 -69.742777 -40.032124 -12.425420 -90.001442 -61.045130 58.997530 0.000000 0.000000 0.000000 -3.265938 7.235574 0.630136 71.914584 28.505600 19.729444 -37.404071 24.039775 -2.576203 0.000000 0.000000 0.000000
-1.095987 0.158745 1.177417 -27.698289 -5.805582 -81.110773 3.122330 -3.401227 -32.649150 -19.631975 3.245391 59.417027 20.185708 47.732850 -28.313971 0.000000 0.000000 0.000000 -4.976538 -4.240715 -72.897349 0.023749 2.087745 133.578518 13.824559 10.136448 29.852716 0.000000 0.000000 0.000000 -21.408527 -5.816251 -7.259684 8.810801 -3.150602 -10.270022 25.292696 28.225336 48.546389 11.055480 1.210704 -20.412338 0.000000 0.000000 0.000000 43.534429 -2.292483 10.874883 -72.981603 -46.602626 -8.193435 -74.910640 -66.794091 53.736665 0.000000 0.000000 0.000000 -5.576560 6.065936 -0.739713 67.146952 23.599001 15.556651 -44.548171 29.271348 -4.815412 0.000000 0.000000 0.000000
-1.104033 0.157731 1.178283 -27.599734 -6.031013 -82.436124 4.752861 -2.994559 -33.730854 -15.709809 -0.001039 64.765088 18.566695 46.475945 -32.209421 0.000000 0.000000 0.000000 -9.441265 -6.719086 -64.157390 0.719499 -0.865473 129.060605 12.283445 14.400086 19.341020 0.000000 0.000000 0.000000 -19.770634 -5.389647 -7.405292 7.787244 -2.712168 -9.945752 23.727561 28.959022 48.865071 10.884783 2.505602 -25.441549 0.000000 0.000000 0.000000 42.941043 -3.176441 11.163787 -75.225526 -49.211640 -7.485693 -73.505686 -67.463664 54.036035 0.000000 0.000000 0.000000 -4.297043 5.558089 -0.395269 62.459064 22.879280 13.215413 -44.377058 30.627410 -5.310813 0.000000 0.000000 0.000000
-1.106974 0.170004 1.178373 -25.328413 -6.019231 -83.582897 4.946068 -2.825985 -33.941507 -11.246397 -3.213619 69.029892 21.377412 47.621426 -22.859679 0.000000 0.000000 0.000000 -11.206511 -5.904707 -56.049046 4.838413 -10.796175 123.237417 3.408674 8.406131 1.263919 0.000000 0.000000 0.000000 -18.112704 -5.188359 -9.227548 7.499227 -3.006372 -6.741745 23.344423 33.257968 47.969859 9.215767 3.369389 -22.784857 0.000000 0.000000 0.000000 41.110210 -3.368052 11.900989 -76.626106 -51.986567 -7.190357 -79.950387 -71.321198 62.929566 0.000000 0.000000 0.000000 -5.418882 3.677075 -1.416562 57.396677 16.622759 8.834515 -38.853109 36.536004 -5.974378 0.000000 0.000000 0.000000
-1.106270 0.186420 1.176140 -25.673406 -5.846239 -82.808950 4.456267 -3.546951 -36.437507 -6.270393 -8.535262 74.839188 15.098628 35.916405 -32.834616 0.000000 0.000000 0.000000 -12.313549 -5.733474 -49.829393 5.231219 -12.578561 119.830067 1.741313 8.226745 -4.168404 0.000000 0.000000 0.000000 -14.909809 -4.460166 -13.485568 4.627842 -1.683588 -5.582042 22.514670 30.981088 46.664316 11.211908 1.471098 -20.830635 0.000000 0.000000 0.000000 43.614940 -7.042826 12.077177 -82.055991 -53.393123 -6.026799 -83.149138 -70.565323 67.856328 0.000000 0.000000 0.000000 -4.171566 0.142900 -2.101984 53.247047 14.500587 6.002528 -29.039296 38.012086 -3.962253 0.000000 0.000000 0.000000
-1.103895 0.200554 1.173055 -21.490634 -4.200392 -83.651607 2.720179 -3.307940 -32.467884 -3.949845 -9.981102 73.955220 14.869824 31.570196 -25.886948 0.000000 0.000000 0.000000 -13.370024 -5.568971 -47.159707 4.811258 -11.201184 122.530568 1.876867 11.099175 -6.503378 0.000000 0.000000 0.000000 -12.243440 -3.584959 -15.469253 4.803959 -1.703813 -6.263763 17.438589 31.511678 47.178704 9.591961 3.242410 -23.467878 0.000000 0.000000 0.000000 45.144154 -6.692082 12.185898 -86.269801 -53.859854 -5.632025 -80.408728 -73.177082 69.951337 0.000000 0.000000 0.000000 -6.302320 3.467063 -1.459447 55.440494 15.780525 7.431508 -27.659657 30.217191 -3.046356 0.000000 0.000000 0.000000
-1.102087 0.212125 1.171620 -16.898640 -4.469466 -84.130126 3.479900 -2.435223 -30.699193 -1.240844 -11.079732 76.905612 13.388783 28.058629 -27.473892 0.000000 0.000000 0.000000 -11.169285 -2.887335 -45.009346 4.882809 -8.278694 121.638532 -0.580655 11.519297 -14.760400 0.000000 0.000000 0.000000 -7.725103 -2.095142 -19.270923 1.801095 -0.575490 -3.449078 17.705160 33.252111 47.911640 7.612097 4.488636 -24.411884 0.000000 0.000000 0.000000 43.760160 -4.386165 12.187455 -93.786460 -55.667987 -2.181308 -81.015595 -70.757403 71.190456 0.000000 0.000000 0.000000 -5.745310 -1.019538 -2.970879 55.926129 15.289722 6.920978 -31.880418 21.415160 -0.802976 0.000000 0.000000 0.000000
-1.101850 0.220872 1.173090 -16.810055 -4.697430 -83.146406 3.035260 -2.378255 -29.227919 1.757952 -14.963163 80.330807 10.115148 15.508222 -35.616892 0.000000 0.000000 0.000000 -13.771672 -4.202506 -44.111017 6.533710 -10.847066 123.115523 0.109098 9.816209 -11.332262 0.000000 0.000000 0.000000 -6.070244 -1.475091 -21.504764 1.434741 -0.333027 -4.569111 15.477227 30.842591 47.558714 9.521518 3.435991 -26.859391 0.000000 0.000000 0.000000 47.601302 -5.577735 12.047199 -98.626597 -55.511751 -0.393141 -85.843710 -71.853773 79.126327 0.000000 0.000000 0.000000 -10.505320 -2.290491 -5.076253 61.650900 8.109695 5.911301 -35.591833 13.178009 1.858431 0.000000 0.000000 0.000000
-1.104109 0.225324 1.177835 -15.113084 -3.782384 -83.129501 2.811506 -2.293514 -27.752623 3.457054 -16.446976 81.331075 8.840270 9.455536 -35.105781 0.000000 0.000000 0.000000 -17.587011 -6.113269 -43.311076 11.028629 -16.947822 120.610192 -0.521432 4.449322 -8.610506 0.000000 0.000000 0.000000 -4.989867 -1.048270 -20.402403 0.754549 0.126287 -7.627320 14.090657 30.654507 47.013591 9.538428 3.807689 -32.311537 0.000000 0.000000 0.000000 49.956811 -3.339965 12.124577 -98.509689 -52.715234 -3.824059 -89.923330 -65.225717 76.984994 0.000000 0.000000 0.000000 -16.129469 -4.233856 -7.464449 68.698542 -2.424909 3.824222 -35.499856 11.463612 2.440787 0.000000 0.000000 0.000000
-1.108669 0.227264 1.184625 -14.911201 -3.226859 -83.613300 2.387127 -2.424477 -26.972370 7.420392 -21.552482 83.428913 8.273018 3.533838 -39.508951 0.000000 0.000000 0.000000 -19.920723 -7.535701 -43.198556 12.734590 -19.347412 121.692644 0.472201 3.939491 -4.038095 0.000000 0.000000 0.000000 -5.598309 -1.382450 -20.656453 1.732976 -0.264644 -8.195377 12.743198 28.844499 46.225348 10.174994 3.306638 -35.309272 0.000000 0.000000 0.000000 50.828867 -2.316912 11.635808 -104.255065 -46.389240 -7.410727 -91.250504 -53.840428 69.255911 0.000000 0.000000 0.000000 -19.503467 -6.288230 -8.565675 71.043785 -10.808104 -0.038787 -33.799774 5.508697 4.039137 0.000000 0.000000 0.000000
-1.114586 0.228553 1.191321 -15.031976 -2.380534 -83.775794 1.582573 -2.506215 -25.178387 11.642675 -25.796067 81.199747 7.982715 -2.894439 -41.997032 0.000000 0.000000 0.000000 -22.865325 -9.239668 -42.026549 15.987510 -24.491485 120.552427 -0.728564 -1.446352 -1.528246 0.000000 0.000000 0.000000 -6.546238 -1.850821 -21.019197 2.243304 -0.479868 -8.082666 10.605780 25.928596 44.561463 10.519692 2.655206 -36.192299 0.000000 0.000000 0.000000 49.311722 -1.897039 10.583302 -100.662607 -40.072008 -11.055800 -97.574868 -49.602878 68.907049 0.000000 0.000000 0.000000 -21.834057 -6.062102 -8.267616 69.062396 -18.034561 -4.983342 -27.318981 3.716834 3.185155 0.000000 0.000000 0.000000
-1.120530 0.232875 1.197166 -13.746591 -1.974406 -83.246784 2.622105 -1.950503 -23.917383 12.473676 -26.362909 81.122961 8.409870 -5.623193 -45.330980 0.000000 0.000000 0.000000 -23.643955 -9.192513 -40.923101 17.278564 -25.771433 119.457963 -1.918127 -3.170491 -4.770679 0.000000 0.000000 0.000000 -5.973259 -1.692149 -22.613985 2.071415 -0.417264 -8.213143 10.146225 24.620137 44.709512 10.712889 2.353469 -37.500372 0.000000 0.000000 0.000000 48.704871 -1.769931 10.105639 -101.073838 -32.705348 -17.119103 -101.937535 -38.317955 59.804902 0.000000 0.000000 0.000000 -22.812970 -8.477484 -8.680399 69.694879 -24.129502 -8.487476 -28.196813 5.307022 2.858731 0.000000 0.000000 0.000000
-1.126495 0.236849 1.202340 -12.453176 -1.648705 -83.597199 3.702157 -1.336053 -22.034504 10.157984 -24.079526 82.171671 9.071365 -2.897445 -47.723203 0.000000 0.000000 0.000000 -24.050796 -8.998158 -39.522806 19.138569 -27.358268 117.004573 -2.830234 -6.085750 -4.379806 0.000000 0.000000 0.000000 -6.156148 -1.774547 -23.240581 2.345259 -0.582251 -7.810793 8.906801 23.258582 43.660739 12.154163 1.387496 -39.170532 0.000000 0.000000 0.000000 47.982767 -1.479479 9.472653 -100.006631 -29.230534 -18.025293 -103.876700 -37.495243 59.445207 0.000000 0.000000 0.000000 -23.390146 -10.193529 -8.663913 68.112843 -26.169662 -10.280355 -26.374152 5.683878 2.271357 0.000000 0.000000 0.000000
-1.131682 0.240347 1.207565 -11.608701 -0.655650 -83.635186 5.567318 -0.541309 -19.913733 7.283871 -21.023171 80.443973 9.631326 -0.607006 -48.702684 0.000000 0.000000 0.000000 -24.198491 -8.806532 -37.333662 17.330473 -24.575855 117.141948 -3.053309 -3.769294 -10.033835 0.000000 0.000000 0.000000 -5.930917 -1.721765 -24.365048 1.899742 -0.383310 -7.806163 8.092117 20.777115 43.600364 11.340315 1.426685 -39.352103 0.000000 0.000000 0.000000 46.015414 -0.905608 8.784057 -100.015287 -24.936390 -19.891481 -102.531841 -35.033527 54.707769 0.000000 0.000000 0.000000 -21.619860 -11.798647 -8.408611 67.977011 -26.360212 -11.685096 -29.369107 6.647073 2.278928 0.000000 0.000000 0.000000
-1.136597 0.244633 1.212682 -10.099465 0.807231 -83.535296 7.453384 0.044572 -18.830312 4.619164 -17.935187 78.990682 9.886222 1.215272 -48.576323 0.000000 0.000000 0.000000 -24.180978 -8.709254 -36.333891 16.579737 -23.532459 118.234841 -5.150748 -9.952313 -12.752409 0.000000 0.000000 0.000000 -6.365508 -2.010574 -25.412173 2.081661 -0.459507 -7.940543 6.938009 18.813159 42.485567 11.625287 0.918573 -39.533098 0.000000 0.000000 0.000000 43.917213 -0.303011 7.955142 -100.521617 -20.316418 -21.739532 -104.752106 -33.729279 54.652619 0.000000 0.000000 0.000000 -19.013133 -12.960441 -7.847983 65.715432 -26.372062 -13.091001 -32.948231 11.804252 1.197208 0.000000 0.000000 0.000000
-1.141852 0.243182 1.218199 -10.063547 1.641983 -84.089034 8.797060 0.391083 -19.136226 2.882988 -16.577280 77.708005 9.462940 0.399199 -45.189550 0.000000 0.000000 0.000000 -24.242182 -8.531153 -33.416168 15.787020 -21.690348 116.156083 -6.376048 -12.425690 -18.024111 0.000000 0.000000 0.000000 -6.469733 -2.110091 -25.308074 2.302733 -0.476460 -8.912312 6.169050 16.518102 43.086500 10.261531 1.228955 -38.953604 0.000000 0.000000 0.000000 41.794033 1.021600 7.166603 -99.320887 -16.977480 -22.898448 -106.489041 -32.038042 53.200000 0.000000 0.000000 0.000000 -16.001995 -13.038983 -7.295170 64.553083 -25.503252 -14.078691 -31.471473 12.901119 0.611033 0.000000 0.000000 0.000000
-1.148112 0.246574 1.222923 -9.144833 2.299268 -83.875546 10.807714 0.921466 -19.519462 0.616544 -14.282138 77.305045 9.222158 1.467467 -42.768952 0.000000 0.000000 0.000000 -24.360832 -8.289819 -31.628702 15.584809 -20.726737 115.830020 -8.223586 -20.046673 -21.565354 0.000000 0.000000 0.000000 -6.472751 -2.281892 -27.313297 2.232845 -0.531414 -7.677259 7.095074 16.270822 42.934148 10.870689 0.765661 -38.045033 0.000000 0.000000 0.000000 40.315946 0.270216 6.787090 -99.032555 -17.699948 -21.228797 -105.559361 -35.367553 56.564331 0.000000 0.000000 0.000000 -10.446681 -12.455999 -6.400219 62.132783 -24.515570 -14.654386 -30.648587 15.800608 -0.248089 0.000000 0.000000 0.000000
-1.154529 0.246747 1.227132 -8.903042 3.071636 -83.485674 12.694729 1.358603 -20.895334 -1.777551 -12.536595 77.862167 8.701939 2.267207 -38.919124 0.000000 0.000000 0.000000 -23.063395 -7.560055 -29.643450 15.693158 -21.168205 114.191680 -9.686233 -27.547615 -27.876165 0.000000 0.000000 0.000000 -6.902146 -2.564441 -27.541913 3.080057 -0.847797 -8.229132 7.148199 15.540567 43.536956 9.549749 1.224083 -37.514036 0.000000 0.000000 0.000000 38.441882 1.007554 6.273305 -97.757800 -17.770679 -19.771682 -105.321362 -38.533889 59.875122 0.000000 0.000000 0.000000 -4.996513 -12.569452 -5.732500 60.206955 -21.440672 -14.520833 -26.482386 16.864222 -0.553412 0.000000 0.000000 0.000000
-1.160249 0.248347 1.231083 -7.780141 4.181490 -82.988315 13.311299 1.459820 -22.271674 -4.754953 -9.794895 78.841134 8.098928 3.443950 -34.477175 0.000000 0.000000 0.000000 -22.456129 -7.315466 -29.681215 15.660228 -20.970731 113.172694 -10.346991 -31.164712 -27.956117 0.000000 0.000000 0.000000 -7.015052 -2.749688 -28.699441 2.891830 -0.816736 -7.555160 8.247043 16.178172 43.481535 8.221372 1.866507 -36.765035 0.000000 0.000000 0.000000 37.856058 0.970662 6.356655 -97.549035 -19.608789 -18.392457 -103.111170 -42.484902 62.667028 0.000000 0.000000 0.000000 -2.088691 -11.733188 -4.985143 61.310599 -18.832468 -14.018883 -25.815534 16.426632 -0.418405 0.000000 0.000000 0.000000
-1.164533 0.250741 1.235419 -7.839363 4.185878 -82.719748 14.758018 1.842081 -23.850637 -8.401320 -6.819043 81.080512 8.258454 7.692734 -30.752736 0.000000 0.000000 0.000000 -21.853285 -7.134147 -30.229730 15.616031 -21.081196 112.378986 -10.799605 -31.177635 -24.292374 0.000000 0.000000 0.000000 -6.854023 -2.629115 -28.502320 2.875432 -0.795087 -7.694745 8.259772 15.908880 43.331252 6.839788 2.413448 -34.819300 0.000000 0.000000 0.000000 36.198274 1.056140 6.085093 -96.331464 -18.856633 -18.525358 -102.767755 -45.880474 65.894381 0.000000 0.000000 0.000000 5.156475 -10.359905 -3.047388 56.409064 -14.818115 -13.239767 -25.014413 15.294291 -0.261626 0.000000 0.000000 0.000000
-1.167256 0.251647 1.240706 -7.923661 4.129880 -81.977890 15.396750 1.994022 -25.353312 -8.699145 -6.784549 82.919387 7.849128 4.860638 -32.755455 0.000000 0.000000 0.000000 -21.961251 -7.425366 -32.378855 15.393307 -20.340510 112.188877 -11.874211 -33.269566 -18.242166 0.000000 0.000000 0.000000 -6.740159 -2.657543 -29.414735 3.063531 -0.942702 -6.792310 9.011940 16.191430 43.620049 6.208873 2.677534 -33.290449 0.000000 0.000000 0.000000 33.081367 0.780298 5.662243 -95.007191 -18.619983 -18.144921 -99.472928 -48.385260 65.125392 0.000000 0.000000 0.000000 8.275530 -8.951765 -1.681993 56.207256 -11.587009 -12.640215 -26.376306 13.917127 -0.001379 0.000000 0.000000 0.000000
-1.169428 0.254741 1.246785 -7.841198 3.711955 -81.642358 15.642723 2.078109 -26.782909 -9.506121 -6.015871 85.495208 7.532971 5.578332 -30.822002 0.000000 0.000000 0.000000 -21.225188 -7.315543 -35.341851 14.468928 -18.739881 112.179146 -11.767089 -29.806071 -7.532321 0.000000 0.000000 0.000000 -6.442876 -2.434342 -29.329807 3.031002 -0.960573 -6.420306 9.100769 16.845814 43.164555 5.173450 3.225878 -32.298808 0.000000 0.000000 0.000000 32.136794 0.647576 5.670811 -95.306053 -18.186046 -18.788722 -96.508931 -49.215186 63.226172 0.000000 0.000000 0.000000 11.792469 -8.409169 -0.472384 54.602813 -9.013328 -12.095249 -27.937171 12.388940 0.360819 0.000000 0.000000 0.000000
-1.172030 0.255437 1.253967 -8.710777 3.460406 -81.660640 15.844465 2.076822 -28.282448 -9.343712 -6.798921 88.411390 6.970876 3.203108 -31.473328 0.000000 0.000000 0.000000 -20.704618 -7.568355 -38.377632 13.350839 -17.416696 113.845397 -10.463237 -25.581118 0.932051 0.000000 0.000000 0.000000 -7.234072 -2.827925 -28.656553 3.485237 -1.126663 -6.825787 9.662861 15.669151 43.463025 4.873650 3.142485 -31.489204 0.000000 0.000000 0.000000 29.373778 1.436035 4.824678 -94.987606 -16.439996 -18.654554 -92.603770 -51.022364 61.529986 0.000000 0.000000 0.000000 12.518353 -8.047654 -0.272913 54.793580 -6.963146 -11.731078 -29.253425 10.367493 0.840603 0.000000 0.000000 0.000000
-1.175465 0.256031 1.261572 -8.609682 3.016038 -81.274689 16.558567 2.296707 -30.367396 -9.428592 -6.782040 91.950921 6.522445 2.172009 -31.304184 0.000000 0.000000 0.000000 -20.209305 -7.563899 -41.509363 13.071888 -17.136622 115.354798 -9.764516 -23.785401 8.252389 0.000000 0.000000 0.000000 -7.494723 -2.926777 -29.070154 3.466489 -1.214150 -5.750557 10.158349 16.333572 43.070523 6.193366 2.461980 -30.817805 0.000000 0.000000 0.000000 27.371338 0.860240 4.635156 -95.426673 -15.792750 -19.091578 -88.145901 -50.474503 56.912198 0.000000 0.000000 0.000000 12.961170 -7.847968 -0.023741 54.987395 -5.490242 -11.254322 -28.762782 8.241739 1.300465 0.000000 0.000000 0.000000
-1.179698 0.256131 1.269218 -9.458176 2.535787 -81.610865 16.940744 2.384920 -31.785891 -9.231134 -7.631420 94.320947 5.871244 1.279560 -29.266431 0.000000 0.000000 0.000000 -19.853106 -7.760347 -43.825005 12.821938 -17.425104 116.873145 -9.062172 -22.476982 14.921336 0.000000 0.000000 0.000000 -8.520130 -3.280604 -27.443927 4.178565 -1.473638 -6.483352 9.947911 15.686001 43.372980 6.113294 2.412410 -30.759486 0.000000 0.000000 0.000000 24.319508 1.731148 3.806888 -94.454150 -13.582502 -19.737968 -87.050502 -50.297587 55.402202 0.000000 0.000000 0.000000 12.649360 -6.982800 0.242610 55.315318 -4.915407 -11.156349 -26.661484 6.979854 1.321179 0.000000 0.000000 0.000000
-1.184415 0.255825 1.276732 -9.142781 2.259959 -81.469273 18.667361 2.997125 -33.952004 -9.882628 -6.831820 95.898292 5.042885 0.412318 -26.007921 0.000000 0.000000 0.000000 -19.078873 -7.566714 -46.843706 12.558637 -17.453893 118.659795 -8.987495 -22.349545 19.499813 0.000000 0.000000 0.000000 -8.638195 -3.277157 -27.485510 3.369779 -1.191292 -5.614191 10.956801 16.303934 43.354311 7.332450 1.838370 -30.953298 0.000000 0.000000 0.000000 23.282914 1.944615 3.653539 -94.834502 -12.098490 -21.427238 -85.324581 -48.041467 51.686938 0.000000 0.000000 0.000000 11.416151 -7.128075 -0.092074 58.148593 -3.561926 -10.502489 -24.126779 6.198426 1.318321 0.000000 0.000000 0.000000
-1.189200 0.253643 1.283333 -9.928248 2.648719 -81.751741 18.744232 2.818357 -35.840729 -11.329804 -5.709556 96.994882 4.303702 1.216778 -20.869193 0.000000 0.000000 0.000000 -19.157571 -8.176324 -48.392301 11.823869 -17.026922 119.675593 -8.629441 -21.899276 23.122157 0.000000 0.000000 0.000000 -9.877262 -3.801943 -26.173932 3.330423 -1.139868 -5.858115 11.326034 17.025599 43.828048 8.066925 1.686372 -30.618333 0.000000 0.000000 0.000000 21.346088 1.426837 3.561268 -93.028972 -11.712472 -21.936617 -82.964686 -47.516469 48.543119 0.000000 0.000000 0.000000 12.487681 -7.137393 0.277766 56.598608 -1.405437 -9.631477 -19.344000 4.776780 1.128411 0.000000 0.000000 0.000000
-1.193946 0.250913 1.288843 -10.283625 3.160081 -81.971195 18.610279 2.616460 -36.697682 -12.712535 -4.277766 96.206905 4.368668 3.666084 -16.518848 0.000000 0.000000 0.000000 -17.802869 -7.773951 -49.513843 9.995228 -14.594033 120.297294 -7.753993 -20.784290 25.648789 0.000000 0.000000 0.000000 -11.134094 -4.305819 -24.669955 3.059270 -1.014646 -5.786082 11.930091 17.374051 43.855935 7.400978 2.119493 -29.700046 0.000000 0.000000 0.000000 19.473050 1.684004 3.188458 -91.881570 -12.046695 -21.303247 -79.233277 -46.613406 44.582347 0.000000 0.000000 0.000000 13.491549 -5.143122 1.645312 51.930642 0.991565 -8.634913 -15.423553 4.144377 0.814277 0.000000 0.000000 0.000000
-1.198818 0.246491 1.293253 -11.249580 3.774967 -82.621623 19.112738 2.497334 -37.997408 -15.330492 -1.784901 97.107309 5.295452 7.683022 -13.874453 0.000000 0.000000 0.000000 -16.761885 -7.753260 -50.384644 8.080659 -12.475629 122.401919 -5.486974 -17.740582 25.236361 0.000000 0.000000 0.000000 -12.524354 -4.924061 -23.467036 2.603521 -0.826896 -5.251006 12.611748 17.902374 43.894027 6.086178 3.050572 -28.882979 0.000000 0.000000 0.000000 20.202520 1.213008 3.606978 -91.245378 -13.527267 -20.759562 -76.644810 -47.306068 43.259562 0.000000 0.000000 0.000000 14.451922 -4.659841 2.352933 47.057613 3.313562 -7.788260 -8.710261 4.991288 0.289017 0.000000 0.000000 0.000000
-1.203711 0.244755 1.296864 -12.167740 3.796549 -82.415710 19.764124 2.566284 -39.087628 -17.439519 0.521534 96.462271 6.137972 10.689836 -11.374599 0.000000 0.000000 0.000000 -15.744069 -7.486961 -51.393869 6.673133 -10.533331 122.634935 -4.194497 -16.153056 26.971541 0.000000 0.000000 0.000000 -13.689502 -5.430554 -22.813934 1.844686 -0.496184 -4.847539 13.534699 18.279817 43.569651 4.429667 4.070096 -28.108106 0.000000 0.000000 0.000000 19.901802 0.906408 3.671772 -88.884163 -15.730592 -18.561393 -74.919724 -50.842334 44.712062 0.000000 0.000000 0.000000 15.174373 -3.832286 2.997453 38.915143 3.633275 -7.044333 -5.679069 6.552408 0.127194 0.000000 0.000000 0.000000
-1.207943 0.243407 1.301087 -12.826371 4.484293 -82.545174 20.940515 2.733667 -39.329093 -20.849967 3.935856 95.409783 7.899998 15.589925 -9.652034 0.000000 0.000000 0.000000 -14.540437 -7.193504 -51.931662 4.848346 -8.354942 122.837720 -2.208102 -13.450262 26.759058 0.000000 0.000000 0.000000 -14.932831 -5.962980 -22.035601 1.305109 -0.274027 -4.070671 14.385714 19.076349 43.381125 3.883038 4.653028 -26.913129 0.000000 0.000000 0.000000 18.601436 0.787841 3.540311 -86.050965 -17.375051 -17.026134 -77.116774 -52.396602 46.726853 0.000000 0.000000 0.000000 16.463673 -3.778347 3.618295 30.317023 3.883457 -6.139361 -2.380150 5.850244 0.093934 0.000000 0.000000 0.000000
-1.211710 0.244447 1.306316 -13.355537 5.187313 -82.758107 21.538602 2.730788 -39.192098 -23.505878 6.303051 94.125470 9.001611 18.422583 -8.983489 0.000000 0.000000 0.000000 -13.821108 -7.151559 -52.169911 3.611903 -6.899361 123.907997 -0.871508 -11.684561 26.762712 0.000000 0.000000 0.000000 -15.711331 -6.455772 -22.155005 0.538057 0.081043 -3.705368 15.071007 19.816046 43.493118 1.892569 5.976285 -25.706858 0.000000 0.000000 0.000000 20.242276 1.396658 3.929169 -84.444947 -18.975279 -16.610504 -80.867424 -54.713740 51.361674 0.000000 0.000000 0.000000 17.842061 -4.438576 3.957188 23.381902 1.570513 -5.422404 0.432184 7.422059 0.119315 0.000000 0.000000 0.000000
-1.215320 0.247448 1.312826 -13.925629 6.158966 -83.331829 22.204592 2.718066 -38.961808 -25.590702 7.520012 93.249735 9.382775 19.385623 -5.673089 0.000000 0.000000 0.000000 -13.928063 -7.644934 -51.495522 1.978501 -4.368331 123.370896 2.149142 -7.578884 27.575635 0.000000 0.000000 0.000000 -16.730477 -7.105392 -22.174530 -0.266098 0.450207 -3.266222 16.255089 20.065901 43.578317 2.104623 6.097520 -27.153618 0.000000 0.000000 0.000000 21.564945 1.871631 4.250697 -83.632352 -19.553935 -17.011772 -89.799009 -53.442529 56.989315 0.000000 0.000000 0.000000 17.518470 -5.094707 3.714908 22.492800 0.338845 -5.377387 -1.656594 9.639110 0.096725 0.000000 0.000000 0.000000
-1.219444 0.249830 1.319054 -14.247014 7.347419 -83.723321 22.939484 2.715589 -38.970117 -26.916826 8.003682 92.789486 9.124553 18.891171 -5.115028 0.000000 0.000000 0.000000 -13.920775 -8.084764 -51.137755 0.766849 -2.473635 124.217040 3.468318 -5.759633 27.416899 0.000000 0.000000 0.000000 -18.385138 -8.138644 -22.146882 0.224459 0.203343 -2.942025 16.657196 21.190398 43.578008 1.098868 6.779439 -25.807054 0.000000 0.000000 0.000000 22.816668 2.703130 4.515706 -82.206969 -19.559552 -17.640582 -99.289616 -52.554509 63.561875 0.000000 0.000000 0.000000 18.636461 -5.656601 4.179859 20.660551 -0.862929 -5.191559 -1.588393 14.376447 0.126671 0.000000 0.000000 0.000000
-1.224848 0.254297 1.323523 -14.503322 8.013500 -83.393887 23.533463 2.769726 -38.707757 -27.733861 8.345963 92.484106 9.028091 18.728224 -5.049393 0.000000 0.000000 0.000000 -13.551129 -7.966021 -50.571785 -0.479749 -0.485760 124.349763 4.921559 -3.698315 27.458471 0.000000 0.000000 0.000000 -19.677816 -8.913994 -22.114767 0.695185 -0.024922 -2.826862 16.555456 21.300994 42.315737 1.960671 6.204275 -26.854738 0.000000 0.000000 0.000000 24.163312 3.450421 4.702872 -81.774263 -18.216635 -18.473603 -108.809826 -50.108305 69.531834 0.000000 0.000000 0.000000 16.362875 -5.693878 3.210748 24.066126 -1.801935 -5.707537 -4.817189 18.144730 -0.032662 0.000000 0.000000 0.000000
-1.230752 0.254428 1.326016 -15.376940 8.169982 -83.326633 24.271942 2.853480 -38.554098 -28.340157 8.137957 91.968996 9.377219 19.584428 -7.140946 0.000000 0.000000 0.000000 -12.815774 -7.262821 -48.552213 -1.581432 -0.624972 122.813363 4.708827 -3.444920 25.393394 0.000000 0.000000 0.000000 -20.762643 -9.416106 -21.582327 1.347525 -0.323110 -2.890258 16.178497 21.197409 41.581645 1.059740 6.608677 -26.150940 0.000000 0.000000 0.000000 24.363684 4.463599 4.543019 -79.947121 -16.138945 -19.310755 -116.678825 -48.318239 74.512241 0.000000 0.000000 0.000000 19.084494 -6.522928 3.829067 25.188262 0.050304 -6.082460 -8.406422 21.963476 -0.413320 0.000000 0.000000 0.000000
-1.236123 0.253162 1.327299 -15.475570 8.649321 -82.672036 23.550599 2.548819 -38.259938 -27.881387 7.439770 91.490406 9.430161 19.730961 -10.033658 0.000000 0.000000 0.000000 -11.889182 -6.364809 -46.804349 -3.212535 1.072781 121.394803 4.571857 -3.109224 23.720934 0.000000 0.000000 0.000000 -22.458365 -10.588271 -22.528010 2.688681 -1.078650 -1.995656 16.416291 21.511630 41.081082 1.079822 6.230953 -21.687342 0.000000 0.000000 0.000000 23.868587 4.959861 4.200448 -79.261535 -14.876542 -19.340097 -119.919039 -48.568718 78.067380 0.000000 0.000000 0.000000 19.525647 -6.527581 3.948821 27.960800 2.927164 -6.314796 -13.990640 23.648957 -1.054253 0.000000 0.000000 0.000000
-1.239894 0.253835 1.329655 -16.027078 7.500490 -82.583004 24.329033 2.965305 -37.456139 -26.861926 6.361111 91.259398 9.454850 19.677017 -12.768862 0.000000 0.000000 0.000000 -11.492911 -5.252220 -43.241915 -2.619259 -1.418491 118.623978 2.668631 -4.394721 19.323998 0.000000 0.000000 0.000000 -22.393362 -10.345837 -22.248662 3.460850 -1.323880 -3.460632 15.868238 20.146012 40.399778 0.813261 6.052211 -22.344162 0.000000 0.000000 0.000000 25.923706 5.808193 4.331610 -79.167421 -12.363933 -20.465548 -120.947145 -47.308711 78.057192 0.000000 0.000000 0.000000 21.350079 -6.583386 4.209133 30.712923 5.759983 -6.568367 -15.360673 29.320147 -1.349753 0.000000 0.000000 0.000000
-1.241697 0.253057 1.334400 -15.866295 6.902694 -81.873167 22.713153 2.611953 -37.515967 -23.846596 3.731910 91.736204 8.797178 17.535805 -15.409611 0.000000 0.000000 0.000000 -13.057417 -5.643777 -40.926214 -1.354120 -2.684353 116.861722 0.659303 -6.238628 15.500459 0.000000 0.000000 0.000000 -22.871501 -10.695000 -23.259453 4.534583 -1.756988 -4.474634 15.735757 19.584297 40.944457 1.375231 5.556297 -23.189585 0.000000 0.000000 0.000000 27.591056 6.564610 4.367304 -79.169499 -10.023947 -21.699064 -123.566746 -45.558758 79.164056 0.000000 0.000000 0.000000 21.760694 -6.567477 4.227209 35.289709 9.935764 -6.505461 -17.640111 29.941861 -1.450797 0.000000 0.000000 0.000000
-1.242333 0.252771 1.341119 -16.168968 6.030077 -81.707057 20.718904 2.083551 -37.146371 -21.216906 1.382658 91.277335 8.713036 16.890774 -16.004332 0.000000 0.000000 0.000000 -13.935435 -5.698481 -38.857711 -0.051904 -4.364634 115.111423 0.144352 -6.174627 13.245301 0.000000 0.000000 0.000000 -22.025410 -9.907217 -22.677353 4.824778 -1.683727 -6.548377 15.656008 18.565001 41.531214 2.621197 4.790794 -25.211605 0.000000 0.000000 0.000000 29.791990 7.350758 4.726267 -80.303338 -7.795227 -23.745329 -125.193062 -42.059304 76.942330 0.000000 0.000000 0.000000 18.493275 -7.666646 2.405004 44.211044 11.313500 -6.152747 -15.344938 33.765468 -0.309245 0.000000 0.000000 0.000000
-1.242818 0.253716 1.348910 -16.169059 4.963029 -81.336080 18.628140 1.607575 -36.273139 -18.001808 -1.504307 90.928141 8.329800 14.972017 -19.058012 0.000000 0.000000 0.000000 -14.322368 -5.434311 -37.225279 0.643828 -4.866405 114.452415 -0.436580 -5.981662 9.995755 0.000000 0.000000 0.000000 -21.093936 -9.158527 -22.558003 5.243329 -1.749425 -7.868720 15.095944 17.409391 42.066094 3.759970 4.069234 -26.334673 0.000000 0.000000 0.000000 30.351490 7.600251 4.639957 -79.934488 -5.297767 -24.789908 -127.930609 -40.589032 78.202238 0.000000 0.000000 0.000000 17.208609 -7.572638 1.865106 50.428919 13.625923 -4.982544 -19.088049 35.156561 -0.766283 0.000000 0.000000 0.000000
-1.244084 0.254566 1.356895 -16.490025 4.374679 -81.067664 16.569291 1.039694 -35.431419 -15.353859 -4.058440 89.858648 7.779198 12.500028 -20.158489 0.000000 0.000000 0.000000 -14.540301 -5.357993 -36.414210 1.332828 -5.710615 114.055004 -1.033965 -6.476557 8.233100 0.000000 0.000000 0.000000 -20.800367 -8.790252 -21.966843 5.272596 -1.668555 -8.887085 15.428670 17.275436 42.137783 5.607385 3.151962 -28.184407 0.000000 0.000000 0.000000 30.921858 7.922525 4.746244 -79.319938 -2.407995 -26.562598 -129.219523 -38.911212 76.878271 0.000000 0.000000 0.000000 17.700493 -7.958634 1.766399 55.778824 16.198249 -3.397204 -25.924569 37.004443 -1.714787 0.000000 0.000000 0.000000
-1.246652 0.257491 1.364508 -17.061780 3.303443 -81.546503 15.871287 1.068597 -33.739056 -13.284758 -6.328875 89.451264 7.518434 10.256653 -23.451949 0.000000 0.000000 0.000000 -13.290704 -4.466088 -35.431093 1.550268 -6.464571 113.955575 -1.051200 -6.227869 7.501772 0.000000 0.000000 0.000000 -20.157316 -8.297964 -21.335392 5.862180 -1.866575 -9.518270 15.195422 16.965029 42.260708 7.609342 1.938006 -28.048334 0.000000 0.000000 0.000000 31.561789 6.633894 4.999240 -78.882386 0.467985 -28.318656 -130.265418 -37.676652 75.906005 0.000000 0.000000 0.000000 17.422049 -7.309675 1.913333 61.286088 17.441295 -1.574327 -35.743925 42.206317 -4.019039 0.000000 0.000000 0.000000
-1.250596 0.261905 1.371985 -16.805134 2.415105 -81.061442 16.224245 1.459005 -32.543873 -12.481291 -6.805366 89.604093 7.551240 8.730676 -27.295378 0.000000 0.000000 0.000000 -12.826895 -4.082436 -36.290534 2.398451 -7.216263 114.078635 -1.641118 -8.120324 9.292737 0.000000 0.000000 0.000000 -19.828187 -8.227757 -22.153224 6.111209 -2.116398 -8.305065 15.199112 16.069515 41.609928 8.001111 1.211834 -26.427014 0.000000 0.000000 0.000000 28.806788 6.613806 3.987076 -77.452411 3.571366 -28.061805 -128.055486 -39.301696 75.211460 0.000000 0.000000 0.000000 20.925505 -5.547679 3.465344 59.851266 20.271056 -1.176868 -56.318217 48.042447 -11.707534 0.000000 0.000000 0.000000
-1.254966 0.264003 1.379309 -16.848701 1.225547 -81.785478 17.229973 2.080706 -30.352845 -11.550127 -7.616505 87.649622 7.169451 6.393513 -27.147204 0.000000 0.000000 0.000000 -10.954286 -2.847063 -35.428440 2.440621 -7.624866 112.676883 -1.325075 -7.571603 9.805476 0.000000 0.000000 0.000000 -18.989740 -7.644482 -21.562344 6.326428 -2.233142 -8.226548 14.741109 15.318504 41.406091 8.854373 0.456971 -26.539736 0.000000 0.000000 0.000000 28.916279 6.085100 3.879928 -76.204357 4.708855 -27.617398 -128.111902 -42.931337 80.560308 0.000000 0.000000 0.000000 21.015781 -5.445580 3.113112 61.166567 20.361596 -0.776454 -67.786131 55.029040 -19.905719 0.000000 0.000000 0.000000
-1.258818 0.267278 1.386450 -15.549273 0.843708 -81.658754 17.608522 2.464101 -28.580962 -11.930260 -6.301353 86.068760 7.524305 7.292603 -27.397721 0.000000 0.000000 0.000000 -9.884617 -2.073856 -35.537527 2.584338 -7.009464 109.972558 -2.006403 -9.591326 12.790973 0.000000 0.000000 0.000000 -18.422177 -7.537928 -22.886737 6.815190 -2.628445 -6.753491 13.851923 15.093702 40.743666 8.604899 0.220729 -25.616031 0.000000 0.000000 0.000000 26.654391 4.960229 3.339307 -74.495805 4.091604 -25.313414 -126.406553 -49.776066 87.545954 0.000000 0.000000 0.000000 19.511048 -4.483614 2.864011 63.172070 19.953078 -0.100382 -83.419641 59.192902 -31.890929 0.000000 0.000000 0.000000
-1.261213 0.265702 1.393563 -14.774797 0.117527 -81.956659 17.569946 2.671021 -27.094356 -11.762277 -5.918155 85.566909 7.373490 6.221359 -27.882099 0.000000 0.000000 0.000000 -8.540367 -1.172187 -34.991843 2.203476 -5.986985 108.294293 -2.023886 -9.303813 12.140908 0.000000 0.000000 0.000000 -17.341526 -6.984349 -23.204613 6.213785 -2.440190 -6.067136 13.434183 12.852620 40.984872 7.031708 0.250384 -22.294569 0.000000 0.000000 0.000000 23.071860 5.347985 2.083035 -71.847271 3.402864 -22.082628 -124.733857 -55.687312 93.188977 0.000000 0.000000 0.000000 19.480589 -3.166959 2.822417 61.333359 21.067441 0.015844 -83.421267 64.091599 -38.204666 0.000000 0.000000 0.000000
-1.262319 0.266443 1.399723 -13.653007 0.265499 -81.862190 16.616584 2.526016 -25.811572 -12.419483 -4.436773 84.080698 7.774174 7.903776 -27.249509 0.000000 0.000000 0.000000 -8.097241 -0.848748 -34.815416 1.637772 -4.475485 106.092256 -2.073951 -9.308195 12.490306 0.000000 0.000000 0.000000 -17.106133 -6.967910 -23.921373 6.416229 -2.669686 -4.881332 12.583427 12.288122 40.442447 5.444335 0.594224 -18.447703 0.000000 0.000000 0.000000 20.256768 4.940242 1.415097 -70.791097 2.097221 -19.990506 -124.245907 -62.305112 100.603566 0.000000 0.000000 0.000000 19.265429 -2.591536 2.746103 60.080932 20.234120 -0.653709 -79.745978 63.610332 -36.125194 0.000000 0.000000 0.000000
-1.262771 0.263424 1.405124 -12.105736 -0.462530 -81.952718 16.319489 2.637882 -25.542222 -11.905316 -3.911281 83.574144 7.420214 7.246350 -25.631404 0.000000 0.000000 0.000000 -6.647401 0.134241 -34.361832 1.153656 -2.908547 102.675617 -2.099851 -9.039592 12.092265 0.000000 0.000000 0.000000 -15.014197 -5.957767 -25.074965 5.700853 -2.463020 -3.741400 11.459983 10.606520 41.007284 4.717430 0.260940 -15.410911 0.000000 0.000000 0.000000 15.909282 4.864545 0.345292 -68.504076 0.350653 -17.131079 -121.492009 -68.605210 104.571922 0.000000 0.000000 0.000000 17.272597 -2.271138 2.089545 60.380087 20.437932 -0.431655 -67.901343 65.824240 -30.676596 0.000000 0.000000 0.000000
-1.263267 0.263118 1.409189 -11.411375 -0.648907 -81.750492 15.693566 2.501530 -24.437382 -10.531804 -4.501374 80.564334 6.355089 4.548903 -22.349619 0.000000 0.000000 0.000000 -5.561441 0.755229 -33.680474 1.037115 -2.721150 99.376704 -3.046753 -10.474937 11.574298 0.000000 0.000000 0.000000 -14.281736 -5.498088 -25.143716 5.532111 -2.455182 -3.066432 10.201675 9.541087 40.297127 2.766734 0.918827 -10.981889 0.000000 0.000000 0.000000 13.189317 4.741035 -0.198300 -66.191931 0.462929 -15.858628 -117.691932 -72.973873 104.815452 0.000000 0.000000 0.000000 17.574444 -2.618159 1.536754 59.917283 18.745671 -1.395509 -61.871807 68.281149 -29.074163 0.000000 0.000000 0.000000
-1.263942 0.260706 1.412394 -10.250690 -1.561331 -81.710644 16.808383 2.986977 -24.479208 -10.613391 -3.390449 78.451376 5.469218 2.669005 -20.102899 0.000000 0.000000 0.000000 -4.425453 1.499044 -33.480660 1.291034 -2.161035 96.906346 -3.021141 -10.327637 11.753374 0.000000 0.000000 0.000000 -12.941165 -4.763636 -25.888297 5.395002 -2.456885 -2.506381 9.273207 8.199420 40.827667 0.730184 2.007629 -8.270948 0.000000 0.000000 0.000000 8.669327 4.797732 -1.150782 -63.832703 -0.348097 -14.143864 -107.099448 -76.556110 97.701477 0.000000 0.000000 0.000000 19.776470 -1.832644 1.804399 55.140796 17.811151 -2.976416 -45.660955 69.122424 -19.754354 0.000000 0.000000 0.000000
-1.264768 0.258411 1.415124 -9.815461 -2.058808 -81.926675 17.274279 3.213514 -24.574950 -10.976513 -2.612014 76.331523 4.455954 2.043142 -15.602312 0.000000 0.000000 0.000000 -3.198120 2.156952 -32.888021 1.547022 -2.548623 93.492033 -4.947664 -13.340756 10.149913 0.000000 0.000000 0.000000 -12.603361 -4.584901 -26.865860 4.277156 -2.077600 -0.588345 9.359002 7.132284 40.325787 0.493808 1.461237 -3.704369 0.000000 0.000000 0.000000 6.685362 4.190888 -1.305362 -64.164365 -0.191992 -14.061834 -90.267315 -77.745575 82.321583 0.000000 0.000000 0.000000 21.014249 -1.213299 1.943290 52.716042 16.559086 -3.835859 -32.788806 66.547084 -11.475398 0.000000 0.000000 0.000000
-1.265494 0.259137 1.417856 -7.875953 -2.923093 -81.229158 19.676806 4.188604 -25.350188 -13.191781 0.507503 72.963431 2.850214 3.128320 -5.571234 0.000000 0.000000 0.000000 -2.761572 2.678017 -33.372048 3.597484 -3.556182 91.075257 -6.464041 -15.720100 9.495881 0.000000 0.000000 0.000000 -10.712135 -3.492196 -28.189720 3.755846 -2.002243 1.765243 8.385154 7.031711 40.115302 1.375644 0.053139 -0.705231 0.000000 0.000000 0.000000 -0.751491 3.635221 -2.212475 -59.988198 -1.656868 -12.125440 -52.534728 -80.482769 49.555480 0.000000 0.000000 0.000000 22.008470 0.590724 2.911589 50.600289 14.478513 -4.959753 -23.462723 64.777057 -6.160838 0.000000 0.000000 0.000000
-1.265772 0.259693 1.420649 -6.768694 -3.201169 -81.430560 19.292911 4.230175 -25.996384 -13.718050 1.710040 71.351223 -0.186848 1.271254 3.579914 0.000000 0.000000 0.000000 -2.940373 2.686114 -33.480312 5.649175 -4.766049 88.934781 -7.186976 -16.818861 9.907108 0.000000 0.000000 0.000000 -9.707556 -2.936240 -27.529716 2.073040 -1.083145 1.144240 9.083193 6.597264 41.394065 1.493820 -0.605585 2.506470 0.000000 0.000000 0.000000 -1.438547 3.438662 -2.163621 -60.248664 -2.280600 -11.964866 -29.891098 -76.261359 27.879675 0.000000 0.000000 0.000000 19.849813 1.652907 3.146383 53.322008 12.032457 -5.818907 -18.303756 61.011916 -3.055239 0.000000 0.000000 0.000000
-1.265817 0.259080 1.423351 -5.487640 -3.170821 -80.548079 17.955076 3.912954 -27.024608 -12.547922 1.580893 73.020363 1.516740 2.255731 -1.506592 0.000000 0.000000 0.000000 -3.908586 2.093582 -30.765823 8.121486 -5.734867 83.148272 -6.175844 -13.708373 -0.238355 0.000000 0.000000 0.000000 -8.577027 -2.422787 -29.384321 0.232252 -0.311331 6.304395 9.456205 6.065526 39.289350 4.241468 -8.989151 20.897195 0.000000 0.000000 0.000000 -10.653724 -2.371853 -0.417219 -54.853767 -4.630637 -9.614219 11.063048 -72.154413 -3.785234 0.000000 0.000000 0.000000 21.940389 3.775853 4.327149 51.571238 9.839046 -6.593047 -14.656244 59.836666 -1.593764 0.000000 0.000000 0.000000
-1.265188 0.253904 1.425859 -4.808510 -3.923544 -79.595945 19.486365 4.643305 -28.801527 -14.150287 3.838215 73.400282 0.308148 1.616503 2.370394 0.000000 0.000000 0.000000 -5.486959 1.575635 -32.023556 12.493092 -8.241978 78.352979 -8.227679 -18.055807 0.820297 0.000000 0.000000 0.000000 -9.042456 -2.601202 -29.107405 0.757420 -0.666643 9.132711 10.544060 7.166460 41.138727 1.703136 -7.452013 29.108502 0.000000 0.000000 0.000000 -19.330450 -3.723905 -0.222477 -49.517797 -5.634825 -8.634939 24.128918 -72.283206 -12.678351 0.000000 0.000000 0.000000 29.574459 4.372751 5.754962 44.870702 12.166693 -6.381089 -30.801692 53.280765 -8.958615 0.000000 0.000000 0.000000
-1.264947 0.248617 1.429074 -5.071080 -2.860017 -75.625805 16.209845 3.182461 -32.104948 -10.661531 1.760453 71.761486 3.266972 -1.425126 -16.510030 0.000000 0.000000 0.000000 -8.581311 0.158752 -31.870627 15.054878 -9.468044 71.715302 -9.560007 -20.625327 -9.731540 0.000000 0.000000 0.000000 -9.177192 -2.894085 -32.770610 -0.320638 -0.352923 20.818935 8.945963 7.563556 29.384213 3.094795 -8.899071 26.539445 0.000000 0.000000 0.000000 -23.043275 -12.371402 4.740454 -45.207869 -1.892405 -7.704876 43.157177 -60.312823 -22.353123 0.000000 0.000000 0.000000 30.647276 4.840262 5.423070 47.631813 2.675838 -8.128833 -41.412737 55.352706 -15.480997 0.000000 0.000000 0.000000
