HIERARCHY
ROOT Hips
{
	OFFSET -0.001795 -0.223333 0.028219
	CHANNELS 6 Xposition Yposition Zposition Zrotation Yrotation Xrotation
	JOINT LeftUpLeg
	{
		OFFSET 0.069520 -0.091406 -0.006815
		CHANNELS 3 Zrotation Yrotation Xrotation
		JOINT LeftLeg
		{
			OFFSET 0.034277 -0.375199 -0.004496
			CHANNELS 3 Zrotation Yrotation Xrotation
			JOINT LeftFoot
			{
				OFFSET -0.013596 -0.397961 -0.043693
				CHANNELS 3 Zrotation Yrotation Xrotation
				JOINT LeftToe
				{
					OFFSET 0.026358 -0.055791 0.119288
					CHANNELS 3 Zrotation Yrotation Xrotation
					End Site
					{
						OFFSET 0.000000 0.000000 0.000000
					}
				}
			}
		}
	}
	JOINT RightUpLeg
	{
		OFFSET -0.067670 -0.090522 -0.004320
		CHANNELS 3 Zrotation Yrotation Xrotation
		JOINT RightLeg
		{
			OFFSET -0.038290 -0.382569 -0.008850
			CHANNELS 3 Zrotation Yrotation Xrotation
			JOINT RightFoot
			{
				OFFSET 0.015774 -0.398415 -0.042312
				CHANNELS 3 Zrotation Yrotation Xrotation
				JOINT RightToe
				{
					OFFSET -0.025372 -0.048144 0.123348
					CHANNELS 3 Zrotation Yrotation Xrotation
					End Site
					{
						OFFSET 0.000000 0.000000 0.000000
					}
				}
			}
		}
	}
	JOINT Spine
	{
		OFFSET -0.002533 0.108963 -0.026696
		CHANNELS 3 Zrotation Yrotation Xrotation
		JOINT Spine1
		{
			OFFSET 0.005487 0.135180 0.001092
			CHANNELS 3 Zrotation Yrotation Xrotation
			JOINT Spine2
			{
				OFFSET 0.001457 0.052922 0.025425
				CHANNELS 3 Zrotation Yrotation Xrotation
				JOINT Neck
				{
					OFFSET -0.002778 0.213870 -0.042857
					CHANNELS 3 Zrotation Yrotation Xrotation
					JOINT Head
					{
						OFFSET 0.005152 0.064970 0.051349
						CHANNELS 3 Zrotation Yrotation Xrotation
						End Site
						{
							OFFSET 0.000000 0.000000 0.000000
						}
					}
				}
				JOINT LeftShoulder
				{
					OFFSET 0.078845 0.121749 -0.034090
					CHANNELS 3 Zrotation Yrotation Xrotation
					JOINT LeftArm
					{
						OFFSET 0.090977 0.030469 -0.008868
						CHANNELS 3 Zrotation Yrotation Xrotation
						JOINT LeftForeArm
						{
							OFFSET 0.259612 -0.012772 -0.027456
							CHANNELS 3 Zrotation Yrotation Xrotation
							JOINT LeftHand
							{
								OFFSET 0.249234 0.008986 -0.001171
								CHANNELS 3 Zrotation Yrotation Xrotation
								End Site
								{
									OFFSET 0.000000 0.000000 0.000000
								}
							}
						}
					}
				}
				JOINT RightShoulder
				{
					OFFSET -0.081759 0.118833 -0.038615
					CHANNELS 3 Zrotation Yrotation Xrotation
					JOINT RightArm
					{
						OFFSET -0.096012 0.032551 -0.009143
						CHANNELS 3 Zrotation Yrotation Xrotation
						JOINT RightForeArm
						{
							OFFSET -0.253742 -0.013329 -0.021401
							CHANNELS 3 Zrotation Yrotation Xrotation
							JOINT RightHand
							{
								OFFSET -0.255298 0.007772 -0.005559
								CHANNELS 3 Zrotation Yrotation Xrotation
								End Site
								{
									OFFSET 0.000000 0.000000 0.000000
								}
							}
						}
					}
				}
			}
		}
	}
}
MOTION
Frames: 76
Frame Time: 0.050000
0.000000 0.931927 0.000000 -1.054789 14.836802 -3.994528 0.568972 0.626645 12.694451 -0.955144 0.169806 -4.274663 0.239134 2.034534 2.564346 0.000000 0.000000 0.000000 0.971416 -0.407626 3.315481 1.774333 -0.221978 6.389151 -3.568275 -9.592536 3.023571 0.000000 0.000000 0.000000 -4.877031 -0.095140 7.974450 7.952809 -1.301708 -20.832039 -4.592918 -3.834334 25.797715 4.013942 0.214269 -27.159546 0.000000 0.000000 0.000000 -52.354935 3.594524 -13.313780 -31.576458 5.970249 -5.265333 2.305861 -19.743900 0.404599 0.000000 0.000000 0.000000 47.824014 -0.302455 -0.141085 36.485981 0.502638 -6.184441 -3.842529 20.655574 0.365702 0.000000 0.000000 0.000000
0.003412 0.932955 -0.006515 -0.310904 14.121562 -3.003827 -0.231562 0.733724 11.782750 -1.756654 0.211630 -4.798527 0.233989 2.454778 3.356101 0.000000 0.000000 0.000000 -0.420645 -0.200969 1.746312 2.144138 -0.287653 6.855387 -3.317408 -8.968630 3.201272 0.000000 0.000000 0.000000 -6.551324 0.003103 7.079340 8.992209 -1.585909 -21.277481 -5.933633 -2.826819 27.398432 6.219157 -0.548517 -31.063997 0.000000 0.000000 0.000000 -51.538479 5.587442 -15.221272 -32.306612 5.859420 -5.414453 1.807644 -20.009961 0.500230 0.000000 0.000000 0.000000 49.842372 -2.059917 -1.603546 35.081621 2.180516 -5.783266 -3.443354 20.534838 0.451645 0.000000 0.000000 0.000000
0.006251 0.932523 -0.012719 -0.152525 13.979308 -2.378582 -0.200546 0.668061 10.303476 -2.712877 0.245172 -3.913939 0.362330 2.500194 3.011978 0.000000 0.000000 0.000000 0.305013 0.079946 -0.781678 0.133043 0.128875 9.602007 -3.568210 -9.517030 3.006442 0.000000 0.000000 0.000000 -6.219586 0.002730 6.679429 7.746915 -1.304952 -20.181836 -5.664747 -3.949521 27.985719 4.981462 -0.389332 -28.543035 0.000000 0.000000 0.000000 -51.621972 5.498658 -14.310372 -33.229732 4.906144 -5.585948 3.692832 -19.379590 0.208189 0.000000 0.000000 0.000000 48.602393 -0.329889 -0.687841 37.664977 2.096107 -5.970241 -4.107560 19.246904 0.320823 0.000000 0.000000 0.000000
0.009072 0.933573 -0.017755 0.395065 13.788676 -2.618854 -1.268508 0.815854 10.574473 -2.349624 0.233603 -4.180780 0.269910 2.637636 3.577278 0.000000 0.000000 0.000000 -0.226281 0.329781 -3.405151 -0.423092 0.248876 14.456553 -3.597623 -9.589931 3.737678 0.000000 0.000000 0.000000 -7.139830 0.043557 8.487132 9.005280 -1.574255 -21.527290 -6.671737 -3.816174 29.503077 5.889206 -0.547937 -32.160699 0.000000 0.000000 0.000000 -53.963867 5.780249 -15.334127 -31.351707 5.108411 -5.325785 4.099574 -19.038160 0.153970 0.000000 0.000000 0.000000 51.286293 0.558769 0.046113 35.017908 3.157726 -5.484049 -4.434373 18.614709 0.242142 0.000000 0.000000 0.000000
0.011226 0.934911 -0.020032 0.279528 13.719301 -3.380016 -0.790346 0.754774 10.534033 -3.285636 0.273771 -2.875303 0.223158 2.638289 3.740281 0.000000 0.000000 0.000000 0.134288 0.575461 -5.882675 -1.117682 0.379990 19.944443 -3.570257 -9.628133 5.672636 0.000000 0.000000 0.000000 -8.159839 0.094027 10.648844 10.523664 -2.140910 -20.759818 -7.186266 -4.357173 28.416990 6.242927 -0.784471 -32.642057 0.000000 0.000000 0.000000 -55.368512 5.496483 -15.036458 -29.704061 4.940617 -5.008867 4.582238 -18.411966 0.074079 0.000000 0.000000 0.000000 51.631079 1.293878 0.015305 33.922625 3.837693 -4.899886 -3.683211 17.525081 0.278309 0.000000 0.000000 0.000000
0.013173 0.936121 -0.018204 -0.412989 13.715927 -4.409011 -0.546043 0.765380 11.451686 -2.542627 0.234150 -2.561566 0.280396 2.745763 3.741376 0.000000 0.000000 0.000000 -0.000010 0.774317 -8.316073 0.943979 -0.548907 26.046170 -4.385214 -11.542609 8.249416 0.000000 0.000000 0.000000 -8.813635 0.123239 12.270696 12.000209 -2.423083 -22.402753 -7.652089 -4.961130 30.239414 5.795672 -0.568483 -33.989823 0.000000 0.000000 0.000000 -56.778710 5.654256 -15.096049 -28.526972 3.484935 -4.675071 4.070200 -17.638399 0.167538 0.000000 0.000000 0.000000 52.151471 1.795014 0.076756 32.788970 4.030519 -4.716552 -3.202897 18.309888 0.345673 0.000000 0.000000 0.000000
0.014622 0.937248 -0.012604 -0.916783 12.480616 -4.755617 -0.305760 0.808898 12.344294 -2.333395 0.232580 -2.884569 0.719851 3.737447 4.189450 0.000000 0.000000 0.000000 -0.395045 0.877715 -9.969978 3.599299 -1.641675 28.822694 -6.120666 -15.193647 10.208060 0.000000 0.000000 0.000000 -8.848298 0.145983 12.971237 12.850031 -2.656590 -22.815203 -7.794076 -5.199871 30.534901 4.200495 0.039646 -33.582670 0.000000 0.000000 0.000000 -57.671968 5.854767 -14.734365 -27.290657 2.070461 -4.367638 3.228815 -18.049872 0.312649 0.000000 0.000000 0.000000 51.315464 2.901925 0.464846 32.324659 4.224901 -4.439828 -3.384497 18.898748 0.311037 0.000000 0.000000 0.000000
0.015535 0.936467 -0.004476 -1.276254 12.185428 -5.062911 -0.176570 0.816959 12.760057 -1.842657 0.195992 -2.165488 1.036620 4.077024 3.732581 0.000000 0.000000 0.000000 -0.612457 0.965543 -11.443239 4.621764 -1.940125 27.835669 -8.635393 -19.458046 15.884508 0.000000 0.000000 0.000000 -9.020567 0.163928 13.879642 13.568755 -2.824775 -23.245382 -8.247166 -5.516988 30.982962 3.259775 0.347892 -32.815143 0.000000 0.000000 0.000000 -57.850518 5.273561 -13.646050 -26.102973 0.128862 -3.957350 2.496565 -19.874663 0.467310 0.000000 0.000000 0.000000 52.460847 3.834177 0.855441 30.613047 4.607954 -4.065939 -4.192106 19.784038 0.180261 0.000000 0.000000 0.000000
0.015589 0.935753 0.004925 -1.280299 12.136815 -4.996515 -0.287248 0.846936 13.040512 -1.402649 0.158890 -1.710325 1.157499 4.203431 3.547557 0.000000 0.000000 0.000000 -0.898828 1.000958 -12.452944 4.116071 -1.330357 22.332033 -13.186108 -24.743673 27.366571 0.000000 0.000000 0.000000 -9.141471 0.178626 14.060278 13.744679 -3.059167 -21.936553 -8.007327 -6.018883 29.660644 2.366838 0.663491 -31.573271 0.000000 0.000000 0.000000 -58.503132 4.344447 -12.474163 -24.316016 -2.313291 -3.303465 2.914025 -21.560224 0.408048 0.000000 0.000000 0.000000 53.026620 4.434682 0.907111 29.567797 5.510674 -3.572550 -5.432142 19.545624 -0.028335 0.000000 0.000000 0.000000
0.015082 0.934998 0.014940 -1.392773 12.324398 -4.945175 0.136108 0.809589 13.685169 -1.537630 0.170938 -1.885024 1.067148 4.020616 3.514828 0.000000 0.000000 0.000000 -1.467106 0.979462 -13.314176 3.624477 -0.810588 15.294243 -16.575428 -27.450457 35.220888 0.000000 0.000000 0.000000 -9.490546 0.212217 14.946249 13.940540 -3.118050 -21.966367 -7.793697 -6.900900 29.593775 1.815902 0.791257 -31.380392 0.000000 0.000000 0.000000 -58.745049 3.632154 -11.079283 -22.623467 -4.906416 -2.822361 3.623024 -24.684613 0.300334 0.000000 0.000000 0.000000 53.941553 5.087447 0.798629 27.609281 6.010680 -3.106542 -5.824196 19.740676 -0.119824 0.000000 0.000000 0.000000
0.014143 0.935386 0.025543 -1.575850 11.798649 -4.208881 -0.116726 0.868307 13.770753 -0.549818 0.115321 -2.319263 1.279116 4.616317 3.981083 0.000000 0.000000 0.000000 -1.423005 1.078649 -14.710209 2.617798 -0.384584 10.063392 -18.167561 -28.375289 39.793892 0.000000 0.000000 0.000000 -8.901410 0.187756 15.669096 13.154364 -2.988691 -21.070245 -7.170835 -7.426996 28.539324 1.889995 0.700760 -32.231124 0.000000 0.000000 0.000000 -58.460989 2.186891 -8.779233 -20.898654 -7.632681 -2.350299 4.056873 -27.542362 0.188421 0.000000 0.000000 0.000000 54.916092 6.191730 1.163997 25.598357 6.255259 -2.671978 -5.716170 19.610603 -0.133686 0.000000 0.000000 0.000000
0.012613 0.935199 0.037775 -1.250500 12.477933 -2.909266 -0.561180 0.892727 13.319269 0.337693 0.068109 -2.716741 0.944828 4.218364 4.370678 0.000000 0.000000 0.000000 -1.666013 1.055374 -15.177437 2.113218 -0.254427 6.597475 -11.482614 -21.977684 28.942245 0.000000 0.000000 0.000000 -8.288137 0.124336 17.040718 13.410241 -3.058429 -20.815395 -8.091502 -8.098075 27.702978 2.276676 0.336057 -30.454770 0.000000 0.000000 0.000000 -58.052627 0.240818 -6.372270 -18.867284 -10.670800 -1.838195 3.783705 -30.711965 0.219151 0.000000 0.000000 0.000000 56.534615 7.808802 2.527005 23.258243 6.975214 -2.254745 -5.486916 19.804730 -0.128155 0.000000 0.000000 0.000000
0.009626 0.935154 0.052180 -1.176569 12.335788 -2.113249 -0.926120 0.947698 13.230830 1.498854 -0.015209 -2.552511 1.011607 4.587054 4.901067 0.000000 0.000000 0.000000 -1.069846 1.162888 -15.489719 1.676215 -0.167555 7.195446 -6.696014 -15.703343 18.403885 0.000000 0.000000 0.000000 -7.804623 0.074221 17.930606 13.872417 -3.546803 -18.386381 -8.415595 -8.415299 25.589954 2.164287 0.476799 -31.596044 0.000000 0.000000 0.000000 -56.648678 -2.393053 -2.983273 -17.344576 -14.062323 -1.409856 5.654999 -32.115974 -0.356956 0.000000 0.000000 0.000000 57.806071 10.032339 4.400160 21.210938 8.132206 -1.757322 -6.264006 19.241005 -0.263019 0.000000 0.000000 0.000000
0.004963 0.934812 0.068635 -1.092051 13.032449 -1.107818 -0.909147 0.887773 12.459195 2.531837 -0.138300 -1.548307 0.777081 4.361997 5.235166 0.000000 0.000000 0.000000 0.026422 1.294917 -15.348232 0.363795 0.081217 6.949686 -5.227849 -13.097001 15.572040 0.000000 0.000000 0.000000 -7.371075 -0.026758 19.478935 13.774493 -3.546434 -17.970796 -8.048624 -9.488245 25.531761 1.053394 0.866588 -30.566215 0.000000 0.000000 0.000000 -56.116339 -5.229713 0.728279 -14.381839 -18.215070 -1.143228 7.431401 -33.203608 -0.970476 0.000000 0.000000 0.000000 58.683813 12.011308 5.982076 19.218606 9.369924 -1.400552 -6.046899 19.236621 -0.241744 0.000000 0.000000 0.000000
-0.001512 0.933889 0.086106 -1.041250 14.155375 0.256266 -0.285420 0.738301 11.711418 3.014017 -0.184159 -1.330940 0.267858 3.707080 5.615640 0.000000 0.000000 0.000000 0.574667 1.402166 -16.233935 0.243560 0.097639 7.904020 -5.191173 -12.853690 13.667743 0.000000 0.000000 0.000000 -7.082372 -0.164285 21.535091 14.450167 -3.800137 -17.547436 -7.778408 -11.069809 24.740605 0.044359 1.282396 -31.395618 0.000000 0.000000 0.000000 -54.930579 -7.971303 4.555285 -12.055052 -22.209198 -1.114251 10.538924 -32.207916 -1.871306 0.000000 0.000000 0.000000 58.268046 14.389871 7.664371 18.912023 9.527263 -1.193216 -6.425619 20.053964 -0.319044 0.000000 0.000000 0.000000
-0.009248 0.933790 0.103062 -1.378188 15.467072 1.651179 1.047601 0.454241 9.919983 2.432283 -0.196540 -0.183460 0.037599 2.602578 4.212846 0.000000 0.000000 0.000000 1.539307 1.552835 -16.922679 0.261420 0.075862 8.138165 -5.968262 -14.144139 12.638046 0.000000 0.000000 0.000000 -7.341192 -0.314501 24.842846 16.203405 -4.394726 -17.356821 -7.038760 -11.795410 24.487768 -2.023140 2.319657 -32.233028 0.000000 0.000000 0.000000 -53.470208 -11.682762 8.705512 -7.393650 -26.455376 -1.403377 14.639678 -29.819989 -2.871414 0.000000 0.000000 0.000000 57.006361 16.682902 9.916602 18.066665 10.311611 -1.063989 -6.125353 21.917828 -0.316297 0.000000 0.000000 0.000000
-0.017019 0.934629 0.118457 -1.626081 16.295785 3.832222 2.030457 0.209561 6.844926 1.726078 -0.235932 1.669169 -0.033238 1.986434 3.323176 0.000000 0.000000 0.000000 2.152856 1.740658 -18.959806 0.764965 -0.046515 8.947246 -6.444594 -14.965897 12.135255 0.000000 0.000000 0.000000 -6.772364 -0.707702 28.657338 17.630897 -4.837654 -17.252354 -6.241741 -12.170309 23.140825 -3.951158 3.228611 -32.002041 0.000000 0.000000 0.000000 -51.084202 -15.569269 12.694923 -2.422110 -29.678202 -2.084078 17.977812 -25.492067 -3.221167 0.000000 0.000000 0.000000 55.612877 19.091709 12.153700 17.752986 9.822077 -1.054133 -6.944516 25.983351 -0.566156 0.000000 0.000000 0.000000
-0.023596 0.934576 0.132423 -1.903894 16.842396 6.298821 2.275798 0.026134 3.109151 1.706743 -0.415719 4.518770 1.154614 2.882727 1.061984 0.000000 0.000000 0.000000 2.887041 1.944746 -20.946781 0.989492 -0.100799 8.904106 -6.744121 -15.505180 11.648419 0.000000 0.000000 0.000000 -6.237288 -1.222589 32.849322 19.137706 -5.235824 -17.369997 -5.587207 -11.405900 22.142791 -7.275201 4.888297 -34.273291 0.000000 0.000000 0.000000 -48.445859 -19.205444 15.524464 3.078957 -31.510037 -2.991498 20.386627 -20.956701 -3.083933 0.000000 0.000000 0.000000 54.710379 20.837656 14.430426 16.060983 10.223431 -1.053213 -8.284800 30.098756 -1.006499 0.000000 0.000000 0.000000
-0.028719 0.935284 0.145393 -1.837793 17.394968 8.841835 2.786823 -0.186383 -0.218195 0.721761 -0.400562 6.069562 1.722106 3.225546 -0.212763 0.000000 0.000000 0.000000 2.989362 2.048504 -23.452150 1.505870 -0.234645 9.725971 -6.997744 -15.941064 11.436918 0.000000 0.000000 0.000000 -5.905155 -1.821641 37.136764 19.665795 -5.103999 -18.305095 -4.758145 -11.479872 22.612659 -9.158101 5.608413 -35.733327 0.000000 0.000000 0.000000 -44.109618 -22.008916 17.674299 7.735360 -32.391998 -3.949648 23.304262 -15.165355 -2.611262 0.000000 0.000000 0.000000 51.733697 23.368874 16.414435 17.984690 10.602684 -1.092239 -11.949798 33.682039 -2.147511 0.000000 0.000000 0.000000
-0.032612 0.935392 0.157939 -2.152675 17.780003 10.947303 3.082930 -0.420635 -3.805156 1.084563 -0.721591 9.531629 2.385011 4.241813 -0.765045 0.000000 0.000000 0.000000 3.626322 2.222800 -25.394187 1.687221 -0.287528 10.173481 -7.153020 -16.228231 11.197851 0.000000 0.000000 0.000000 -6.410557 -2.364844 42.745144 20.427548 -4.820658 -20.269923 -3.892707 -10.276197 23.308470 -12.516020 6.945424 -38.507517 0.000000 0.000000 0.000000 -41.886952 -23.099881 17.933356 11.672583 -32.664610 -4.718964 23.689324 -11.656191 -2.033202 0.000000 0.000000 0.000000 49.771514 24.377419 17.645035 18.063421 11.905597 -1.134048 -15.497467 36.256869 -3.403746 0.000000 0.000000 0.000000
-0.035450 0.935678 0.171005 -2.139714 18.801812 13.625079 4.213920 -0.713934 -7.353313 0.423817 -0.884256 12.463370 2.522098 5.036429 0.040936 0.000000 0.000000 0.000000 3.571048 2.214914 -28.104383 2.352275 -0.488699 11.121356 -7.561536 -16.896056 11.218255 0.000000 0.000000 0.000000 -7.083781 -2.870620 47.282370 20.979532 -4.608198 -21.463599 -3.008224 -9.249649 24.388027 -13.487484 7.294023 -39.472501 0.000000 0.000000 0.000000 -38.737915 -24.630824 18.286439 13.266708 -31.974521 -4.937472 25.966893 -7.984527 -1.525992 0.000000 0.000000 0.000000 46.976273 26.578783 19.917542 18.868043 12.508898 -1.280706 -20.029843 38.501110 -5.109878 0.000000 0.000000 0.000000
-0.037014 0.934726 0.185765 -2.257475 19.219930 16.303341 4.917050 -1.003518 -10.870394 1.271352 -1.438823 16.069840 2.061335 4.163919 -0.015977 0.000000 0.000000 0.000000 3.555384 2.217169 -30.632741 3.205313 -0.728395 11.879112 -7.681762 -17.158811 10.765696 0.000000 0.000000 0.000000 -8.058054 -3.039743 51.170994 20.829450 -4.198613 -22.655743 -1.785407 -7.711891 25.132574 -14.987229 7.832510 -40.528702 0.000000 0.000000 0.000000 -37.022557 -24.200371 17.134849 13.998811 -32.114114 -5.208311 26.673499 -7.507762 -1.446113 0.000000 0.000000 0.000000 45.381475 27.315321 21.148728 18.781362 13.133868 -1.430578 -23.418069 39.717501 -6.417313 0.000000 0.000000 0.000000
-0.036131 0.932047 0.203109 -2.092938 19.694634 18.985170 5.966998 -1.288646 -14.120248 1.380475 -1.787044 18.637900 1.883150 3.765688 -0.199549 0.000000 0.000000 0.000000 3.298572 2.107599 -33.101829 3.895585 -0.970755 13.104403 -7.850556 -17.608847 9.616246 0.000000 0.000000 0.000000 -8.457060 -3.345714 53.844881 19.945329 -3.581888 -24.181592 -0.545397 -7.094630 26.201534 -14.623703 7.646837 -40.597756 0.000000 0.000000 0.000000 -37.223238 -23.296375 16.412504 13.971624 -31.956729 -5.297843 26.791952 -7.101426 -1.340889 0.000000 0.000000 0.000000 42.374001 27.905804 21.293191 19.964018 13.730512 -1.518169 -25.053359 39.838309 -6.943813 0.000000 0.000000 0.000000
-0.031652 0.927569 0.222871 -2.377764 19.734487 20.628038 6.520323 -1.426938 -15.721024 2.549365 -2.471396 21.457970 1.179542 2.753206 0.412084 0.000000 0.000000 0.000000 3.483623 2.157255 -34.312851 4.365191 -1.159945 14.301723 -7.849833 -17.941588 7.627512 0.000000 0.000000 0.000000 -8.680269 -3.607732 56.337851 19.215074 -3.111044 -25.294906 0.958698 -5.827817 26.103333 -16.931724 8.564828 -40.305884 0.000000 0.000000 0.000000 -40.178943 -22.286166 15.774291 13.542333 -30.984673 -5.042579 26.715784 -9.167523 -1.722546 0.000000 0.000000 0.000000 41.404907 27.521129 21.272934 19.850481 13.516046 -1.634871 -27.177255 40.265404 -7.750632 0.000000 0.000000 0.000000
-0.022755 0.921789 0.243794 -2.878900 19.159758 22.011086 7.165517 -1.494092 -16.779662 2.669744 -2.807960 23.739441 1.943998 2.832189 -2.018972 0.000000 0.000000 0.000000 3.464702 2.225753 -35.599673 5.050210 -1.461573 16.329073 -7.610247 -17.878042 5.285650 0.000000 0.000000 0.000000 -8.498431 -3.838034 58.196530 17.701055 -2.476548 -26.846720 2.565338 -5.101335 26.869087 -16.074161 8.194330 -40.292616 0.000000 0.000000 0.000000 -40.917802 -20.433182 14.219071 10.292795 -30.210318 -4.452954 27.609984 -12.744739 -2.511994 0.000000 0.000000 0.000000 38.898139 25.834778 19.414874 20.302594 13.055984 -1.787862 -26.194180 41.503183 -7.621437 0.000000 0.000000 0.000000
-0.009359 0.915946 0.264507 -3.980799 18.487107 22.567277 7.309825 -1.446463 -16.444690 3.039130 -3.212626 25.954483 1.523622 1.819083 -2.214766 0.000000 0.000000 0.000000 3.636622 2.391991 -36.509056 5.827088 -1.876005 19.074219 -7.351618 -17.668113 3.425937 0.000000 0.000000 0.000000 -8.084774 -4.046990 59.412464 16.768040 -2.185677 -27.379300 3.803643 -4.008773 26.835002 -16.761039 8.480339 -40.005021 0.000000 0.000000 0.000000 -42.177136 -19.211093 12.934184 7.142633 -29.411037 -3.857308 27.967381 -15.887918 -3.179121 0.000000 0.000000 0.000000 36.539240 24.349634 17.929169 21.709832 12.935862 -1.877155 -27.693442 42.314202 -8.283374 0.000000 0.000000 0.000000
0.007038 0.909524 0.284062 -4.343192 17.808115 23.247608 6.479738 -1.417933 -15.963390 3.371643 -3.445982 26.973956 1.748445 1.531664 -3.419878 0.000000 0.000000 0.000000 3.080887 2.335425 -37.576660 6.126659 -2.226366 22.308387 -7.177480 -17.555686 1.609731 0.000000 0.000000 0.000000 -7.358273 -4.273592 59.491828 16.922309 -2.013210 -28.487474 3.653849 -3.802527 27.081673 -16.400867 8.485664 -38.802476 0.000000 0.000000 0.000000 -43.236117 -17.421857 11.533085 3.496933 -28.665159 -3.286304 28.208771 -20.830944 -4.250468 0.000000 0.000000 0.000000 36.837424 22.448670 16.446136 20.058335 11.017360 -2.034082 -26.608476 44.752214 -8.520390 0.000000 0.000000 0.000000
0.024936 0.902109 0.302318 -5.403009 16.275552 23.314401 6.054875 -1.326302 -15.210617 3.093443 -3.451599 28.390437 1.300413 0.105162 -4.125358 0.000000 0.000000 0.000000 2.965678 2.556556 -38.319868 6.376492 -2.511699 25.691740 -6.736032 -16.742498 0.055773 0.000000 0.000000 0.000000 -6.721226 -4.028209 58.845767 16.752463 -1.960606 -28.680513 3.775348 -3.450821 26.893190 -16.163556 8.737011 -35.768383 0.000000 0.000000 0.000000 -43.412425 -16.917955 11.154776 0.028868 -27.925604 -2.779168 28.239608 -23.402592 -4.775293 0.000000 0.000000 0.000000 36.558438 20.692553 14.871738 20.315195 8.888201 -2.190149 -29.469812 47.660652 -10.477453 0.000000 0.000000 0.000000
0.043014 0.893075 0.319528 -6.182210 15.500580 22.744609 5.664209 -1.235763 -14.218876 2.377355 -3.498095 30.766826 1.460362 -0.655145 -5.815109 0.000000 0.000000 0.000000 2.229999 2.486258 -39.344900 7.105664 -3.271240 30.671908 -6.608487 -16.474384 -0.590595 0.000000 0.000000 0.000000 -5.831680 -4.217633 58.168702 17.177739 -1.958325 -29.270141 2.822586 -3.817197 27.196554 -15.083608 8.467716 -34.051069 0.000000 0.000000 0.000000 -43.418064 -15.836410 10.582568 -2.731233 -27.639339 -2.473741 27.682794 -25.173495 -5.015854 0.000000 0.000000 0.000000 37.030931 19.378601 13.482917 19.962089 6.437506 -2.308567 -30.471742 51.553541 -12.185334 0.000000 0.000000 0.000000
0.060320 0.878412 0.336565 -7.492656 13.523650 21.693807 6.101413 -1.083766 -12.910015 0.840639 -3.129374 34.063152 1.920032 -0.982171 -8.225846 0.000000 0.000000 0.000000 1.571438 2.655414 -40.547694 8.224307 -4.227501 36.599403 -6.175016 -15.434739 -1.697826 0.000000 0.000000 0.000000 -5.366623 -3.767114 57.609310 17.790266 -2.114692 -29.229082 2.013359 -3.470323 27.139513 -13.570337 7.959400 -32.295329 0.000000 0.000000 0.000000 -41.571111 -15.279843 10.120299 -6.809373 -27.577092 -2.046179 27.961012 -25.900756 -5.164831 0.000000 0.000000 0.000000 36.921858 17.865503 12.006866 21.534369 4.668575 -2.556153 -34.364232 56.591306 -15.787118 0.000000 0.000000 0.000000
0.076647 0.858075 0.354402 -8.556229 11.714485 19.928463 6.175885 -0.950762 -11.574733 -0.791399 -2.777052 39.020991 2.521950 -0.450448 -10.188452 0.000000 0.000000 0.000000 0.928716 2.780996 -40.943842 10.299408 -5.680324 41.528925 -8.065756 -20.210858 -1.705784 0.000000 0.000000 0.000000 -4.864670 -3.406280 56.890734 18.857029 -2.383873 -29.019999 0.808489 -3.685962 26.721363 -12.717551 7.612423 -31.301644 0.000000 0.000000 0.000000 -41.510839 -14.235833 9.722025 -9.023249 -26.491135 -1.829255 27.621081 -27.354225 -5.381379 0.000000 0.000000 0.000000 38.833801 17.251099 11.122059 20.373150 2.065205 -2.549878 -39.496326 61.187274 -20.831748 0.000000 0.000000 0.000000
0.091631 0.830731 0.373941 -9.915946 9.460390 18.356916 7.273915 -0.801932 -9.881000 -2.875422 -1.788295 44.132855 2.549006 -2.589135 -13.934641 0.000000 0.000000 0.000000 0.163792 2.945928 -41.102019 13.956383 -8.041750 46.144557 -10.880116 -27.627314 -3.857058 0.000000 0.000000 0.000000 -4.713596 -2.607435 54.955113 20.184612 -2.766810 -28.559223 -0.340173 -3.312459 26.660089 -11.797857 7.382436 -29.186234 0.000000 0.000000 0.000000 -41.191319 -13.648126 9.322934 -12.593335 -26.083044 -1.509759 29.655266 -27.749548 -5.885955 0.000000 0.000000 0.000000 40.677708 16.714132 10.686221 20.835425 0.235859 -2.738297 -51.077069 64.995350 -30.377645 0.000000 0.000000 0.000000
0.105095 0.803258 0.394399 -10.788697 6.953632 16.487275 7.441297 -0.648817 -7.367847 -4.912961 -0.351411 48.519900 2.647969 -1.576101 -13.743179 0.000000 0.000000 0.000000 -0.010340 3.265607 -40.364707 16.690463 -10.043060 51.039675 -13.634733 -35.753544 -7.310340 0.000000 0.000000 0.000000 -4.281903 -2.015581 53.121517 20.902692 -2.995836 -28.349754 -1.397843 -4.238863 26.128415 -11.938633 7.401510 -27.888478 0.000000 0.000000 0.000000 -42.398570 -11.316131 8.397050 -15.073442 -24.788583 -1.477634 29.686802 -29.697202 -6.272867 0.000000 0.000000 0.000000 43.177884 15.956153 8.933246 19.691724 -1.236572 -2.526691 -62.588581 68.902713 -41.672175 0.000000 0.000000 0.000000
0.116518 0.778451 0.414241 -11.970037 4.371785 14.240475 7.872220 -0.499445 -4.222713 -7.057932 1.592160 52.035226 2.027745 -3.272181 -14.163428 0.000000 0.000000 0.000000 0.257609 3.719470 -39.844861 19.175799 -11.921635 55.820288 -17.416453 -43.617402 -5.433457 0.000000 0.000000 0.000000 -4.052675 -1.317423 49.654055 21.602303 -3.608752 -26.545823 -2.832901 -5.329901 26.163862 -11.265459 6.976651 -26.872782 0.000000 0.000000 0.000000 -40.374033 -9.433281 7.662085 -20.470149 -24.217416 -1.358256 31.381390 -31.433413 -6.921871 0.000000 0.000000 0.000000 44.003208 15.722838 7.330815 20.570728 -2.761647 -2.608644 -78.232028 72.355306 -57.762667 0.000000 0.000000 0.000000
0.125746 0.760407 0.431940 -13.110364 1.973335 13.038794 8.317736 -0.405356 -2.025158 -8.163107 3.152437 54.314455 1.412507 -3.942235 -13.004168 0.000000 0.000000 0.000000 0.560739 4.107706 -39.143767 20.128136 -12.527396 59.508111 -17.915987 -45.084231 -6.114001 0.000000 0.000000 0.000000 -3.745796 -0.829792 46.323028 21.198087 -3.790649 -25.534125 -2.573122 -6.294947 25.824848 -10.973396 6.576308 -27.165110 0.000000 0.000000 0.000000 -39.434801 -7.485932 6.926485 -24.162851 -23.525750 -1.426173 30.958778 -33.540332 -7.071577 0.000000 0.000000 0.000000 43.545808 14.324564 4.640012 22.200316 -2.455395 -2.580113 -88.094214 76.051232 -70.613945 0.000000 0.000000 0.000000
0.133246 0.744632 0.446735 -13.969671 -0.585349 12.066573 8.276870 -0.301843 -0.139592 -8.918100 4.740239 56.647601 0.844739 -5.409317 -13.072336 0.000000 0.000000 0.000000 1.305141 4.627315 -38.527024 19.916369 -12.205883 63.785470 -17.110665 -44.624105 -8.378455 0.000000 0.000000 0.000000 -3.962670 -0.194338 41.968787 20.710955 -3.857662 -24.885633 -3.064165 -8.311146 26.936208 -9.404529 5.252495 -28.219270 0.000000 0.000000 0.000000 -37.383084 -5.694168 7.025649 -28.346795 -22.978472 -1.797909 31.891736 -35.703949 -7.391745 0.000000 0.000000 0.000000 43.495970 14.349592 2.443118 23.254702 -3.047623 -2.473202 -92.560133 80.129865 -79.624681 0.000000 0.000000 0.000000
0.139508 0.733110 0.459263 -14.576112 -2.179546 11.811361 8.684139 -0.261556 0.475177 -9.147120 5.744237 58.549960 1.051779 -4.784659 -13.254605 0.000000 0.000000 0.000000 1.923657 4.807233 -36.992662 19.389863 -11.568249 66.508227 -14.327244 -41.725025 -15.285590 0.000000 0.000000 0.000000 -3.962606 0.047647 38.210189 20.430914 -3.941479 -24.210865 -3.009689 -10.058085 26.227290 -8.945188 4.583968 -29.112400 0.000000 0.000000 0.000000 -36.598069 -4.738045 7.358772 -30.778715 -21.618285 -2.201594 31.537606 -38.910124 -7.732567 0.000000 0.000000 0.000000 42.819761 13.957002 0.351029 25.098994 -3.939521 -2.490578 -92.015449 83.789309 -83.421930 0.000000 0.000000 0.000000
0.144958 0.720674 0.469981 -15.044183 -4.225580 11.363010 8.450086 -0.184575 1.000044 -9.464691 7.174381 61.044158 2.223134 -3.779490 -17.217630 0.000000 0.000000 0.000000 2.529752 5.003400 -35.571038 18.857293 -10.631134 69.500142 -12.520940 -39.488820 -20.857468 0.000000 0.000000 0.000000 -4.380545 0.395153 34.000580 19.920258 -3.765733 -24.522101 -2.941561 -12.142649 27.921323 -7.310099 3.167205 -30.326324 0.000000 0.000000 0.000000 -34.591551 -3.208456 7.594825 -35.771195 -21.308246 -2.638464 33.054468 -41.921608 -8.087369 0.000000 0.000000 0.000000 40.061139 13.729363 -1.666633 27.217231 -4.540712 -2.556056 -77.692139 86.383944 -73.069361 0.000000 0.000000 0.000000
0.149468 0.707251 0.479834 -15.233153 -6.021484 10.560571 8.011759 -0.074551 2.751747 -9.128949 7.838103 62.042842 2.777732 -2.882223 -18.825125 0.000000 0.000000 0.000000 2.736498 4.872591 -33.405447 19.124897 -10.473094 73.006685 -10.559287 -35.615429 -27.529546 0.000000 0.000000 0.000000 -4.612568 0.561367 30.943093 19.793118 -3.940171 -23.551878 -2.988699 -13.191031 27.417699 -6.736911 2.551129 -30.649779 0.000000 0.000000 0.000000 -34.304417 -2.297792 7.710490 -37.532518 -19.807172 -3.188391 32.589909 -46.308638 -8.534435 0.000000 0.000000 0.000000 38.527684 13.168796 -3.129866 28.534674 -4.736773 -2.518766 -32.756762 87.006580 -30.914678 0.000000 0.000000 0.000000
0.152852 0.687951 0.488598 -15.253133 -7.899271 9.723341 7.820094 0.035089 4.169515 -9.472411 9.358302 64.266849 3.845705 -2.021249 -23.088910 0.000000 0.000000 0.000000 3.302509 4.734212 -31.009612 18.516794 -9.500095 77.702568 -9.447024 -32.847242 -32.613052 0.000000 0.000000 0.000000 -4.266411 0.478411 27.553603 19.261968 -3.847042 -23.454430 -3.389398 -13.751876 28.030567 -5.096507 1.425838 -29.941658 0.000000 0.000000 0.000000 -33.996255 -2.114232 8.262962 -39.674035 -18.229670 -3.860698 31.448822 -49.425097 -8.331034 0.000000 0.000000 0.000000 37.760422 12.673248 -4.326984 28.620195 -5.125750 -2.476043 -9.160192 85.319440 -8.676974 0.000000 0.000000 0.000000
0.154868 0.667497 0.495976 -15.049887 -9.183213 8.764720 7.349099 0.140026 5.256985 -9.558575 10.457088 66.556659 4.412688 -0.767668 -24.361779 0.000000 0.000000 0.000000 3.679748 4.479003 -28.794903 17.835593 -8.675168 82.622539 -9.019000 -30.468107 -33.480010 0.000000 0.000000 0.000000 -3.787400 0.332348 25.208589 18.846830 -3.783369 -23.374437 -3.922735 -14.307539 27.795466 -5.086296 1.211861 -28.210758 0.000000 0.000000 0.000000 -34.653396 -2.198264 9.020656 -40.467439 -17.163613 -4.406992 29.489240 -51.738313 -7.738475 0.000000 0.000000 0.000000 38.812834 12.003036 -5.869191 27.241959 -5.567022 -2.213946 -6.466219 84.487758 -6.010832 0.000000 0.000000 0.000000
0.155689 0.645532 0.501401 -15.051027 -10.288969 8.211964 7.007134 0.196257 5.366282 -9.554432 11.772528 69.939334 5.241707 -0.339179 -27.928446 0.000000 0.000000 0.000000 3.924116 4.368526 -27.644008 16.930420 -7.484262 87.086327 -9.006553 -28.195999 -29.522722 0.000000 0.000000 0.000000 -3.324913 0.194888 22.866399 18.320128 -3.659889 -23.438238 -3.839806 -14.860153 28.101620 -4.066068 0.427675 -28.514737 0.000000 0.000000 0.000000 -35.069696 -1.573150 9.172352 -41.521207 -16.908598 -4.717376 26.250975 -53.202977 -6.221632 0.000000 0.000000 0.000000 38.276495 11.474153 -6.875904 27.869858 -5.021130 -2.081360 -7.982992 83.143277 -7.564779 0.000000 0.000000 0.000000
0.155554 0.626878 0.505134 -14.979425 -11.108225 7.206761 6.866225 0.238934 5.414099 -9.427154 12.858194 73.397299 5.601184 0.869952 -27.903584 0.000000 0.000000 0.000000 4.454662 4.368538 -26.886537 15.970600 -6.216236 90.809338 -8.876924 -26.569818 -26.793057 0.000000 0.000000 0.000000 -2.943550 0.103316 22.051687 18.890084 -3.810655 -23.387852 -4.220311 -14.393072 28.093553 -3.381823 0.031568 -26.511309 0.000000 0.000000 0.000000 -36.110546 -2.241779 9.891366 -41.990682 -17.134654 -4.787166 22.339941 -52.821276 -4.428482 0.000000 0.000000 0.000000 39.673510 11.191131 -7.364777 26.864254 -4.026820 -1.782200 -16.909457 82.893446 -14.952114 0.000000 0.000000 0.000000
0.154778 0.609388 0.508070 -14.881667 -12.233342 6.439592 6.299110 0.267029 4.851837 -9.184647 14.252628 77.252616 6.159914 1.587763 -29.417977 0.000000 0.000000 0.000000 4.665014 4.477006 -26.908731 15.414165 -5.110413 94.776952 -8.805405 -25.858640 -24.180115 0.000000 0.000000 0.000000 -2.481390 0.015941 21.212005 18.935389 -3.827075 -23.413658 -4.192866 -14.352331 28.226039 -2.780966 -0.419266 -26.479248 0.000000 0.000000 0.000000 -36.567984 -2.445350 10.405074 -42.850162 -16.475912 -5.149522 20.399439 -52.345910 -3.448181 0.000000 0.000000 0.000000 39.247551 11.904422 -6.936780 27.594391 -3.281319 -1.697589 -18.131178 80.897841 -15.605059 0.000000 0.000000 0.000000
0.153572 0.595528 0.510744 -14.350452 -12.895791 5.467160 6.091253 0.264960 4.185641 -8.908003 15.228700 80.641585 6.347693 2.370005 -28.716056 0.000000 0.000000 0.000000 4.742115 4.473783 -26.649667 14.924595 -4.260489 97.959759 -8.520673 -24.611220 -23.486895 0.000000 0.000000 0.000000 -2.060400 -0.080895 20.160886 19.059261 -4.111004 -22.320958 -4.468355 -14.165890 27.585227 -2.308157 -0.694898 -25.688876 0.000000 0.000000 0.000000 -37.269453 -2.851516 10.875942 -43.682139 -16.053878 -5.338211 18.112268 -51.970498 -2.415832 0.000000 0.000000 0.000000 39.601979 11.671205 -7.202851 27.995373 -2.359534 -1.527600 -17.245422 81.400870 -14.915084 0.000000 0.000000 0.000000
0.152120 0.583748 0.513502 -13.900684 -13.852966 4.681232 5.858891 0.284887 3.922350 -8.667778 16.463078 83.740147 6.508911 2.091767 -29.008991 0.000000 0.000000 0.000000 5.260183 4.500504 -26.074776 14.645742 -3.266549 100.724410 -8.452389 -24.234830 -21.696050 0.000000 0.000000 0.000000 -1.537847 -0.178670 18.999957 18.601338 -4.014688 -22.413157 -4.827454 -14.236294 28.320426 -2.223751 -0.877817 -25.788557 0.000000 0.000000 0.000000 -37.864679 -3.086331 11.542471 -43.961903 -15.556119 -5.723670 16.973524 -51.792873 -1.899568 0.000000 0.000000 0.000000 39.285171 11.886067 -7.298126 28.841059 -1.643714 -1.436723 -4.876309 81.760856 -4.528754 0.000000 0.000000 0.000000
0.150112 0.575524 0.515893 -13.346768 -14.043177 3.651528 5.529788 0.314465 4.106038 -8.104126 16.501526 86.143729 6.334502 0.902243 -28.774431 0.000000 0.000000 0.000000 5.075397 4.225955 -24.954954 13.927325 -2.133280 102.625193 -7.898371 -22.190440 -24.153448 0.000000 0.000000 0.000000 -1.279980 -0.230080 18.418759 17.935732 -4.044285 -21.746922 -4.573364 -14.599528 27.891432 -1.922350 -1.106076 -25.912700 0.000000 0.000000 0.000000 -37.817538 -2.848216 11.456564 -45.064581 -14.430036 -6.105223 16.156646 -53.296127 -1.450594 0.000000 0.000000 0.000000 38.525532 11.764108 -7.407806 30.149811 -1.192270 -1.405635 6.259416 83.267943 4.845353 0.000000 0.000000 0.000000
0.147801 0.566796 0.517337 -12.787584 -13.758259 2.984031 5.524299 0.286438 3.584083 -7.332363 16.159696 89.548685 6.100504 0.172964 -27.717467 0.000000 0.000000 0.000000 4.936713 4.079944 -24.449992 13.325680 -1.619412 104.789634 -7.533918 -20.598758 -25.997773 0.000000 0.000000 0.000000 -1.247753 -0.251788 17.654801 17.561696 -3.978828 -21.796100 -4.557784 -14.910268 28.378513 -1.339101 -1.490258 -25.947509 0.000000 0.000000 0.000000 -37.965968 -2.399773 11.250250 -45.303768 -14.334954 -6.243899 15.118342 -54.512080 -0.830920 0.000000 0.000000 0.000000 38.027389 11.411005 -7.594824 30.311767 -0.803576 -1.383323 28.868488 84.495818 25.384270 0.000000 0.000000 0.000000
0.144800 0.558875 0.517686 -11.851094 -12.998720 2.223878 5.188342 0.274860 3.455138 -6.569407 15.054441 91.981927 6.271642 -1.363969 -29.805622 0.000000 0.000000 0.000000 4.448617 3.788730 -23.638680 12.706734 -1.503964 106.899401 -7.020178 -17.471678 -28.899953 0.000000 0.000000 0.000000 -1.633182 -0.206952 16.936230 17.491617 -4.111308 -21.169761 -4.458268 -15.034543 27.903877 -1.536545 -1.295182 -25.651780 0.000000 0.000000 0.000000 -37.593864 -2.704814 11.136248 -45.243056 -13.429122 -6.387768 15.366597 -57.019023 -1.031691 0.000000 0.000000 0.000000 37.411953 11.078145 -7.412966 31.105619 -0.846633 -1.519175 61.301921 86.643538 57.256586 0.000000 0.000000 0.000000
0.141166 0.550985 0.517193 -10.710708 -11.914516 1.771824 4.818475 0.215512 2.639404 -5.916518 13.886260 95.006742 6.497078 -2.611356 -31.660904 0.000000 0.000000 0.000000 4.050749 3.590535 -23.205388 12.216821 -1.959784 109.192698 -6.736381 -14.838038 -31.577970 0.000000 0.000000 0.000000 -2.121395 -0.155183 16.162420 17.173590 -4.208651 -20.405117 -4.039160 -15.318376 27.029506 -1.229532 -1.356812 -25.772542 0.000000 0.000000 0.000000 -37.401057 -2.665291 10.794889 -45.198524 -12.876275 -6.401681 13.970030 -58.911982 -0.330202 0.000000 0.000000 0.000000 37.129810 10.453447 -7.584641 30.968017 -1.046377 -1.568670 106.269471 85.665997 100.828572 0.000000 0.000000 0.000000
0.136861 0.544207 0.516107 -9.797444 -10.610740 1.043493 4.710572 0.171139 2.090186 -5.237555 12.114543 97.453025 6.608365 -4.061530 -33.260329 0.000000 0.000000 0.000000 3.609544 3.404276 -22.879221 11.724088 -2.776978 111.493836 -6.515149 -12.568374 -31.642908 0.000000 0.000000 0.000000 -2.851278 -0.063730 16.230954 17.148966 -4.260606 -20.233410 -4.128461 -15.538149 27.306074 -1.622849 -1.043055 -26.163270 0.000000 0.000000 0.000000 -36.930568 -3.135393 10.794487 -45.067356 -12.930595 -6.291408 14.772504 -60.761883 -0.770534 0.000000 0.000000 0.000000 36.796027 10.329720 -7.243585 31.276314 -0.926733 -1.665748 132.408354 83.650689 126.212395 0.000000 0.000000 0.000000
0.132134 0.537481 0.514438 -8.787402 -9.034740 0.887776 4.789090 0.084857 0.900628 -4.397347 9.782132 99.963449 6.453021 -6.432392 -34.312443 0.000000 0.000000 0.000000 3.426770 3.224481 -22.379870 11.040134 -3.403200 113.083549 -6.577724 -11.577628 -33.116894 0.000000 0.000000 0.000000 -3.562977 0.018915 16.045434 17.211377 -4.457048 -19.316353 -4.195578 -15.404838 26.340381 -1.205569 -1.059132 -26.240840 0.000000 0.000000 0.000000 -35.770524 -3.392667 10.133151 -45.572567 -12.603899 -6.060886 14.241110 -62.219017 -0.488989 0.000000 0.000000 0.000000 36.871553 10.170562 -6.776265 30.942485 -0.435284 -1.600112 144.168658 81.680571 137.870788 0.000000 0.000000 0.000000
0.127280 0.530893 0.511501 -7.749332 -6.999828 0.527738 4.845666 -0.002139 -0.347569 -4.095544 7.552323 102.367351 6.198683 -7.477458 -34.309064 0.000000 0.000000 0.000000 3.013861 3.041229 -22.142427 10.296257 -4.494857 114.552472 -6.504154 -10.332163 -31.758358 0.000000 0.000000 0.000000 -4.357975 0.115308 16.912045 17.093069 -4.460299 -19.228889 -3.685850 -15.142095 25.965671 -1.164612 -0.840717 -26.202126 0.000000 0.000000 0.000000 -35.328483 -3.511902 9.446241 -45.685216 -12.233805 -5.955497 13.451311 -64.464274 -0.083565 0.000000 0.000000 0.000000 36.739734 10.212947 -5.881332 30.861905 0.725121 -1.500528 156.754995 81.143251 152.213093 0.000000 0.000000 0.000000
0.122608 0.523342 0.507120 -7.041008 -5.427591 0.470378 5.199408 -0.118951 -2.568662 -3.462709 5.177903 105.550626 5.552470 -9.661016 -33.389881 0.000000 0.000000 0.000000 2.763884 2.959143 -22.259703 9.611757 -5.140590 115.932698 -6.658067 -10.200104 -32.316992 0.000000 0.000000 0.000000 -4.896560 0.185917 17.978807 17.638503 -4.732304 -18.615015 -3.617135 -13.830336 24.689015 -0.036191 -1.036338 -26.896007 0.000000 0.000000 0.000000 -35.148000 -3.831733 8.510518 -45.600739 -11.098963 -5.922732 12.451005 -67.444264 0.168362 0.000000 0.000000 0.000000 37.556239 10.606947 -4.469173 30.071201 2.684384 -1.225059 165.635321 80.799042 163.237250 0.000000 0.000000 0.000000
0.118444 0.515474 0.501625 -6.568213 -3.603927 0.590380 4.973361 -0.247838 -4.794877 -3.201385 2.908699 108.754424 5.187852 -10.615072 -33.020377 0.000000 0.000000 0.000000 2.883630 2.945985 -22.503493 9.019356 -6.190174 116.717376 -6.841502 -10.079744 -32.598517 0.000000 0.000000 0.000000 -5.075278 0.188519 19.576480 17.302187 -4.564008 -19.018621 -2.675953 -13.262484 24.650422 0.299514 -0.943150 -27.910362 0.000000 0.000000 0.000000 -35.211706 -4.438379 8.268514 -45.603421 -11.134085 -5.729757 13.830480 -70.121870 -0.992548 0.000000 0.000000 0.000000 37.163855 11.996458 -2.382902 30.427323 5.523653 -0.869537 -174.610471 81.699130 -173.186676 0.000000 0.000000 0.000000
0.115265 0.508551 0.496291 -6.223143 -2.217143 0.599492 4.892901 -0.380847 -7.300407 -3.391260 1.724233 111.879254 4.255209 -10.915995 -30.254168 0.000000 0.000000 0.000000 3.131587 2.965153 -22.717272 8.689330 -7.319190 117.716950 -6.769566 -8.602287 -31.999611 0.000000 0.000000 0.000000 -4.615818 0.068653 22.142850 17.706808 -4.652417 -19.183942 -2.305783 -10.880738 23.504023 1.071728 -0.789081 -28.316454 0.000000 0.000000 0.000000 -35.373455 -5.617248 7.585649 -45.729769 -9.121796 -5.895809 12.787359 -74.357012 -1.147002 0.000000 0.000000 0.000000 37.545900 12.648917 -0.077670 29.753419 8.299653 -0.647286 -157.738675 81.117841 -152.379301 0.000000 0.000000 0.000000
0.113660 0.502105 0.492507 -5.978418 -0.967857 0.446645 4.554692 -0.544529 -9.963627 -3.430786 0.278198 115.167227 2.311924 -11.269008 -24.090312 0.000000 0.000000 0.000000 3.372413 2.998153 -23.002916 8.492452 -8.538491 118.441276 -6.777381 -9.248556 -30.013656 0.000000 0.000000 0.000000 -3.913743 -0.149797 24.619372 18.117034 -4.833294 -18.920465 -2.224613 -8.724140 22.727066 1.698776 -0.545166 -29.843310 0.000000 0.000000 0.000000 -36.080498 -6.525984 6.867824 -44.779461 -7.923289 -5.766707 11.699584 -77.625312 -1.372589 0.000000 0.000000 0.000000 37.664789 13.849983 2.527069 28.225181 11.945107 -0.276840 -138.935006 80.405166 -129.479514 0.000000 0.000000 0.000000
0.113685 0.496912 0.491421 -5.507022 1.248202 0.493448 3.784789 -0.814648 -12.980473 -4.440693 -0.376822 118.013296 1.231387 -9.911216 -19.685711 0.000000 0.000000 0.000000 3.112062 2.913350 -23.458039 7.396480 -8.911056 118.903000 -6.281398 -6.102519 -27.422286 0.000000 0.000000 0.000000 -2.772564 -0.590207 26.848160 17.572883 -4.595577 -19.283807 -1.829157 -7.375262 21.947539 1.908072 -0.302111 -29.182187 0.000000 0.000000 0.000000 -37.552962 -7.169736 6.146136 -43.331594 -6.381400 -5.739490 7.704386 -81.355740 0.919241 0.000000 0.000000 0.000000 37.056425 15.295689 5.122257 27.056295 13.833219 -0.262325 -119.913096 77.645676 -105.082069 0.000000 0.000000 0.000000
0.114066 0.493479 0.492995 -4.875797 3.068947 1.074166 2.901411 -1.181796 -16.336785 -5.630686 0.124966 121.062371 -0.516759 -7.763812 -11.184829 0.000000 0.000000 0.000000 2.128698 2.743709 -24.393853 6.550342 -9.246042 119.187637 -5.682467 -5.279449 -22.943566 0.000000 0.000000 0.000000 -1.642206 -1.060437 28.466693 17.842684 -4.389783 -20.633524 -2.343727 -6.920385 21.339234 0.813803 0.436963 -28.288273 0.000000 0.000000 0.000000 -39.838256 -5.550340 4.140119 -41.561658 -3.507450 -6.204044 -28.956942 -85.128715 34.005096 0.000000 0.000000 0.000000 37.312290 16.021519 6.496707 24.307319 15.018377 -0.279731 -112.108811 77.559232 -96.326553 0.000000 0.000000 0.000000
0.113709 0.491553 0.495854 -4.086553 3.602355 1.344071 2.162338 -1.585463 -19.848955 -6.630237 2.230749 124.178281 -1.229955 -7.130413 -7.700269 0.000000 0.000000 0.000000 1.017879 2.538293 -24.831798 5.544959 -7.616051 119.205555 -4.752436 -3.559345 -19.036393 0.000000 0.000000 0.000000 -1.737832 -1.091015 29.088223 18.109207 -4.364698 -21.018274 -2.827976 -3.989129 20.987482 0.972222 0.890075 -28.796301 0.000000 0.000000 0.000000 -42.671704 -6.112628 2.683926 -38.212624 -0.968505 -5.941987 -84.433040 -85.704533 86.475152 0.000000 0.000000 0.000000 37.775945 15.005682 7.550053 22.179160 14.588998 -0.777131 -113.705316 76.215053 -95.960430 0.000000 0.000000 0.000000
0.111510 0.489006 0.498752 -3.434044 4.971961 0.807494 1.375133 -2.003533 -22.315666 -8.430454 5.589087 126.655176 -0.032459 -4.180973 -8.227994 0.000000 0.000000 0.000000 0.916819 2.362950 -23.937232 3.854525 -5.586319 119.419533 -3.602149 1.332155 -18.185285 0.000000 0.000000 0.000000 -2.356243 -1.120355 30.872764 17.836800 -4.161137 -21.745373 -1.988474 -2.928478 20.211000 1.271803 0.938254 -27.855906 0.000000 0.000000 0.000000 -44.042357 -4.580034 0.159940 -36.431907 0.678414 -5.753204 -119.586694 -83.534209 119.707650 0.000000 0.000000 0.000000 36.785554 14.402493 7.882516 22.008591 14.651298 -0.913199 -119.434101 74.137690 -99.630749 0.000000 0.000000 0.000000
0.107233 0.483559 0.501619 -2.481835 6.440721 -0.034742 0.458731 -2.570594 -25.137539 -9.402824 7.029191 128.840417 1.361920 -2.735575 -12.741353 0.000000 0.000000 0.000000 0.254978 1.984305 -21.704843 2.721624 -4.908198 119.919469 -2.306397 5.910185 -16.692380 0.000000 0.000000 0.000000 -2.799564 -1.188459 32.145822 15.249615 -3.229404 -22.978426 -0.732619 -2.592179 21.736578 2.615345 0.359886 -28.414069 0.000000 0.000000 0.000000 -44.697985 -5.396218 0.261458 -35.577587 -0.385002 -5.312811 -135.118166 -82.248376 135.283584 0.000000 0.000000 0.000000 35.213645 13.856333 7.970646 24.410242 15.435553 -1.023593 -120.195968 71.650841 -97.215465 0.000000 0.000000 0.000000
0.101478 0.479614 0.504522 -1.883619 7.780134 -0.752943 0.007213 -2.916917 -26.443031 -10.154594 7.628422 129.409057 2.848978 -4.153665 -23.004574 0.000000 0.000000 0.000000 0.346395 1.791189 -19.664886 1.127456 -3.073392 120.656160 -2.077866 9.947978 -18.710138 0.000000 0.000000 0.000000 -4.072005 -0.940823 31.981415 13.287883 -2.775582 -22.488274 0.150113 -2.224790 21.933187 3.693620 -0.056501 -28.521029 0.000000 0.000000 0.000000 -43.482156 -6.472716 0.589566 -36.255199 -1.256005 -5.022408 -141.520638 -82.032598 142.010207 0.000000 0.000000 0.000000 35.236966 13.829668 8.472918 24.941093 16.434886 -0.979931 -117.190950 69.288409 -90.969674 0.000000 0.000000 0.000000
0.094802 0.473500 0.507315 -1.435790 8.651073 -1.408673 0.001679 -3.090819 -27.247376 -10.610118 8.211787 130.335979 3.481658 -4.771243 -27.515724 0.000000 0.000000 0.000000 -0.074739 1.614744 -18.609397 0.289143 -2.195047 121.885833 -0.603370 11.993393 -15.230277 0.000000 0.000000 0.000000 -6.111587 -0.419505 31.262154 13.661427 -3.099439 -21.018996 -0.545835 -1.200102 21.658251 3.147545 0.544445 -29.145933 0.000000 0.000000 0.000000 -43.580402 -6.495613 -0.382370 -35.135965 -2.016895 -4.401036 -140.114842 -81.889726 139.808364 0.000000 0.000000 0.000000 35.603939 14.153534 9.475782 25.186538 16.497027 -1.116074 -111.538693 66.793786 -81.769251 0.000000 0.000000 0.000000
0.088314 0.469493 0.509947 -1.400364 10.097553 -2.127399 0.354654 -3.095468 -27.178226 -9.891898 4.325757 131.886774 3.316844 -7.679150 -30.376356 0.000000 0.000000 0.000000 0.392703 1.520100 -16.823159 -1.007850 -1.209935 121.648887 0.609721 14.220621 -13.043570 0.000000 0.000000 0.000000 -7.135511 -0.267942 30.509549 13.264566 -3.026627 -20.718165 -0.581260 -0.877732 21.869869 3.400373 0.646433 -29.866588 0.000000 0.000000 0.000000 -43.408737 -7.099684 -0.554237 -34.421941 -2.652292 -3.982398 -133.603552 -82.628213 132.804868 0.000000 0.000000 0.000000 35.404379 13.828496 9.793380 24.835808 16.442812 -1.275143 -104.359054 66.171581 -73.596879 0.000000 0.000000 0.000000
0.082830 0.466794 0.512427 -1.060487 11.409710 -2.651211 0.487079 -3.057171 -26.550729 -9.255946 0.184076 132.362286 2.321872 -10.172519 -28.747691 0.000000 0.000000 0.000000 0.408636 1.404593 -15.623519 -1.588223 -1.652847 121.593016 1.173140 15.722453 -12.356084 0.000000 0.000000 0.000000 -8.023470 -0.147900 29.901630 13.465602 -3.193450 -19.976930 -1.437044 -0.391813 21.011431 3.458284 0.855937 -30.201066 0.000000 0.000000 0.000000 -43.616754 -7.253770 -1.291079 -33.408864 -3.576562 -3.361247 -114.056222 -83.523911 112.196913 0.000000 0.000000 0.000000 35.557049 13.690386 10.283495 24.310741 16.302981 -1.383496 -97.157259 65.421269 -65.807123 0.000000 0.000000 0.000000
0.079149 0.466336 0.514910 -0.996106 12.481817 -3.146357 0.084558 -3.121267 -26.015818 -8.993871 -2.474565 132.723951 1.652316 -11.114403 -27.252806 0.000000 0.000000 0.000000 0.280131 1.278253 -14.379556 -2.164075 -1.892303 121.007870 0.572982 15.712920 -13.825879 0.000000 0.000000 0.000000 -8.422264 -0.134087 29.306674 13.035658 -3.013114 -20.222592 -1.607320 -0.660607 21.258113 2.854824 1.208689 -30.073809 0.000000 0.000000 0.000000 -44.556394 -7.752487 -1.194501 -32.291352 -4.206490 -3.047344 -88.286779 -84.999621 87.260764 0.000000 0.000000 0.000000 36.449609 14.017321 10.863803 22.619456 16.293000 -1.449165 -91.634894 65.042598 -60.702336 0.000000 0.000000 0.000000
0.076991 0.465851 0.517944 -0.702153 13.578420 -3.301446 -0.921511 -3.300843 -25.483619 -9.163917 -3.775258 132.737009 1.435500 -11.064750 -26.795781 0.000000 0.000000 0.000000 0.034623 1.168458 -13.542084 -2.746031 -2.053329 120.853565 0.287808 15.489437 -14.278855 0.000000 0.000000 0.000000 -8.606951 -0.174524 29.117537 13.146360 -3.059846 -19.973681 -2.353890 -0.420342 20.166948 3.034951 1.243756 -29.908389 0.000000 0.000000 0.000000 -45.798470 -7.963535 -1.792774 -30.701643 -4.317970 -2.637563 -54.020085 -84.118979 52.981926 0.000000 0.000000 0.000000 36.729722 14.623193 11.734361 21.439594 16.586902 -1.421293 -85.925231 63.388499 -54.309070 0.000000 0.000000 0.000000
0.076026 0.464319 0.521761 -0.570832 13.946457 -3.236136 -0.973411 -3.272127 -25.170017 -9.326698 -3.876171 132.391573 0.909189 -11.801027 -25.381947 0.000000 0.000000 0.000000 -0.857872 1.035870 -13.371911 -2.618864 -2.621258 121.520367 -0.130157 14.522091 -14.667158 0.000000 0.000000 0.000000 -8.963069 -0.079341 28.012146 13.755835 -3.248696 -20.029334 -3.308976 0.017635 19.381074 3.088609 1.291155 -29.317281 0.000000 0.000000 0.000000 -46.933049 -7.426941 -2.980386 -29.540066 -3.946062 -2.426687 -37.241183 -81.261792 35.533375 0.000000 0.000000 0.000000 37.707902 14.166443 11.911925 19.975366 16.690992 -1.453286 -84.443052 63.892273 -53.719362 0.000000 0.000000 0.000000
0.075267 0.461848 0.526274 -0.503523 14.880404 -3.118870 -0.987271 -3.300211 -25.073299 -9.573057 -4.606790 132.399428 -0.028077 -12.380565 -22.458825 0.000000 0.000000 0.000000 -1.598482 0.907604 -13.126514 -3.246134 -2.359127 121.803320 0.163107 15.047833 -14.049438 0.000000 0.000000 0.000000 -8.963767 -0.127738 27.438462 13.759618 -3.212500 -20.133217 -3.827697 -0.471331 19.126604 3.126714 1.381703 -30.450949 0.000000 0.000000 0.000000 -48.125497 -7.118168 -3.545107 -27.940801 -4.437933 -2.136392 -22.386780 -77.159011 21.000872 0.000000 0.000000 0.000000 37.477051 14.308898 12.016939 19.322666 17.062934 -1.393884 -80.713845 64.349878 -51.212328 0.000000 0.000000 0.000000
0.074243 0.458929 0.531274 -0.628556 15.503956 -2.943513 -0.744751 -3.175492 -24.507767 -9.863941 -4.747621 132.275331 -0.451640 -11.933163 -20.439342 0.000000 0.000000 0.000000 -2.129999 0.810250 -12.771318 -4.107805 -1.190240 121.969834 -0.060120 16.889689 -15.659990 0.000000 0.000000 0.000000 -8.878052 -0.146251 26.320369 13.857553 -3.287873 -19.786408 -4.219360 -0.347527 18.494324 4.074147 0.979945 -30.399065 0.000000 0.000000 0.000000 -49.086435 -7.259921 -4.010024 -26.435639 -4.648590 -1.847263 -15.576276 -71.802754 14.082884 0.000000 0.000000 0.000000 38.148528 14.153124 12.281240 19.438116 16.946815 -1.431393 -72.496235 65.229019 -45.522875 0.000000 0.000000 0.000000
0.072596 0.455523 0.536983 -0.646316 16.097067 -2.796497 -0.575138 -3.133460 -24.306389 -10.141334 -4.885142 132.351394 -0.857673 -12.161390 -19.227970 0.000000 0.000000 0.000000 -1.910753 0.809156 -12.371817 -4.558244 -0.964814 122.382422 -0.308493 18.122819 -16.851958 0.000000 0.000000 0.000000 -9.027276 -0.133747 25.843369 14.862743 -3.661822 -19.426983 -4.702569 0.146045 17.480432 4.188696 1.256411 -32.412194 0.000000 0.000000 0.000000 -49.461752 -6.877018 -5.096683 -24.736227 -3.680080 -1.725891 -13.078479 -67.102089 11.220827 0.000000 0.000000 0.000000 39.045342 13.785382 12.612203 20.011304 17.864507 -1.398797 -59.622348 65.458613 -35.980945 0.000000 0.000000 0.000000
0.070650 0.452293 0.543630 -1.185908 17.300844 -2.680915 0.158742 -3.033627 -24.239881 -10.805755 -4.777030 132.300502 -2.121646 -11.359269 -13.195881 0.000000 0.000000 0.000000 -1.240595 0.851669 -11.885124 -6.000421 0.414813 121.959348 1.284404 22.392766 -15.186592 0.000000 0.000000 0.000000 -9.280813 -0.159278 25.508681 15.351329 -3.727483 -19.930187 -4.953548 -0.134100 17.934056 5.003333 1.058444 -33.914756 0.000000 0.000000 0.000000 -49.520498 -6.237781 -6.024497 -23.393048 -3.948127 -1.550872 -13.806593 -63.781684 10.994673 0.000000 0.000000 0.000000 40.635743 13.384750 12.917794 20.622863 17.997252 -1.492671 -46.057002 63.183811 -25.343972 0.000000 0.000000 0.000000
0.068450 0.451436 0.551310 -1.522703 15.862868 -2.831247 1.379955 -2.662113 -23.697633 -10.320992 -4.246930 131.418564 -2.511625 -14.032236 -14.822499 0.000000 0.000000 0.000000 -1.849473 0.801903 -11.898854 -5.500820 1.112022 121.482002 2.141104 21.142578 -12.787147 0.000000 0.000000 0.000000 -8.534164 -0.265270 26.719251 13.702949 -2.998674 -21.235617 -4.330874 1.567642 17.547961 6.757934 -0.045371 -30.413747 0.000000 0.000000 0.000000 -47.722452 -7.069486 -5.505718 -24.918748 -3.428705 -1.646275 -9.248915 -58.600781 7.189914 0.000000 0.000000 0.000000 41.096566 12.449164 12.742043 22.874372 16.938166 -1.757761 -31.583021 59.241156 -14.702658 0.000000 0.000000 0.000000
0.066786 0.452414 0.559699 -2.874738 14.634371 -3.528261 2.493678 -2.248331 -22.537031 -10.434137 -2.575904 129.670915 -3.813570 -9.621932 -2.825707 0.000000 0.000000 0.000000 0.332490 1.014469 -10.940616 -5.879835 2.809127 119.895080 4.555959 20.941536 -7.187776 0.000000 0.000000 0.000000 -8.691041 -0.191608 26.690335 13.929462 -3.127093 -21.366152 -3.428348 1.164624 19.157901 4.637440 1.325713 -35.360100 0.000000 0.000000 0.000000 -46.898866 -4.318237 -6.988473 -26.710801 -3.685886 -1.971801 -5.042261 -56.774267 4.634477 0.000000 0.000000 0.000000 39.281561 13.828774 12.985989 27.321526 18.237552 -1.468297 -24.669980 52.124763 -8.961127 0.000000 0.000000 0.000000
0.065190 0.453410 0.568567 -1.864371 15.379127 -2.082820 2.085064 -2.327013 -22.410135 -10.936101 -2.436561 127.416289 -1.994797 -7.238401 -6.298690 0.000000 0.000000 0.000000 -1.662482 0.815788 -11.442052 -6.117956 2.068981 117.755376 5.870966 22.059439 -5.040275 0.000000 0.000000 0.000000 -7.406299 -0.480198 26.949128 10.607854 -1.728995 -24.377582 -2.338893 -0.290663 21.853689 1.316392 2.452514 -30.979122 0.000000 0.000000 0.000000 -48.715557 -6.319246 -4.735636 -24.725343 -3.413386 -2.132369 -0.729875 -54.063263 2.387751 0.000000 0.000000 0.000000 41.359733 14.142278 13.293024 26.355377 16.085335 -1.951996 -23.929305 46.747312 -7.771010 0.000000 0.000000 0.000000
