HIERARCHY
ROOT Hips
{
	OFFSET -0.001795 -0.223333 0.028219
	CHANNELS 6 Xposition Yposition Zposition Zrotation Yrotation Xrotation
	JOINT LeftUpLeg
	{
		OFFSET 0.069520 -0.091406 -0.006815
		CHANNELS 3 Zrotation Yrotation Xrotation
		JOINT LeftLeg
		{
			OFFSET 0.034277 -0.375199 -0.004496
			CHANNELS 3 Zrotation Yrotation Xrotation
			JOINT LeftFoot
			{
				OFFSET -0.013596 -0.397961 -0.043693
				CHANNELS 3 Zrotation Yrotation Xrotation
				JOINT LeftToe
				{
					OFFSET 0.026358 -0.055791 0.119288
					CHANNELS 3 Zrotation Yrotation Xrotation
					End Site
					{
						OFFSET 0.000000 0.000000 0.000000
					}
				}
			}
		}
	}
	JOINT RightUpLeg
	{
		OFFSET -0.067670 -0.090522 -0.004320
		CHANNELS 3 Zrotation Yrotation Xrotation
		JOINT RightLeg
		{
			OFFSET -0.038290 -0.382569 -0.008850
			CHANNELS 3 Zrotation Yrotation Xrotation
			JOINT RightFoot
			{
				OFFSET 0.015774 -0.398415 -0.042312
				CHANNELS 3 Zrotation Yrotation Xrotation
				JOINT RightToe
				{
					OFFSET -0.025372 -0.048144 0.123348
					CHANNELS 3 Zrotation Yrotation Xrotation
					End Site
					{
						OFFSET 0.000000 0.000000 0.000000
					}
				}
			}
		}
	}
	JOINT Spine
	{
		OFFSET -0.002533 0.108963 -0.026696
		CHANNELS 3 Zrotation Yrotation Xrotation
		JOINT Spine1
		{
			OFFSET 0.005487 0.135180 0.001092
			CHANNELS 3 Zrotation Yrotation Xrotation
			JOINT Spine2
			{
				OFFSET 0.001457 0.052922 0.025425
				CHANNELS 3 Zrotation Yrotation Xrotation
				JOINT Neck
				{
					OFFSET -0.002778 0.213870 -0.042857
					CHANNELS 3 Zrotation Yrotation Xrotation
					JOINT Head
					{
						OFFSET 0.005152 0.064970 0.051349
						CHANNELS 3 Zrotation Yrotation Xrotation
						End Site
						{
							OFFSET 0.000000 0.000000 0.000000
						}
					}
				}
				JOINT LeftShoulder
				{
					OFFSET 0.078845 0.121749 -0.034090
					CHANNELS 3 Zrotation Yrotation Xrotation
					JOINT LeftArm
					{
						OFFSET 0.090977 0.030469 -0.008868
						CHANNELS 3 Zrotation Yrotation Xrotation
						JOINT LeftForeArm
						{
							OFFSET 0.259612 -0.012772 -0.027456
							CHANNELS 3 Zrotation Yrotation Xrotation
							JOINT LeftHand
							{
								OFFSET 0.249234 0.008986 -0.001171
								CHANNELS 3 Zrotation Yrotation Xrotation
								End Site
								{
									OFFSET 0.000000 0.000000 0.000000
								}
							}
						}
					}
				}
				JOINT RightShoulder
				{
					OFFSET -0.081759 0.118833 -0.038615
					CHANNELS 3 Zrotation Yrotation Xrotation
					JOINT RightArm
					{
						OFFSET -0.096012 0.032551 -0.009143
						CHANNELS 3 Zrotation Yrotation Xrotation
						JOINT RightForeArm
						{
							OFFSET -0.253742 -0.013329 -0.021401
							CHANNELS 3 Zrotation Yrotation Xrotation
							JOINT RightHand
							{
								OFFSET -0.255298 0.007772 -0.005559
								CHANNELS 3 Zrotation Yrotation Xrotation
								End Site
								{
									OFFSET 0.000000 0.000000 0.000000
								}
							}
						}
					}
				}
			}
		}
	}
}
MOTION
Frames: 76
Frame Time: 0.050000
0.000000 1.267402 0.000000 9.373309 -57.631314 -16.218372 -12.997948 -0.962777 -4.583465 4.391691 -0.515721 2.914493 2.258812 8.763269 62.271286 0.000000 0.000000 0.000000 10.444536 0.082092 -4.039707 -7.730836 10.385059 32.481237 -18.464380 -23.973922 -6.423229 0.000000 0.000000 0.000000 -8.349516 2.532463 17.790597 66.241668 0.257254 -20.519164 -64.320483 -4.099786 -3.807544 20.817523 -15.014352 0.805800 0.000000 0.000000 0.000000 -10.692669 -43.190562 18.791674 12.536007 -0.736600 0.865328 7.218850 4.987768 0.208408 0.000000 0.000000 0.000000 -22.722659 55.047504 25.383304 -168.082076 63.405713 178.116812 -76.515448 16.869611 -3.226724 0.000000 0.000000 0.000000
0.007123 1.246644 0.020719 9.062789 -57.823602 -18.728568 -14.276041 -1.072047 -5.831229 7.365658 -0.929521 4.407910 -2.084581 8.153430 64.937794 0.000000 0.000000 0.000000 8.278026 0.018999 -3.578559 -1.066686 10.500530 37.534677 -17.190752 -29.681467 18.782617 0.000000 0.000000 0.000000 -8.021883 1.948514 16.429366 59.947477 4.149815 -30.870011 -56.777477 2.415987 15.488256 22.396122 -10.732957 -21.420408 0.000000 0.000000 0.000000 -28.091756 -40.894424 30.485544 14.044807 -8.971923 -0.023581 15.551216 11.097145 1.282657 0.000000 0.000000 0.000000 -5.111271 70.509175 41.215362 -170.047471 78.893009 161.003059 -65.611839 30.840551 -7.705174 0.000000 0.000000 0.000000
0.007424 1.189237 0.046115 16.242953 -69.164101 -25.772774 -15.146984 -0.617547 -2.981596 10.983354 -1.302440 -0.534834 -5.492307 7.246997 67.364576 0.000000 0.000000 0.000000 4.346535 0.062672 0.494391 2.827954 6.508834 28.991980 -13.472975 -22.406691 18.819830 0.000000 0.000000 0.000000 6.369372 -0.993014 9.480602 4.625760 6.593733 6.106945 -3.771987 -4.218759 -20.689989 6.919666 -0.984851 8.255861 0.000000 0.000000 0.000000 -84.311579 -36.880163 72.506850 7.763487 4.422455 1.803850 23.033882 4.984798 0.036571 0.000000 0.000000 0.000000 -94.490082 54.942760 13.273827 -147.891161 41.921736 -109.895424 -70.647037 -56.481944 58.739696 0.000000 0.000000 0.000000
0.002196 1.116772 0.075257 116.717948 -78.638241 -123.652099 -18.025479 -0.310585 -4.168240 16.090464 -0.935773 -1.678695 -11.087139 12.058395 73.020057 0.000000 0.000000 0.000000 -1.721602 2.139000 0.232651 1.366681 5.467540 22.294387 -17.256441 -17.043633 23.991768 0.000000 0.000000 0.000000 10.261434 -0.943125 8.565215 -6.566746 -3.593510 -22.149711 4.651645 3.170342 20.912594 5.510370 -5.900149 -19.053503 0.000000 0.000000 0.000000 -86.496516 -14.815498 78.128695 17.192295 -0.444380 3.093915 34.652695 31.455504 -0.830458 0.000000 0.000000 0.000000 -151.974937 8.871556 80.040238 -141.583579 -66.864034 103.121148 64.140649 28.442376 74.465886 0.000000 0.000000 0.000000
-0.005139 1.034138 0.107177 154.075180 -62.770714 -160.520619 -19.923294 0.064562 -4.239040 19.792486 0.063381 1.389852 -13.466575 11.770678 71.750062 0.000000 0.000000 0.000000 -6.779614 4.733683 -4.449921 -0.125350 6.177177 21.612150 -16.888837 -8.642541 23.809295 0.000000 0.000000 0.000000 16.613307 0.009148 10.880399 -16.535936 -9.284791 -36.934614 12.529604 -7.772037 43.974154 -12.268048 -17.124397 -59.842759 0.000000 0.000000 0.000000 -111.916541 -0.912123 82.682193 28.524938 4.898128 11.509969 11.017722 38.502428 -10.893089 0.000000 0.000000 0.000000 -164.337924 -9.795651 90.063800 161.059705 -68.188920 179.520932 43.961423 21.387309 47.811405 0.000000 0.000000 0.000000
-0.010340 0.957676 0.136050 162.964667 -43.546980 -167.355407 -20.497247 0.025969 -7.819347 18.123177 1.576218 6.044705 -5.225714 5.546890 71.628539 0.000000 0.000000 0.000000 -7.076094 5.881034 -12.213783 -9.758351 7.579160 20.480590 -22.590963 5.452141 10.592533 0.000000 0.000000 0.000000 23.371499 3.468845 15.270621 -27.312332 -0.348531 -35.123233 5.664876 -32.997970 33.962246 -11.646072 4.793260 -39.206038 0.000000 0.000000 0.000000 -128.221333 -2.420487 59.440840 35.198748 1.341286 11.589711 1.819094 30.351093 -7.963849 0.000000 0.000000 0.000000 -143.554943 -11.311222 74.519030 167.698163 -32.490908 176.300208 21.325748 4.626305 11.064643 0.000000 0.000000 0.000000
-0.009437 0.895834 0.157364 165.984366 -29.252509 -170.850049 -21.012211 0.124334 -8.361376 20.036456 3.851631 9.032445 -3.265068 1.314503 69.218191 0.000000 0.000000 0.000000 -5.386005 6.468056 -15.733211 -17.156375 6.921386 15.308815 -44.633930 14.496308 -7.980757 0.000000 0.000000 0.000000 25.424719 6.065216 22.712610 -17.778662 -10.833442 -51.484700 -35.319265 -46.246758 68.970280 5.217454 -21.513665 -69.892601 0.000000 0.000000 0.000000 -130.814798 -7.871939 35.891938 52.442315 -6.043254 14.072315 -2.748293 4.908139 -0.678506 0.000000 0.000000 0.000000 -155.404055 10.970083 82.125773 -150.483466 -14.129198 102.842588 2.354227 10.791609 0.605770 0.000000 0.000000 0.000000
-0.003530 0.856941 0.172889 167.254840 -27.152537 -172.230612 -20.882933 0.293311 -9.811360 24.035219 7.148239 13.574527 -2.856641 -0.838562 34.479943 0.000000 0.000000 0.000000 -2.600066 6.015847 -17.891373 -24.177972 9.568630 13.123454 -53.094253 13.627361 -27.190421 0.000000 0.000000 0.000000 31.873442 9.323296 28.198311 167.706829 28.525601 -150.869952 -162.038382 52.704392 -137.643709 11.165846 2.807539 -84.866519 0.000000 0.000000 0.000000 -124.128101 -33.345365 -36.261341 40.985566 -38.943892 -28.623848 -15.725199 0.057598 -3.201784 0.000000 0.000000 0.000000 -168.798921 22.853841 63.210601 -122.188400 -3.996705 -23.888628 32.327741 -11.264192 -4.229371 0.000000 0.000000 0.000000
0.003591 0.850857 0.185710 165.363755 -37.019982 -172.819670 -19.710024 -0.245876 -5.900696 24.633506 4.908824 10.412337 -136.936975 45.580246 -30.521869 0.000000 0.000000 0.000000 -5.539836 6.579483 -18.019982 -22.668573 11.532918 16.881599 -40.096916 20.227049 -23.244107 0.000000 0.000000 0.000000 38.240546 10.699565 29.795319 -3.353123 -34.844976 -120.047572 -61.373456 14.814924 106.070387 25.205270 19.584388 -77.932931 0.000000 0.000000 0.000000 -121.959707 -37.990777 -61.555076 23.614302 -53.226380 -14.945168 -14.673974 4.220525 -3.777808 0.000000 0.000000 0.000000 -176.701947 11.805378 110.193155 -132.423877 -60.767104 -135.361139 -18.600590 -6.679976 8.002103 0.000000 0.000000 0.000000
0.008886 0.868205 0.196654 164.314184 -48.018566 -174.865198 -17.198965 -0.185694 -0.349991 24.082336 2.431062 6.144354 -47.934463 25.234293 36.052782 0.000000 0.000000 0.000000 -8.734331 6.477516 -14.550588 -15.512307 9.983662 21.058980 -17.918864 12.548699 4.323863 0.000000 0.000000 0.000000 51.050522 16.682353 29.100329 41.117520 -27.712295 -176.376538 -29.803453 57.117793 102.752459 1.954056 23.502897 -92.559239 0.000000 0.000000 0.000000 -149.121877 -22.482925 -4.762280 61.364405 -41.029482 -20.379884 -5.496493 -1.764565 -0.934810 0.000000 0.000000 0.000000 -175.629792 9.797113 124.142654 -169.569363 -66.751845 -119.565384 -15.568808 5.980868 6.793582 0.000000 0.000000 0.000000
0.012487 0.898979 0.203732 160.103100 -57.877918 -170.930501 -14.759545 -0.009237 1.705902 19.281457 0.134597 2.862261 2.556308 -1.557645 51.737241 0.000000 0.000000 0.000000 -11.939310 7.127807 -14.236983 -9.529715 9.778651 24.661411 -14.965547 -3.697940 26.217120 0.000000 0.000000 0.000000 54.934769 17.073573 27.714837 26.336708 -19.136059 170.055912 43.721486 32.226511 174.096968 -7.720497 2.835230 -81.760771 0.000000 0.000000 0.000000 -151.087001 1.856904 20.493959 47.647186 -24.700137 -0.852894 7.694502 1.637238 -0.732226 0.000000 0.000000 0.000000 176.357638 28.350362 161.922387 113.710953 -25.998853 -17.673972 -14.007203 -6.598550 3.889887 0.000000 0.000000 0.000000
0.014462 0.922805 0.207018 147.685114 -72.961180 -160.693614 -11.684978 0.390741 4.115406 17.123785 -0.330305 4.751468 18.033006 11.176169 43.430927 0.000000 0.000000 0.000000 -17.278895 8.404432 -9.391401 -2.490101 6.632590 24.273802 -16.622808 -12.565423 31.141387 0.000000 0.000000 0.000000 56.662574 18.590522 20.024555 21.879551 -26.783176 157.160384 61.844340 -31.649362 179.216576 -21.925828 4.485400 -52.134465 0.000000 0.000000 0.000000 -125.544707 0.547815 9.574414 17.965474 -2.422015 1.528479 0.005398 -8.373364 -0.340289 0.000000 0.000000 0.000000 127.953497 45.278885 -95.699172 -89.982277 55.710263 -74.883169 17.666969 -41.792640 -0.673565 0.000000 0.000000 0.000000
0.013547 0.937460 0.210495 41.088397 -80.488062 -56.525276 -10.032126 0.641895 5.237305 15.811432 -1.008254 6.318400 15.739575 15.154391 30.469283 0.000000 0.000000 0.000000 -16.483758 7.050216 -0.125714 0.407226 5.251450 24.760960 -17.379465 -20.188136 32.082746 0.000000 0.000000 0.000000 50.390399 19.133356 6.360619 13.485130 -29.248000 152.059866 53.615947 -48.142821 -165.657228 -57.892763 15.972970 133.028947 0.000000 0.000000 0.000000 -101.885418 -7.074656 2.877910 10.054973 10.506686 0.792448 -5.456343 -20.970959 1.316036 0.000000 0.000000 0.000000 94.981682 25.389429 -10.580895 -1.989078 -31.798566 1.855850 3.934286 25.421280 0.327259 0.000000 0.000000 0.000000
0.009813 0.942551 0.217272 2.946248 -61.571573 -24.000658 -3.011649 1.263833 7.645695 8.269146 0.248984 14.669214 4.539369 19.030432 -4.803273 0.000000 0.000000 0.000000 -13.279398 4.942006 8.234172 7.125793 3.885323 27.952869 -9.999656 -20.608072 25.647133 0.000000 0.000000 0.000000 41.803824 21.561555 -6.547024 9.555425 -34.537691 145.935059 43.922065 -52.346048 -143.297423 -4.443356 -42.270808 112.737339 0.000000 0.000000 0.000000 -82.227415 -6.916573 1.435919 6.226914 7.389421 -0.232918 -11.150870 -24.931509 4.176936 0.000000 0.000000 0.000000 88.307254 15.485598 21.603140 17.634825 -4.636481 0.837848 -1.650374 15.216063 0.217172 0.000000 0.000000 0.000000
0.004707 0.949431 0.226482 -1.753766 -47.445725 -24.697713 0.492740 1.609640 9.175387 7.061176 0.818736 23.216220 0.034518 11.749350 -24.769128 0.000000 0.000000 0.000000 -12.431268 2.768651 7.073058 12.679563 3.372606 36.835116 -14.192758 -25.207131 5.056152 0.000000 0.000000 0.000000 31.557605 -3.551610 5.291020 1.733412 -45.384808 154.502032 48.972640 -64.529138 -179.084587 -3.719848 -28.745286 123.555143 0.000000 0.000000 0.000000 -66.599330 -16.696111 -7.078086 8.511253 12.273533 -1.826523 -22.699002 -18.213247 9.255745 0.000000 0.000000 0.000000 88.653076 -2.506577 57.601664 -2.040589 18.640868 -5.579057 -5.915276 13.439289 0.101209 0.000000 0.000000 0.000000
0.001071 0.949982 0.235362 -4.123139 -44.796590 -25.267846 4.748465 1.594080 6.761251 6.767009 2.605001 33.403062 0.439716 7.276742 -29.555884 0.000000 0.000000 0.000000 -9.187524 1.144292 0.910318 9.373408 5.014332 40.339160 -16.720428 -27.665551 -19.462176 0.000000 0.000000 0.000000 174.355751 4.418027 18.411550 0.088177 -12.956054 150.775896 172.369363 -7.435157 -179.100390 -58.251034 35.539797 92.567530 0.000000 0.000000 0.000000 -43.352184 0.345858 -18.164483 -12.098115 22.315789 0.497610 -37.598164 -16.319472 10.676823 0.000000 0.000000 0.000000 40.826667 -31.511091 85.606285 -6.306336 55.974716 -27.256816 -7.347801 17.402034 -3.656873 0.000000 0.000000 0.000000
0.001053 0.931407 0.241072 -3.104773 -40.135416 -31.537297 6.029534 1.381200 1.818453 12.642028 2.874673 54.041058 2.786446 -0.361327 -41.754555 0.000000 0.000000 0.000000 -11.499801 1.057024 -4.954706 9.983060 3.566467 37.728221 -16.575858 -31.189347 -29.486362 0.000000 0.000000 0.000000 -175.639630 -27.212790 -4.303021 1.003490 1.300534 156.875143 169.224849 16.440203 -179.925639 -25.567044 26.262211 115.648410 0.000000 0.000000 0.000000 -65.192627 -15.756641 -46.929995 19.693962 18.562333 5.512114 -41.227123 -0.852864 13.670424 0.000000 0.000000 0.000000 54.565726 -15.207270 65.891063 -3.433540 30.758516 -13.028610 0.915232 18.209325 -3.679623 0.000000 0.000000 0.000000
0.005550 0.906948 0.243130 3.052763 -42.020252 -41.523247 12.345120 3.292995 -4.212949 15.706493 4.982923 73.055934 5.552231 -6.586353 -45.709053 0.000000 0.000000 0.000000 -12.047886 1.176910 -10.136589 7.297833 1.258329 19.831098 -17.648496 -21.819919 -34.577134 0.000000 0.000000 0.000000 -55.530326 -71.681076 -133.385970 3.414138 2.294844 162.721668 89.393662 53.479400 132.386204 -13.740298 4.459904 118.916062 0.000000 0.000000 0.000000 -88.084990 -24.358932 -18.630725 17.080557 4.532787 2.303360 -30.006287 -13.664599 8.235937 0.000000 0.000000 0.000000 69.316434 9.581800 38.366844 -8.429476 8.350890 -0.123682 0.718082 21.921640 -2.998403 0.000000 0.000000 0.000000
0.009867 0.864584 0.247019 4.992929 -39.107504 -44.192780 11.965326 5.063423 -20.566933 21.637128 -3.370589 88.482844 7.895931 -15.489416 -47.881813 0.000000 0.000000 0.000000 -13.766235 1.573061 -17.707034 14.732901 0.111545 11.799941 -17.264361 -29.859611 -37.553901 0.000000 0.000000 0.000000 -65.677567 -73.537218 -120.382302 136.058001 73.161129 -81.078439 -163.998243 3.098719 -64.174000 -16.269619 33.359150 134.159411 0.000000 0.000000 0.000000 -64.124983 -56.019391 -34.841145 5.417248 -42.863394 28.240713 11.642278 -43.960160 16.366885 0.000000 0.000000 0.000000 30.306140 29.199241 72.841035 -75.421711 -11.758044 -0.362694 -30.154858 -5.640751 -3.931082 0.000000 0.000000 0.000000
0.008634 0.808998 0.260878 10.622986 -37.024401 -53.899017 15.179084 7.216807 -21.977686 19.315510 -4.804550 100.917386 12.622085 -17.214949 -57.433548 0.000000 0.000000 0.000000 -16.196451 1.883698 -23.619990 23.823676 -0.387873 28.442431 -13.352025 -40.179187 -47.922007 0.000000 0.000000 0.000000 -25.508541 -22.467468 -159.778209 144.449644 9.523091 -56.002725 -150.600885 -0.518833 -52.830198 -16.993676 9.433215 141.031111 0.000000 0.000000 0.000000 -45.053224 -58.141663 -22.705123 28.766902 -50.482549 -1.567868 11.362692 -42.155866 0.983502 0.000000 0.000000 0.000000 43.016909 30.371706 38.428653 -87.370818 11.280449 -14.832202 -31.439704 2.923895 -5.888474 0.000000 0.000000 0.000000
0.001749 0.736851 0.290860 15.277274 -33.310438 -62.661983 18.453384 10.583902 -27.621667 15.441685 -9.874951 116.717470 15.832112 -17.259573 -60.840043 0.000000 0.000000 0.000000 -19.625111 2.085785 -30.832316 36.663270 -4.827978 54.530450 -6.509278 -45.697122 -55.771315 0.000000 0.000000 0.000000 -23.546607 10.495971 -155.561637 132.198477 -56.958034 -28.775263 -122.057170 -21.378937 -74.112049 -15.345219 -11.114383 139.253984 0.000000 0.000000 0.000000 -57.197973 -53.502528 -27.501058 9.395468 -58.004328 28.905040 23.418714 -40.795223 2.069531 0.000000 0.000000 0.000000 38.406911 25.895211 44.151281 -89.490749 4.442639 -3.484120 -32.212021 -6.949913 -1.881382 0.000000 0.000000 0.000000
-0.009756 0.656063 0.336741 18.638017 -27.578650 -70.712173 20.574642 11.782331 -28.452648 15.917806 -26.191462 127.310336 16.318201 -35.583906 -57.991534 0.000000 0.000000 0.000000 -22.937406 1.927038 -37.552300 44.924088 -15.442789 74.161777 -0.163238 -48.393667 -64.855743 0.000000 0.000000 0.000000 -17.565716 38.581866 -140.234358 4.001039 -61.008727 109.800372 -98.594978 -30.365941 -98.104083 -15.320826 -25.526087 140.802456 0.000000 0.000000 0.000000 -88.369497 -35.557502 -2.358071 36.382689 -53.954446 106.050053 52.830949 49.480021 62.902572 0.000000 0.000000 0.000000 12.419177 36.134989 25.594759 -83.331986 9.231306 82.777172 9.818251 -31.448231 17.887060 0.000000 0.000000 0.000000
-0.025025 0.566101 0.397469 20.662703 -18.632486 -73.489907 18.990772 10.309556 -31.477207 16.836788 -39.202703 132.782507 11.814676 -48.778667 -47.504238 0.000000 0.000000 0.000000 -35.022344 -1.450674 -47.291511 47.863433 -31.169041 88.943709 1.010504 -40.676034 -73.705156 0.000000 0.000000 0.000000 6.229201 51.300847 -98.995867 -4.291721 -11.232732 118.298203 27.746671 -48.182854 -18.096133 -11.253220 -30.609437 123.879825 0.000000 0.000000 0.000000 -103.721944 -4.597763 22.130833 4.445695 30.890333 -0.267984 -41.345383 -23.190421 -0.826639 0.000000 0.000000 0.000000 42.790205 2.894505 -14.470601 -15.502840 -25.773153 4.975618 23.556514 24.572523 4.622020 0.000000 0.000000 0.000000
-0.042703 0.486676 0.468761 23.797646 -9.959286 -78.483266 22.845054 9.908914 -24.496450 31.695913 -56.317274 118.284641 -30.895771 -68.954110 3.835208 0.000000 0.000000 0.000000 -34.086426 -2.445674 -52.839878 39.333728 -34.847207 104.903916 1.605984 -38.222925 -84.315723 0.000000 0.000000 0.000000 27.734829 36.051060 -50.905696 2.245365 3.516313 86.535698 20.609542 -49.403842 -29.726275 2.920645 -23.762423 110.305283 0.000000 0.000000 0.000000 -103.018907 0.146109 43.064186 -15.372187 34.699756 -10.908434 -83.996375 -70.018230 48.890298 0.000000 0.000000 0.000000 24.963352 6.307410 5.537757 1.129701 -34.115219 0.890298 -3.983853 49.855409 -6.481101 0.000000 0.000000 0.000000
-0.058478 0.413281 0.539705 24.530952 -4.416488 -81.964821 28.357309 11.654876 -22.071630 28.152000 -47.857329 111.255728 -36.723003 -49.476681 19.891241 0.000000 0.000000 0.000000 -36.431115 -4.435895 -55.791022 60.452577 -50.876807 87.564604 1.280224 -36.146125 -91.307000 0.000000 0.000000 0.000000 28.636627 19.566217 -27.388108 -7.639568 9.857111 30.122377 -21.869217 -36.127382 20.428952 14.980749 -9.693775 78.194052 0.000000 0.000000 0.000000 -66.313135 -8.561220 56.874471 -58.398965 3.092692 -20.837973 -179.683259 -55.377848 -176.549822 0.000000 0.000000 0.000000 13.108616 17.762276 -4.156378 34.699332 -36.972192 -9.922891 -89.421001 59.401438 -68.261358 0.000000 0.000000 0.000000
-0.067163 0.351890 0.596147 23.379031 -2.004102 -81.368529 24.706665 10.909557 -29.286346 21.936479 -38.242432 111.003484 -28.262094 -45.467866 10.879758 0.000000 0.000000 0.000000 -31.977470 -3.732598 -58.564241 88.297958 -53.990446 59.187103 8.470498 -46.737023 -97.357344 0.000000 0.000000 0.000000 25.686786 13.623948 -20.408975 -11.488124 7.815888 8.860200 -25.605783 -30.160257 34.754998 -3.062881 7.406040 15.485167 0.000000 0.000000 0.000000 6.601957 -22.729241 9.210974 -98.212457 -23.057266 22.730386 116.090211 -67.908907 -82.282530 0.000000 0.000000 0.000000 -16.484073 12.975701 5.951641 75.141013 3.638909 -13.512732 -111.252460 52.834766 -96.604333 0.000000 0.000000 0.000000
-0.067733 0.298812 0.632667 23.248141 -1.582294 -79.412823 13.958371 5.223995 -31.821714 20.113017 -22.771391 97.656706 -9.312067 -31.983963 -12.887262 0.000000 0.000000 0.000000 -28.390555 -2.468658 -55.018853 75.481079 -45.769251 64.241931 10.858498 -55.506502 -87.726171 0.000000 0.000000 0.000000 26.097945 12.502576 -18.914665 -10.563830 6.206621 4.084962 -27.831471 -27.351177 37.232342 -5.785821 0.852623 -7.134777 0.000000 0.000000 0.000000 33.564921 -17.121519 -7.562840 -109.355248 -33.245917 59.259109 74.182700 -21.686710 -17.342994 0.000000 0.000000 0.000000 -24.967362 11.936265 9.696798 88.593932 22.367184 -13.092094 -100.362606 62.881315 -85.659541 0.000000 0.000000 0.000000
-0.063468 0.260933 0.652128 28.212962 -2.233340 -75.570906 1.203188 -0.631698 -36.530176 28.544246 -17.663787 74.582854 -17.654373 -27.127995 5.778217 0.000000 0.000000 0.000000 -26.832321 -0.520069 -55.383210 71.086547 -39.245089 63.334000 10.241836 -67.993454 -72.832963 0.000000 0.000000 0.000000 31.706423 14.041895 -16.131971 -19.104923 11.371234 2.651712 -19.489981 -18.358203 36.313001 -3.972976 2.696252 4.792710 0.000000 0.000000 0.000000 23.043543 -27.491971 0.538617 -90.234047 -44.531245 43.889138 73.743346 -17.815308 -7.148155 0.000000 0.000000 0.000000 -5.469086 9.083881 1.761558 78.577390 13.138451 -6.426377 -107.102578 57.746838 -83.647084 0.000000 0.000000 0.000000
-0.058080 0.238298 0.662651 28.723811 -3.707345 -74.194549 -2.713099 -2.384095 -35.195915 31.388523 -14.085115 52.220271 -13.048382 -16.187173 8.802486 0.000000 0.000000 0.000000 -24.248295 -0.153434 -46.818173 63.822228 -27.323051 58.120149 3.401011 -63.613483 -64.359908 0.000000 0.000000 0.000000 38.611998 16.123137 -12.577955 -20.642214 11.529720 -1.208780 -23.859370 -17.480796 38.905142 -1.110132 -0.567939 5.447254 0.000000 0.000000 0.000000 3.661869 -24.317585 8.573016 -67.114813 -41.522899 20.296533 79.970477 -39.741757 -20.184332 0.000000 0.000000 0.000000 -5.065470 8.437115 1.835996 80.280608 12.155578 -8.028793 -113.532514 58.732747 -86.661490 0.000000 0.000000 0.000000
-0.055022 0.227638 0.672829 31.391189 -6.031962 -72.531994 -4.826933 -2.839267 -35.939799 37.814286 -13.063604 38.317221 -19.155165 -8.315809 37.331265 0.000000 0.000000 0.000000 -24.051177 0.511597 -44.692487 64.162887 -22.855317 53.076645 5.320870 -59.597816 -71.407230 0.000000 0.000000 0.000000 45.211644 18.042077 -9.099549 -26.216717 16.782858 3.361578 -19.794083 -25.172510 35.440720 0.694898 -1.985068 6.001149 0.000000 0.000000 0.000000 -1.164206 -21.852380 10.323074 -54.420116 -27.473361 5.749107 85.846929 -54.468614 -34.582167 0.000000 0.000000 0.000000 -1.577875 9.038006 0.954385 73.480163 9.159936 -7.580890 -113.929154 61.529286 -98.020161 0.000000 0.000000 0.000000
-0.055191 0.231588 0.685607 36.481385 -8.897082 -74.157948 -4.195743 -1.757727 -34.622426 41.845306 -11.362314 34.695261 -25.903989 -3.855736 56.894731 0.000000 0.000000 0.000000 -21.527170 2.272623 -42.457062 58.348450 -14.795130 49.580658 1.683203 -60.131384 -63.608639 0.000000 0.000000 0.000000 48.338381 16.071964 -1.231014 -22.584934 12.637313 -3.482916 -24.216719 -16.793618 34.525835 4.068063 -4.933833 8.896879 0.000000 0.000000 0.000000 14.718915 -22.974982 2.592825 -67.423656 -7.103452 -0.676763 97.012701 -64.105222 -51.380191 0.000000 0.000000 0.000000 1.515847 5.617772 -0.560535 66.948632 6.069839 -6.488276 -122.772743 65.151548 -111.612560 0.000000 0.000000 0.000000
-0.057043 0.238180 0.700233 38.988814 -7.603280 -75.449493 -7.574257 -3.087340 -35.424111 45.527165 -12.008632 36.113020 -27.765833 -2.884484 60.890587 0.000000 0.000000 0.000000 -25.635670 1.298849 -40.821828 63.687623 -14.593439 46.367021 6.107861 -59.765818 -72.361516 0.000000 0.000000 0.000000 52.119870 16.593057 2.156196 -28.837266 15.358945 -7.930476 -22.770158 -15.121101 41.078141 4.603026 -7.466348 -0.073652 0.000000 0.000000 0.000000 10.165233 -23.191639 4.160241 -60.535995 -0.899611 -6.422717 108.540315 -57.077517 -53.152766 0.000000 0.000000 0.000000 6.339594 2.663624 -2.780154 62.102488 4.674289 -6.397107 -128.191675 64.002398 -112.451910 0.000000 0.000000 0.000000
-0.060168 0.246054 0.713310 40.883952 -8.449582 -76.352124 -4.705413 -1.295088 -36.305583 46.879439 -12.694039 39.029996 -30.694714 -3.903491 62.202204 0.000000 0.000000 0.000000 -24.733428 2.316719 -42.515350 61.839123 -15.060628 50.253260 8.674551 -57.870223 -79.053227 0.000000 0.000000 0.000000 53.571278 18.302682 0.682512 -21.329733 13.281211 1.540350 -30.723594 -22.745611 34.073158 -0.163168 -1.590085 1.080493 0.000000 0.000000 0.000000 16.106581 -18.450815 0.329924 -67.637194 10.592270 -8.957208 90.387654 -63.873759 -44.567885 0.000000 0.000000 0.000000 -7.097142 16.691173 5.088461 71.098041 10.739630 -6.676766 -115.274733 57.892983 -101.835218 0.000000 0.000000 0.000000
-0.063781 0.251284 0.723171 43.173660 -8.893297 -77.315280 -0.618562 0.910872 -35.436362 41.347997 -10.798364 40.132020 -29.437614 -5.053254 59.502847 0.000000 0.000000 0.000000 -24.138434 2.977237 -41.964299 57.917129 -12.632123 51.781530 5.676519 -54.211816 -76.118018 0.000000 0.000000 0.000000 54.519999 18.279412 1.937995 -20.317718 11.281645 -2.895073 -29.854138 -16.233553 35.435590 -0.970643 -2.226288 -6.054253 0.000000 0.000000 0.000000 10.940504 -22.969265 3.899070 -61.901327 14.123874 -12.373137 72.019188 -58.882336 -31.151882 0.000000 0.000000 0.000000 -8.429420 7.975260 3.593829 71.186137 11.514826 -7.351191 -115.023166 63.041760 -100.439904 0.000000 0.000000 0.000000
-0.067127 0.253271 0.729475 41.241390 -9.899826 -76.883734 0.941773 1.964281 -37.003906 42.233474 -11.557975 38.855759 -32.751932 -6.841109 59.488095 0.000000 0.000000 0.000000 -24.036396 2.864437 -41.752628 62.014872 -16.537979 54.939599 10.327703 -55.866239 -84.030636 0.000000 0.000000 0.000000 56.049292 19.761908 0.375316 -20.389145 11.889930 -0.761161 -30.456763 -18.374518 37.048981 -1.834222 -0.917984 -0.894446 0.000000 0.000000 0.000000 3.993452 -20.453565 6.198115 -57.729926 16.751221 -14.220253 65.832880 -69.649550 -34.935509 0.000000 0.000000 0.000000 -5.083801 6.218191 1.983390 70.470422 9.554927 -8.130796 -105.605856 62.551377 -88.784558 0.000000 0.000000 0.000000
-0.069254 0.255823 0.733287 42.327236 -10.454017 -75.524686 4.767838 3.863813 -35.926416 34.578920 -9.140350 35.803335 -32.126730 -6.523190 58.560131 0.000000 0.000000 0.000000 -23.810034 3.572536 -44.923132 60.806692 -19.433852 61.438002 11.625840 -56.292788 -85.712655 0.000000 0.000000 0.000000 56.129500 20.215848 -0.065937 -18.615285 11.188786 0.715075 -31.958132 -18.790324 33.667356 -0.438795 -1.397407 1.072402 0.000000 0.000000 0.000000 -1.304188 -19.399248 8.630475 -58.140430 19.440582 -16.228223 50.520875 -79.867864 -30.581807 0.000000 0.000000 0.000000 -9.012582 9.516191 4.101653 76.537806 9.265083 -10.861381 -95.745920 65.154985 -80.250429 0.000000 0.000000 0.000000
-0.070244 0.258061 0.737797 45.114670 -10.924199 -75.425105 9.003139 6.139801 -33.927509 25.115255 -5.889312 36.283203 -26.527653 -4.110061 58.143833 0.000000 0.000000 0.000000 -26.365481 4.681191 -50.301352 62.976035 -23.926056 66.114223 12.740331 -58.937953 -82.722880 0.000000 0.000000 0.000000 58.070342 20.093607 2.412551 -22.752008 13.602150 -1.202970 -30.138285 -18.985884 35.504236 0.235710 -2.905074 -3.051176 0.000000 0.000000 0.000000 -3.670013 -18.432221 9.513008 -59.227019 20.628451 -17.513763 -35.232345 -82.629135 44.022980 0.000000 0.000000 0.000000 -11.798075 8.848413 4.911824 86.068604 11.124660 -14.074232 -64.708556 73.492109 -57.998732 0.000000 0.000000 0.000000
-0.069128 0.260247 0.744250 43.360311 -11.304479 -75.964060 11.052680 7.533171 -34.732951 21.888881 -5.126266 42.378776 -26.593821 -3.114128 59.290721 0.000000 0.000000 0.000000 -25.695981 4.573485 -50.267475 60.007339 -25.533967 71.628314 10.370083 -59.275590 -77.506684 0.000000 0.000000 0.000000 58.795986 21.489603 1.046490 -22.278700 13.920320 0.926057 -30.882532 -23.548438 36.409184 -1.187800 -1.670669 -2.664528 0.000000 0.000000 0.000000 -11.772613 -16.709678 13.667416 -57.957087 20.129442 -18.180101 -110.123647 -77.305430 112.915683 0.000000 0.000000 0.000000 -15.191055 7.594563 6.129066 90.072599 12.749178 -17.039642 -26.733937 78.483498 -29.122116 0.000000 0.000000 0.000000
-0.066834 0.272885 0.752032 40.753838 -11.937454 -76.931533 11.155361 7.221107 -33.944747 24.635224 -6.644252 50.324713 -31.335687 -3.734309 61.490822 0.000000 0.000000 0.000000 -25.602775 3.862468 -48.629820 59.526747 -27.559452 75.186281 7.251473 -56.854804 -72.340867 0.000000 0.000000 0.000000 58.622379 22.967143 -0.668675 -19.894386 13.220063 3.931944 -33.017953 -29.781018 36.977063 -2.674942 -0.103116 -2.162174 0.000000 0.000000 0.000000 -23.620574 -13.546963 20.088180 -47.374660 17.725918 -16.220935 -132.322308 -71.004419 129.268229 0.000000 0.000000 0.000000 -11.868034 9.431341 5.261833 85.271166 7.954333 -19.375775 22.642039 84.880850 9.087505 0.000000 0.000000 0.000000
-0.064363 0.278028 0.762291 36.658624 -12.369460 -77.508145 11.404673 6.444665 -31.934178 34.585095 -13.666112 60.479228 -52.693641 -23.801097 52.305839 0.000000 0.000000 0.000000 -25.931077 2.572478 -46.176483 62.740728 -32.305331 76.203570 6.437694 -52.993619 -73.430898 0.000000 0.000000 0.000000 56.847090 25.346130 -5.287625 -17.240749 13.433668 11.705577 -31.320078 -37.037181 34.995576 0.454069 -0.838260 3.084914 0.000000 0.000000 0.000000 -33.808521 -14.398500 28.985251 -43.772328 14.918091 -15.774636 -135.159108 -66.102460 122.849791 0.000000 0.000000 0.000000 -11.848941 6.741211 4.688296 80.031117 6.435604 -18.935994 89.559305 78.815259 62.168939 0.000000 0.000000 0.000000
-0.062435 0.281338 0.775598 32.302859 -13.297566 -77.211261 13.090392 6.862787 -30.829324 41.461652 -21.544518 67.448585 -58.224335 -51.649292 33.979273 0.000000 0.000000 0.000000 -24.247619 2.102763 -44.619795 63.916456 -34.976272 76.484293 7.232344 -53.417987 -75.616896 0.000000 0.000000 0.000000 55.299425 26.173564 -7.762149 -14.914877 14.142430 19.315788 -27.896242 -44.246754 27.082336 5.944925 0.606288 16.716058 0.000000 0.000000 0.000000 -43.260346 -15.569541 37.270675 -37.864906 9.587055 -13.138494 -141.265901 -66.828620 124.752608 0.000000 0.000000 0.000000 -3.719657 7.291629 1.221725 66.420150 -1.863296 -14.246942 152.695749 69.183541 114.251427 0.000000 0.000000 0.000000
-0.061454 0.281175 0.792453 28.023646 -12.406865 -78.415620 14.105193 6.931617 -30.341951 47.937372 -30.627775 70.583329 -34.518772 -65.667429 0.646429 0.000000 0.000000 0.000000 -24.867906 0.591405 -41.702327 61.640464 -37.601142 80.805011 5.050857 -46.194367 -78.772828 0.000000 0.000000 0.000000 49.910595 25.825988 -12.277300 -10.899859 12.700113 27.757243 -23.525830 -48.410000 21.875473 9.000150 0.638259 22.953545 0.000000 0.000000 0.000000 -49.953287 -14.231705 42.209601 -31.330145 3.047404 -10.202105 -141.438109 -68.424889 123.146879 0.000000 0.000000 0.000000 -2.150065 7.609442 0.657998 59.090781 1.744832 -8.958167 173.345894 50.368471 133.271541 0.000000 0.000000 0.000000
-0.060760 0.274954 0.811475 25.206014 -12.779073 -79.490076 16.740472 9.187609 -33.992586 54.399831 -38.848308 70.985531 -8.207407 -70.436323 -30.781011 0.000000 0.000000 0.000000 -25.476340 0.360358 -43.967417 57.765860 -39.115136 86.050660 3.408401 -42.970956 -77.472221 0.000000 0.000000 0.000000 45.888052 23.984091 -13.360880 -6.673680 9.364877 30.611271 -22.090363 -46.897714 17.572330 11.901951 -2.441484 22.560023 0.000000 0.000000 0.000000 -47.279130 -16.167261 40.801100 -33.422608 -1.134566 -9.374019 -136.320839 -69.889274 122.539811 0.000000 0.000000 0.000000 -1.677032 7.743596 0.734365 55.574913 10.045229 -4.167403 179.682671 42.464799 150.978677 0.000000 0.000000 0.000000
-0.058819 0.264073 0.829561 21.547716 -13.531336 -81.835319 16.223172 10.445646 -40.486990 61.215494 -43.525688 66.402917 -2.610991 -72.045595 -36.698130 0.000000 0.000000 0.000000 -25.852425 -0.007319 -45.747872 53.910207 -38.880168 90.474305 1.278702 -39.358090 -73.092312 0.000000 0.000000 0.000000 43.937026 21.631447 -11.125123 -2.538750 5.178958 32.473422 -20.419294 -44.581014 11.589359 16.162606 -6.335054 23.180803 0.000000 0.000000 0.000000 -49.394539 -17.374418 41.307322 -28.225622 -5.176175 -6.979062 -136.628572 -71.109415 123.150472 0.000000 0.000000 0.000000 -1.232284 9.333218 1.342237 55.054327 23.196583 1.488318 -167.262584 48.760074 -175.190570 0.000000 0.000000 0.000000
-0.054245 0.244904 0.844981 19.352661 -14.676491 -82.816554 15.222315 13.511065 -53.297761 54.920428 -44.936235 71.281980 6.047751 -64.640415 -45.362919 0.000000 0.000000 0.000000 -24.978007 0.604171 -48.654192 53.255049 -39.830761 91.364029 2.145993 -40.686364 -77.098477 0.000000 0.000000 0.000000 42.939566 19.994733 -9.540395 2.320187 -0.694956 29.118151 -29.495963 -35.171104 16.676031 18.281836 -11.972460 25.295109 0.000000 0.000000 0.000000 -45.779534 -20.886828 36.807727 -29.397328 -8.463024 -5.721677 -117.747780 -70.536662 103.765111 0.000000 0.000000 0.000000 4.581164 14.220463 0.850556 48.251594 31.658337 6.030691 -129.912979 60.127071 -116.214904 0.000000 0.000000 0.000000
-0.048726 0.230440 0.856919 17.231379 -14.392572 -82.979478 11.285093 13.700460 -67.092552 41.660497 -42.625041 81.142603 9.942819 -53.215944 -49.277565 0.000000 0.000000 0.000000 -31.080956 -1.445610 -53.563191 56.597205 -43.900596 88.511728 3.416553 -47.761433 -72.619402 0.000000 0.000000 0.000000 45.367063 17.291223 -2.952804 -0.093049 0.259053 23.035391 -31.258746 -30.861106 21.254745 21.267896 -16.824460 28.057608 0.000000 0.000000 0.000000 -42.247603 -24.600241 35.153168 -30.396431 -13.571433 -4.259472 -104.982192 -77.926373 98.294847 0.000000 0.000000 0.000000 10.635893 20.294347 1.517417 36.879978 35.298951 6.156002 -78.598126 57.917663 -56.284620 0.000000 0.000000 0.000000
-0.047344 0.226208 0.866470 18.156561 -14.010198 -83.958725 10.380071 14.864817 -72.643876 21.362971 -26.508816 89.679616 6.276068 -25.630277 -41.226416 0.000000 0.000000 0.000000 -32.392990 -1.592146 -55.603822 55.330394 -41.426843 88.122251 2.520808 -52.206475 -65.743118 0.000000 0.000000 0.000000 49.671189 17.546860 1.298886 -3.630236 4.945017 35.303920 -20.846915 -38.515225 12.905194 21.221839 -13.424689 22.631882 0.000000 0.000000 0.000000 -46.996523 -27.813035 43.421530 -24.384542 -20.381044 -3.118017 51.823764 -78.486119 -41.842548 0.000000 0.000000 0.000000 8.887737 23.861846 2.816583 30.809598 40.780258 5.751704 -48.880420 36.970031 -21.913226 0.000000 0.000000 0.000000
-0.052807 0.227920 0.873292 17.916041 -14.180972 -83.115705 11.183019 17.218012 -78.022853 15.337698 -23.194369 93.258594 5.432497 -21.013443 -38.327860 0.000000 0.000000 0.000000 -38.808106 -3.789019 -56.836343 50.438771 -38.859007 91.827410 -0.746633 -50.818104 -57.389610 0.000000 0.000000 0.000000 49.185773 13.509646 8.805584 -0.534029 0.793206 43.387957 -20.029036 -36.485997 -2.560718 26.398075 -17.121552 32.487986 0.000000 0.000000 0.000000 -51.136113 -31.013224 48.569793 -20.737747 -19.731947 -2.302339 44.918856 -67.175074 -30.116944 0.000000 0.000000 0.000000 18.052287 29.925704 3.539510 19.528644 31.612626 4.563525 -36.031362 25.855221 -9.909712 0.000000 0.000000 0.000000
-0.064005 0.245241 0.875403 15.017732 -14.997760 -77.969373 12.898874 19.948815 -86.051708 14.149786 -33.973452 108.350520 3.749544 -33.407016 -36.073923 0.000000 0.000000 0.000000 -44.102102 -6.146583 -55.570213 32.097030 -22.075181 102.942244 -6.306565 -35.536952 -41.555552 0.000000 0.000000 0.000000 54.006333 12.112512 14.290712 -1.568435 8.661526 73.679107 16.005150 -41.525643 -49.045903 38.829805 -17.413960 32.932862 0.000000 0.000000 0.000000 -59.391955 -33.808165 69.096905 -10.979432 -24.251938 -2.689988 50.807231 -48.306171 -27.475323 0.000000 0.000000 0.000000 12.320134 29.457881 3.920426 12.749276 26.612849 5.035243 -26.672816 17.064260 -5.193585 0.000000 0.000000 0.000000
-0.078591 0.261827 0.870924 11.830020 -15.959236 -70.400268 19.257140 24.310057 -84.368950 13.354765 -41.690323 116.143368 -4.608869 -40.965330 -21.860759 0.000000 0.000000 0.000000 -46.394818 -7.457689 -53.599558 26.973632 -14.340051 98.036705 -9.299030 -29.991089 -21.893403 0.000000 0.000000 0.000000 60.273798 10.544722 18.582723 -2.018078 4.936263 95.903607 35.836091 -38.187450 -76.673996 48.269002 -11.661988 29.586584 0.000000 0.000000 0.000000 -49.973547 -38.576300 75.949378 -1.506012 -28.686570 -3.444196 49.898672 -23.633220 -15.159512 0.000000 0.000000 0.000000 9.299704 30.116779 3.408984 7.446575 26.371017 4.143831 -18.169508 8.818046 -2.053476 0.000000 0.000000 0.000000
-0.094585 0.288027 0.859161 10.825722 -17.329957 -61.540067 28.960549 30.140290 -74.242403 14.171757 -44.427285 116.309043 -22.332771 -46.802315 4.169639 0.000000 0.000000 0.000000 -52.036757 -8.735538 -52.956283 31.268665 -18.576724 88.195630 -10.594043 -31.631709 -16.990313 0.000000 0.000000 0.000000 70.166225 -3.046490 38.022004 -5.162771 39.061300 109.841635 82.263848 -20.819584 -90.150172 52.660208 0.336811 23.166928 0.000000 0.000000 0.000000 -34.227490 -39.267018 81.577311 19.622049 -33.462212 -9.013791 45.411471 0.060692 -5.287831 0.000000 0.000000 0.000000 5.650901 27.811702 6.879658 -6.662130 24.317179 -3.708445 -8.651559 11.797826 -1.836498 0.000000 0.000000 0.000000
-0.111637 0.325554 0.842092 7.955733 -20.247701 -50.521395 37.931380 32.389304 -61.708029 11.415948 -34.109941 110.927086 -16.764074 -35.380455 1.749393 0.000000 0.000000 0.000000 -56.509025 -8.967836 -51.278015 35.799224 -19.774360 73.376174 -13.851840 -33.749167 -0.580733 0.000000 0.000000 0.000000 59.851141 -16.850034 57.775526 -12.201005 66.606516 104.722667 101.547080 -10.148558 -91.697947 51.697610 12.929236 22.151345 0.000000 0.000000 0.000000 -20.283490 -35.691342 82.171852 30.895366 -32.461355 -10.691754 36.101836 11.654303 -0.243583 0.000000 0.000000 0.000000 1.725096 27.021723 7.015050 -10.488985 22.205161 -6.117034 -1.950723 12.853529 -1.262769 0.000000 0.000000 0.000000
-0.128050 0.377143 0.822016 4.329902 -21.075385 -39.574639 47.868981 32.342997 -48.914077 3.563541 -15.332751 102.750970 -5.600695 -23.779976 -13.104512 0.000000 0.000000 0.000000 -57.580543 -8.894644 -49.563609 44.593171 -22.072457 58.248791 -20.304808 -39.992693 14.520061 0.000000 0.000000 0.000000 40.217308 -23.247187 83.030028 -127.389759 26.488478 -49.982772 145.044388 -61.916022 -72.954906 33.985390 3.998334 4.265954 0.000000 0.000000 0.000000 -17.074511 -29.999755 78.828787 36.015622 -24.210732 -8.800784 24.076451 20.872335 1.696438 0.000000 0.000000 0.000000 4.098954 38.169895 -9.200981 -14.741061 17.834657 -8.924747 0.124645 13.517130 -1.334291 0.000000 0.000000 0.000000
-0.141315 0.425817 0.803301 2.931216 -22.314875 -28.864381 47.669285 29.122308 -43.242907 4.835265 -10.291789 91.841098 -4.313118 -26.288913 -18.287721 0.000000 0.000000 0.000000 -57.376693 -7.928079 -49.247205 44.656188 -18.917910 48.443848 -19.932139 -37.056105 23.738592 0.000000 0.000000 0.000000 27.380101 -16.410869 91.453029 -45.517878 -0.691092 -59.819027 -9.485366 -28.203054 50.860807 13.441503 -24.557180 37.290618 0.000000 0.000000 0.000000 -46.100736 -40.286630 43.493972 16.087022 -14.538082 -0.672393 16.738712 -9.711346 -1.805484 0.000000 0.000000 0.000000 40.340446 39.023491 16.336433 -24.958557 11.823811 -0.898226 -7.712889 16.347989 -0.758737 0.000000 0.000000 0.000000
-0.151390 0.465802 0.789758 0.029537 -24.887381 -18.929809 48.360370 27.762104 -38.242997 4.947117 -6.395757 84.986518 -0.996329 -22.127979 -23.847097 0.000000 0.000000 0.000000 -54.614808 -6.209196 -50.749166 41.956377 -15.195722 41.833660 -14.817840 -30.770187 25.585196 0.000000 0.000000 0.000000 20.563829 -9.356839 93.962338 -22.295378 -1.654571 -55.033075 -10.075579 -9.732892 34.501732 8.666809 -21.830161 30.397520 0.000000 0.000000 0.000000 -43.173959 -43.458240 36.212954 9.651322 -13.157400 -0.303802 10.270280 -10.470468 -0.864024 0.000000 0.000000 0.000000 39.958169 37.473427 23.276527 -19.013352 14.788481 -0.668369 -9.112732 14.404437 -0.808182 0.000000 0.000000 0.000000
-0.159076 0.501135 0.781046 -2.341866 -25.401701 -13.615474 45.104084 24.927693 -37.109379 7.350165 -6.039062 78.156461 -1.046363 -17.036739 -20.497274 0.000000 0.000000 0.000000 -50.597034 -4.880181 -51.263119 41.983292 -13.326210 36.760244 -20.081455 -36.433411 31.130553 0.000000 0.000000 0.000000 15.826430 -4.162786 93.241473 -9.749372 -0.050836 -43.766952 -11.245901 -3.443796 23.044250 14.977194 -19.987918 5.858149 0.000000 0.000000 0.000000 -37.313097 -44.442945 30.804815 5.615864 -15.507431 -0.775905 7.928672 -11.096760 -0.528990 0.000000 0.000000 0.000000 33.939533 39.619514 24.690172 -12.466319 17.996690 -1.399882 -11.127287 11.619213 -0.748150 0.000000 0.000000 0.000000
-0.163521 0.530266 0.775948 -3.326480 -25.253657 -10.170274 44.897109 23.819452 -35.892784 6.458667 -4.137830 73.298643 -0.082757 -8.927900 -15.500594 0.000000 0.000000 0.000000 -49.489165 -4.393748 -50.365710 42.942157 -13.164966 35.153890 -22.096247 -38.910845 30.085231 0.000000 0.000000 0.000000 13.399148 -1.568768 90.646556 -6.824463 0.220610 -40.522097 -10.380513 -2.386423 21.579956 16.557288 -15.249969 -9.030776 0.000000 0.000000 0.000000 -35.710632 -43.436526 29.327245 3.609414 -17.160146 -0.981904 9.437223 -11.169088 -0.653770 0.000000 0.000000 0.000000 33.071125 39.820377 24.701211 -10.168475 23.312992 -2.267347 -12.922032 9.744321 -0.711448 0.000000 0.000000 0.000000
-0.165473 0.563107 0.772734 -3.921245 -25.489310 -8.248469 45.683949 21.511413 -30.802824 4.520572 -1.310209 67.708400 1.620139 -1.375003 -11.066279 0.000000 0.000000 0.000000 -46.642445 -3.197637 -48.409531 40.042047 -11.399710 34.451802 -19.937442 -36.840860 28.907148 0.000000 0.000000 0.000000 11.699779 0.231641 88.693841 -7.633358 0.283690 -40.403907 -8.214538 -2.110276 22.847405 15.192074 -11.880191 -15.470451 0.000000 0.000000 0.000000 -36.022925 -43.813904 30.219998 3.476035 -18.061887 -1.108075 8.482106 -12.907874 -0.664133 0.000000 0.000000 0.000000 32.158283 40.862856 24.902064 -8.566066 24.787478 -2.385672 -14.008556 9.909578 -0.802940 0.000000 0.000000 0.000000
-0.165703 0.592488 0.771550 -3.172017 -24.987798 -8.233326 44.596637 18.306188 -26.397762 1.034859 1.971054 60.558703 8.394271 14.844657 -6.850218 0.000000 0.000000 0.000000 -43.957994 -2.492390 -46.454954 37.123030 -10.171049 35.061228 -21.172797 -38.275522 28.855627 0.000000 0.000000 0.000000 10.609434 0.920028 85.791733 -8.408250 0.448588 -39.984876 -8.080697 -1.936880 22.518612 14.397779 -10.340468 -18.909101 0.000000 0.000000 0.000000 -36.205670 -43.424605 30.296531 1.957547 -20.038933 -1.277132 7.951563 -13.548107 -0.641963 0.000000 0.000000 0.000000 34.508438 40.435255 25.334249 -7.634512 25.646145 -2.405596 -13.065105 8.841761 -0.616609 0.000000 0.000000 0.000000
-0.165278 0.628843 0.772792 -2.722062 -24.827844 -8.220608 42.381741 14.897485 -21.797589 -1.083967 3.500513 52.936211 19.417011 32.362223 5.064564 0.000000 0.000000 0.000000 -39.327591 -1.321300 -43.930506 31.537058 -7.687562 34.926203 -19.204050 -36.432578 27.131451 0.000000 0.000000 0.000000 9.573402 1.502899 81.340429 -8.903799 0.374721 -40.441082 -7.558604 -1.071585 23.071766 15.381683 -10.953417 -20.268593 0.000000 0.000000 0.000000 -37.507154 -42.279333 30.263459 -0.501122 -20.503962 -1.282464 6.965750 -13.336593 -0.525145 0.000000 0.000000 0.000000 38.263672 38.701439 25.405425 -6.394491 27.067974 -2.436821 -13.207201 9.805744 -0.711887 0.000000 0.000000 0.000000
-0.164755 0.665806 0.776953 -2.153800 -24.338308 -8.674719 39.436362 11.788968 -17.929366 -1.108808 3.239488 46.968071 15.998656 27.582648 6.832579 0.000000 0.000000 0.000000 -35.954892 -0.548407 -39.766964 26.366459 -5.517404 34.242814 -18.253833 -35.185186 27.373986 0.000000 0.000000 0.000000 8.532944 1.671468 76.071391 -10.540991 0.424609 -39.531500 -6.230255 -0.453942 22.247763 15.419420 -12.087540 -16.488527 0.000000 0.000000 0.000000 -41.073575 -40.667770 30.968755 -0.602270 -20.082371 -1.307048 4.318039 -14.032902 -0.242568 0.000000 0.000000 0.000000 42.810523 37.044261 25.575110 -4.475393 25.031384 -1.887501 -12.512784 11.427653 -0.783327 0.000000 0.000000 0.000000
-0.164462 0.703138 0.783979 -1.298179 -23.071304 -10.232112 36.360428 8.642115 -13.248630 -1.818575 2.953975 40.698208 14.081373 24.909544 9.639314 0.000000 0.000000 0.000000 -33.260127 -0.209587 -34.240559 20.071996 -3.286862 33.017176 -17.394405 -33.416560 30.292393 0.000000 0.000000 0.000000 7.692891 1.281845 71.495466 -10.949411 0.313596 -39.714532 -5.410410 -0.115164 22.697526 16.805353 -13.972223 -14.976804 0.000000 0.000000 0.000000 -42.006454 -39.060107 30.284438 -3.161465 -19.147686 -1.267462 2.165344 -13.840524 0.002045 0.000000 0.000000 0.000000 45.948558 34.870083 24.634405 -0.819040 23.656147 -1.332507 -12.485757 15.020246 -1.086536 0.000000 0.000000 0.000000
-0.164684 0.735499 0.792839 -0.520785 -22.156608 -11.251227 34.265172 6.751604 -9.646956 -2.958129 3.079526 36.895905 11.333477 20.867501 11.620756 0.000000 0.000000 0.000000 -31.445304 0.082263 -29.134938 16.097819 -1.951394 31.720289 -16.989048 -32.656793 30.851364 0.000000 0.000000 0.000000 7.409457 0.442860 62.761518 -13.144308 1.505132 -32.596928 -3.806242 -0.286443 18.663629 15.966900 -13.858432 -9.894345 0.000000 0.000000 0.000000 -43.582056 -37.122659 29.819732 -6.142142 -18.161921 -1.184884 0.578905 -12.549294 0.186994 0.000000 0.000000 0.000000 48.230827 31.697408 21.197695 4.595196 21.155218 -0.587850 -11.466202 18.254250 -1.167374 0.000000 0.000000 0.000000
-0.165615 0.763280 0.802734 0.286353 -21.569370 -11.649408 32.010585 5.245716 -6.424992 -4.255052 3.311729 33.470845 10.876477 20.457790 11.758151 0.000000 0.000000 0.000000 -30.001923 0.349266 -25.096289 12.719321 -0.893240 30.655611 -15.614054 -31.277031 28.630186 0.000000 0.000000 0.000000 6.555479 0.202341 55.762243 -11.465278 1.728268 -26.536402 -4.703231 1.257098 12.680479 15.984237 -13.577521 -5.800650 0.000000 0.000000 0.000000 -42.248756 -35.225369 26.897375 -11.733078 -14.982250 -1.055997 -0.524733 -13.367942 0.386048 0.000000 0.000000 0.000000 49.940059 28.059328 18.635203 10.157956 18.478623 -0.156730 -10.140093 21.159100 -1.137306 0.000000 0.000000 0.000000
-0.167137 0.782966 0.813096 0.859027 -20.864313 -12.083101 29.987211 4.064563 -3.402475 -4.716643 3.222618 31.274008 9.937611 19.551162 8.469360 0.000000 0.000000 0.000000 -28.554425 0.581199 -21.099837 9.637358 -0.005137 29.481538 -15.738222 -31.542610 25.757648 0.000000 0.000000 0.000000 6.873481 -0.544491 49.167438 -14.259254 3.367562 -21.447381 -2.540362 -0.227778 9.162463 14.132686 -12.025938 -2.568150 0.000000 0.000000 0.000000 -43.374367 -32.482201 25.938429 -13.926297 -13.406287 -1.189736 -0.359566 -13.244457 0.373153 0.000000 0.000000 0.000000 49.759782 25.538753 14.271410 16.060675 14.996791 0.266688 -7.835270 23.329169 -0.821309 0.000000 0.000000 0.000000
-0.168738 0.794461 0.823645 1.473555 -20.805901 -12.321435 28.126573 3.298060 -1.017905 -5.079216 3.248960 29.813790 10.439278 20.877861 6.434735 0.000000 0.000000 0.000000 -27.670588 0.828698 -18.036498 6.966670 0.689116 27.665698 -12.851711 -28.395209 20.488632 0.000000 0.000000 0.000000 6.380085 -0.688049 43.193567 -13.008862 3.239906 -18.980027 -3.375813 1.449217 7.518595 13.948327 -11.470506 -2.577320 0.000000 0.000000 0.000000 -42.726778 -30.257808 23.126838 -17.310783 -10.764581 -1.378465 -0.760871 -12.998222 0.442235 0.000000 0.000000 0.000000 51.035095 22.344986 12.067758 20.091446 12.068051 0.030246 -5.891890 23.113262 -0.449960 0.000000 0.000000 0.000000
-0.170463 0.798208 0.834082 1.876847 -19.746971 -12.200669 26.916633 2.717779 0.576524 -5.001058 2.906619 28.188082 9.892518 20.498984 3.174283 0.000000 0.000000 0.000000 -27.936552 0.945676 -15.307883 5.481906 0.921610 26.348942 -10.833859 -25.592016 16.090696 0.000000 0.000000 0.000000 7.446095 -1.364285 37.892203 -14.931277 4.642189 -16.083253 -2.109759 0.189721 5.255342 12.392852 -10.136643 -0.655411 0.000000 0.000000 0.000000 -43.013619 -27.697530 21.792018 -19.278275 -8.608480 -1.726908 -0.605472 -14.467182 0.480940 0.000000 0.000000 0.000000 49.802486 19.669089 8.021252 24.333412 7.208214 -0.346007 -3.767667 23.311532 -0.076443 0.000000 0.000000 0.000000
-0.172333 0.797701 0.843775 2.203133 -18.518937 -12.291786 25.982540 2.141078 2.880059 -4.441107 2.257898 25.677995 8.787808 19.029578 -1.157474 0.000000 0.000000 0.000000 -28.359937 1.198346 -11.599956 4.619007 0.694030 22.188146 -11.483965 -26.320721 14.411855 0.000000 0.000000 0.000000 8.132322 -1.737950 33.620102 -16.664498 5.857099 -14.190632 -0.711179 -0.162313 4.077052 11.428115 -9.174503 -0.251235 0.000000 0.000000 0.000000 -42.458478 -26.477936 20.716106 -20.871673 -7.100206 -1.969574 -1.054487 -15.416635 0.581472 0.000000 0.000000 0.000000 49.370135 17.179307 5.278762 26.860528 3.049803 -1.037858 -2.148543 22.667585 0.206631 0.000000 0.000000 0.000000
-0.174396 0.793018 0.852542 2.273998 -17.895537 -12.202329 26.065196 1.830317 4.903545 -4.815093 2.031868 22.728564 8.744431 19.396556 -3.747948 0.000000 0.000000 0.000000 -28.744687 1.490796 -8.837382 4.451632 0.428549 18.821435 -12.165460 -27.175798 12.015439 0.000000 0.000000 0.000000 8.271100 -1.796821 30.409594 -16.935320 6.162867 -13.585148 -0.486227 0.455247 3.219279 10.835880 -8.758379 0.665593 0.000000 0.000000 0.000000 -40.815165 -25.048132 18.734408 -22.089784 -5.159445 -2.227036 -2.555618 -17.479643 0.901416 0.000000 0.000000 0.000000 48.584236 14.922462 3.505752 28.925848 0.425932 -1.707975 0.212179 21.963302 0.608661 0.000000 0.000000 0.000000
-0.176407 0.788606 0.860209 2.307252 -17.445730 -12.112647 26.253119 1.572817 6.807933 -5.206363 1.867901 19.946410 8.680626 19.662718 -5.912048 0.000000 0.000000 0.000000 -28.542674 1.840026 -5.808457 3.446159 0.331083 14.647640 -12.745662 -27.915315 9.864094 0.000000 0.000000 0.000000 8.608088 -1.816193 26.919755 -17.634119 6.185898 -15.305487 1.018458 1.903068 5.836027 9.454345 -7.549700 -1.589553 0.000000 0.000000 0.000000 -39.870970 -23.989964 17.430067 -23.197144 -4.529348 -2.513559 -4.777029 -19.650741 1.388664 0.000000 0.000000 0.000000 47.491864 12.917715 2.336993 31.435055 -0.187591 -2.334835 -0.091774 20.365080 0.519939 0.000000 0.000000 0.000000
-0.178211 0.781883 0.867186 2.005002 -17.231838 -11.510810 27.301543 1.372675 8.735675 -6.419854 1.932064 16.470093 8.613480 20.019859 -8.703264 0.000000 0.000000 0.000000 -29.052525 2.197404 -3.742067 4.532605 -0.064436 11.022812 -13.537699 -29.104816 7.549997 0.000000 0.000000 0.000000 8.276491 -1.713408 24.535443 -17.787163 6.317845 -14.787650 1.928854 2.125484 4.461659 8.489233 -6.883293 0.044159 0.000000 0.000000 0.000000 -39.574557 -22.331342 15.870703 -22.993549 -3.144166 -2.599258 -8.098378 -21.296171 2.130862 0.000000 0.000000 0.000000 46.984239 12.424743 1.997011 32.489456 -1.613183 -2.696750 0.885611 19.432413 0.648442 0.000000 0.000000 0.000000
-0.179701 0.776350 0.873424 1.601371 -16.737343 -11.129604 28.044168 1.224356 9.570867 -6.754833 1.870957 14.982873 8.472206 19.941251 -10.803577 0.000000 0.000000 0.000000 -29.132920 2.400844 -2.102985 5.069277 -0.230600 8.864282 -14.157281 -30.137290 5.823808 0.000000 0.000000 0.000000 8.096943 -1.643448 22.704328 -15.436042 5.538177 -13.250741 0.976642 3.911018 2.451819 8.417338 -6.965317 1.590425 0.000000 0.000000 0.000000 -38.442705 -21.387927 13.612766 -24.509062 -1.081067 -2.750031 -11.865426 -24.060013 3.248699 0.000000 0.000000 0.000000 47.642316 11.375517 2.412156 32.665639 -1.708248 -2.912524 0.643361 18.428303 0.596959 0.000000 0.000000 0.000000
-0.180745 0.770144 0.878678 1.143355 -16.700664 -10.936430 29.702842 1.041149 11.426627 -8.583050 2.138780 12.261762 8.326706 19.799184 -12.932647 0.000000 0.000000 0.000000 -30.318027 2.722993 -0.986367 7.959221 -0.620763 7.268883 -14.654352 -31.105954 3.934415 0.000000 0.000000 0.000000 7.560237 -1.509978 21.249621 -14.823005 4.931523 -15.125917 2.736891 5.836915 4.655651 8.131374 -7.105899 2.484883 0.000000 0.000000 0.000000 -38.951683 -20.983663 12.829187 -23.861826 -0.581499 -2.765479 -16.575241 -26.602395 4.699636 0.000000 0.000000 0.000000 47.324209 10.965476 3.030300 32.414766 -1.523402 -3.201690 0.992805 18.610688 0.668507 0.000000 0.000000 0.000000
-0.181699 0.764503 0.882462 0.771855 -15.275615 -10.355298 29.956144 0.757315 11.714463 -8.174739 1.800621 10.074674 8.177789 19.341290 -14.960147 0.000000 0.000000 0.000000 -29.792062 2.584274 -0.220313 7.179017 -0.561794 7.107673 -15.287762 -32.503755 2.344374 0.000000 0.000000 0.000000 7.352763 -1.517374 20.645948 -13.045610 5.011842 -10.023611 1.880738 4.731276 -3.559499 6.733773 -6.362173 8.468830 0.000000 0.000000 0.000000 -37.608424 -18.749429 9.891585 -25.221593 1.684717 -2.642490 -20.372748 -29.451954 6.260577 0.000000 0.000000 0.000000 45.645079 10.133046 2.266076 33.515228 -4.007567 -3.359840 2.116949 18.489942 0.808737 0.000000 0.000000 0.000000
-0.182581 0.759662 0.884490 0.496632 -15.623800 -10.188337 30.284908 0.749316 12.080836 -7.994181 1.752588 9.974767 8.209769 19.749481 -16.407166 0.000000 0.000000 0.000000 -30.122892 2.293519 -2.341286 8.201635 -0.683445 11.043611 -15.042406 -32.448384 0.185849 0.000000 0.000000 0.000000 6.774429 -1.468100 21.700790 -8.641950 2.237717 -16.654291 -0.203937 8.269876 1.789237 7.984758 -7.581463 5.350120 0.000000 0.000000 0.000000 -35.380259 -18.006270 8.226516 -25.230141 1.726383 -2.849015 -28.374416 -32.434373 9.282564 0.000000 0.000000 0.000000 48.094233 9.570760 3.893444 30.867042 0.424238 -2.914246 1.135600 16.369240 0.619190 0.000000 0.000000 0.000000
-0.183888 0.756612 0.884964 0.487574 -12.448249 -9.794530 31.306641 0.672051 8.878339 -9.026096 2.062721 12.211098 7.795704 17.227674 -17.664490 0.000000 0.000000 0.000000 -30.585214 2.183318 -0.559996 8.725361 -0.869008 10.380606 -16.119243 -35.013357 -0.111003 0.000000 0.000000 0.000000 6.795322 -1.545256 20.855528 -14.164634 4.346489 -19.322176 6.879632 3.490248 5.301415 5.791471 -5.247016 3.326193 0.000000 0.000000 0.000000 -39.995864 -16.038013 9.952858 -24.524827 0.054039 -3.197022 -26.217564 -41.572159 11.418839 0.000000 0.000000 0.000000 45.499218 9.934914 1.272745 31.789309 -1.535027 -2.975774 2.066373 18.028036 0.787134 0.000000 0.000000 0.000000
