HIERARCHY
ROOT Hips
{
	OFFSET -0.001795 -0.223333 0.028219
	CHANNELS 6 Xposition Yposition Zposition Zrotation Yrotation Xrotation
	JOINT LeftUpLeg
	{
		OFFSET 0.069520 -0.091406 -0.006815
		CHANNELS 3 Zrotation Yrotation Xrotation
		JOINT LeftLeg
		{
			OFFSET 0.034277 -0.375199 -0.004496
			CHANNELS 3 Zrotation Yrotation Xrotation
			JOINT LeftFoot
			{
				OFFSET -0.013596 -0.397961 -0.043693
				CHANNELS 3 Zrotation Yrotation Xrotation
				JOINT LeftToe
				{
					OFFSET 0.026358 -0.055791 0.119288
					CHANNELS 3 Zrotation Yrotation Xrotation
					End Site
					{
						OFFSET 0.000000 0.000000 0.000000
					}
				}
			}
		}
	}
	JOINT RightUpLeg
	{
		OFFSET -0.067670 -0.090522 -0.004320
		CHANNELS 3 Zrotation Yrotation Xrotation
		JOINT RightLeg
		{
			OFFSET -0.038290 -0.382569 -0.008850
			CHANNELS 3 Zrotation Yrotation Xrotation
			JOINT RightFoot
			{
				OFFSET 0.015774 -0.398415 -0.042312
				CHANNELS 3 Zrotation Yrotation Xrotation
				JOINT RightToe
				{
					OFFSET -0.025372 -0.048144 0.123348
					CHANNELS 3 Zrotation Yrotation Xrotation
					End Site
					{
						OFFSET 0.000000 0.000000 0.000000
					}
				}
			}
		}
	}
	JOINT Spine
	{
		OFFSET -0.002533 0.108963 -0.026696
		CHANNELS 3 Zrotation Yrotation Xrotation
		JOINT Spine1
		{
			OFFSET 0.005487 0.135180 0.001092
			CHANNELS 3 Zrotation Yrotation Xrotation
			JOINT Spine2
			{
				OFFSET 0.001457 0.052922 0.025425
				CHANNELS 3 Zrotation Yrotation Xrotation
				JOINT Neck
				{
					OFFSET -0.002778 0.213870 -0.042857
					CHANNELS 3 Zrotation Yrotation Xrotation
					JOINT Head
					{
						OFFSET 0.005152 0.064970 0.051349
						CHANNELS 3 Zrotation Yrotation Xrotation
						End Site
						{
							OFFSET 0.000000 0.000000 0.000000
						}
					}
				}
				JOINT LeftShoulder
				{
					OFFSET 0.078845 0.121749 -0.034090
					CHANNELS 3 Zrotation Yrotation Xrotation
					JOINT LeftArm
					{
						OFFSET 0.090977 0.030469 -0.008868
						CHANNELS 3 Zrotation Yrotation Xrotation
						JOINT LeftForeArm
						{
							OFFSET 0.259612 -0.012772 -0.027456
							CHANNELS 3 Zrotation Yrotation Xrotation
							JOINT LeftHand
							{
								OFFSET 0.249234 0.008986 -0.001171
								CHANNELS 3 Zrotation Yrotation Xrotation
								End Site
								{
									OFFSET 0.000000 0.000000 0.000000
								}
							}
						}
					}
				}
				JOINT RightShoulder
				{
					OFFSET -0.081759 0.118833 -0.038615
					CHANNELS 3 Zrotation Yrotation Xrotation
					JOINT RightArm
					{
						OFFSET -0.096012 0.032551 -0.009143
						CHANNELS 3 Zrotation Yrotation Xrotation
						JOINT RightForeArm
						{
							OFFSET -0.253742 -0.013329 -0.021401
							CHANNELS 3 Zrotation Yrotation Xrotation
							JOINT RightHand
							{
								OFFSET -0.255298 0.007772 -0.005559
								CHANNELS 3 Zrotation Yrotation Xrotation
								End Site
								{
									OFFSET 0.000000 0.000000 0.000000
								}
							}
						}
					}
				}
			}
		}
	}
}
MOTION
Frames: 76
Frame Time: 0.050000
0.000000 0.973697 0.000000 -0.165580 -4.166413 -5.994961 -1.891457 1.253121 10.872901 -0.981294 0.199535 -3.323655 1.336649 6.898145 14.206420 0.000000 0.000000 0.000000 0.985421 -1.041653 10.129349 -0.229584 -0.062765 -2.035677 1.777086 -3.840919 15.938169 0.000000 0.000000 0.000000 7.049527 -1.299994 13.821396 -11.832864 3.058007 -29.749194 2.444938 1.082256 28.125402 10.837233 -10.722469 -2.154058 0.000000 0.000000 0.000000 -34.308952 -8.996242 5.077955 -44.423596 1.611737 -8.635838 -4.464031 -20.437103 1.747131 0.000000 0.000000 0.000000 40.482124 -1.626974 -5.131084 42.923225 0.742655 -6.170160 5.026726 24.102143 2.016105 0.000000 0.000000 0.000000
0.001703 0.971205 0.002191 -0.249647 -3.627474 -5.318777 -1.414727 1.171595 10.619970 -1.860425 0.288204 -3.913553 1.203804 6.582741 13.477704 0.000000 0.000000 0.000000 1.379571 -1.007530 9.260331 -0.403121 -0.021760 -1.421806 0.694261 -5.300927 14.950085 0.000000 0.000000 0.000000 7.322034 -1.222022 12.507117 -13.510936 3.509469 -28.802768 3.390758 0.022665 27.465429 11.176402 -10.927759 -2.608928 0.000000 0.000000 0.000000 -34.388627 -8.562183 5.064070 -43.610790 1.649329 -8.508317 -4.704324 -21.714180 1.918703 0.000000 0.000000 0.000000 39.717531 -2.030306 -5.767311 44.202350 0.039147 -6.393247 4.416719 25.071097 1.969677 0.000000 0.000000 0.000000
0.003433 0.969969 0.004400 0.281462 -2.703375 -4.967935 -1.969460 1.145202 10.065958 -1.986748 0.287219 -3.422890 0.851761 5.973349 12.884900 0.000000 0.000000 0.000000 1.171891 -0.985663 9.120730 -0.798395 0.000807 -1.723062 -0.278306 -6.865575 14.900857 0.000000 0.000000 0.000000 7.297565 -1.160268 11.758163 -14.610355 3.700298 -29.458996 4.267894 -0.925211 28.707140 9.523199 -9.365103 -3.040966 0.000000 0.000000 0.000000 -34.681697 -8.895572 5.565115 -43.250508 0.138576 -8.141919 -4.054126 -20.999451 1.733621 0.000000 0.000000 0.000000 39.195387 -1.914102 -5.715506 43.938809 -0.223378 -6.529306 4.704946 24.820173 1.997805 0.000000 0.000000 0.000000
0.005178 0.970368 0.006922 0.360212 -1.953618 -5.115107 -2.446433 1.234776 10.560087 -1.920181 0.280552 -3.512833 1.288570 6.593174 12.189904 0.000000 0.000000 0.000000 0.857368 -1.040348 9.845110 -0.029419 -0.082915 -2.144103 -1.153847 -8.248374 14.726267 0.000000 0.000000 0.000000 7.474471 -1.164326 11.595314 -14.539925 3.679707 -29.739754 3.949027 -0.596349 29.723047 9.388694 -9.226145 -3.245974 0.000000 0.000000 0.000000 -34.801370 -9.565727 5.737085 -43.820066 0.001199 -8.196887 -3.163212 -21.985607 1.662960 0.000000 0.000000 0.000000 40.132964 -1.915729 -5.371978 43.461249 0.346553 -6.507112 4.752369 24.655459 2.037771 0.000000 0.000000 0.000000
0.006856 0.969758 0.009620 0.351507 -0.847211 -5.198741 -2.796792 1.274842 10.779583 -1.399364 0.233697 -3.496812 1.053435 6.222130 11.766759 0.000000 0.000000 0.000000 0.840347 -1.096505 10.208295 -0.185152 -0.068885 -2.141111 -1.372334 -8.483193 14.779354 0.000000 0.000000 0.000000 7.482251 -1.148505 11.356011 -14.028387 3.856113 -27.341042 3.491785 -0.388791 27.146416 8.848508 -8.981199 -0.697277 0.000000 0.000000 0.000000 -34.771971 -9.847494 5.355843 -43.850575 0.219485 -7.865039 -3.065214 -22.775749 1.676546 0.000000 0.000000 0.000000 40.499292 -1.855526 -5.093641 42.888376 0.117984 -6.340392 4.376418 23.900501 1.875548 0.000000 0.000000 0.000000
0.008149 0.968676 0.012754 0.336096 0.185456 -5.515983 -2.958993 1.304976 11.078958 -1.247625 0.212627 -3.213915 1.039047 6.202349 11.365065 0.000000 0.000000 0.000000 0.722438 -1.164485 10.773923 0.109238 -0.085948 -1.919878 -1.876068 -9.153340 14.460080 0.000000 0.000000 0.000000 7.281513 -1.114677 11.181639 -13.461940 3.824340 -26.737371 3.282809 0.119336 27.096763 9.147923 -9.194022 -0.831033 0.000000 0.000000 0.000000 -34.606278 -10.200632 5.032860 -43.971759 -0.102870 -7.606797 -2.785661 -23.479218 1.656041 0.000000 0.000000 0.000000 40.817981 -1.750620 -4.417633 42.640620 0.683811 -6.303741 3.595549 23.080090 1.685175 0.000000 0.000000 0.000000
0.008833 0.967482 0.016001 0.296927 1.173770 -5.503923 -2.950306 1.339764 11.560284 -1.170555 0.217539 -3.790426 0.804214 5.823414 11.034900 0.000000 0.000000 0.000000 0.813652 -1.236257 11.145684 0.030884 -0.088863 -2.185129 -2.211950 -9.644939 14.610958 0.000000 0.000000 0.000000 7.122227 -1.080258 10.910570 -12.717823 3.797326 -25.559279 2.685487 0.328485 25.691125 9.277265 -9.533422 0.615865 0.000000 0.000000 0.000000 -34.509426 -10.128283 4.517526 -44.094204 0.792698 -7.671679 -3.163887 -24.051291 1.753894 0.000000 0.000000 0.000000 41.269773 -1.904064 -4.263022 42.448476 0.346150 -6.358124 3.843569 22.920376 1.721814 0.000000 0.000000 0.000000
0.009107 0.966165 0.018944 0.240541 1.766141 -5.650900 -2.828245 1.350461 11.900360 -1.110649 0.211048 -3.759046 0.534433 5.273617 10.516211 0.000000 0.000000 0.000000 0.824866 -1.297857 11.561122 0.188470 -0.101608 -2.143824 -2.470604 -9.957359 14.256676 0.000000 0.000000 0.000000 7.150271 -1.091556 10.977290 -12.412143 3.795511 -25.071123 2.406126 0.284748 25.542965 9.252820 -9.772144 1.673481 0.000000 0.000000 0.000000 -34.631420 -10.487694 4.598016 -43.814327 0.695029 -7.519204 -3.772701 -24.250642 1.879554 0.000000 0.000000 0.000000 41.584709 -1.902786 -4.138214 42.028807 0.703016 -6.220725 3.952274 22.941549 1.745181 0.000000 0.000000 0.000000
0.009100 0.965453 0.021065 0.312458 1.859593 -5.640749 -2.686216 1.363923 12.181055 -1.313905 0.234880 -4.174155 0.277420 4.932734 10.755378 0.000000 0.000000 0.000000 0.785805 -1.330083 11.866099 0.099507 -0.109100 -2.548273 -2.507678 -10.034675 14.361170 0.000000 0.000000 0.000000 6.921749 -1.084633 11.110770 -12.356140 3.845843 -24.466366 2.561080 0.092938 24.809058 8.962278 -9.836358 3.252581 0.000000 0.000000 0.000000 -34.587459 -10.728310 4.803613 -43.577518 1.093463 -7.557293 -4.494885 -23.995451 1.995355 0.000000 0.000000 0.000000 41.764467 -1.742890 -4.180503 41.624809 0.669025 -6.073053 4.225295 23.334547 1.810283 0.000000 0.000000 0.000000
0.009114 0.964568 0.022429 0.350003 2.183308 -5.695735 -2.592370 1.348007 12.201775 -1.508272 0.243500 -3.956818 0.228437 4.777572 10.435426 0.000000 0.000000 0.000000 0.781834 -1.343508 11.923507 0.022177 -0.096004 -2.393833 -2.604135 -10.150348 14.276990 0.000000 0.000000 0.000000 6.841853 -1.088696 11.212759 -12.059861 3.876437 -23.474611 2.189711 -0.232935 24.027859 8.703848 -9.757136 4.213572 0.000000 0.000000 0.000000 -34.229672 -10.944772 4.963849 -43.756794 1.266379 -7.578080 -4.830103 -23.968081 2.054395 0.000000 0.000000 0.000000 41.896685 -1.461058 -4.092219 41.405868 0.809584 -5.894831 4.435545 23.536813 1.850281 0.000000 0.000000 0.000000
0.009290 0.963525 0.023293 0.365633 2.209284 -5.840549 -2.460496 1.326596 12.153115 -1.620443 0.249875 -3.868302 0.070942 4.674133 10.891035 0.000000 0.000000 0.000000 0.763394 -1.344105 11.944214 0.036407 -0.080994 -1.980105 -2.710144 -10.248781 13.788705 0.000000 0.000000 0.000000 6.783779 -1.105004 11.449642 -11.890230 3.885499 -22.971648 2.069674 -0.420129 23.679775 8.656481 -9.868822 4.937131 0.000000 0.000000 0.000000 -33.965718 -11.422190 5.358380 -43.940171 1.276425 -7.598748 -5.115273 -23.499146 2.062876 0.000000 0.000000 0.000000 41.651221 -1.226628 -3.990295 41.535809 0.817084 -5.842421 4.372296 23.912003 1.860421 0.000000 0.000000 0.000000
0.009661 0.962185 0.023965 0.460103 2.178252 -6.130760 -2.485225 1.336331 12.224806 -1.497685 0.242187 -3.922402 -0.252234 4.434057 11.756217 0.000000 0.000000 0.000000 0.630633 -1.320825 11.888733 0.070670 -0.061461 -1.394180 -2.905280 -10.576886 13.593623 0.000000 0.000000 0.000000 6.502052 -1.117367 11.900977 -11.607255 3.849133 -22.701975 1.904259 -0.564592 23.647904 8.569236 -9.738145 4.770328 0.000000 0.000000 0.000000 -34.067882 -11.820530 5.710562 -43.673022 1.151857 -7.524064 -5.648242 -23.406851 2.154530 0.000000 0.000000 0.000000 41.770094 -0.794661 -3.756512 41.212592 0.859027 -5.752342 4.318765 24.182215 1.858307 0.000000 0.000000 0.000000
0.010090 0.960452 0.024675 0.561149 2.145867 -6.368136 -2.470270 1.355991 12.425018 -1.646955 0.258116 -4.187883 -0.320715 4.521830 12.350298 0.000000 0.000000 0.000000 0.489037 -1.308473 11.936525 0.223081 -0.060231 -0.953635 -3.232610 -11.085003 13.025468 0.000000 0.000000 0.000000 6.325188 -1.114077 12.091453 -11.450146 3.855732 -22.187240 1.677700 -0.699861 23.255867 8.556878 -9.806911 5.215360 0.000000 0.000000 0.000000 -34.236360 -12.023065 5.901909 -43.543016 1.050884 -7.441600 -5.995258 -23.385323 2.218176 0.000000 0.000000 0.000000 41.883554 -0.559666 -3.698327 40.962209 0.721434 -5.688927 4.348972 24.329556 1.860977 0.000000 0.000000 0.000000
0.010426 0.958751 0.025578 0.542600 1.583820 -6.577546 -2.688604 1.386152 12.364397 -1.301188 0.232403 -4.035951 0.016219 5.178106 12.899856 0.000000 0.000000 0.000000 0.261606 -1.286054 12.093398 0.569709 -0.089904 -0.779679 -3.173893 -10.929525 12.371463 0.000000 0.000000 0.000000 6.413867 -1.123440 12.191785 -11.454335 3.882207 -21.716363 1.628459 -0.430193 22.783612 8.612999 -10.065265 6.210622 0.000000 0.000000 0.000000 -34.372054 -12.270133 6.082604 -43.076984 1.145777 -7.341440 -6.755189 -23.283989 2.348040 0.000000 0.000000 0.000000 41.828348 -0.450879 -3.681364 40.838497 0.362563 -5.710699 4.820591 24.754618 1.978738 0.000000 0.000000 0.000000
0.010622 0.957437 0.026596 0.533115 1.526734 -6.655760 -2.618017 1.379380 12.366715 -1.298197 0.233117 -4.070629 -0.078740 5.121763 13.217632 0.000000 0.000000 0.000000 0.282578 -1.305077 12.258892 0.623190 -0.091536 -0.664210 -3.322556 -11.088627 11.673798 0.000000 0.000000 0.000000 6.349750 -1.080462 11.846919 -11.623004 3.981150 -21.110956 1.811923 -0.557725 22.285478 8.795746 -10.258355 6.328483 0.000000 0.000000 0.000000 -34.293220 -12.302265 6.149633 -42.777647 1.197218 -7.272646 -7.344882 -23.657951 2.505556 0.000000 0.000000 0.000000 41.461472 -0.490228 -3.795721 41.031017 0.051369 -5.750013 5.078717 24.379065 1.982850 0.000000 0.000000 0.000000
0.010619 0.956333 0.027515 0.501864 0.916183 -7.161745 -2.458941 1.415711 12.750824 -1.612419 0.248987 -3.600932 0.284110 5.516961 12.862413 0.000000 0.000000 0.000000 -0.021953 -1.296469 12.672142 0.713278 -0.086486 -0.244760 -2.621044 -9.682104 10.996061 0.000000 0.000000 0.000000 6.296537 -1.111398 12.360798 -11.524699 3.909813 -21.558571 1.740849 -0.109195 22.327183 9.153383 -10.746137 6.649645 0.000000 0.000000 0.000000 -34.429057 -12.391846 6.173728 -42.229397 1.700203 -7.338283 -8.284923 -24.029200 2.735896 0.000000 0.000000 0.000000 41.448926 -0.315716 -3.598137 41.199905 -0.466903 -5.956353 5.630008 24.624705 2.115983 0.000000 0.000000 0.000000
0.010344 0.955546 0.028219 0.380945 0.135700 -7.599100 -2.189853 1.432198 13.021823 -1.955655 0.270100 -3.081427 0.712060 6.038026 12.599604 0.000000 0.000000 0.000000 -0.054301 -1.295392 12.909505 0.639725 -0.061736 0.226919 -2.080716 -8.598976 10.492603 0.000000 0.000000 0.000000 6.260445 -1.128875 12.727949 -11.491439 3.839872 -22.072053 1.894642 0.421202 22.456924 9.301639 -10.954580 6.780836 0.000000 0.000000 0.000000 -34.649481 -12.454530 6.191172 -41.750702 2.072098 -7.374659 -8.790756 -24.480424 2.892527 0.000000 0.000000 0.000000 41.621745 -0.129761 -3.421736 40.920769 -0.892985 -6.071763 5.949638 24.509001 2.163013 0.000000 0.000000 0.000000
0.009912 0.954939 0.028620 0.295855 -1.015930 -8.055207 -2.195498 1.483533 13.223378 -1.950577 0.262712 -2.423608 1.347147 6.891680 12.437395 0.000000 0.000000 0.000000 -0.039541 -1.251409 12.781284 0.629189 -0.026423 1.170810 -1.818185 -8.092085 10.067224 0.000000 0.000000 0.000000 6.408489 -1.145783 12.961945 -11.533289 3.780342 -22.515063 2.106686 0.730194 22.564139 9.084984 -10.803191 7.114657 0.000000 0.000000 0.000000 -35.232256 -12.126582 6.146422 -40.774032 2.739408 -7.460126 -9.670743 -24.489491 3.077755 0.000000 0.000000 0.000000 41.560552 0.529992 -3.069205 40.653767 -1.824936 -6.270235 6.468940 24.764295 2.271507 0.000000 0.000000 0.000000
0.009316 0.953934 0.028983 0.256718 -2.350481 -8.252975 -2.211193 1.465694 12.768638 -2.084072 0.259415 -1.100165 2.141891 7.964144 12.129429 0.000000 0.000000 0.000000 -0.238174 -1.149661 12.367835 0.777450 -0.015028 1.925132 -1.337114 -7.225434 9.866884 0.000000 0.000000 0.000000 6.771692 -1.183398 13.186926 -11.744759 3.694752 -23.637709 2.357336 1.409953 23.224374 9.080682 -10.862871 7.232053 0.000000 0.000000 0.000000 -35.504649 -12.054961 6.198467 -39.907946 3.354286 -7.556778 -10.796160 -24.574866 3.324477 0.000000 0.000000 0.000000 41.963855 0.725760 -2.990484 39.909591 -2.127458 -6.286483 7.510826 24.726822 2.467344 0.000000 0.000000 0.000000
0.008700 0.948167 0.029398 0.178970 -4.286359 -9.247028 -2.096899 1.404475 12.029228 -2.551915 0.287870 2.407349 3.587481 9.814955 10.235823 0.000000 0.000000 0.000000 -0.754510 -0.964205 11.541197 1.579062 -0.021383 4.631901 -1.184432 -6.663951 8.541350 0.000000 0.000000 0.000000 7.393604 -1.204896 13.300180 -12.080142 3.721250 -24.009418 2.780807 1.899629 22.844025 8.306108 -10.567471 9.770377 0.000000 0.000000 0.000000 -36.575654 -11.210527 5.868481 -38.848327 4.598495 -7.759989 -11.671377 -23.939682 3.410159 0.000000 0.000000 0.000000 41.305862 1.225806 -2.870500 40.480356 -4.179468 -6.883803 8.453116 24.728810 2.631790 0.000000 0.000000 0.000000
0.007928 0.940992 0.029472 0.224665 -5.234961 -10.352740 -2.038280 1.280258 10.964002 -2.980220 0.356526 6.632176 4.610873 11.170118 7.940444 0.000000 0.000000 0.000000 -1.221119 -0.819171 10.642680 2.180399 0.008994 8.195559 -1.334737 -6.177084 6.232307 0.000000 0.000000 0.000000 7.666230 -1.226904 13.655011 -13.112733 3.945189 -24.831650 3.580106 2.504468 22.184152 8.255115 -11.370508 13.122197 0.000000 0.000000 0.000000 -37.788877 -12.142708 6.508799 -37.646198 7.173737 -8.154969 -13.016948 -23.636425 3.604156 0.000000 0.000000 0.000000 42.400622 0.972564 -3.267230 39.287692 -6.264820 -7.232441 9.957632 23.952789 2.804040 0.000000 0.000000 0.000000
0.007218 0.930520 0.028867 0.404870 -6.121864 -12.443137 -1.924861 1.197946 10.318697 -3.817704 0.596279 11.388995 6.081039 13.638547 6.419288 0.000000 0.000000 0.000000 -1.708060 -0.689758 9.775787 3.319179 0.001972 14.218237 -2.678568 -7.453228 1.956745 0.000000 0.000000 0.000000 8.025550 -1.185452 13.587243 -13.882404 4.319550 -24.065381 4.024283 2.185973 21.950315 7.526940 -10.588584 13.873554 0.000000 0.000000 0.000000 -39.295061 -11.593746 6.403061 -35.990203 8.822063 -8.279289 -14.019800 -23.586236 3.779941 0.000000 0.000000 0.000000 43.234218 0.930932 -3.915481 38.542972 -8.628274 -7.634800 11.038674 23.734792 2.943199 0.000000 0.000000 0.000000
0.006300 0.918003 0.027720 0.849846 -6.541816 -14.675268 -1.922383 1.041300 9.076216 -5.009547 1.075883 16.879406 7.984991 17.095129 6.284632 0.000000 0.000000 0.000000 -2.428353 -0.563771 8.953714 4.451733 -0.045598 20.583076 -4.007165 -8.880957 -2.417305 0.000000 0.000000 0.000000 7.971226 -1.061912 13.034725 -15.411628 5.284251 -21.516179 4.956457 1.698035 18.361504 6.774925 -10.363425 18.547202 0.000000 0.000000 0.000000 -41.066278 -12.087973 6.725006 -34.084136 12.345765 -8.403555 -16.076044 -23.275034 4.074774 0.000000 0.000000 0.000000 44.381057 0.830285 -4.933671 37.226924 -12.342675 -7.936635 12.186113 21.767916 2.785659 0.000000 0.000000 0.000000
0.004974 0.892421 0.026317 1.829791 -7.032675 -17.516490 -1.220652 0.863802 7.874703 -7.550084 2.267268 22.946824 9.727995 20.342080 4.514902 0.000000 0.000000 0.000000 -3.426581 -0.358914 6.753728 6.352854 -0.287578 29.512125 -7.115974 -15.410206 -7.485987 0.000000 0.000000 0.000000 8.465278 -0.625948 9.416263 -21.142695 9.604673 -13.289980 10.118512 -2.155255 8.956988 5.511229 -7.991245 26.041422 0.000000 0.000000 0.000000 -44.799090 -10.217971 6.450234 -30.889334 15.302206 -7.729343 -19.838808 -22.436313 4.557950 0.000000 0.000000 0.000000 42.577226 -0.913606 -9.192033 36.024715 -18.702031 -7.945211 14.175293 19.829435 2.601640 0.000000 0.000000 0.000000
0.002684 0.858830 0.024777 1.838434 -6.608504 -20.774446 0.368717 0.585126 5.734542 -9.227389 3.566856 31.130879 12.855794 25.907697 4.106107 0.000000 0.000000 0.000000 -3.804619 -0.321952 5.900681 8.414324 -0.922672 38.153414 -8.918612 -19.870584 -14.749095 0.000000 0.000000 0.000000 8.672096 -0.095236 5.530211 -25.435909 18.703172 1.958113 16.674642 -5.501226 -13.799509 7.101832 -6.439809 38.582045 0.000000 0.000000 0.000000 -47.612330 -9.865026 5.868228 -29.304746 24.287745 -6.807430 -24.342859 -23.106422 5.333741 0.000000 0.000000 0.000000 36.890351 -4.662160 -13.065234 35.525912 -29.393068 -8.430441 16.978057 17.863030 2.290817 0.000000 0.000000 0.000000
-0.000489 0.805791 0.022285 2.960855 -7.597699 -25.740976 2.143215 0.315438 2.184012 -12.978107 7.697782 45.641461 13.555037 28.892073 -6.846538 0.000000 0.000000 0.000000 -6.931582 -0.152748 4.639509 12.948663 -2.733124 50.364076 -9.965999 -24.012215 -25.036060 0.000000 0.000000 0.000000 9.568486 1.090709 -1.898879 -17.422884 33.367078 46.604573 20.002181 -4.781227 -53.863858 9.818888 -2.522310 31.826466 0.000000 0.000000 0.000000 -37.558257 -5.118170 -0.630332 -34.515243 29.829547 -6.256493 -32.199073 -21.492878 6.491765 0.000000 0.000000 0.000000 25.136195 -12.460666 -10.584217 43.575971 -31.213402 -10.714934 20.732280 15.959036 2.294496 0.000000 0.000000 0.000000
-0.003796 0.741947 0.016867 3.077728 -5.741840 -32.109685 4.894432 0.355546 -0.011310 -12.527070 9.149417 61.563036 10.236509 21.330428 -23.786900 0.000000 0.000000 0.000000 -8.841692 -0.269709 5.927879 17.705885 -6.742672 62.129139 -9.988699 -32.560076 -35.631457 0.000000 0.000000 0.000000 8.216590 2.151477 -9.482454 -5.887579 25.427890 75.884741 10.946249 -3.677368 -71.071904 10.694270 -3.652290 27.189214 0.000000 0.000000 0.000000 -26.466344 -2.143638 -4.229154 -37.355613 32.142748 -7.383847 -40.296722 -20.240439 8.078276 0.000000 0.000000 0.000000 22.452326 -12.805531 -8.432436 47.320544 -33.101481 -12.208692 22.748416 16.632656 2.954721 0.000000 0.000000 0.000000
-0.006795 0.665318 0.008828 2.145174 -6.258370 -39.469568 9.634370 0.885306 -0.627331 -10.863622 9.592104 77.596478 10.324009 20.419451 -33.509855 0.000000 0.000000 0.000000 -11.730373 -0.353298 5.744802 23.053587 -12.425185 76.546714 -8.970311 -32.140627 -40.464380 0.000000 0.000000 0.000000 9.997871 3.364328 -12.765649 -9.654942 23.974104 59.357191 8.428503 -1.802078 -56.233952 4.424375 -6.969363 41.291604 0.000000 0.000000 0.000000 -26.049744 -1.907128 -4.926681 -30.206988 33.833229 -6.203743 -46.623298 -15.781207 7.684069 0.000000 0.000000 0.000000 30.793371 -10.736179 -8.956044 37.497742 -34.876478 -9.917827 22.294015 15.471536 3.046734 0.000000 0.000000 0.000000
-0.008705 0.567150 -0.003466 2.877133 -5.580901 -46.903028 10.781382 1.187999 -5.940721 -9.690224 10.523813 97.893986 12.321914 29.549088 -33.219628 0.000000 0.000000 0.000000 -16.711998 -0.919762 -1.647307 24.674944 -18.538369 96.520511 -9.287192 -33.134646 -33.537567 0.000000 0.000000 0.000000 9.961889 4.239897 -16.868097 -12.249808 22.551826 53.238628 8.822725 0.403712 -41.323500 -0.196575 -5.315771 43.682583 0.000000 0.000000 0.000000 -21.566881 0.044509 -4.614864 -35.178719 28.020137 -7.509519 -47.916304 -17.700655 8.412369 0.000000 0.000000 0.000000 35.565451 -5.987118 -6.725783 36.293368 -30.180142 -9.021910 18.864738 14.863909 2.619982 0.000000 0.000000 0.000000
-0.009491 0.469826 -0.024355 2.089879 -5.817342 -55.693333 13.023229 2.028962 -11.820008 -8.353656 8.956255 113.591035 12.667024 32.550547 -33.396046 0.000000 0.000000 0.000000 -18.267457 -2.042369 -13.498617 24.141895 -25.362333 114.479750 -11.932543 -34.917115 -16.075060 0.000000 0.000000 0.000000 10.297486 4.293104 -14.196246 -12.800955 15.871224 32.783208 4.258920 4.418019 -17.844111 -2.418039 -6.790590 48.850593 0.000000 0.000000 0.000000 -19.570240 -4.208207 -2.686261 -36.802637 22.611291 -7.420895 -52.915371 -23.122453 11.088922 0.000000 0.000000 0.000000 45.691682 -0.791435 -0.788203 28.977753 -22.588342 -6.373079 18.698685 18.992300 3.581798 0.000000 0.000000 0.000000
-0.007580 0.367937 -0.053274 0.942058 -5.455999 -64.345684 10.436895 1.636756 -21.493166 -8.254099 10.547505 127.537694 13.965202 40.085238 -29.234476 0.000000 0.000000 0.000000 -18.167696 -2.814288 -32.443738 22.890047 -33.145659 126.403706 -16.347536 -43.425167 -4.668236 0.000000 0.000000 0.000000 8.848640 3.630167 -11.602769 -10.314326 9.674248 20.710376 2.667787 10.157520 3.859549 -0.210571 -10.869040 40.687155 0.000000 0.000000 0.000000 -18.859882 -9.450440 -0.018266 -37.728684 13.709718 -6.959417 -56.711077 -33.643436 17.532722 0.000000 0.000000 0.000000 43.234776 -0.496317 2.878488 28.077673 -6.760151 -5.033001 18.404699 20.117564 3.805489 0.000000 0.000000 0.000000
-0.003394 0.287666 -0.084396 0.518315 -8.225943 -71.186772 11.192530 2.509566 -30.965088 -7.368136 12.434886 138.419632 13.602566 37.101070 -21.115211 0.000000 0.000000 0.000000 -14.659585 -0.333372 -47.783052 27.017878 -42.138668 124.450323 -21.620208 -55.480118 -3.153389 0.000000 0.000000 0.000000 10.877796 3.908895 -6.917459 -8.414888 8.425870 21.614861 -1.865202 10.932117 1.911176 0.715112 -12.516937 39.398273 0.000000 0.000000 0.000000 -16.917612 -10.465516 0.357607 -37.717908 10.031519 -5.641651 -59.188286 -44.256083 24.420157 0.000000 0.000000 0.000000 39.642070 3.746711 6.699489 28.656937 -0.024787 -3.871561 16.636932 23.544191 4.191104 0.000000 0.000000 0.000000
0.001381 0.223185 -0.109559 -1.367448 -8.869743 -76.037615 7.640677 0.674054 -43.914064 -8.070709 19.163599 142.888083 13.442383 42.639020 -21.163862 0.000000 0.000000 0.000000 -11.591391 1.728541 -53.685193 28.711488 -39.945363 117.258678 -17.870778 -57.583277 -14.133845 0.000000 0.000000 0.000000 9.881270 3.750416 -6.939902 -7.888615 6.153510 11.703639 1.432374 11.172910 14.141664 3.648586 -11.997896 27.995056 0.000000 0.000000 0.000000 -14.574680 -9.749731 1.217833 -41.241859 2.850535 -5.799936 -55.832270 -49.809292 27.008919 0.000000 0.000000 0.000000 32.354859 6.217916 7.790713 29.501094 12.271707 -2.577019 15.577681 22.665586 3.879527 0.000000 0.000000 0.000000
0.005935 0.173052 -0.124683 -1.951830 -10.631967 -79.518846 9.548222 2.193135 -51.376975 -7.313004 16.597047 145.009440 9.826911 35.270969 -32.689532 0.000000 0.000000 0.000000 -9.515094 4.049858 -58.469100 27.810131 -39.307094 116.891436 -16.041356 -53.190764 -14.903988 0.000000 0.000000 0.000000 12.243705 5.050266 -9.263532 -9.897557 7.166587 10.089095 1.230923 10.551412 18.375249 7.789391 -11.768589 14.120514 0.000000 0.000000 0.000000 -5.890067 -10.402681 2.756951 -47.073002 -1.872002 -6.407018 -60.654714 -62.290663 38.606968 0.000000 0.000000 0.000000 25.232515 9.652780 9.245373 31.206751 20.183896 -1.186939 9.603855 26.931976 3.449893 0.000000 0.000000 0.000000
0.013139 0.145297 -0.131968 -5.219313 -10.578413 -82.625901 8.283977 0.424355 -55.163286 -6.457598 10.607928 143.267819 8.956295 31.184614 -35.838353 0.000000 0.000000 0.000000 -10.438032 2.449045 -58.356410 26.690736 -38.868571 118.165989 -14.753361 -49.810522 -13.965361 0.000000 0.000000 0.000000 7.892498 3.573299 -9.798511 -5.497208 3.163142 0.039017 1.945807 12.066683 30.042265 10.734980 -6.977632 -8.772611 0.000000 0.000000 0.000000 6.386495 -8.376629 3.177335 -55.655729 -9.694335 -6.851636 -68.049864 -71.676864 53.231766 0.000000 0.000000 0.000000 15.539868 8.124218 6.787889 35.963369 28.257206 0.770219 -4.093619 28.041748 0.748906 0.000000 0.000000 0.000000
0.026137 0.135986 -0.137140 -6.616836 -11.410306 -84.224051 8.259938 0.090840 -59.227067 -7.867034 13.582311 138.314509 10.667597 37.173276 -26.833325 0.000000 0.000000 0.000000 -11.066568 2.008632 -59.351989 26.050439 -34.236312 114.054794 -14.256930 -44.965500 -11.192099 0.000000 0.000000 0.000000 5.272500 2.740788 -11.081958 -1.650436 0.863432 -4.284112 0.561212 11.971327 32.185671 11.355369 -5.452110 -16.506483 0.000000 0.000000 0.000000 15.447485 -4.727164 2.708095 -62.809194 -11.958341 -7.033597 -123.070382 -71.739698 110.372346 0.000000 0.000000 0.000000 6.355169 10.311819 5.611808 41.677209 27.316026 2.096310 -22.474852 34.944652 -3.625728 0.000000 0.000000 0.000000
0.048047 0.132742 -0.146446 -10.082544 -12.012030 -86.544801 5.196084 -3.548779 -62.394946 -7.352258 10.657556 134.425900 12.963329 39.658917 -15.973291 0.000000 0.000000 0.000000 -12.439110 -0.039387 -57.796602 29.960494 -33.809217 103.659723 -20.226215 -46.910369 4.291031 0.000000 0.000000 0.000000 1.981691 1.456709 -9.754875 0.761740 -0.151969 -9.635982 1.666168 8.704068 37.290661 12.985225 -5.638429 -23.048951 0.000000 0.000000 0.000000 24.744575 -5.775054 2.477913 -66.644635 -19.806855 -2.323111 174.043425 -80.798261 -165.763348 0.000000 0.000000 0.000000 -1.944181 4.359072 1.582576 48.164116 28.351883 3.789456 -33.340633 39.871998 -7.212151 0.000000 0.000000 0.000000
0.078393 0.142772 -0.160625 -6.305817 -13.278693 -91.958317 3.328339 -3.493899 -62.293050 -8.537562 16.134075 126.886259 18.851782 53.659391 -12.787725 0.000000 0.000000 0.000000 -13.505360 0.727409 -58.020753 28.557040 -24.420739 95.848106 -17.700978 -35.016350 17.405386 0.000000 0.000000 0.000000 2.896956 1.746827 -8.301563 3.745001 -1.986431 -5.134853 -1.555828 9.881009 33.281699 9.088654 -3.700287 -20.748736 0.000000 0.000000 0.000000 25.235167 -2.453500 1.567915 -62.547682 -27.505919 3.208050 137.607197 -74.150357 -117.088423 0.000000 0.000000 0.000000 -0.944897 0.962746 0.500897 46.571985 26.290557 2.270890 -48.926809 51.309869 -17.054326 0.000000 0.000000 0.000000
0.112417 0.159553 -0.173873 -4.319021 -14.207730 -94.689499 1.713004 -3.902021 -63.159071 -13.365110 24.414195 115.135765 16.415425 62.277027 -27.691718 0.000000 0.000000 0.000000 -16.014275 0.078525 -58.543789 26.362207 -14.716052 80.554382 -13.036841 -24.213313 39.661312 0.000000 0.000000 0.000000 3.153853 2.081960 -10.149595 4.265636 -2.452171 -4.556291 -0.532758 6.755562 35.458052 8.570092 -4.624660 -18.600120 0.000000 0.000000 0.000000 15.126781 -9.684610 2.277508 -43.799895 -36.022975 4.738219 123.596676 -55.297185 -77.550285 0.000000 0.000000 0.000000 1.034383 -0.287972 0.015752 39.178145 19.720866 -1.685214 -87.308196 59.313787 -48.205490 0.000000 0.000000 0.000000
0.144290 0.167193 -0.183919 -1.824208 -13.932165 -99.395585 1.112752 -3.994721 -69.293131 -25.075157 37.319670 101.747405 -5.216528 66.353255 -70.251247 0.000000 0.000000 0.000000 -18.500328 -0.508988 -60.472728 24.895108 -10.909953 74.679315 -10.806940 -21.673115 47.430864 0.000000 0.000000 0.000000 3.535034 2.577797 -11.675451 6.969996 -4.429877 -0.124092 -4.358621 4.301281 36.389031 5.536313 -3.910529 -14.221385 0.000000 0.000000 0.000000 5.900952 -9.964541 3.173121 -19.321364 -47.487356 0.547537 124.684627 -32.618179 -43.317638 0.000000 0.000000 0.000000 9.259451 -0.784268 -1.172735 24.448302 16.152085 -3.042447 -117.116867 51.356909 -70.175283 0.000000 0.000000 0.000000
0.168307 0.181284 -0.192944 -0.527737 -14.472089 -104.905283 -1.177479 -5.274414 -74.385501 -27.973166 38.511830 93.615430 -12.773381 58.304314 -95.603746 0.000000 0.000000 0.000000 -20.251878 -0.123561 -63.790142 23.760296 -8.691875 74.094076 -20.257387 -29.131367 45.663019 0.000000 0.000000 0.000000 6.237007 4.702142 -12.189566 11.400993 -8.747088 11.410904 -10.782074 2.048907 22.757165 2.287948 -2.987964 4.822496 0.000000 0.000000 0.000000 -6.931441 -22.074511 11.815262 5.726193 -43.094540 -6.555135 104.544151 -10.528974 -1.915272 0.000000 0.000000 0.000000 11.429114 -0.361551 -2.848870 10.824271 11.377278 -2.759362 -130.337370 43.242676 -74.903899 0.000000 0.000000 0.000000
0.181627 0.187368 -0.201042 -1.741503 -14.503477 -111.192427 -1.275049 -6.873497 -79.346814 -24.864737 35.260340 94.673348 -7.136324 54.474739 -88.869490 0.000000 0.000000 0.000000 -22.541299 -1.598076 -66.536131 21.411835 -6.735943 74.057231 -35.830146 -47.150348 22.683957 0.000000 0.000000 0.000000 4.345827 4.471643 -14.288745 19.271565 -18.182606 27.719473 -21.300668 -1.668511 3.690206 7.737941 -8.664305 9.776614 0.000000 0.000000 0.000000 -4.267403 -27.844811 13.047741 6.326880 -40.068219 -3.900214 87.738859 1.263868 11.684548 0.000000 0.000000 0.000000 7.185609 5.537147 -0.530170 6.168417 9.068727 -2.130718 -121.305845 37.734432 -56.445504 0.000000 0.000000 0.000000
0.187550 0.189363 -0.209879 -0.347121 -11.039215 -119.417334 1.996127 -5.821537 -83.839966 -27.633174 32.506638 86.021201 -1.830930 44.248960 -95.981819 0.000000 0.000000 0.000000 -23.392328 -0.014666 -76.955371 11.939169 -1.721814 70.773895 -6.401337 -54.956205 -66.566441 0.000000 0.000000 0.000000 2.423804 3.353402 -7.975982 18.254787 -24.360632 42.485287 -24.920885 -1.151676 -15.431912 3.080243 -6.448259 14.723805 0.000000 0.000000 0.000000 -4.617672 -29.378475 12.997726 3.751191 -39.032022 -0.720334 80.613663 4.898699 13.939434 0.000000 0.000000 0.000000 3.873439 6.454172 0.312072 -1.799726 11.861235 -1.960161 -120.675696 27.856788 -37.292399 0.000000 0.000000 0.000000
0.193600 0.192318 -0.222056 0.250473 -8.629653 -127.263885 4.983849 -4.169296 -84.954771 -31.773566 26.435365 67.540514 2.001874 41.603666 -95.494548 0.000000 0.000000 0.000000 -26.150472 0.811804 -84.552004 8.724220 -1.512139 46.292018 -9.498785 -46.117429 -71.509058 0.000000 0.000000 0.000000 2.001248 3.065793 -1.577899 14.815495 -25.015945 50.773184 -24.732380 -0.157245 -27.970719 4.081067 -9.058310 14.064559 0.000000 0.000000 0.000000 -2.859009 -35.279225 13.726209 -1.462785 -33.822717 2.072588 73.343630 7.573094 14.018298 0.000000 0.000000 0.000000 -5.192652 8.529652 2.728169 2.005622 18.298105 -1.625463 -110.227636 8.887546 -5.137186 0.000000 0.000000 0.000000
0.204142 0.192783 -0.243334 0.317244 -5.571271 -132.549642 9.101315 -3.573688 -85.521954 -28.036013 16.532096 51.977011 5.361645 44.204586 -88.363946 0.000000 0.000000 0.000000 -23.403339 3.331914 -88.538079 2.482896 0.001745 23.802461 -21.195599 -43.548730 -51.204751 0.000000 0.000000 0.000000 -0.548009 1.051276 -0.268629 13.149780 -22.658659 49.137925 -22.142427 2.159880 -22.940100 1.266030 -8.425037 16.906198 0.000000 0.000000 0.000000 -3.861623 -33.967182 14.060707 -0.590510 -34.013780 0.373779 77.800265 3.055968 13.719784 0.000000 0.000000 0.000000 -7.516753 10.333707 3.114545 -4.619641 22.831237 -3.563143 -112.698028 -9.097587 20.106635 0.000000 0.000000 0.000000
0.220499 0.206475 -0.276965 -0.706431 -4.847872 -134.581648 7.601928 -4.381673 -88.767277 -20.200646 11.460598 48.619723 9.577232 39.728951 -77.912758 0.000000 0.000000 0.000000 -31.386585 0.328452 -91.140654 5.253067 -0.712347 14.639519 -31.858190 -45.018944 -30.699589 0.000000 0.000000 0.000000 -0.344548 1.681482 -0.399273 13.822798 -28.742227 61.236464 -27.538393 -1.433565 -38.284483 0.416177 -9.263095 16.062710 0.000000 0.000000 0.000000 -1.722398 -32.119191 12.648714 -5.912007 -36.618238 4.927048 93.434032 4.471872 16.257225 0.000000 0.000000 0.000000 -12.717278 9.715029 3.492550 -2.334803 25.036345 -2.469718 -104.098020 -16.096206 22.633527 0.000000 0.000000 0.000000
0.239841 0.215776 -0.320541 -0.639312 -4.556232 -139.322571 0.732503 -6.572888 -88.250475 -11.272429 7.552639 50.271394 8.536254 34.915535 -81.987279 0.000000 0.000000 0.000000 -42.931856 -0.947552 -86.553776 7.877836 -1.035511 10.574293 -39.219489 -51.437365 -31.641085 0.000000 0.000000 0.000000 -0.298739 2.326612 -0.470063 14.544483 -27.664083 66.480857 -24.941345 -3.312267 -42.422188 -3.459116 -11.444022 19.001775 0.000000 0.000000 0.000000 -6.942908 -30.290230 16.090869 -2.773528 -37.571693 4.304060 109.833449 -2.154979 11.415669 0.000000 0.000000 0.000000 -13.149651 9.507036 3.398183 -5.962526 30.184670 -4.740217 -111.223205 -17.983207 25.970049 0.000000 0.000000 0.000000
0.258016 0.230971 -0.370910 -0.523395 -5.048049 -142.783451 -5.560863 -6.464110 -86.097467 -8.576424 5.736731 47.824256 7.873954 27.525463 -88.469981 0.000000 0.000000 0.000000 -56.156961 -0.895161 -79.167290 6.352562 -0.753910 8.012474 -22.073039 -54.424651 -64.299981 0.000000 0.000000 0.000000 -1.373173 2.351603 -3.906241 18.903786 -25.247074 66.392550 -23.970397 -6.503351 -39.361230 -8.281422 -10.849120 33.128874 0.000000 0.000000 0.000000 -18.406222 -25.270278 23.540230 12.124159 -39.046902 -1.198363 121.965247 -6.037827 3.708658 0.000000 0.000000 0.000000 -4.960855 11.727512 2.131780 -6.738324 30.515564 -7.370272 -112.685968 -11.115001 18.301544 0.000000 0.000000 0.000000
0.273723 0.245095 -0.425099 0.259727 -5.802811 -145.767011 -27.582705 -1.574100 -85.115405 -20.748401 9.179587 34.269824 9.252056 12.904468 -94.001520 0.000000 0.000000 0.000000 -76.436306 3.897256 -70.789845 9.145473 -0.739510 3.116599 -0.364097 -45.889822 -92.377834 0.000000 0.000000 0.000000 -6.505094 0.578614 -7.615646 40.482664 -35.921104 67.576847 -39.788647 -18.544054 -41.602836 -15.048001 -8.758445 35.355662 0.000000 0.000000 0.000000 -13.228532 -18.626512 25.902633 17.174488 -43.319578 -0.766164 120.597700 -1.855201 4.404203 0.000000 0.000000 0.000000 2.188099 16.536084 -1.545699 -4.069454 30.004148 -10.867595 -112.366374 0.476282 -4.113510 0.000000 0.000000 0.000000
0.287144 0.257824 -0.480138 1.801929 -4.497435 -148.604349 -38.024178 6.976328 -85.481090 -74.261048 12.564751 -1.015174 11.192846 4.668104 -92.689518 0.000000 0.000000 0.000000 -85.041931 8.549565 -65.274191 6.921007 -0.331634 -3.240647 8.288790 -28.564979 -107.075699 0.000000 0.000000 0.000000 -11.781048 2.301663 -15.880206 57.000505 -36.225548 60.080817 -43.026372 -26.265289 -35.514044 34.379561 -0.277694 50.624152 0.000000 0.000000 0.000000 -13.736744 -11.588725 34.201579 26.629761 -43.131016 -4.314752 119.537982 -1.195328 5.861566 0.000000 0.000000 0.000000 12.141032 24.461648 -14.580926 1.567810 23.369680 -9.481426 -114.009490 23.431013 -31.225902 0.000000 0.000000 0.000000
0.298657 0.260415 -0.535963 3.376014 -0.405628 -156.425824 -70.528414 22.487890 -97.944667 -83.332985 41.957865 24.333706 15.430927 -8.398464 -95.471908 0.000000 0.000000 0.000000 -94.702340 18.722551 -64.161553 2.951965 0.685687 -12.396290 7.197479 1.425157 -120.015422 0.000000 0.000000 0.000000 -22.083720 11.461985 -12.963535 94.258861 -34.995235 26.399324 -69.045561 -31.854673 -20.294228 101.569854 -17.034911 64.760204 0.000000 0.000000 0.000000 0.728984 -0.551830 52.765795 42.660316 -40.820966 -3.748050 116.093019 22.449016 43.688784 0.000000 0.000000 0.000000 22.074153 39.801150 -54.875794 3.587807 4.827162 -2.549465 -128.973532 59.239671 -68.166876 0.000000 0.000000 0.000000
0.309915 0.265030 -0.593398 5.149241 -0.028403 -159.036788 -68.074120 36.931663 -101.081381 -92.995726 56.365327 34.152166 22.312225 -6.449097 -97.851568 0.000000 0.000000 0.000000 -90.185961 20.569633 -59.977367 0.172618 2.484120 -18.320040 5.647562 6.569501 -121.173537 0.000000 0.000000 0.000000 -29.708837 15.111493 -15.308852 93.015392 -25.461864 14.530213 -61.648546 -32.330517 -18.334786 101.299296 -29.667684 75.196003 0.000000 0.000000 0.000000 11.509581 6.371747 69.989078 50.536766 -38.592558 0.243395 118.107460 37.042809 83.166723 0.000000 0.000000 0.000000 27.393664 46.929700 -89.777936 -2.242122 -7.097547 1.850480 147.410484 66.747805 -159.799401 0.000000 0.000000 0.000000
0.321266 0.262629 -0.651861 5.960708 4.353925 -166.765526 -102.092603 48.955648 -134.782102 -12.189180 45.100537 128.763018 25.539874 2.279407 -110.040723 0.000000 0.000000 0.000000 -82.160721 26.390215 -55.818007 -0.968406 5.921892 -25.114836 4.680203 5.056182 -116.543674 0.000000 0.000000 0.000000 -34.046060 28.069787 -10.129192 57.545979 -5.992204 5.956843 -23.090972 -35.867499 -13.392006 111.018278 -54.149224 69.288764 0.000000 0.000000 0.000000 8.677144 2.351374 114.369872 55.075097 -8.607652 15.589979 161.532934 65.826665 -156.380458 0.000000 0.000000 0.000000 24.837286 35.444509 -149.541722 -12.206167 -13.223306 9.762136 113.219110 13.793959 138.887874 0.000000 0.000000 0.000000
0.335075 0.261298 -0.709596 8.627753 2.588838 -167.487027 -94.973307 64.610915 -132.882623 -5.029487 33.601816 140.948437 17.601134 14.206763 -116.850139 0.000000 0.000000 0.000000 -55.269171 16.924638 -38.483225 -0.640467 16.169966 -33.838665 4.705564 1.909718 -113.542038 0.000000 0.000000 0.000000 -35.803544 25.865498 -10.615512 22.120690 -1.033808 -16.526695 3.805581 -34.526584 34.632259 67.541750 -56.454830 113.218717 0.000000 0.000000 0.000000 9.355040 0.352312 123.720329 56.631088 19.694386 19.921276 -146.990660 65.479545 -91.154858 0.000000 0.000000 0.000000 24.345198 22.220165 179.778158 -5.016673 -23.814585 9.842854 121.235731 0.793447 131.907188 0.000000 0.000000 0.000000
0.352132 0.263015 -0.762736 9.870382 -0.017866 -166.883566 -106.651233 60.155399 -143.546651 6.817438 -8.803426 143.291224 7.680864 17.790331 -116.891933 0.000000 0.000000 0.000000 -44.295678 6.956664 -25.979370 0.802449 25.688969 -39.618828 3.512299 2.120801 -114.635353 0.000000 0.000000 0.000000 -39.728201 25.987612 -12.036374 14.510917 -0.295480 -17.128999 13.778875 -40.295473 34.403642 69.949625 -55.182254 116.025476 0.000000 0.000000 0.000000 19.732630 0.200554 123.565636 60.364887 23.653173 28.224688 -119.539477 58.661469 -45.070983 0.000000 0.000000 0.000000 34.119280 15.587386 153.617753 -17.973374 -29.354703 19.434927 129.320684 -20.440040 123.177499 0.000000 0.000000 0.000000
0.372977 0.257861 -0.810111 11.691510 -7.776833 -159.225258 -46.385777 54.754801 -87.251670 -2.079893 25.952646 125.959625 12.740542 15.992455 -113.401331 0.000000 0.000000 0.000000 -35.093539 -3.268273 -18.646444 -5.207288 29.321826 -44.318649 3.304419 5.920125 -121.027361 0.000000 0.000000 0.000000 -37.129973 8.755658 -16.784312 13.189524 -1.420189 -14.419679 17.814553 -34.218195 39.393122 56.809080 -32.077061 125.068385 0.000000 0.000000 0.000000 10.291923 2.103886 94.241403 69.688226 6.067992 20.129959 142.500125 78.399316 171.749717 0.000000 0.000000 0.000000 36.477425 37.881971 -148.098524 8.954736 -9.086524 7.506073 125.197471 22.108463 -149.306783 0.000000 0.000000 0.000000
0.395714 0.248397 -0.856265 10.938268 -20.154361 -145.706573 -22.882355 29.041807 -76.929067 -23.872535 42.058839 92.210949 14.268600 14.946330 -107.372524 0.000000 0.000000 0.000000 -24.673350 -5.246591 -16.541528 -23.140326 18.104733 -44.230915 2.322708 3.657641 -127.746379 0.000000 0.000000 0.000000 -35.565355 -6.550547 -27.187248 1.937779 -0.264604 -12.385292 51.920919 -22.505832 63.023811 43.167829 -0.894513 124.735683 0.000000 0.000000 0.000000 8.018632 -8.022983 52.672107 88.472668 6.537988 12.327371 115.106616 66.711785 105.345357 0.000000 0.000000 0.000000 63.909530 33.218837 -61.901756 -10.632946 56.747967 8.199076 -136.028053 36.260455 25.476505 0.000000 0.000000 0.000000
0.419157 0.233742 -0.904222 6.582414 -34.130723 -133.472393 -19.446554 10.787635 -81.996400 -16.358065 26.628260 81.019831 13.325361 13.422894 -104.281042 0.000000 0.000000 0.000000 -11.419377 -0.284124 -20.916403 -36.400805 8.419461 -27.492675 -11.892718 12.092540 -139.213977 0.000000 0.000000 0.000000 -39.114530 -14.679619 -29.965669 9.216218 -2.926255 1.794535 66.631999 -10.284472 62.828127 30.047268 12.734311 118.370349 0.000000 0.000000 0.000000 0.678388 -13.082356 35.819151 102.729104 10.310734 17.615338 126.223411 56.722551 90.006898 0.000000 0.000000 0.000000 79.826110 19.630169 -23.877474 -81.057884 45.330784 -16.411160 -139.081377 -2.737447 73.543945 0.000000 0.000000 0.000000
0.442195 0.214227 -0.951610 -15.267535 -49.640034 -103.580046 -24.560074 -9.214195 -85.154796 -1.620957 7.635069 78.853928 11.905773 14.472873 -99.028967 0.000000 0.000000 0.000000 -6.751943 3.562119 -31.148826 -35.134662 6.826462 -5.400516 -18.576802 6.304783 -134.209224 0.000000 0.000000 0.000000 -45.136095 -14.420361 -28.187371 1.002066 8.415555 45.019285 79.606601 10.076717 -0.489338 10.137916 35.052433 106.410322 0.000000 0.000000 0.000000 3.176511 -24.883470 13.328489 83.951137 -26.418428 20.079243 132.659094 23.310290 46.535749 0.000000 0.000000 0.000000 82.920349 25.891086 -7.977125 -57.159327 38.832764 8.043806 -146.578581 12.432229 50.125126 0.000000 0.000000 0.000000
0.462407 0.186257 -0.994517 -25.907892 -49.841497 -91.375458 -22.724158 -13.304792 -81.701385 -0.723827 5.914012 77.397539 5.537771 41.042708 -86.156802 0.000000 0.000000 0.000000 -9.338051 4.956947 -41.056903 -11.282743 3.119078 10.022639 -2.463483 -18.662674 -118.711160 0.000000 0.000000 0.000000 -51.516263 -16.296667 -19.409341 19.740167 -26.256980 102.502356 -28.626243 31.239174 -63.705332 -18.686862 38.244367 78.444361 0.000000 0.000000 0.000000 61.740941 -5.669882 20.274114 58.047955 12.131415 18.591739 148.795229 6.064522 4.574050 0.000000 0.000000 0.000000 110.496194 11.129357 35.820993 -67.595893 0.866768 2.850824 -155.271000 6.375093 -30.951582 0.000000 0.000000 0.000000
0.479879 0.160282 -1.029898 -28.381266 -45.878878 -86.929866 -18.251950 -13.590581 -80.837014 -4.960292 8.332518 74.574785 34.549389 51.091845 -15.451177 0.000000 0.000000 0.000000 -13.820228 4.494018 -50.776813 8.064044 -0.513024 13.558312 9.547659 -44.832469 -108.484276 0.000000 0.000000 0.000000 -54.210952 -18.012290 -13.054485 12.348193 -32.014809 116.140823 -83.612738 33.475138 -79.043498 -45.994915 23.740216 67.595860 0.000000 0.000000 0.000000 57.067980 5.464115 38.720803 10.680901 34.067684 -11.986421 149.203024 2.313218 -37.464547 0.000000 0.000000 0.000000 94.683823 -1.279209 58.971983 -66.778800 -26.155207 9.221431 -159.122678 -7.602612 -45.167426 0.000000 0.000000 0.000000
0.496020 0.123681 -1.057083 -31.659139 -42.582654 -82.562881 -18.092028 -16.665008 -77.986890 -4.343799 6.303374 69.649134 14.998369 19.081341 27.872901 0.000000 0.000000 0.000000 -19.051531 2.188209 -60.736463 19.616585 -2.782635 14.561193 56.849683 -75.628849 -140.440086 0.000000 0.000000 0.000000 -56.203745 -19.547279 -5.075488 6.314966 -37.224058 122.729777 -97.525798 34.094069 -83.003704 -51.655774 12.658272 58.963524 0.000000 0.000000 0.000000 44.129730 -0.710518 30.543113 -24.069834 -7.597331 -3.044396 156.439914 -1.687937 -73.120280 0.000000 0.000000 0.000000 71.505346 -1.813326 69.276653 -70.351558 -23.123477 16.148488 -155.036341 -17.144196 -6.994149 0.000000 0.000000 0.000000
0.510513 0.105170 -1.078810 -29.274107 -38.981972 -85.469731 -15.982774 -16.819179 -73.698581 -6.802959 7.233518 64.312887 12.087488 17.482005 34.802994 0.000000 0.000000 0.000000 -17.744405 2.192205 -66.121932 20.965275 -4.397172 22.629114 -110.704925 -49.664139 81.483737 0.000000 0.000000 0.000000 -50.603655 -18.510970 0.926583 4.895654 -37.479765 121.596622 -93.998129 25.521888 -80.421234 -46.113563 -0.774682 53.223894 0.000000 0.000000 0.000000 39.539057 -3.791825 27.426805 -45.602434 -39.561911 -8.671054 160.795785 -19.054408 -109.335858 0.000000 0.000000 0.000000 62.156484 -0.373313 66.495528 -80.724105 -6.048554 6.579971 -143.451853 -17.367451 2.269604 0.000000 0.000000 0.000000
0.522721 0.091545 -1.096567 -27.741229 -37.291532 -88.168436 -15.055626 -16.211353 -67.874657 -7.165989 6.766794 60.044358 3.904110 11.154894 36.014978 0.000000 0.000000 0.000000 -15.360373 3.330481 -70.142024 19.006351 -4.806183 27.160182 -74.276628 -38.169804 79.132189 0.000000 0.000000 0.000000 -39.880678 -16.028061 3.822623 2.321658 -22.191008 128.334421 -75.409834 11.066692 -87.963903 -37.028055 -13.160912 49.744310 0.000000 0.000000 0.000000 34.254071 -6.761440 24.716116 -61.302114 -44.495337 -5.752452 164.149881 -26.843685 -135.781383 0.000000 0.000000 0.000000 48.019469 6.390267 56.755190 -83.341948 12.262635 -5.728215 -136.109490 -18.901437 20.093343 0.000000 0.000000 0.000000
0.532645 0.094077 -1.109447 -24.318617 -35.861190 -90.539271 -14.840727 -15.029919 -63.173112 -8.001689 6.704921 55.021108 8.998918 14.881062 33.698608 0.000000 0.000000 0.000000 -13.374762 5.179551 -72.643771 19.420328 -5.854928 32.348089 -53.998828 -42.154346 58.347144 0.000000 0.000000 0.000000 -29.223363 -12.430365 -1.216838 4.164926 -16.957271 124.189647 -55.997268 8.846681 -85.737264 -24.694748 -14.596216 43.574229 0.000000 0.000000 0.000000 27.828056 -9.087426 19.571987 -68.799400 -36.740627 -1.502654 167.948379 -31.029758 -161.847765 0.000000 0.000000 0.000000 40.197670 10.175148 40.791971 -70.934256 25.722637 -9.784326 -134.493898 -13.573837 18.322008 0.000000 0.000000 0.000000
0.540483 0.099259 -1.117630 -22.347073 -36.779305 -93.953423 -14.882432 -14.032820 -59.300678 -5.232702 5.298026 56.314135 8.848350 13.908273 23.280548 0.000000 0.000000 0.000000 -11.257287 7.489292 -73.090714 21.941440 -7.415770 34.540521 -51.456335 -47.180130 44.993673 0.000000 0.000000 0.000000 -16.925900 -7.037032 -5.242637 5.523351 -9.251335 118.669006 -35.449824 9.100275 -81.176596 -7.246838 -18.339663 34.964508 0.000000 0.000000 0.000000 20.309710 -11.892448 13.381621 -71.321674 -26.433086 1.294058 167.957454 -32.376985 -165.711477 0.000000 0.000000 0.000000 28.293818 12.938831 23.349769 -36.232314 39.331665 -9.890791 -133.957776 2.651902 4.167089 0.000000 0.000000 0.000000
0.547285 0.108465 -1.121652 -20.258632 -37.025180 -97.535284 -14.421362 -13.300197 -56.181686 -3.223347 3.668187 54.588539 12.950342 16.941986 23.030289 0.000000 0.000000 0.000000 -8.626513 9.200540 -70.644663 24.351316 -8.613253 33.874246 -41.612593 -60.450403 2.115459 0.000000 0.000000 0.000000 -9.608167 -3.272974 -8.032799 5.281340 -9.179616 113.721925 -27.162641 7.909023 -72.781080 1.228421 -18.501938 31.665733 0.000000 0.000000 0.000000 13.037948 -14.243655 9.213322 -70.150438 -18.134307 1.257774 170.702161 -34.260271 -174.911513 0.000000 0.000000 0.000000 21.404333 12.833298 14.861039 -14.158405 28.711672 -2.875479 -129.636242 12.825497 -9.361994 0.000000 0.000000 0.000000
0.553429 0.113150 -1.124041 -18.825046 -36.440774 -98.559927 -14.916986 -13.496797 -56.231404 -2.241200 3.001924 53.162840 22.594484 27.087082 -2.332438 0.000000 0.000000 0.000000 -8.580400 9.120714 -69.209593 32.098220 -11.057019 31.211164 -3.606601 -51.590168 -71.192177 0.000000 0.000000 0.000000 -5.688436 -0.990479 -9.702396 5.086358 -8.695675 111.702663 -21.635749 5.791239 -70.363957 5.020900 -21.065241 34.973750 0.000000 0.000000 0.000000 3.544466 -17.325514 6.665886 -65.987106 -9.461157 0.850480 170.451485 -33.854985 -170.998005 0.000000 0.000000 0.000000 14.770433 10.189862 7.782720 0.387414 23.952188 -0.468477 -121.933652 27.084699 -27.943590 0.000000 0.000000 0.000000
0.556340 0.115069 -1.127657 -17.015074 -35.741040 -100.246387 -13.532046 -12.613486 -56.364426 -4.074672 3.801793 52.125152 27.165944 53.851957 -41.604033 0.000000 0.000000 0.000000 -6.758460 10.034749 -66.510385 40.559759 -14.974526 31.824131 -2.307175 -35.926411 -89.506263 0.000000 0.000000 0.000000 -1.031720 2.042496 -10.928239 3.466909 -11.322198 114.638924 -19.052526 2.167226 -68.449110 5.914255 -22.232069 40.774994 0.000000 0.000000 0.000000 -4.461003 -21.393200 4.664780 -61.971581 -5.524532 1.545731 169.777651 -37.802606 -172.017517 0.000000 0.000000 0.000000 16.888890 13.250469 9.561430 -0.576115 14.792882 -0.654849 -111.608740 32.206743 -30.325558 0.000000 0.000000 0.000000
0.553933 0.112952 -1.134015 -11.984842 -32.983687 -103.005683 -11.998290 -11.358515 -58.557192 -3.218683 4.625331 60.348553 8.786030 37.243842 -79.979314 0.000000 0.000000 0.000000 -5.594705 11.727648 -64.973654 54.679888 -20.596511 31.853692 -1.160841 -35.297147 -95.012204 0.000000 0.000000 0.000000 -0.449177 2.517320 -11.665025 3.409763 -14.487185 120.702811 -21.326291 -1.721364 -68.208458 4.721579 -23.606553 47.034534 0.000000 0.000000 0.000000 -15.677375 -26.689924 4.907465 -54.628462 -4.683579 2.463844 161.786357 -42.618428 -153.902685 0.000000 0.000000 0.000000 11.142993 11.102216 6.770723 0.700758 18.838041 -0.804273 -105.125437 33.680982 -28.596713 0.000000 0.000000 0.000000
0.546838 0.106677 -1.140389 -10.835292 -30.485559 -101.835084 -10.316290 -10.610611 -60.089692 -8.767474 9.790590 70.053392 6.018880 36.236662 -88.012751 0.000000 0.000000 0.000000 -4.404867 11.692442 -62.938679 60.844916 -24.322737 32.430673 -0.608186 -34.561605 -98.064163 0.000000 0.000000 0.000000 1.073343 3.998291 -11.981673 1.256317 -3.771306 125.821228 -8.955570 3.356217 -67.507939 -1.531362 -19.853400 62.740347 0.000000 0.000000 0.000000 -22.907219 -26.451901 3.907834 -47.714796 -7.718300 3.304439 159.032768 -42.572657 -143.774490 0.000000 0.000000 0.000000 16.298141 12.066983 8.724240 -10.435801 15.362091 -2.064598 -109.751826 29.918545 -27.095544 0.000000 0.000000 0.000000
0.536617 0.100312 -1.143168 -6.791538 -29.521277 -100.876997 -7.612657 -7.158939 -59.590294 -5.228025 10.920979 95.524989 7.031733 30.889221 -89.002293 0.000000 0.000000 0.000000 -3.477671 13.933589 -63.688441 65.592720 -27.648392 34.296012 0.457919 -34.274785 -100.325206 0.000000 0.000000 0.000000 3.237670 4.968581 -9.710220 1.490256 -7.287562 130.092278 -8.671533 -2.121604 -67.867106 -2.405195 -14.737019 59.611886 0.000000 0.000000 0.000000 -26.015369 -24.961221 3.845863 -42.982858 -12.829532 3.440699 154.034047 -44.476482 -129.411169 0.000000 0.000000 0.000000 19.635626 7.441665 5.779024 -14.611809 24.948579 -5.532611 -119.413770 31.523838 -32.529543 0.000000 0.000000 0.000000
0.526682 0.102676 -1.139115 -5.194487 -28.708876 -96.104495 -5.797336 -4.755300 -59.866286 -0.269086 5.037625 114.546438 10.217713 23.398592 -82.006112 0.000000 0.000000 0.000000 -6.637481 13.274050 -67.094861 76.783785 -31.490454 32.635698 4.729010 -39.703295 -101.133327 0.000000 0.000000 0.000000 2.620041 3.987230 -8.048122 2.577718 -9.637483 130.377983 -6.868999 -3.402560 -63.996547 -8.618021 -8.131672 74.653386 0.000000 0.000000 0.000000 -37.927377 -24.080426 4.507366 -26.592568 -13.433369 -1.037449 156.230622 -42.559300 -115.166354 0.000000 0.000000 0.000000 25.567383 5.624395 5.010430 -18.272398 15.662461 -5.737653 -134.409883 25.637113 -33.079241 0.000000 0.000000 0.000000
0.520459 0.108706 -1.126656 -3.495265 -28.153644 -88.516456 -5.029881 -2.737014 -65.539304 -1.837573 7.579033 128.906560 10.279151 21.498718 -76.605859 0.000000 0.000000 0.000000 -12.325634 10.636407 -70.050066 96.597233 -35.713343 26.620691 12.760453 -49.242411 -103.283685 0.000000 0.000000 0.000000 9.902685 12.856782 -17.208067 1.508569 -9.457706 131.566015 7.175568 -9.155664 -49.816139 13.742193 -20.806446 61.442483 0.000000 0.000000 0.000000 -31.903270 -21.499892 9.508713 -23.470023 -24.080087 -3.012519 152.011158 -35.397764 -94.842485 0.000000 0.000000 0.000000 32.571615 6.015766 0.147019 -4.556117 14.154506 -6.784619 -152.964894 23.187821 -56.086219 0.000000 0.000000 0.000000
0.519476 0.110700 -1.109270 -0.409342 -28.483177 -83.319846 -3.113566 0.720219 -71.002655 -9.251436 26.269720 134.458137 7.152179 28.788016 -69.500007 0.000000 0.000000 0.000000 -18.877562 8.251518 -74.370878 105.090748 -38.519636 24.135889 30.964463 -62.175481 -114.430983 0.000000 0.000000 0.000000 36.183046 25.003658 4.254561 3.428811 -9.699835 131.839439 37.740650 -19.999379 -84.251660 41.961017 -19.150288 54.441459 0.000000 0.000000 0.000000 -26.705954 -14.470346 17.407080 -26.249169 -20.774106 -0.889418 150.056352 -32.694327 -72.690112 0.000000 0.000000 0.000000 40.878439 12.483086 -14.872576 -3.859645 -3.721387 -7.323748 -172.231263 29.991131 -98.966937 0.000000 0.000000 0.000000
0.521805 0.127648 -1.089396 3.456363 -29.934901 -81.119764 2.605222 8.797461 -73.211112 -8.520985 23.930638 140.665681 7.660923 21.367136 -67.380869 0.000000 0.000000 0.000000 -24.104487 7.147434 -76.565395 111.410430 -42.082044 24.179209 -175.747810 -74.306360 129.443349 0.000000 0.000000 0.000000 65.570079 25.994838 23.119040 3.497200 4.642327 133.763973 71.692959 -14.265087 -103.220618 101.283021 -9.457462 29.499793 0.000000 0.000000 0.000000 -31.726795 -13.910878 41.693347 -19.219551 -17.318983 -1.242620 145.112193 -22.204961 -44.088269 0.000000 0.000000 0.000000 34.056232 6.686694 -17.358399 13.725594 -14.949157 -0.497568 -177.641312 19.946709 -118.403473 0.000000 0.000000 0.000000
