HIERARCHY
ROOT Hips
{
	OFFSET -0.001795 -0.223333 0.028219
	CHANNELS 6 Xposition Yposition Zposition Zrotation Yrotation Xrotation
	JOINT LeftUpLeg
	{
		OFFSET 0.069520 -0.091406 -0.006815
		CHANNELS 3 Zrotation Yrotation Xrotation
		JOINT LeftLeg
		{
			OFFSET 0.034277 -0.375199 -0.004496
			CHANNELS 3 Zrotation Yrotation Xrotation
			JOINT LeftFoot
			{
				OFFSET -0.013596 -0.397961 -0.043693
				CHANNELS 3 Zrotation Yrotation Xrotation
				JOINT LeftToe
				{
					OFFSET 0.026358 -0.055791 0.119288
					CHANNELS 3 Zrotation Yrotation Xrotation
					End Site
					{
						OFFSET 0.000000 0.000000 0.000000
					}
				}
			}
		}
	}
	JOINT RightUpLeg
	{
		OFFSET -0.067670 -0.090522 -0.004320
		CHANNELS 3 Zrotation Yrotation Xrotation
		JOINT RightLeg
		{
			OFFSET -0.038290 -0.382569 -0.008850
			CHANNELS 3 Zrotation Yrotation Xrotation
			JOINT RightFoot
			{
				OFFSET 0.015774 -0.398415 -0.042312
				CHANNELS 3 Zrotation Yrotation Xrotation
				JOINT RightToe
				{
					OFFSET -0.025372 -0.048144 0.123348
					CHANNELS 3 Zrotation Yrotation Xrotation
					End Site
					{
						OFFSET 0.000000 0.000000 0.000000
					}
				}
			}
		}
	}
	JOINT Spine
	{
		OFFSET -0.002533 0.108963 -0.026696
		CHANNELS 3 Zrotation Yrotation Xrotation
		JOINT Spine1
		{
			OFFSET 0.005487 0.135180 0.001092
			CHANNELS 3 Zrotation Yrotation Xrotation
			JOINT Spine2
			{
				OFFSET 0.001457 0.052922 0.025425
				CHANNELS 3 Zrotation Yrotation Xrotation
				JOINT Neck
				{
					OFFSET -0.002778 0.213870 -0.042857
					CHANNELS 3 Zrotation Yrotation Xrotation
					JOINT Head
					{
						OFFSET 0.005152 0.064970 0.051349
						CHANNELS 3 Zrotation Yrotation Xrotation
						End Site
						{
							OFFSET 0.000000 0.000000 0.000000
						}
					}
				}
				JOINT LeftShoulder
				{
					OFFSET 0.078845 0.121749 -0.034090
					CHANNELS 3 Zrotation Yrotation Xrotation
					JOINT LeftArm
					{
						OFFSET 0.090977 0.030469 -0.008868
						CHANNELS 3 Zrotation Yrotation Xrotation
						JOINT LeftForeArm
						{
							OFFSET 0.259612 -0.012772 -0.027456
							CHANNELS 3 Zrotation Yrotation Xrotation
							JOINT LeftHand
							{
								OFFSET 0.249234 0.008986 -0.001171
								CHANNELS 3 Zrotation Yrotation Xrotation
								End Site
								{
									OFFSET 0.000000 0.000000 0.000000
								}
							}
						}
					}
				}
				JOINT RightShoulder
				{
					OFFSET -0.081759 0.118833 -0.038615
					CHANNELS 3 Zrotation Yrotation Xrotation
					JOINT RightArm
					{
						OFFSET -0.096012 0.032551 -0.009143
						CHANNELS 3 Zrotation Yrotation Xrotation
						JOINT RightForeArm
						{
							OFFSET -0.253742 -0.013329 -0.021401
							CHANNELS 3 Zrotation Yrotation Xrotation
							JOINT RightHand
							{
								OFFSET -0.255298 0.007772 -0.005559
								CHANNELS 3 Zrotation Yrotation Xrotation
								End Site
								{
									OFFSET 0.000000 0.000000 0.000000
								}
							}
						}
					}
				}
			}
		}
	}
}
MOTION
Frames: 76
Frame Time: 0.050000
0.000000 0.657677 0.000000 -2.938810 13.121866 1.613622 7.546825 -0.759655 20.427517 -2.097551 -3.022502 41.923223 -1.064987 5.698855 16.881144 0.000000 0.000000 0.000000 -8.147305 -3.744257 -63.519652 22.048718 -17.508418 61.826301 -8.189373 -19.325733 -21.629758 0.000000 0.000000 0.000000 3.228628 -12.342345 72.072216 8.530351 2.650218 -62.324783 -2.036916 -8.944846 28.534228 -5.099546 3.441951 -22.609750 0.000000 0.000000 0.000000 -28.742695 -15.239571 11.386753 -16.654667 -31.115464 -1.239400 64.961207 -65.033542 -38.934294 0.000000 0.000000 0.000000 20.874598 9.799573 2.709423 46.006890 -11.138577 -10.465846 9.224306 43.905474 4.921554 0.000000 0.000000 0.000000
0.026435 0.655601 0.103489 -4.367481 10.233930 4.674831 9.052494 -0.755669 17.160902 -5.599111 -1.192398 47.836857 3.085855 10.176475 12.695089 0.000000 0.000000 0.000000 -5.687241 -0.984146 -65.885915 22.087018 -16.773158 62.263442 -10.082154 -29.343419 -25.164979 0.000000 0.000000 0.000000 7.069271 -13.703475 70.750027 7.391968 2.849619 -69.194737 -1.745285 -7.585319 37.772910 -6.938422 4.798918 -24.934199 0.000000 0.000000 0.000000 -31.052026 -11.690922 10.114255 -15.751861 -38.092051 -1.903058 53.540790 -65.188247 -29.897020 0.000000 0.000000 0.000000 19.011144 11.773039 4.379629 44.946592 -3.972347 -8.810693 4.174176 48.659797 3.623371 0.000000 0.000000 0.000000
0.053111 0.659066 0.209419 -4.157467 5.002870 3.697046 6.785963 0.066510 15.826643 -7.987194 1.457264 52.851937 4.496237 12.301824 13.796982 0.000000 0.000000 0.000000 -3.088250 2.974538 -61.352680 19.332041 -15.772321 71.595939 -9.632213 -32.972834 -33.398861 0.000000 0.000000 0.000000 8.490197 -12.961375 74.121515 8.511765 2.863089 -66.223207 -4.872978 -3.393411 33.812411 -6.199552 5.101791 -20.024480 0.000000 0.000000 0.000000 -29.345954 -10.172080 7.237872 -22.359121 -32.761875 -0.780730 43.373281 -62.881901 -22.356226 0.000000 0.000000 0.000000 19.328956 15.220175 6.886494 41.305200 5.006231 -5.200598 0.844855 51.596644 2.545425 0.000000 0.000000 0.000000
0.073483 0.658466 0.316162 -4.382493 1.888197 1.705516 7.922820 -0.086750 4.410789 -12.668700 7.090781 70.654281 6.174454 13.892390 7.110968 0.000000 0.000000 0.000000 -2.127365 4.289053 -55.509864 18.575417 -15.775893 78.366115 -9.996010 -37.789246 -34.199211 0.000000 0.000000 0.000000 9.251966 -12.821811 78.208048 4.110887 2.137271 -65.386137 -0.213676 -4.067893 31.638824 -8.029537 6.300645 -18.595119 0.000000 0.000000 0.000000 -35.381380 -13.531731 10.358044 -25.078985 -25.049342 -1.444689 27.000469 -59.783395 -11.799887 0.000000 0.000000 0.000000 17.688402 18.697675 8.220174 36.385414 14.578408 -1.920083 -5.945737 53.331410 -0.950981 0.000000 0.000000 0.000000
0.088876 0.653461 0.428834 -5.968949 -5.936009 0.089409 12.288621 0.409902 -12.938286 -15.063053 18.780196 88.590497 8.435313 17.562975 4.163863 0.000000 0.000000 0.000000 3.294169 7.703726 -47.138712 17.291580 -11.648793 85.338142 -9.978740 -39.984447 -34.546375 0.000000 0.000000 0.000000 7.823423 -7.725261 81.735917 8.735516 2.203603 -64.671123 0.046354 6.171631 31.636647 -3.967124 5.143309 -18.442669 0.000000 0.000000 0.000000 -37.568181 -13.332984 5.480554 -29.640173 -12.857722 -2.434438 5.976175 -55.835928 -0.690869 0.000000 0.000000 0.000000 20.582167 20.991664 12.349774 25.098390 27.553140 -0.156299 -17.445808 55.243349 -6.111546 0.000000 0.000000 0.000000
0.101992 0.636993 0.549483 -3.664722 -13.340893 -5.710044 17.575435 4.104566 -29.981899 -11.027150 22.195547 102.265788 9.217755 17.600810 -6.989754 0.000000 0.000000 0.000000 4.427187 6.444645 -34.684925 15.140690 -3.923775 91.742808 -12.093101 -43.143555 -26.456613 0.000000 0.000000 0.000000 7.496527 -3.613343 89.539262 3.880063 0.841602 -72.082232 0.987981 7.921927 37.632786 -1.085842 3.604066 -17.112763 0.000000 0.000000 0.000000 -40.413472 -12.031207 3.972105 -27.133205 -0.530268 -4.870941 -5.806937 -56.574219 5.362115 0.000000 0.000000 0.000000 24.010767 23.945909 15.481219 12.983987 35.821975 -1.432016 -37.078052 55.331263 -17.013126 0.000000 0.000000 0.000000
0.115114 0.617963 0.680891 -0.207138 -16.245291 -12.418359 20.563471 9.547210 -45.557501 -9.014142 17.741056 102.031526 9.535424 16.997313 -16.629283 0.000000 0.000000 0.000000 1.003662 2.565073 -19.286432 11.987077 3.918788 94.446148 -18.545375 -43.605523 -1.344628 0.000000 0.000000 0.000000 5.758353 -0.118117 94.278986 6.435527 0.435089 -80.733943 0.795171 14.779498 44.478276 3.632523 0.037280 -8.892725 0.000000 0.000000 0.000000 -42.015147 -11.361168 0.406216 -21.256550 11.423291 -5.428926 -17.983256 -59.125247 12.077506 0.000000 0.000000 0.000000 30.363594 21.881220 19.112383 -4.377599 40.397295 -5.843138 -46.332716 57.738636 -24.744349 0.000000 0.000000 0.000000
0.129292 0.592642 0.822895 2.673220 -17.299216 -18.983611 21.251956 12.225195 -51.627187 -9.925486 13.547817 84.748252 9.205464 16.336192 -15.101328 0.000000 0.000000 0.000000 -7.453295 0.428742 -3.715308 7.971275 10.782637 94.455792 -8.513148 -20.679968 22.405575 0.000000 0.000000 0.000000 3.569526 2.327444 98.213803 18.224922 8.904632 -126.618018 13.003660 26.096769 98.352231 11.409688 -0.783551 -26.082921 0.000000 0.000000 0.000000 -40.928254 -9.021722 -3.679991 -15.517918 14.803921 -7.459858 -35.366132 -68.466851 21.190731 0.000000 0.000000 0.000000 26.722837 20.763740 18.394595 -15.975444 48.618621 -13.448346 -68.429504 56.531528 -41.646877 0.000000 0.000000 0.000000
0.147930 0.558800 0.973376 4.781492 -16.550387 -29.922648 23.322710 12.374494 -47.596646 -10.903362 10.478463 68.276442 7.918375 13.470139 -10.370111 0.000000 0.000000 0.000000 -17.762799 2.511145 16.358515 2.232100 16.556315 91.910802 5.402333 1.610517 20.031241 0.000000 0.000000 0.000000 3.776015 0.474703 100.930232 20.696288 25.932737 -164.722662 30.845414 27.433464 137.503642 9.952166 -9.428211 9.868625 0.000000 0.000000 0.000000 -38.965772 -10.916167 -10.967559 -3.054368 25.585444 -3.261215 -82.925282 -66.321996 40.475466 0.000000 0.000000 0.000000 20.350583 17.593778 7.686617 3.679081 49.034750 -6.327742 -101.086414 74.149982 -86.711967 0.000000 0.000000 0.000000
0.171392 0.508234 1.123620 5.926502 -15.131461 -41.139004 24.506197 11.562294 -42.176371 -10.853201 8.047199 58.548535 7.765026 13.751431 -2.870002 0.000000 0.000000 0.000000 -32.137332 9.389852 30.153492 -2.508207 21.101312 91.628262 12.455824 18.253593 14.053320 0.000000 0.000000 0.000000 5.425406 -3.902047 103.935631 -7.545758 -14.008953 -178.870129 10.910408 -10.101846 116.523867 2.441455 -14.966720 36.030493 0.000000 0.000000 0.000000 -31.287124 1.058742 8.418615 -2.421765 16.904599 -3.512453 -134.485455 -74.893718 87.398965 0.000000 0.000000 0.000000 21.737001 13.164018 8.901307 8.118277 48.711347 -13.112048 -176.943763 69.993707 -170.809251 0.000000 0.000000 0.000000
0.196847 0.437534 1.264781 7.307136 -12.178305 -53.473363 22.807031 8.567541 -33.355426 -9.967549 5.621479 49.394895 10.734445 18.924402 4.316866 0.000000 0.000000 0.000000 -50.040246 17.528593 34.545963 -8.535565 31.621841 96.861401 7.984738 30.515159 -8.175679 0.000000 0.000000 0.000000 19.958185 -14.561640 91.874801 38.621156 60.216033 -170.248392 98.497847 37.398820 -166.929925 -68.462778 2.749462 65.331985 0.000000 0.000000 0.000000 -4.787400 -19.033227 -59.758560 27.577292 23.127015 8.510539 -112.802575 -11.502634 -3.166418 0.000000 0.000000 0.000000 27.862698 -1.336143 52.768743 -55.499789 49.112222 -32.896243 -109.150086 38.201996 -50.466745 0.000000 0.000000 0.000000
0.220875 0.352410 1.394606 8.684419 -10.053333 -62.668308 22.492826 8.174614 -30.984686 -9.109682 4.420091 50.983419 11.874397 20.201748 5.346432 0.000000 0.000000 0.000000 -75.789245 18.012013 18.328155 -28.307245 59.266298 96.264596 -20.252268 42.267235 -71.963614 0.000000 0.000000 0.000000 99.762377 48.303323 41.289869 -3.172171 -6.880326 138.160895 81.897333 -30.952620 -89.128317 109.240198 1.351469 30.961550 0.000000 0.000000 0.000000 -0.571575 -0.941510 8.966074 -4.276138 -9.571030 -1.837563 127.975354 -79.436203 -93.238061 0.000000 0.000000 0.000000 43.024350 33.487389 -36.490373 26.968639 37.480211 31.262117 -122.985915 72.103684 -37.276258 0.000000 0.000000 0.000000
0.241857 0.272485 1.508636 6.760889 -7.944992 -69.207826 21.596529 7.692532 -32.598825 -8.689065 3.349318 53.692078 15.048779 25.178608 -4.566703 0.000000 0.000000 0.000000 -78.519187 -6.060825 -15.141937 -157.689366 37.282329 -12.623257 -25.366790 -2.646357 -118.282457 0.000000 0.000000 0.000000 15.992733 15.690507 -27.563413 -1.309013 -9.522834 133.878844 -1.289069 -19.618944 -51.921810 21.151248 -18.909319 43.778006 0.000000 0.000000 0.000000 -17.396441 -13.771712 5.328244 -6.661901 -20.037662 -1.021818 102.051844 -66.860107 -71.145248 0.000000 0.000000 0.000000 21.564196 15.675625 3.493007 -29.441521 60.608423 -20.025854 -95.510130 30.426829 -18.107326 0.000000 0.000000 0.000000
0.259250 0.209977 1.602371 6.217249 -7.160983 -74.596154 20.672048 7.259097 -32.476295 -5.284783 0.630189 58.158951 14.528793 24.928826 -13.887945 0.000000 0.000000 0.000000 -46.615334 -14.170572 -52.190435 10.101539 33.058663 -163.028326 -17.265144 1.646226 -92.678246 0.000000 0.000000 0.000000 12.781739 13.547606 -33.360295 -0.749345 -7.744944 124.690550 -3.570488 -15.023063 -49.942367 7.656336 -14.868192 51.208850 0.000000 0.000000 0.000000 -21.138176 -19.460881 7.975993 -17.329970 -15.448930 0.886886 108.329074 -68.193343 -82.209702 0.000000 0.000000 0.000000 16.389693 16.228358 4.947955 -1.614795 62.187272 -3.596959 -90.466385 29.919044 -25.088696 0.000000 0.000000 0.000000
0.274320 0.158820 1.679387 5.316255 -5.417832 -79.856333 19.331731 6.238781 -31.046350 -4.917176 -0.048609 53.642333 15.609357 24.961968 3.709848 0.000000 0.000000 0.000000 -24.472411 -4.901612 -60.134693 131.658993 -23.468212 5.035295 5.831737 -38.982467 -111.389355 0.000000 0.000000 0.000000 9.714808 8.908285 -30.008211 0.898896 -5.943509 102.265027 -6.595256 -11.152918 -44.883493 -0.347308 -6.813945 55.557896 0.000000 0.000000 0.000000 -23.273516 -20.289729 8.577469 -30.508162 -10.967255 1.157540 86.944873 -77.455739 -70.800694 0.000000 0.000000 0.000000 11.139100 14.321676 4.709827 30.808416 55.242895 14.796907 -86.224600 35.003138 -33.233112 0.000000 0.000000 0.000000
0.288759 0.132936 1.741904 4.146589 -4.199872 -81.925204 17.479679 5.361212 -33.822260 -2.137643 -2.042708 53.156482 7.448001 14.478150 16.057027 0.000000 0.000000 0.000000 -15.348420 -0.070448 -59.012429 65.777389 -31.891619 45.920884 7.096015 -54.171444 -84.188246 0.000000 0.000000 0.000000 11.112567 9.076303 -30.194866 -0.577699 -1.039742 74.172785 -3.737097 -9.217563 -21.394203 1.786076 -6.659355 47.787224 0.000000 0.000000 0.000000 -32.743119 -22.713268 14.996203 -29.343877 -10.490557 -1.010179 53.991387 -67.155307 -31.996375 0.000000 0.000000 0.000000 8.203652 14.740409 5.177708 36.086828 46.803231 12.137413 -82.979929 37.709889 -30.600488 0.000000 0.000000 0.000000
0.302954 0.112701 1.792529 2.934305 -3.557991 -83.905165 17.503799 5.157408 -33.236148 -2.285389 -2.016669 47.625555 1.872905 11.072489 31.779138 0.000000 0.000000 0.000000 -11.120962 1.559775 -53.882951 42.108075 -20.698276 49.430047 -20.569007 -61.639752 -25.746558 0.000000 0.000000 0.000000 14.802975 9.967916 -26.135438 1.326495 -4.299861 50.834215 -12.983573 -10.760806 -1.978791 4.277003 -10.806181 46.217081 0.000000 0.000000 0.000000 -29.590947 -27.257727 19.021947 -33.788196 -13.273460 -1.471293 41.997118 -56.575861 -18.518258 0.000000 0.000000 0.000000 6.553378 11.131140 3.810846 45.244389 38.520130 9.925628 -86.791942 47.163017 -37.901212 0.000000 0.000000 0.000000
0.315977 0.098746 1.832772 3.679847 -0.594505 -84.479756 14.226762 3.218338 -29.687965 3.299613 -4.191352 38.966790 -1.357236 10.020488 40.411913 0.000000 0.000000 0.000000 -11.345808 0.280708 -48.207996 30.921322 -13.681887 47.329130 -21.151815 -31.350846 30.805253 0.000000 0.000000 0.000000 14.551630 8.789053 -23.846424 -0.043734 -2.300224 38.611338 -14.658772 -6.669519 10.637218 5.759760 -12.224896 33.350418 0.000000 0.000000 0.000000 -27.982355 -28.215288 18.394979 -34.658284 -19.469672 -0.748037 40.618884 -50.074278 -15.439646 0.000000 0.000000 0.000000 8.762477 8.442422 3.172220 44.007233 29.296124 4.204243 -86.699126 57.253804 -45.593970 0.000000 0.000000 0.000000
0.327463 0.085488 1.864189 5.242020 0.915064 -84.336991 12.980406 2.591074 -26.273850 7.623077 -5.065322 31.389724 -5.915915 6.479231 42.083226 0.000000 0.000000 0.000000 -10.173704 0.159918 -39.644800 21.878208 -7.592394 40.194663 -3.790100 -15.439152 45.640787 0.000000 0.000000 0.000000 16.110725 9.306832 -23.757043 -1.898478 -0.409622 36.648291 -12.412337 -7.694968 16.107551 4.565799 -8.581932 25.545428 0.000000 0.000000 0.000000 -27.666459 -26.742561 17.853403 -32.683109 -25.133074 -0.040593 40.019240 -48.975606 -14.612131 0.000000 0.000000 0.000000 2.277776 3.861757 1.101161 48.207916 23.858307 2.113948 -86.506763 66.301379 -54.676731 0.000000 0.000000 0.000000
0.336133 0.082004 1.887434 4.887494 3.159717 -80.464103 14.030908 2.567369 -29.302921 4.472369 -3.494366 28.506325 -6.578467 7.214848 46.595902 0.000000 0.000000 0.000000 -11.474925 -1.014775 -35.653566 18.530441 -5.621285 32.375017 -4.278516 -16.182213 50.674249 0.000000 0.000000 0.000000 16.151377 9.936349 -29.794009 -4.118760 1.087723 40.472219 -10.128263 -7.520966 13.995897 7.269263 -11.797936 23.151226 0.000000 0.000000 0.000000 -30.655401 -29.392226 20.150223 -28.688837 -22.682560 -0.604066 39.280737 -48.801371 -14.769241 0.000000 0.000000 0.000000 6.495527 5.198214 1.670803 41.113431 15.370066 -1.110432 -66.757873 70.730145 -43.501763 0.000000 0.000000 0.000000
0.341502 0.071002 1.904997 4.587493 4.808947 -79.787586 14.821348 2.647065 -28.878002 2.315706 -2.141097 22.644611 -4.677324 9.642278 49.759087 0.000000 0.000000 0.000000 -13.491024 -2.158198 -31.517620 17.817028 -5.154874 28.163640 -5.981650 -17.406353 50.842184 0.000000 0.000000 0.000000 18.955172 10.737948 -28.857340 -4.673736 1.478054 29.584065 -13.870607 -6.809079 25.234940 7.462512 -12.976582 21.542708 0.000000 0.000000 0.000000 -24.504791 -30.454508 18.334722 -29.814568 -22.753185 -0.951496 37.488414 -43.945342 -12.592544 0.000000 0.000000 0.000000 9.826270 5.305744 2.119051 41.574578 13.205656 -2.790898 -33.112075 69.441027 -16.983718 0.000000 0.000000 0.000000
0.344340 0.066817 1.918463 7.019901 6.890903 -79.912972 15.064959 2.680245 -25.685633 0.287367 -1.031843 17.214376 -5.271240 9.632711 51.652589 0.000000 0.000000 0.000000 -16.160336 -3.339782 -28.624534 17.858985 -4.662740 25.011341 -4.935779 -16.848273 54.448223 0.000000 0.000000 0.000000 21.032638 11.398059 -27.864865 -6.433752 2.785310 29.466175 -13.533526 -6.121479 27.802870 6.290122 -11.352913 19.383132 0.000000 0.000000 0.000000 -20.620308 -28.015415 15.360261 -30.591848 -23.423075 -1.032032 31.466888 -46.155258 -10.855008 0.000000 0.000000 0.000000 12.438472 5.224977 2.511057 39.473469 14.881747 -2.898914 -13.785294 59.804951 -2.982279 0.000000 0.000000 0.000000
0.345512 0.075685 1.929115 7.355908 8.197219 -79.158995 16.489450 2.972426 -23.462993 -0.092071 -0.631956 12.531912 -6.693392 9.415962 55.423293 0.000000 0.000000 0.000000 -18.028775 -4.104624 -26.147116 19.312635 -4.743127 20.959927 -5.177497 -16.948882 52.477251 0.000000 0.000000 0.000000 21.611071 11.265669 -27.349353 -8.059840 3.994591 28.750117 -10.664156 -6.648452 25.796058 6.814168 -11.814676 19.221857 0.000000 0.000000 0.000000 -23.543698 -27.275094 15.715198 -27.547832 -18.188723 -1.941357 24.936570 -47.737923 -8.792559 0.000000 0.000000 0.000000 13.366158 6.370598 3.149390 36.961866 12.590364 -3.206710 -10.212062 56.092101 -1.426291 0.000000 0.000000 0.000000
0.346251 0.075817 1.937945 6.160950 10.917200 -78.818977 14.977695 2.149215 -21.381413 2.119512 -0.648503 6.108028 -6.388186 10.224909 57.475224 0.000000 0.000000 0.000000 -21.673866 -5.509628 -21.677437 21.950997 -4.894482 14.585767 -10.370188 -20.671294 50.842972 0.000000 0.000000 0.000000 17.657919 9.187054 -29.667716 -5.776226 1.712156 27.462458 -11.950377 -1.438557 28.020907 8.072966 -13.695720 16.967077 0.000000 0.000000 0.000000 -20.196411 -27.807514 13.716411 -30.973041 -18.762421 -1.883029 18.074673 -46.020004 -5.790989 0.000000 0.000000 0.000000 20.010725 8.372457 6.284893 31.094766 12.470198 -3.672570 -11.027680 48.132808 -1.775751 0.000000 0.000000 0.000000
0.346644 0.076531 1.942544 7.236319 13.258199 -77.991057 14.619726 1.893285 -19.264982 1.484540 -0.252691 1.580336 -6.302762 10.264796 56.268368 0.000000 0.000000 0.000000 -23.488664 -6.152757 -19.576971 22.152476 -4.329990 9.720791 -10.856917 -21.061781 47.572472 0.000000 0.000000 0.000000 17.621689 8.842876 -30.260524 -9.943749 4.753144 28.162191 -6.295588 0.135396 28.745324 6.303025 -12.141946 18.201317 0.000000 0.000000 0.000000 -22.938080 -28.175869 13.834915 -27.697735 -18.224945 -2.043263 10.541089 -44.460731 -2.796087 0.000000 0.000000 0.000000 22.969337 6.153577 6.199894 28.198279 14.164613 -3.779012 -10.368872 47.170383 -1.393120 0.000000 0.000000 0.000000
0.346792 0.079200 1.943479 5.396677 14.693664 -77.789808 14.287768 1.568402 -18.977705 0.611467 -0.029971 -0.702958 -5.913396 10.721493 55.856609 0.000000 0.000000 0.000000 -23.070400 -6.052796 -17.580429 19.736746 -3.494308 5.500653 -12.350159 -22.026546 48.362341 0.000000 0.000000 0.000000 15.364410 7.511974 -32.887093 -9.113438 3.873058 25.011774 -5.474663 2.103882 33.716417 7.280569 -13.557732 16.814093 0.000000 0.000000 0.000000 -22.325622 -29.536088 13.905270 -27.177683 -16.972694 -2.493672 9.078006 -41.373665 -2.339453 0.000000 0.000000 0.000000 26.626982 7.619459 8.577492 25.231846 14.098562 -4.087089 -8.942317 42.145527 -1.336947 0.000000 0.000000 0.000000
0.346780 0.077839 1.942418 4.626610 15.914353 -78.569422 13.887075 1.412735 -18.592112 -0.511149 0.089570 -0.803314 -5.359555 11.028135 53.558861 0.000000 0.000000 0.000000 -22.896349 -6.174521 -16.681920 19.085998 -3.425752 5.044677 -14.028787 -23.270786 45.427764 0.000000 0.000000 0.000000 14.481424 6.808807 -32.024563 -9.267821 3.839378 22.828762 -4.285304 3.113652 35.583248 5.942196 -13.542343 20.364089 0.000000 0.000000 0.000000 -21.569385 -29.102463 13.009446 -27.406416 -17.475090 -2.543433 5.316872 -38.608162 -0.964712 0.000000 0.000000 0.000000 28.521429 6.297368 8.792611 25.596570 14.611163 -4.388195 -5.144640 42.225120 0.045982 0.000000 0.000000 0.000000
0.346651 0.075518 1.940377 3.792313 16.425475 -78.924954 15.968759 1.816500 -19.421278 -4.243995 0.416785 0.220899 -4.777308 11.469974 52.452379 0.000000 0.000000 0.000000 -22.244077 -6.250453 -17.751500 18.306537 -3.676279 7.506161 -12.663392 -22.230676 39.952855 0.000000 0.000000 0.000000 14.247011 6.605462 -32.801030 -11.478097 5.224533 22.733199 0.311060 3.624086 37.021634 3.886997 -11.624202 23.157625 0.000000 0.000000 0.000000 -21.179061 -28.908268 12.623308 -28.609355 -18.961802 -2.578572 4.815573 -36.784023 -0.737459 0.000000 0.000000 0.000000 28.625286 4.375476 8.212752 24.544968 15.728720 -4.596649 -1.453349 41.827407 1.490723 0.000000 0.000000 0.000000
0.346942 0.070648 1.938541 2.299796 17.706933 -79.766164 16.332358 1.739205 -20.209076 -5.973262 0.534611 0.991130 -5.897242 10.933717 52.718126 0.000000 0.000000 0.000000 -21.647503 -6.303532 -17.454449 17.061617 -3.538920 7.276168 -15.170756 -24.124501 40.738273 0.000000 0.000000 0.000000 11.490264 5.029065 -32.913217 -8.144989 2.807036 20.645270 -2.495359 5.899773 38.641747 5.197380 -12.789875 20.430941 0.000000 0.000000 0.000000 -14.215937 -26.770849 10.084537 -34.360373 -20.962707 -2.656277 3.528000 -34.962140 -0.397776 0.000000 0.000000 0.000000 30.422406 6.751942 11.337217 24.494215 16.663572 -4.629710 -2.580876 38.475729 0.727880 0.000000 0.000000 0.000000
0.347889 0.063666 1.937357 1.281763 18.587370 -81.587154 15.358153 1.528576 -19.167724 -6.404483 0.564668 2.595704 -4.898840 11.578943 50.157660 0.000000 0.000000 0.000000 -21.164988 -6.177968 -15.565194 16.574277 -3.442591 6.202469 -14.677087 -24.126872 34.556593 0.000000 0.000000 0.000000 9.331071 3.892454 -30.010933 -5.590535 1.214132 18.245643 -3.345204 6.214623 38.599030 5.271783 -12.484696 19.336474 0.000000 0.000000 0.000000 -11.770217 -22.087069 7.485853 -38.734385 -23.655632 -2.215605 0.541927 -34.391680 0.557696 0.000000 0.000000 0.000000 31.046709 5.514169 10.819685 25.724074 19.861787 -4.430480 -4.706031 37.498133 0.325280 0.000000 0.000000 0.000000
0.349070 0.064966 1.936755 0.728621 18.460843 -82.932601 14.848091 1.496491 -18.305490 -6.451119 0.562206 5.740343 -4.421326 11.715786 47.797092 0.000000 0.000000 0.000000 -20.761492 -5.862638 -13.251622 15.067473 -2.843418 3.579205 -9.025388 -18.710885 38.512987 0.000000 0.000000 0.000000 8.782354 3.661432 -30.463311 -7.657217 2.469741 19.147633 0.936311 7.149572 38.276863 7.371650 -11.639949 12.035601 0.000000 0.000000 0.000000 -9.376085 -23.627830 7.879605 -41.317867 -22.844821 -2.607838 0.810976 -35.767793 0.309570 0.000000 0.000000 0.000000 29.475707 4.463834 10.053460 27.132591 20.036394 -4.448828 -6.073444 39.143532 0.116196 0.000000 0.000000 0.000000
0.349515 0.064979 1.936954 -1.022592 17.477638 -83.724494 15.619888 1.698731 -18.242095 -6.342566 0.504515 7.880861 -5.370656 10.955335 47.199773 0.000000 0.000000 0.000000 -19.051057 -5.042734 -10.403548 12.479645 -2.059422 -0.109267 -7.527671 -17.283622 40.095508 0.000000 0.000000 0.000000 6.828768 2.744967 -30.974891 -6.344929 1.852667 17.037322 2.154805 6.636193 40.192539 7.811819 -10.903121 9.472168 0.000000 0.000000 0.000000 -8.235123 -21.029381 6.909796 -42.651802 -21.360184 -3.427241 -1.476378 -39.204027 1.086719 0.000000 0.000000 0.000000 27.819557 3.498387 8.667550 28.913135 20.481578 -4.334305 -3.932102 40.171424 0.996738 0.000000 0.000000 0.000000
0.348599 0.066200 1.937522 -1.438724 16.999873 -84.268543 16.162246 1.899056 -16.744418 -6.275412 0.489378 8.198286 -6.457853 9.835710 45.282552 0.000000 0.000000 0.000000 -18.019351 -4.463647 -6.808057 11.220205 -1.641310 -3.634847 -6.388868 -16.457573 41.775701 0.000000 0.000000 0.000000 5.547384 2.163190 -30.755431 -6.534880 2.191519 15.468618 3.354231 8.062272 40.621117 8.478659 -10.382787 6.881520 0.000000 0.000000 0.000000 -4.699635 -18.584201 5.769090 -46.101432 -21.149684 -4.017283 -5.299201 -39.552387 2.241056 0.000000 0.000000 0.000000 27.089115 3.219286 8.700761 30.377251 18.607043 -4.614798 -0.982845 41.528038 2.130861 0.000000 0.000000 0.000000
0.346138 0.068342 1.938383 -2.064748 16.312584 -84.737870 18.095382 2.357899 -14.942913 -7.401761 0.648931 7.786083 -7.087818 9.129898 43.721950 0.000000 0.000000 0.000000 -16.679835 -3.999925 -4.544202 9.688316 -1.372283 -5.291718 -6.147064 -16.335184 43.001265 0.000000 0.000000 0.000000 3.608935 1.238767 -30.745245 -5.585338 1.806557 14.014489 4.167009 8.929109 41.484766 9.355966 -9.719743 3.461905 0.000000 0.000000 0.000000 -3.976201 -17.102500 5.169917 -47.079802 -19.733747 -4.749954 -10.014482 -38.881526 3.758288 0.000000 0.000000 0.000000 26.037870 1.732448 7.651985 32.885429 17.605855 -4.963828 3.039365 42.176515 3.948986 0.000000 0.000000 0.000000
0.343374 0.069700 1.939710 -2.950554 15.679503 -85.066327 18.435252 2.422652 -13.682552 -6.453840 0.534578 7.237714 -7.728285 8.167862 41.301549 0.000000 0.000000 0.000000 -14.995881 -3.499881 -3.036371 7.920865 -1.135636 -6.456573 -5.667473 -15.921716 45.398766 0.000000 0.000000 0.000000 2.176122 0.522018 -30.831815 -5.969224 2.080238 13.800695 5.558430 10.310591 41.544226 9.663221 -9.340486 2.306123 0.000000 0.000000 0.000000 -1.610105 -14.904255 4.359385 -49.857106 -19.337655 -5.447322 -14.350909 -37.998274 4.997592 0.000000 0.000000 0.000000 26.878872 1.004829 7.745385 32.988371 15.225190 -5.522686 9.469344 39.909634 5.762074 0.000000 0.000000 0.000000
0.341459 0.070269 1.941526 -2.536966 15.064944 -84.688564 18.570907 2.438189 -12.409360 -5.902961 0.492497 6.561910 -7.492092 7.906860 39.572826 0.000000 0.000000 0.000000 -13.422481 -3.007740 -2.304299 5.886035 -0.890835 -7.932437 -5.378388 -15.801402 47.426788 0.000000 0.000000 0.000000 1.675699 0.391878 -30.585705 -5.122722 1.851687 10.999961 5.357850 11.398451 43.127778 10.747465 -9.332232 -0.185433 0.000000 0.000000 0.000000 -0.368445 -13.333117 3.794857 -52.248461 -19.404003 -5.935967 -14.922372 -34.979475 4.725124 0.000000 0.000000 0.000000 25.806220 -0.714783 6.692122 35.205878 14.350839 -5.873509 13.611490 37.715169 6.970941 0.000000 0.000000 0.000000
0.340447 0.070451 1.943481 -2.030219 14.130764 -84.177149 18.410524 2.455097 -11.618235 -3.945478 0.285878 5.522863 -7.029055 7.845482 38.213698 0.000000 0.000000 0.000000 -12.655671 -2.743266 -2.425157 5.320647 -0.822885 -9.021865 -6.202017 -16.691657 47.959890 0.000000 0.000000 0.000000 1.662997 0.511628 -30.878487 -4.753531 1.818090 9.217642 5.283650 12.254586 44.479973 10.711330 -8.441319 -1.834830 0.000000 0.000000 0.000000 0.610468 -12.082073 3.405101 -54.160913 -18.702557 -6.668648 -17.177516 -33.638112 5.169743 0.000000 0.000000 0.000000 26.348948 -1.085006 6.831568 35.047874 13.743236 -6.201641 15.764241 33.894880 6.705703 0.000000 0.000000 0.000000
0.340011 0.070463 1.944911 -1.426422 13.267627 -83.309710 18.471157 2.490133 -11.034058 -2.727761 0.174850 4.374877 -6.401868 7.978260 36.956232 0.000000 0.000000 0.000000 -12.023317 -2.514241 -2.932339 4.512290 -0.751670 -10.024873 -5.536970 -16.309383 49.634630 0.000000 0.000000 0.000000 2.313907 0.995267 -31.337665 -4.500164 1.763867 8.226014 4.544083 12.960210 44.793506 11.570433 -9.355404 -1.836905 0.000000 0.000000 0.000000 0.983577 -11.798903 3.314345 -55.936450 -18.451454 -7.040969 -17.094113 -33.262512 5.088818 0.000000 0.000000 0.000000 25.160984 -1.907039 6.117074 36.733879 12.454623 -6.472209 20.295613 32.986221 8.016624 0.000000 0.000000 0.000000
0.339483 0.071910 1.945928 -0.497657 12.356478 -82.576875 19.493692 2.692213 -9.888908 -2.560868 0.228979 2.206629 -5.893135 8.404886 37.325897 0.000000 0.000000 0.000000 -11.829687 -2.408904 -3.118804 4.912811 -0.771572 -11.000347 -5.180919 -16.194273 49.387938 0.000000 0.000000 0.000000 3.166532 1.645996 -31.027212 -3.903023 1.482627 8.274723 2.443863 12.728616 43.634365 11.722834 -9.766329 -1.640266 0.000000 0.000000 0.000000 -0.910794 -12.589593 3.406576 -55.527287 -18.370401 -6.457480 -17.334765 -33.535228 5.316691 0.000000 0.000000 0.000000 23.850432 -1.892629 5.465345 37.675726 13.008959 -6.106046 22.017740 31.133218 8.085980 0.000000 0.000000 0.000000
0.338956 0.072973 1.947008 0.247828 11.401245 -81.476585 20.519054 2.841864 -9.135356 -1.931244 0.217273 -0.147304 -5.525740 8.810783 38.274216 0.000000 0.000000 0.000000 -11.336509 -2.201774 -4.584734 4.625867 -0.732827 -10.370415 -4.545360 -15.724900 49.192430 0.000000 0.000000 0.000000 3.937228 2.211038 -31.484944 -3.520019 1.261841 9.113407 0.480902 12.106117 42.274739 11.840178 -9.985058 -1.819174 0.000000 0.000000 0.000000 -4.406661 -13.598002 3.477923 -53.358786 -17.774273 -5.667918 -16.023022 -34.927882 5.276339 0.000000 0.000000 0.000000 23.931384 -1.594323 5.164162 37.519266 12.691388 -5.944019 24.296234 30.028114 8.370259 0.000000 0.000000 0.000000
0.338739 0.076427 1.948755 0.592644 10.760816 -80.446489 20.930332 2.886035 -8.626530 -1.133313 0.181341 -2.155725 -4.756330 9.313158 37.863934 0.000000 0.000000 0.000000 -10.921773 -2.042490 -5.344232 4.306916 -0.699841 -10.068687 -4.329648 -15.548209 48.578749 0.000000 0.000000 0.000000 4.832795 2.774273 -31.920466 -3.480050 1.164715 10.848949 -1.014957 10.941543 40.045559 12.044208 -11.371804 0.284935 0.000000 0.000000 0.000000 -8.779104 -15.180204 3.935475 -50.571809 -18.223386 -4.479218 -15.612048 -35.227093 5.448872 0.000000 0.000000 0.000000 24.286307 -1.850085 4.500630 36.329736 12.828000 -5.718734 26.079042 29.248684 8.649139 0.000000 0.000000 0.000000
0.339297 0.077973 1.951528 0.726366 10.209848 -79.813648 21.474690 2.994986 -8.616402 -0.718360 0.155458 -2.697764 -4.476063 9.182427 36.391167 0.000000 0.000000 0.000000 -11.176514 -2.062715 -6.495541 4.201046 -0.674625 -8.709302 -4.630361 -15.732517 46.900776 0.000000 0.000000 0.000000 5.296837 3.129806 -32.638045 -3.553314 1.079060 13.311080 -2.074027 10.219041 38.497321 11.417891 -12.047503 3.080950 0.000000 0.000000 0.000000 -13.120861 -16.566861 4.464547 -47.246897 -19.152153 -3.475291 -15.201716 -35.586341 5.605955 0.000000 0.000000 0.000000 27.001578 -0.419703 5.681806 33.138266 13.339608 -5.547825 26.289993 29.092555 8.421982 0.000000 0.000000 0.000000
0.340299 0.080951 1.954672 0.769663 9.952895 -79.183728 21.775139 3.089358 -9.453668 -0.651478 0.122750 -1.486594 -3.828654 9.679098 36.156944 0.000000 0.000000 0.000000 -10.830335 -1.941658 -7.224907 3.135539 -0.576660 -7.994751 -5.368896 -16.263086 45.531350 0.000000 0.000000 0.000000 5.735251 3.356959 -32.196505 -3.132169 0.783334 14.030660 -3.371128 9.005090 36.850681 11.410688 -12.617979 4.182651 0.000000 0.000000 0.000000 -16.602220 -16.841195 4.753894 -46.400067 -19.607501 -2.835444 -14.216160 -36.707410 5.753960 0.000000 0.000000 0.000000 28.159629 0.763300 6.080374 31.231991 12.542190 -5.341229 27.899633 29.731905 8.916334 0.000000 0.000000 0.000000
0.341413 0.081492 1.957787 0.706989 10.027470 -78.771703 22.393917 3.245677 -10.602215 -1.185598 0.136989 -0.007212 -3.197613 10.193441 35.574784 0.000000 0.000000 0.000000 -11.195844 -2.027644 -8.028319 2.839175 -0.534898 -6.971017 -4.844491 -15.644541 44.484558 0.000000 0.000000 0.000000 6.010661 3.507342 -32.079778 -3.398351 0.774008 16.291229 -3.767359 8.772405 35.181670 11.324990 -13.968508 7.246293 0.000000 0.000000 0.000000 -18.624786 -19.062997 5.914531 -44.155426 -20.642175 -2.097247 -13.958572 -37.955874 5.935724 0.000000 0.000000 0.000000 30.458243 1.585497 6.982147 28.092168 12.035776 -5.122942 29.197884 30.483144 9.316654 0.000000 0.000000 0.000000
0.342390 0.083028 1.960308 0.608114 10.232612 -78.682832 23.150148 3.366215 -11.069189 -2.763098 0.281692 0.977356 -3.028747 10.643323 36.667571 0.000000 0.000000 0.000000 -11.715757 -2.169003 -8.294295 2.864354 -0.527491 -6.451889 -4.211221 -15.022074 44.698225 0.000000 0.000000 0.000000 6.027395 3.460693 -31.310451 -3.274626 0.595840 17.199245 -3.962203 8.032082 34.802307 10.897821 -14.344974 8.978681 0.000000 0.000000 0.000000 -21.135785 -20.891033 7.207951 -41.464346 -21.158469 -1.769111 -13.961430 -39.896223 6.405942 0.000000 0.000000 0.000000 32.061339 2.616456 7.652581 25.723841 11.447219 -4.884091 31.545152 32.281135 10.395145 0.000000 0.000000 0.000000
0.343177 0.085324 1.962431 0.146038 10.391175 -78.521992 23.932893 3.494904 -11.943231 -4.435891 0.444020 1.763407 -2.214020 11.484606 36.694893 0.000000 0.000000 0.000000 -11.762131 -2.187523 -8.572245 2.710614 -0.497288 -5.526649 -4.159317 -14.814539 44.088349 0.000000 0.000000 0.000000 5.580646 3.182447 -30.509271 -2.273598 -0.403970 20.029639 -4.811912 7.494543 32.884915 10.927060 -15.567467 11.429969 0.000000 0.000000 0.000000 -23.688635 -22.926886 8.766916 -38.476078 -21.883763 -1.245784 -13.637382 -41.103125 6.610757 0.000000 0.000000 0.000000 33.195239 3.156064 7.720798 24.469127 11.659442 -4.533016 32.960122 33.929806 11.343853 0.000000 0.000000 0.000000
0.344014 0.088047 1.964668 -0.035211 10.450991 -77.962956 24.867195 3.627097 -12.765652 -5.918356 0.589729 2.421700 -1.496554 12.120993 36.472450 0.000000 0.000000 0.000000 -11.593519 -2.120387 -9.645933 2.212212 -0.409447 -4.002171 -4.205341 -14.683678 43.391180 0.000000 0.000000 0.000000 5.374043 3.044505 -30.088798 -1.731292 -1.239429 23.501582 -6.191408 7.855595 30.550889 10.627832 -17.573722 15.934296 0.000000 0.000000 0.000000 -27.106928 -25.421521 10.588089 -33.292136 -21.578882 -1.042787 -14.166592 -42.117762 7.040733 0.000000 0.000000 0.000000 36.977329 4.563829 9.395487 21.632633 12.029670 -4.166616 31.066399 36.135668 11.187849 0.000000 0.000000 0.000000
0.345065 0.090795 1.967682 -0.684009 10.379418 -77.590465 25.781229 3.763960 -13.517444 -7.569851 0.745543 2.530804 -0.497820 12.712867 34.314465 0.000000 0.000000 0.000000 -11.222511 -2.015157 -10.113106 1.717815 -0.330087 -3.172661 -5.718625 -15.978559 43.036773 0.000000 0.000000 0.000000 4.697271 2.684187 -29.441385 -1.861788 -2.108707 30.218489 -6.278197 7.501023 24.838973 9.358460 -19.301350 23.086650 0.000000 0.000000 0.000000 -30.595545 -27.462587 12.603826 -30.255174 -20.549251 -0.700344 -12.439851 -43.703271 6.770545 0.000000 0.000000 0.000000 38.081434 5.786177 9.840684 21.737338 12.396317 -3.753311 29.032688 37.480018 11.092589 0.000000 0.000000 0.000000
0.346071 0.094109 1.971547 -0.885315 10.341510 -76.700946 27.084769 4.004574 -15.182071 -9.528523 0.961699 4.173900 0.044036 12.969810 33.053505 0.000000 0.000000 0.000000 -11.304721 -1.997599 -11.460993 1.066192 -0.207745 -1.873210 -6.530406 -16.601481 42.072027 0.000000 0.000000 0.000000 3.968610 2.291232 -28.508605 -1.694784 -3.428978 37.296660 -7.880715 8.228544 16.887023 8.024036 -20.065023 28.847858 0.000000 0.000000 0.000000 -33.164545 -29.097525 13.843916 -28.366039 -19.443927 -0.084475 -12.599982 -44.921578 7.129526 0.000000 0.000000 0.000000 40.773855 7.582524 11.397584 20.399889 12.439224 -3.140132 26.179722 38.349830 10.290017 0.000000 0.000000 0.000000
0.346840 0.095559 1.976285 -1.162562 10.102701 -76.147648 28.457898 4.364141 -17.013075 -11.017183 1.164773 6.058118 0.693205 13.529390 32.898040 0.000000 0.000000 0.000000 -10.249217 -1.673024 -12.569417 0.128433 -0.045308 -0.931588 -6.763514 -16.693969 42.285554 0.000000 0.000000 0.000000 3.573877 2.115563 -26.441501 -2.700863 -3.611536 44.089526 -7.868452 8.056007 8.744633 6.975595 -20.456575 33.801208 0.000000 0.000000 0.000000 -34.410487 -30.621419 15.057124 -26.890739 -17.775247 0.317154 -10.799219 -47.137589 6.731548 0.000000 0.000000 0.000000 40.584444 8.489646 11.288853 22.202333 12.798850 -2.604750 24.032416 39.160995 10.035675 0.000000 0.000000 0.000000
0.347155 0.097480 1.981161 -1.302517 9.964987 -75.240991 29.128085 4.564332 -18.762750 -11.079120 1.222592 7.672194 0.316226 13.010779 32.405222 0.000000 0.000000 0.000000 -10.425183 -1.683546 -14.305593 0.743864 -0.106996 -0.073596 -8.463620 -18.247060 42.110434 0.000000 0.000000 0.000000 2.642993 1.662146 -25.935645 -4.269138 -3.173162 53.081962 -7.582424 9.252073 -0.388911 6.735656 -19.850120 34.429676 0.000000 0.000000 0.000000 -35.400334 -31.386285 15.126485 -26.961752 -15.989236 0.820116 -11.586567 -49.036746 7.330724 0.000000 0.000000 0.000000 41.963527 9.500572 12.028588 22.748576 13.585101 -1.999929 21.667992 40.000688 9.471280 0.000000 0.000000 0.000000
0.347214 0.102918 1.985786 -1.783369 9.820196 -73.983826 30.151381 4.829017 -20.990561 -12.227404 1.412168 9.332654 1.146134 13.714217 32.205286 0.000000 0.000000 0.000000 -10.218247 -1.585170 -17.015753 0.890295 -0.060327 2.472528 -8.756587 -18.372391 42.196126 0.000000 0.000000 0.000000 2.478807 1.582889 -23.112589 -6.138179 -3.208063 68.437203 -8.968961 8.471654 -18.484691 6.079446 -19.324810 38.635464 0.000000 0.000000 0.000000 -34.144259 -32.107406 14.894904 -28.384799 -14.820367 1.949449 -10.900928 -52.153799 7.211939 0.000000 0.000000 0.000000 42.063750 9.577079 10.294887 25.436464 12.853787 -0.851310 21.492838 42.431776 10.231501 0.000000 0.000000 0.000000
0.347278 0.108689 1.990076 -1.952156 9.387837 -72.461911 31.296628 5.273508 -23.540402 -11.918366 1.464768 12.694490 1.144285 13.143168 29.948709 0.000000 0.000000 0.000000 -10.759092 -1.759170 -21.022153 2.258363 -0.242742 7.277253 -9.994176 -19.477486 38.966983 0.000000 0.000000 0.000000 3.027109 1.834422 -21.006979 -8.381050 -0.160154 86.757810 -7.801904 7.540482 -35.779716 7.233169 -17.697891 36.772399 0.000000 0.000000 0.000000 -32.190220 -32.945784 14.958031 -28.539632 -16.272526 3.290451 -10.733125 -56.110622 7.307250 0.000000 0.000000 0.000000 41.903844 11.284340 9.591870 26.799303 13.931388 0.698894 18.336038 43.960116 9.195737 0.000000 0.000000 0.000000
0.347675 0.118959 1.994323 -2.075583 8.851252 -71.505908 32.591846 5.731642 -25.041285 -12.807212 1.694742 15.228217 1.923698 13.724865 29.617275 0.000000 0.000000 0.000000 -10.533230 -1.668762 -23.802301 2.777297 -0.341197 12.470940 -8.051308 -17.609697 37.249349 0.000000 0.000000 0.000000 3.052026 1.793957 -16.385327 -8.387431 0.980876 97.497262 -7.384736 6.772211 -46.631527 8.055857 -16.333984 35.812291 0.000000 0.000000 0.000000 -32.020965 -34.657554 16.411452 -27.280345 -17.652592 4.126762 -7.974695 -59.572993 6.340959 0.000000 0.000000 0.000000 40.724145 12.037618 8.852823 28.878949 14.893639 2.064497 15.018047 46.750576 8.418402 0.000000 0.000000 0.000000
0.348352 0.129948 1.999137 -2.052164 8.817691 -69.877892 33.948446 6.266448 -27.996261 -13.712002 1.968481 20.860509 2.644655 13.510112 25.423532 0.000000 0.000000 0.000000 -11.473741 -2.050458 -26.868254 3.617601 -0.613259 17.876689 -8.142998 -17.644806 33.973770 0.000000 0.000000 0.000000 3.181396 1.844802 -13.612737 -7.918820 2.138518 110.786488 -6.731366 5.766569 -52.908217 11.747626 -13.725342 25.256387 0.000000 0.000000 0.000000 -27.166882 -36.403401 17.733010 -24.559824 -23.344768 4.869255 8.379050 -63.379155 -2.932316 0.000000 0.000000 0.000000 39.315796 14.390113 9.525713 27.367269 18.909640 3.392282 6.062040 51.506660 5.271542 0.000000 0.000000 0.000000
0.349125 0.142438 2.005257 -1.323645 7.770962 -68.114680 37.354764 7.573908 -29.916637 -16.630745 2.971291 26.988223 4.620023 14.637017 21.336858 0.000000 0.000000 0.000000 -11.555342 -1.993767 -29.921719 4.734262 -0.985289 22.785019 -7.264478 -16.788621 30.527671 0.000000 0.000000 0.000000 6.085027 2.447487 -4.728829 -7.086446 3.922832 116.858946 -3.679367 2.602090 -58.914241 14.282765 -10.943700 22.596151 0.000000 0.000000 0.000000 -25.596708 -38.131747 21.625701 -17.196493 -25.596476 3.543579 23.315746 -64.483723 -10.039518 0.000000 0.000000 0.000000 40.059217 17.886260 10.881416 24.257081 19.744309 3.958771 -1.524850 56.195291 2.675334 0.000000 0.000000 0.000000
0.349132 0.155959 2.011791 -1.434322 8.397621 -65.543753 39.309345 8.306711 -33.817161 -19.318579 4.069991 33.795447 6.182630 15.903773 18.750408 0.000000 0.000000 0.000000 -15.273898 -3.738462 -32.873257 9.151959 -2.774999 27.230791 -9.513645 -19.402192 25.635656 0.000000 0.000000 0.000000 5.627434 1.845548 4.742243 -6.613224 4.393215 123.496286 -2.703147 1.285432 -65.719333 18.893033 -6.988756 13.572950 0.000000 0.000000 0.000000 -21.346602 -39.403964 23.955655 -10.566571 -28.207227 2.004164 38.823449 -60.449263 -16.029933 0.000000 0.000000 0.000000 40.060752 20.479789 12.709826 18.852741 21.534799 3.414944 -12.049362 60.006297 -1.046347 0.000000 0.000000 0.000000
0.347785 0.171250 2.017731 -0.382236 7.434466 -62.241818 42.581713 9.844638 -35.702529 -21.216968 5.330802 37.820747 6.493124 15.946305 17.685612 0.000000 0.000000 0.000000 -17.691399 -4.744414 -36.439847 11.369440 -3.786073 32.397235 -10.581534 -21.163022 19.130098 0.000000 0.000000 0.000000 8.818886 0.673302 24.509688 -5.813626 4.387298 125.579035 2.542602 -4.638131 -81.910848 25.993600 -0.959742 18.979020 0.000000 0.000000 0.000000 -18.919326 -37.094270 26.865183 -3.547412 -28.014521 0.813584 44.066746 -56.669747 -13.351032 0.000000 0.000000 0.000000 42.669226 24.496376 12.359716 15.085019 17.895818 3.761863 -10.705324 60.269033 3.458591 0.000000 0.000000 0.000000
0.344734 0.189734 2.021876 0.488352 7.558916 -57.744675 44.301860 10.537268 -37.060851 -23.669116 6.637738 38.458910 8.040024 17.898690 18.430489 0.000000 0.000000 0.000000 -19.812740 -5.816021 -39.050258 12.676075 -4.766239 38.047404 -8.656511 -18.479804 5.509818 0.000000 0.000000 0.000000 1.211324 -3.976712 68.154766 -2.327603 14.202000 143.516348 14.260653 0.531287 -139.960395 68.345452 29.541787 28.831797 0.000000 0.000000 0.000000 -11.688342 -38.228045 24.427720 -6.709874 -28.599703 10.779126 54.502936 -44.785614 -13.953658 0.000000 0.000000 0.000000 32.770302 28.914184 0.156721 24.799003 10.086967 18.602978 -23.044546 57.664357 -13.618978 0.000000 0.000000 0.000000
0.341089 0.217270 2.024860 1.217339 7.595136 -52.343372 44.968388 10.952623 -38.585320 -24.236834 7.000247 37.164860 9.240630 19.402272 18.805386 0.000000 0.000000 0.000000 -21.463270 -6.638585 -41.040537 14.309481 -6.105138 43.408943 -7.466360 -15.453722 -7.452241 0.000000 0.000000 0.000000 -7.158214 -1.601004 98.117100 12.441880 36.550392 173.012874 30.756793 22.265903 -172.132724 26.780395 18.102821 1.326039 0.000000 0.000000 0.000000 -2.413869 -38.351990 18.954134 1.984881 -28.569357 -17.425364 34.730041 -53.423310 -56.075423 0.000000 0.000000 0.000000 6.826810 44.578445 -60.912991 19.909193 -24.139235 -13.795187 52.928211 35.632612 1.019199 0.000000 0.000000 0.000000
0.338345 0.255290 2.028805 1.602852 7.094331 -45.819281 45.466250 11.384239 -39.802338 -23.644601 6.962711 35.779317 10.399935 20.811004 18.834650 0.000000 0.000000 0.000000 -23.486140 -7.555023 -43.172911 19.000618 -9.256204 47.852761 -7.991809 -16.197283 -15.862363 0.000000 0.000000 0.000000 -10.727590 4.094397 117.227742 6.470646 10.875760 -135.803612 11.050777 14.771814 124.015108 13.204036 -10.213132 -7.900222 0.000000 0.000000 0.000000 -3.379607 -41.800427 7.907621 9.386757 -20.513629 -2.363732 43.232720 -39.949895 -29.337691 0.000000 0.000000 0.000000 29.882477 34.415664 15.193697 1.054602 25.093438 -4.385014 -27.407425 43.341732 -16.962495 0.000000 0.000000 0.000000
0.337601 0.299282 2.036586 2.475608 7.622637 -38.173678 44.578070 11.128847 -41.895060 -24.035116 7.470360 36.467950 10.313147 20.720683 14.435851 0.000000 0.000000 0.000000 -24.977859 -8.587957 -45.604590 20.876852 -11.579343 53.104529 -8.430039 -17.301858 -23.640477 0.000000 0.000000 0.000000 -11.022662 4.890511 120.610478 1.923049 2.973754 -69.388331 -2.578619 15.426188 40.755500 2.801972 -16.123644 32.568509 0.000000 0.000000 0.000000 -26.957212 -46.223562 24.221520 15.429378 -12.381242 0.330052 25.821808 -38.575292 -9.865825 0.000000 0.000000 0.000000 45.135212 29.147825 30.106945 -3.941607 19.714280 -2.277381 -26.542335 38.458205 -10.049750 0.000000 0.000000 0.000000
0.338774 0.342421 2.049205 3.664655 8.185754 -31.022203 42.433266 10.310683 -43.545206 -24.565722 8.375009 39.672198 9.430979 18.889549 2.391729 0.000000 0.000000 0.000000 -26.423704 -9.768208 -48.158073 21.604948 -11.596216 50.254207 -9.193933 -21.192376 -25.643957 0.000000 0.000000 0.000000 -9.805061 2.795086 123.237713 -0.415156 2.306129 -54.887041 -7.776381 9.691770 27.129842 6.664930 -12.647449 17.175334 0.000000 0.000000 0.000000 -14.842110 -47.604478 20.051896 9.800897 -11.028912 0.042228 23.253981 -30.409182 -6.340950 0.000000 0.000000 0.000000 36.043230 34.603778 25.665096 -0.363870 21.740475 -1.604977 -24.305702 33.756476 -6.969815 0.000000 0.000000 0.000000
0.340973 0.380797 2.064796 4.679945 9.594388 -24.512707 40.213525 9.189108 -45.956028 -26.146563 9.865575 43.834231 9.621638 18.897860 -7.189286 0.000000 0.000000 0.000000 -27.754822 -11.607352 -51.244066 20.428689 -11.265678 50.965799 -10.105375 -26.230385 -27.444423 0.000000 0.000000 0.000000 -9.344632 0.616727 123.231180 -1.317367 1.958439 -44.708733 -9.161881 6.810301 19.839891 8.344795 -9.429546 4.729970 0.000000 0.000000 0.000000 -6.249905 -50.043856 18.290951 6.472794 -12.233877 -0.367857 21.781741 -21.931110 -3.926311 0.000000 0.000000 0.000000 23.462904 36.616537 20.602105 4.833769 22.083276 -0.948471 -25.971462 32.334590 -6.640706 0.000000 0.000000 0.000000
0.342825 0.412250 2.079746 4.815044 9.560921 -19.223199 39.006733 8.909432 -47.991536 -26.182239 10.863274 47.820344 9.768693 19.025624 -15.076990 0.000000 0.000000 0.000000 -28.125067 -12.421853 -53.901272 21.066849 -11.643511 50.645969 -10.953703 -34.780770 -32.959810 0.000000 0.000000 0.000000 -9.295316 0.238514 123.126846 -1.959501 1.872448 -42.504226 -8.983708 5.062339 20.575308 7.305039 -5.721840 -5.663460 0.000000 0.000000 0.000000 2.719191 -48.425964 14.365653 4.706842 -15.299717 -0.744944 21.751231 -15.731024 -2.729194 0.000000 0.000000 0.000000 13.554945 37.529650 17.036065 6.654080 24.944483 -0.706026 -26.027734 27.199803 -5.356744 0.000000 0.000000 0.000000
0.343155 0.437445 2.091652 4.511178 9.389273 -14.214534 38.103160 8.641473 -49.353973 -24.472279 10.401495 49.169065 10.241615 20.516099 -21.971796 0.000000 0.000000 0.000000 -28.238649 -13.175604 -56.824786 22.426575 -12.300478 49.701766 -11.137730 -42.949318 -37.068849 0.000000 0.000000 0.000000 -8.546129 -1.432709 121.971770 -3.433361 1.892368 -39.559541 -9.235151 3.513827 20.518813 7.640648 -4.999820 -10.870720 0.000000 0.000000 0.000000 10.631515 -48.812156 11.522074 4.585900 -15.347541 -0.771376 20.833681 -11.400110 -1.798689 0.000000 0.000000 0.000000 2.734158 36.955403 13.038026 9.983425 24.885918 -0.298331 -27.178563 25.625743 -5.160070 0.000000 0.000000 0.000000
0.341980 0.457107 2.100240 4.627566 8.855193 -9.954947 37.104596 8.457773 -50.194360 -22.129562 8.935032 46.640587 11.533012 26.113787 -26.333546 0.000000 0.000000 0.000000 -28.568167 -13.765132 -59.333388 24.269993 -12.898093 47.836917 -9.995347 -50.680328 -42.705819 0.000000 0.000000 0.000000 -8.348998 -1.533786 122.065584 -3.211677 1.780732 -38.766603 -9.761795 2.450932 21.317054 7.416081 -3.775076 -17.409637 0.000000 0.000000 0.000000 20.243099 -44.300055 7.025210 4.023892 -18.219186 -1.035187 20.604965 -8.880264 -1.327825 0.000000 0.000000 0.000000 -5.672693 35.548074 10.077301 10.671652 27.769091 -0.123621 -26.437694 21.381321 -4.050803 0.000000 0.000000 0.000000
0.339947 0.475381 2.106452 3.827728 8.684427 -5.554134 37.381932 8.596845 -51.058656 -20.708857 7.706414 42.239731 12.191200 31.537864 -31.454509 0.000000 0.000000 0.000000 -27.718422 -13.773753 -61.544940 24.795446 -12.603945 45.079117 -7.968298 -54.506262 -48.091529 0.000000 0.000000 0.000000 -9.195002 -0.171100 121.473280 -2.111786 1.609016 -37.851375 -8.100351 4.091033 20.430724 7.132776 -2.857177 -19.951136 0.000000 0.000000 0.000000 24.271541 -42.743897 5.768961 4.322658 -18.672622 -1.183562 19.990814 -6.030547 -0.894827 0.000000 0.000000 0.000000 -10.902243 33.638777 8.284930 11.630154 28.795052 0.169628 -25.621819 20.516788 -3.603205 0.000000 0.000000 0.000000
0.338449 0.493301 2.112529 4.071007 8.641880 -0.145631 37.440709 8.865278 -53.278975 -20.496478 7.245416 38.324927 12.778715 33.631134 -27.513086 0.000000 0.000000 0.000000 -30.131942 -15.896915 -63.425192 30.367342 -13.967959 39.185980 -10.107954 -58.248073 -42.543511 0.000000 0.000000 0.000000 -9.108210 -0.707166 119.879631 -1.332898 1.480974 -37.527766 -8.541274 3.736433 20.448822 7.706775 -2.777619 -22.516962 0.000000 0.000000 0.000000 29.206570 -39.560806 4.114255 4.573226 -20.379726 -1.406489 18.508780 -4.641465 -0.607827 0.000000 0.000000 0.000000 -13.949400 31.702416 7.247999 12.008804 31.004927 0.323498 -25.749723 18.910118 -3.278460 0.000000 0.000000 0.000000
0.338120 0.511237 2.120296 2.679249 7.591536 4.781034 40.033047 10.476308 -53.988150 -21.639934 7.354113 33.791779 13.620740 35.931810 -23.675440 0.000000 0.000000 0.000000 -29.598941 -15.461145 -65.296908 32.532726 -13.316678 33.576568 -11.388787 -61.106476 -39.316105 0.000000 0.000000 0.000000 -9.585505 0.681151 117.402830 -0.772681 1.348499 -37.312004 -6.716887 5.677689 20.429588 7.763542 -2.452663 -22.422586 0.000000 0.000000 0.000000 32.985776 -37.458134 3.394617 4.753167 -22.052616 -1.764823 17.865689 -4.040138 -0.580680 0.000000 0.000000 0.000000 -16.289374 28.741846 6.075816 13.384892 34.305680 1.026893 -25.070450 19.626846 -3.181840 0.000000 0.000000 0.000000
0.338866 0.524232 2.130511 0.900609 5.190069 8.135261 42.436329 12.770436 -53.929853 -21.529753 7.629438 33.375132 14.158891 36.629432 -21.280139 0.000000 0.000000 0.000000 -29.619459 -14.511339 -67.456484 36.384091 -13.558583 29.618230 -14.254529 -63.806413 -32.940301 0.000000 0.000000 0.000000 -9.090492 1.979418 114.875911 -0.140227 1.163739 -37.284456 -6.715129 8.014658 20.987708 9.033926 -2.490467 -23.884163 0.000000 0.000000 0.000000 35.234987 -37.395948 3.328483 5.564313 -23.402288 -2.249171 16.869127 -2.125201 -0.416680 0.000000 0.000000 0.000000 -16.702132 28.213035 5.745909 15.114771 35.944173 1.917534 -26.332395 18.196064 -2.903406 0.000000 0.000000 0.000000
0.340442 0.540851 2.143314 -1.689211 2.975360 9.460743 45.814095 15.251398 -52.563770 -22.794122 8.734317 34.638459 14.789039 36.036690 -17.186940 0.000000 0.000000 0.000000 -26.978930 -11.586911 -68.912766 35.680164 -13.175781 29.817951 -16.257616 -64.279606 -28.161740 0.000000 0.000000 0.000000 -9.772678 5.125583 113.419810 1.373048 0.839368 -36.114340 -5.204114 11.006996 20.407004 9.313427 -1.893230 -25.201433 0.000000 0.000000 0.000000 37.045311 -36.431401 3.627810 4.854565 -24.654126 -2.654475 16.676839 -1.464154 -0.463547 0.000000 0.000000 0.000000 -18.528407 28.619346 5.180987 16.524542 36.910770 2.957823 -25.696772 19.117616 -2.852439 0.000000 0.000000 0.000000
0.343117 0.553905 2.159254 -3.563197 0.922253 10.498242 46.198935 16.594662 -52.172052 -19.940066 8.377809 38.528227 14.359779 34.145811 -16.690161 0.000000 0.000000 0.000000 -25.460486 -9.274584 -69.236391 35.980887 -12.946571 29.276851 -16.132949 -64.240780 -27.435876 0.000000 0.000000 0.000000 -10.843044 8.216493 109.214260 2.921233 0.508630 -34.990617 -2.834200 15.525716 21.947978 10.971574 -2.085752 -25.396738 0.000000 0.000000 0.000000 38.662742 -38.907536 3.892950 5.936858 -26.644901 -3.622012 17.310553 -0.399424 -0.531780 0.000000 0.000000 0.000000 -17.832059 28.770807 5.121300 20.124567 38.265917 4.798441 -25.636360 19.141625 -2.694063 0.000000 0.000000 0.000000
0.346585 0.569665 2.179844 -4.497742 -0.478268 10.226233 45.638616 15.997696 -49.110168 -17.434611 7.388611 39.191369 13.808675 33.425636 -19.676403 0.000000 0.000000 0.000000 -21.910417 -6.050583 -68.901963 30.714693 -11.806997 33.585471 -13.235436 -61.511817 -31.728729 0.000000 0.000000 0.000000 -11.577038 10.501359 108.581804 4.021555 0.287453 -34.670247 -1.544903 16.205519 21.734823 10.352999 -0.728498 -30.589608 0.000000 0.000000 0.000000 40.124166 -35.241445 4.226060 4.749490 -30.696013 -4.473593 18.011550 -1.993183 -0.828678 0.000000 0.000000 0.000000 -18.560677 29.412634 5.004188 22.301161 41.785402 6.569869 -25.271428 18.395106 -2.565858 0.000000 0.000000 0.000000
0.351045 0.585106 2.207045 -2.680684 -2.947665 10.972889 43.072753 13.309149 -41.661097 -16.081722 5.978971 31.867827 13.302711 36.971671 -29.209982 0.000000 0.000000 0.000000 -20.435255 -3.760429 -69.183337 25.009902 -9.957043 38.091431 -10.149735 -57.384309 -36.812395 0.000000 0.000000 0.000000 -8.890846 8.980612 107.692975 3.574707 0.324831 -35.579460 -5.455509 10.603137 21.578768 10.182146 -1.162874 -31.684514 0.000000 0.000000 0.000000 40.342262 -33.603725 3.367515 3.699237 -33.564548 -4.234780 19.487173 -4.539362 -1.079359 0.000000 0.000000 0.000000 -16.135908 30.777246 6.401802 28.620121 45.517826 8.880337 -25.172969 17.521468 -2.587834 0.000000 0.000000 0.000000
0.356509 0.605447 2.244217 -0.153894 1.338426 10.737790 37.658229 8.783723 -40.354230 -13.492941 4.120168 28.869713 12.446137 36.303819 -33.043191 0.000000 0.000000 0.000000 -20.918466 -5.961147 -64.725918 20.055963 -8.891454 42.556818 -8.699684 -54.311379 -41.662198 0.000000 0.000000 0.000000 -6.746445 1.856955 108.066663 1.055522 0.772510 -34.975520 -6.861771 5.420500 18.309653 9.382924 -1.834237 -29.614745 0.000000 0.000000 0.000000 34.556627 -34.933611 3.786420 -0.055922 -35.912761 -2.859836 21.684711 -10.218447 -1.832915 0.000000 0.000000 0.000000 -12.750076 32.611354 8.278660 38.025504 47.334260 11.787314 -25.794799 16.255555 -2.480677 0.000000 0.000000 0.000000
