HIERARCHY
ROOT Hips
{
	OFFSET -0.001795 -0.223333 0.028219
	CHANNELS 6 Xposition Yposition Zposition Zrotation Yrotation Xrotation
	JOINT LeftUpLeg
	{
		OFFSET 0.069520 -0.091406 -0.006815
		CHANNELS 3 Zrotation Yrotation Xrotation
		JOINT LeftLeg
		{
			OFFSET 0.034277 -0.375199 -0.004496
			CHANNELS 3 Zrotation Yrotation Xrotation
			JOINT LeftFoot
			{
				OFFSET -0.013596 -0.397961 -0.043693
				CHANNELS 3 Zrotation Yrotation Xrotation
				JOINT LeftToe
				{
					OFFSET 0.026358 -0.055791 0.119288
					CHANNELS 3 Zrotation Yrotation Xrotation
					End Site
					{
						OFFSET 0.000000 0.000000 0.000000
					}
				}
			}
		}
	}
	JOINT RightUpLeg
	{
		OFFSET -0.067670 -0.090522 -0.004320
		CHANNELS 3 Zrotation Yrotation Xrotation
		JOINT RightLeg
		{
			OFFSET -0.038290 -0.382569 -0.008850
			CHANNELS 3 Zrotation Yrotation Xrotation
			JOINT RightFoot
			{
				OFFSET 0.015774 -0.398415 -0.042312
				CHANNELS 3 Zrotation Yrotation Xrotation
				JOINT RightToe
				{
					OFFSET -0.025372 -0.048144 0.123348
					CHANNELS 3 Zrotation Yrotation Xrotation
					End Site
					{
						OFFSET 0.000000 0.000000 0.000000
					}
				}
			}
		}
	}
	JOINT Spine
	{
		OFFSET -0.002533 0.108963 -0.026696
		CHANNELS 3 Zrotation Yrotation Xrotation
		JOINT Spine1
		{
			OFFSET 0.005487 0.135180 0.001092
			CHANNELS 3 Zrotation Yrotation Xrotation
			JOINT Spine2
			{
				OFFSET 0.001457 0.052922 0.025425
				CHANNELS 3 Zrotation Yrotation Xrotation
				JOINT Neck
				{
					OFFSET -0.002778 0.213870 -0.042857
					CHANNELS 3 Zrotation Yrotation Xrotation
					JOINT Head
					{
						OFFSET 0.005152 0.064970 0.051349
						CHANNELS 3 Zrotation Yrotation Xrotation
						End Site
						{
							OFFSET 0.000000 0.000000 0.000000
						}
					}
				}
				JOINT LeftShoulder
				{
					OFFSET 0.078845 0.121749 -0.034090
					CHANNELS 3 Zrotation Yrotation Xrotation
					JOINT LeftArm
					{
						OFFSET 0.090977 0.030469 -0.008868
						CHANNELS 3 Zrotation Yrotation Xrotation
						JOINT LeftForeArm
						{
							OFFSET 0.259612 -0.012772 -0.027456
							CHANNELS 3 Zrotation Yrotation Xrotation
							JOINT LeftHand
							{
								OFFSET 0.249234 0.008986 -0.001171
								CHANNELS 3 Zrotation Yrotation Xrotation
								End Site
								{
									OFFSET 0.000000 0.000000 0.000000
								}
							}
						}
					}
				}
				JOINT RightShoulder
				{
					OFFSET -0.081759 0.118833 -0.038615
					CHANNELS 3 Zrotation Yrotation Xrotation
					JOINT RightArm
					{
						OFFSET -0.096012 0.032551 -0.009143
						CHANNELS 3 Zrotation Yrotation Xrotation
						JOINT RightForeArm
						{
							OFFSET -0.253742 -0.013329 -0.021401
							CHANNELS 3 Zrotation Yrotation Xrotation
							JOINT RightHand
							{
								OFFSET -0.255298 0.007772 -0.005559
								CHANNELS 3 Zrotation Yrotation Xrotation
								End Site
								{
									OFFSET 0.000000 0.000000 0.000000
								}
							}
						}
					}
				}
			}
		}
	}
}
MOTION
Frames: 76
Frame Time: 0.050000
0.000000 0.928962 0.000000 -2.215603 11.646010 -8.213998 9.142380 -0.648302 16.977046 -4.737764 0.405476 1.265405 8.635965 18.429627 11.561718 0.000000 0.000000 0.000000 -1.771681 -0.853177 7.854176 6.741593 -1.086746 4.362370 -8.224519 -20.233590 6.981339 0.000000 0.000000 0.000000 -1.097719 -0.018527 0.315862 5.687589 -0.901704 -18.286983 -3.305413 -5.464540 21.794084 1.244635 0.702812 -19.928902 0.000000 0.000000 0.000000 -36.000944 -3.985156 -1.067863 -44.543314 1.079195 -6.965893 -6.114019 -24.766145 2.400094 0.000000 0.000000 0.000000 27.032813 5.376279 2.497490 53.524905 -0.655392 -7.711229 -2.802041 30.040188 0.826851 0.000000 0.000000 0.000000
-0.002570 0.929336 -0.007650 -2.392762 10.975176 -7.767527 9.430239 -0.622563 16.115152 -5.071929 0.441684 1.189293 8.982541 18.925770 11.574620 0.000000 0.000000 0.000000 -1.363452 -0.848683 7.739443 6.477972 -0.964959 2.561767 -7.947935 -19.612941 7.170292 0.000000 0.000000 0.000000 -1.189019 0.017210 -1.248849 5.860361 -1.056680 -17.175490 -3.244166 -3.978521 21.538977 0.633561 1.210264 -19.362296 0.000000 0.000000 0.000000 -37.369168 -2.377117 -2.973918 -42.362636 4.022782 -7.374676 -7.677466 -24.362785 2.639724 0.000000 0.000000 0.000000 28.736269 3.911456 1.912326 53.017243 -1.719427 -8.209011 -3.588373 30.955982 0.737511 0.000000 0.000000 0.000000
-0.003729 0.928684 -0.015505 -2.398304 10.975865 -8.732079 9.939433 -0.724771 16.666672 -5.942374 0.520838 1.182617 8.905054 18.764474 11.077114 0.000000 0.000000 0.000000 -1.405396 -0.975718 8.804646 6.472323 -0.939563 1.623315 -7.852614 -19.452196 7.133232 0.000000 0.000000 0.000000 -1.516528 0.022727 -2.386428 4.932401 -0.866019 -15.598713 -3.545975 -3.887191 22.300070 -0.015350 1.585515 -18.534094 0.000000 0.000000 0.000000 -35.802070 -0.569379 -4.073429 -42.759747 4.970927 -7.856382 -6.392394 -24.188109 2.359786 0.000000 0.000000 0.000000 28.936988 4.543185 2.338303 52.159347 -2.289049 -8.364718 0.240652 30.630751 1.633080 0.000000 0.000000 0.000000
-0.003231 0.927782 -0.023637 -2.467327 11.631245 -9.215607 9.764139 -0.693554 15.815222 -5.521705 0.483869 2.488181 8.824292 18.519857 10.009137 0.000000 0.000000 0.000000 -1.262089 -0.900059 7.985258 6.213409 -0.953727 3.157622 -8.253403 -20.294566 7.020412 0.000000 0.000000 0.000000 -2.208299 -0.011859 -2.497894 4.410922 -0.697682 -15.246179 -3.157985 -3.440543 22.547026 0.495038 1.414776 -19.036715 0.000000 0.000000 0.000000 -35.200440 -0.214626 -4.656612 -42.731132 7.036112 -8.410857 -5.495279 -25.355513 2.248474 0.000000 0.000000 0.000000 29.217039 4.387810 2.605515 52.228497 -3.220475 -8.852194 0.350480 31.018472 1.737908 0.000000 0.000000 0.000000
-0.000879 0.925415 -0.032856 -2.281115 11.438577 -9.363270 8.848779 -0.468632 14.690948 -4.807736 0.410435 4.040164 9.317639 19.082130 8.715746 0.000000 0.000000 0.000000 -1.336527 -0.804280 7.213038 5.545795 -0.851570 3.887705 -8.311377 -20.504234 6.234813 0.000000 0.000000 0.000000 -2.628793 -0.039992 -1.683789 3.997108 -0.577670 -15.052273 -3.332212 -2.318948 21.813721 1.480446 0.956170 -19.385785 0.000000 0.000000 0.000000 -33.022396 0.334957 -5.129608 -42.992399 7.504424 -8.493753 -6.182159 -25.278418 2.333985 0.000000 0.000000 0.000000 29.189512 3.902403 2.596243 52.081309 -4.464208 -9.319613 2.553518 31.946907 2.410178 0.000000 0.000000 0.000000
0.003172 0.920783 -0.044514 -2.331704 11.414713 -8.962026 8.930293 -0.449508 13.600908 -5.680476 0.507980 4.127406 9.775986 19.474914 6.361301 0.000000 0.000000 0.000000 -1.609940 -0.474242 4.303386 5.525010 -0.941967 7.080074 -8.579652 -21.195919 4.898731 0.000000 0.000000 0.000000 -3.027770 -0.068712 0.326883 3.457497 -0.303828 -16.374257 -2.999413 -2.465731 22.333871 1.735298 0.821809 -20.112455 0.000000 0.000000 0.000000 -33.788116 -0.028131 -4.918750 -42.471773 8.350745 -8.710086 -5.804221 -26.103322 2.342068 0.000000 0.000000 0.000000 29.556622 4.573586 3.014068 51.314698 -4.101231 -9.109580 3.611849 31.253759 2.584244 0.000000 0.000000 0.000000
0.007851 0.914427 -0.060018 -1.753164 9.987367 -8.300695 8.366162 -0.241216 11.505296 -7.170612 0.725321 5.791018 10.947679 21.186960 3.958228 0.000000 0.000000 0.000000 -2.375016 0.057217 -1.290207 4.922925 -1.014367 14.160540 -8.471482 -20.965561 3.190597 0.000000 0.000000 0.000000 -3.481141 -0.092709 2.423173 2.967302 -0.212830 -16.074963 -3.396782 -1.589918 21.661522 2.835854 0.310282 -21.978356 0.000000 0.000000 0.000000 -32.938228 -1.192977 -3.935722 -42.675923 8.118515 -8.657390 -4.174563 -28.014557 2.112876 0.000000 0.000000 0.000000 30.888231 6.153683 4.083433 50.645608 -3.164899 -8.602964 3.351884 32.037224 2.556231 0.000000 0.000000 0.000000
0.011630 0.901797 -0.077508 -1.313471 7.972240 -7.977072 7.581211 -0.047633 8.083033 -8.112420 0.988656 10.426522 12.803634 24.395932 -0.381259 0.000000 0.000000 0.000000 -3.688176 0.485614 -8.241505 5.523097 -1.527515 23.738783 -8.105538 -20.039002 1.320893 0.000000 0.000000 0.000000 -3.881121 -0.146402 7.215436 2.186281 0.030549 -17.178367 -3.365052 -1.309050 22.134878 2.734985 0.432848 -24.473309 0.000000 0.000000 0.000000 -34.990304 -4.342441 -1.442805 -40.783660 4.002101 -7.134548 -0.407134 -27.455053 1.206217 0.000000 0.000000 0.000000 32.923696 8.727352 5.520254 48.713146 -0.947100 -7.469586 3.831931 35.349133 2.927720 0.000000 0.000000 0.000000
0.013614 0.883855 -0.091574 -1.873771 6.424841 -8.200016 8.414137 -0.080029 4.124801 -9.521687 1.477274 17.173865 14.317583 27.877995 -6.331013 0.000000 0.000000 0.000000 -4.046984 0.805451 -14.485685 6.620334 -2.356387 33.051019 -7.960011 -19.553307 0.126458 0.000000 0.000000 0.000000 -4.708967 -0.167932 12.211301 3.482079 -0.413905 -17.961848 -4.371420 -0.877590 22.919557 3.898104 -0.144793 -26.891304 0.000000 0.000000 0.000000 -36.430543 -9.146607 2.342311 -38.966631 -1.425564 -5.360557 3.753725 -28.483484 0.230818 0.000000 0.000000 0.000000 34.615359 11.872583 7.691423 46.443053 1.914190 -6.191340 4.024865 38.492664 3.235356 0.000000 0.000000 0.000000
0.014275 0.860843 -0.097764 -1.929201 4.054718 -8.329753 8.616001 -0.056112 0.245628 -10.657256 2.225924 25.093027 15.654127 32.569224 -12.201899 0.000000 0.000000 0.000000 -6.191520 0.842453 -22.466937 10.944074 -5.111990 45.591068 -8.562653 -20.678473 1.296189 0.000000 0.000000 0.000000 -6.460035 0.022643 16.592623 4.334981 -0.904108 -16.189608 -4.329218 -1.448343 20.071096 4.480321 -0.941295 -25.259551 0.000000 0.000000 0.000000 -38.394848 -13.133559 6.252263 -32.711871 -7.911184 -2.981913 2.765977 -30.891058 0.444801 0.000000 0.000000 0.000000 35.679479 14.872341 8.748775 44.072926 1.376421 -5.499816 8.497206 45.783923 5.500720 0.000000 0.000000 0.000000
0.014115 0.834219 -0.093600 -2.710921 2.965858 -7.920695 11.183431 -0.037517 -3.674043 -13.727102 3.891559 32.875916 15.795390 35.648911 -18.712027 0.000000 0.000000 0.000000 -9.186300 0.343604 -29.022627 17.730818 -10.322972 54.715616 -9.746097 -23.198543 1.740858 0.000000 0.000000 0.000000 -7.641797 0.257091 20.549488 8.097892 -2.299397 -15.598940 -6.082939 -2.246007 16.251148 3.487146 -0.637484 -23.267469 0.000000 0.000000 0.000000 -40.304619 -17.128513 9.952680 -27.758756 -13.835661 -1.324391 8.280288 -36.386522 -1.328834 0.000000 0.000000 0.000000 35.541860 17.076555 9.608800 42.079026 2.597608 -4.372333 11.184698 51.939660 7.440699 0.000000 0.000000 0.000000
0.013858 0.802378 -0.078921 -4.088561 0.774243 -7.948871 14.962447 0.229380 -5.854612 -17.168379 6.577402 40.428679 15.426144 38.978977 -25.389392 0.000000 0.000000 0.000000 -11.899216 -0.182462 -34.671025 24.308930 -15.424156 60.441690 -11.231072 -27.093503 -2.410970 0.000000 0.000000 0.000000 -6.748707 0.210897 22.561672 10.538609 -3.131880 -16.427818 -7.044094 -5.278147 15.721772 2.179226 -0.908623 -17.376872 0.000000 0.000000 0.000000 -41.197626 -18.930015 13.661573 -20.245690 -26.100113 -0.047177 15.177478 -38.580885 -3.855084 0.000000 0.000000 0.000000 33.288355 20.422169 9.894404 38.529532 2.481168 -3.491484 15.493190 62.001035 11.149044 0.000000 0.000000 0.000000
0.013613 0.761674 -0.053963 -4.939694 -3.077689 -7.015722 18.067220 0.810025 -8.704386 -19.723193 10.668789 49.832310 15.607112 43.735883 -29.013617 0.000000 0.000000 0.000000 -14.802416 -0.491473 -39.682279 29.957615 -17.698268 59.515962 -12.281459 -30.363289 -5.021437 0.000000 0.000000 0.000000 -6.099221 0.315882 24.050618 14.435751 -4.413117 -17.189813 -10.708120 -4.026522 13.860026 2.376039 -1.245546 -13.630640 0.000000 0.000000 0.000000 -36.709594 -22.722580 15.706361 -10.264839 -36.709261 -0.553420 22.996883 -41.447464 -7.271474 0.000000 0.000000 0.000000 34.726583 20.486522 10.023043 30.418195 5.835848 -1.879639 24.492621 71.512863 19.706778 0.000000 0.000000 0.000000
0.011670 0.709724 -0.017478 -5.207007 -6.675653 -5.401234 20.910008 1.576690 -10.867526 -20.139101 15.321247 61.685661 13.741997 40.521801 -33.786892 0.000000 0.000000 0.000000 -16.599391 -0.312316 -44.797813 35.361110 -20.454030 60.125126 -17.158529 -40.502285 -1.495605 0.000000 0.000000 0.000000 -4.929642 0.332477 25.608079 17.475275 -4.722602 -20.796270 -12.503493 -3.591228 13.645328 1.326978 -0.986465 -6.627345 0.000000 0.000000 0.000000 -31.349683 -23.962611 15.883878 2.125023 -46.847130 -4.262495 37.287194 -49.221703 -15.615831 0.000000 0.000000 0.000000 33.344933 21.516580 10.247774 22.366763 5.785522 -1.392314 -16.385276 87.061313 -13.132143 0.000000 0.000000 0.000000
0.005734 0.645777 0.031213 -5.530432 -9.923520 -4.415650 24.563034 2.621819 -12.030748 -17.631107 19.042064 76.193069 13.283925 33.693557 -29.902221 0.000000 0.000000 0.000000 -20.088276 -0.738872 -48.962286 43.433277 -28.290197 66.490488 -16.313192 -44.816990 -11.065952 0.000000 0.000000 0.000000 -3.042289 0.073006 25.146679 19.556572 -5.482603 -20.258584 -14.601209 -2.754362 10.615874 0.554678 -0.741515 3.645522 0.000000 0.000000 0.000000 -26.524627 -24.287049 14.789643 17.128616 -51.424441 -10.382923 56.294445 -53.553593 -27.886168 0.000000 0.000000 0.000000 31.414731 21.203159 9.864995 16.141085 3.858627 -1.166278 -129.653939 72.434569 -111.074211 0.000000 0.000000 0.000000
-0.006279 0.570246 0.087827 -5.712324 -14.202648 -4.386833 27.420943 4.173340 -13.908206 -8.940344 17.322235 97.007243 8.414132 16.681977 -0.461417 0.000000 0.000000 0.000000 -24.284751 -1.132106 -53.436750 48.937011 -37.446429 75.812579 -13.739845 -41.435446 -15.944955 0.000000 0.000000 0.000000 0.523065 -0.441543 27.769448 15.855615 -4.703488 -20.022191 -12.254755 -2.767941 8.090867 -2.940384 2.761886 9.881791 0.000000 0.000000 0.000000 -21.998796 -23.153193 13.453772 25.929677 -49.855970 -13.025324 86.934674 -55.050860 -49.575272 0.000000 0.000000 0.000000 27.360842 17.785999 6.456739 10.150792 -3.380510 -0.960349 -139.365271 51.206215 -99.718126 0.000000 0.000000 0.000000
-0.022131 0.495287 0.144159 -6.150524 -17.438641 -5.145528 30.649239 7.089111 -19.741950 1.043141 4.101557 117.948948 -8.825168 -1.596679 26.012154 0.000000 0.000000 0.000000 -27.756674 -1.548483 -57.672725 54.856224 -48.140893 82.018239 -20.889061 -47.780020 -2.286583 0.000000 0.000000 0.000000 3.607690 -0.874800 34.100816 18.714739 -4.393363 -28.302538 -17.068811 0.565006 13.594307 -2.557797 2.414394 17.915572 0.000000 0.000000 0.000000 -21.178266 -16.591462 8.959260 26.528334 -46.498799 -12.442845 124.580895 -49.800627 -79.518357 0.000000 0.000000 0.000000 32.204141 13.494613 5.464841 1.013766 -13.279920 0.398147 -139.109846 29.693082 -64.918417 0.000000 0.000000 0.000000
-0.039370 0.430431 0.192853 -6.812160 -17.928328 -3.669917 31.549593 10.032660 -28.532256 6.084554 -12.790812 129.516198 -15.887173 -6.529724 34.076589 0.000000 0.000000 0.000000 -32.949779 -3.529536 -58.464259 50.001487 -55.935183 95.883974 -13.243587 -33.547122 -7.966180 0.000000 0.000000 0.000000 8.263644 -2.306193 46.037963 15.793282 0.978370 -62.624918 -19.891748 8.169352 49.517813 -4.694906 8.530727 35.852412 0.000000 0.000000 0.000000 -28.938634 -9.626062 7.990982 35.307141 -41.055763 -13.720240 143.967982 -35.663031 -95.881663 0.000000 0.000000 0.000000 47.152990 6.656415 9.165529 -9.082130 -13.123358 4.770316 -137.951757 6.972916 -31.817864 0.000000 0.000000 0.000000
-0.054384 0.394924 0.231781 -6.962328 -21.430544 1.973046 33.986638 16.042090 -39.060832 6.911040 -20.490675 136.389577 -16.602469 -8.015945 32.912059 0.000000 0.000000 0.000000 -35.878707 -3.573909 -65.783170 44.654558 -59.680772 105.325911 -12.741191 -28.946531 -3.319744 0.000000 0.000000 0.000000 9.026366 -1.792725 57.450124 19.449077 6.352554 -101.588711 -13.724920 25.142826 98.544815 -24.218568 21.599917 -26.501577 0.000000 0.000000 0.000000 -32.201002 -4.888334 4.006730 13.663882 -28.805376 -6.086154 162.779212 -24.681072 -126.199582 0.000000 0.000000 0.000000 52.289064 3.658154 20.163278 -7.962471 -2.134425 3.020677 -140.666283 -4.351761 -35.413150 0.000000 0.000000 0.000000
-0.064636 0.381806 0.266612 -4.633569 -21.378725 6.736190 34.587763 21.332035 -50.485463 6.407843 -27.931410 140.903841 -20.022451 -19.802022 24.041729 0.000000 0.000000 0.000000 -45.423157 -7.933117 -66.710287 36.101625 -59.902390 115.057685 -6.682002 -14.698105 -1.907402 0.000000 0.000000 0.000000 10.845472 -2.488270 71.430112 -12.206853 -6.586976 -100.724506 -9.119544 -13.097680 97.106052 67.712825 51.496942 166.304776 0.000000 0.000000 0.000000 -56.299189 -5.389398 19.173404 6.836103 -23.636699 -4.896635 154.093738 -33.201985 -121.728558 0.000000 0.000000 0.000000 47.721015 11.251877 2.817495 -6.866666 4.541341 1.861649 -146.138088 31.763230 -105.005634 0.000000 0.000000 0.000000
-0.071637 0.387388 0.315353 -5.198866 -22.633975 13.035230 40.574026 26.765102 -51.523031 5.309163 -23.788499 139.687737 -15.529582 -30.201327 5.822392 0.000000 0.000000 0.000000 -49.545765 -7.112010 -61.166317 28.969558 -52.654725 119.596047 0.988226 5.757847 -6.973194 0.000000 0.000000 0.000000 10.283059 -1.294186 81.810529 -11.391092 -8.324947 -108.536570 -8.535537 -12.670791 99.385020 27.929482 16.744872 170.008148 0.000000 0.000000 0.000000 -64.121998 -8.524868 19.619916 0.957658 -23.521722 -5.701496 133.693559 -51.727850 -108.719875 0.000000 0.000000 0.000000 47.191120 16.561755 5.689535 -7.239007 15.353410 -0.207320 -142.077935 65.408243 -138.535667 0.000000 0.000000 0.000000
-0.077646 0.392324 0.393688 -1.715865 -19.688948 20.615923 47.942799 25.934176 -45.824830 3.720829 -10.251336 134.575591 2.868112 -38.811913 -34.225742 0.000000 0.000000 0.000000 -66.051604 -4.600883 -39.302450 38.178493 -55.585487 103.559469 2.467981 22.965684 -16.524253 0.000000 0.000000 0.000000 10.041281 -3.668266 85.881932 -20.616034 -36.913941 -162.877475 -21.054432 -30.419304 155.935457 8.299323 -4.431912 170.849882 0.000000 0.000000 0.000000 -68.589375 -3.093541 26.539195 -0.147053 -27.029095 -15.957312 102.175814 -76.226635 -109.411889 0.000000 0.000000 0.000000 31.081064 17.927431 4.911633 6.437208 18.121185 -8.056166 -162.887614 78.627006 178.346446 0.000000 0.000000 0.000000
-0.085077 0.399729 0.499875 -2.841004 -19.546675 32.224516 72.992079 24.652914 -24.501434 0.133491 9.204101 126.886494 -7.761919 -49.031709 -19.767587 0.000000 0.000000 0.000000 -71.627973 10.109590 -14.062761 65.743307 -55.678079 63.318261 -10.104562 28.229782 -46.813079 0.000000 0.000000 0.000000 8.215263 -12.227646 122.450970 -108.456017 -69.720610 -100.257690 -77.317977 -68.430106 140.130222 8.662536 -39.959056 123.082985 0.000000 0.000000 0.000000 -72.456134 10.464828 45.466844 -8.725623 -11.719790 -14.329757 63.345622 -76.098515 -86.931430 0.000000 0.000000 0.000000 37.185771 20.285852 -49.874566 -12.003512 -16.663035 3.733864 106.891757 26.942492 52.453483 0.000000 0.000000 0.000000
-0.094537 0.388456 0.622809 -2.777211 -17.127911 65.669142 80.712284 3.876212 -2.141578 -34.894063 61.344320 79.497923 14.864385 -26.416454 -56.022290 0.000000 0.000000 0.000000 -65.569130 22.763459 -0.027063 96.681322 -38.247003 6.419054 -10.476105 -3.257536 -67.445691 0.000000 0.000000 0.000000 -7.976353 -39.800222 175.954188 -7.467213 -14.487894 157.746527 26.460233 36.595060 -22.491689 -7.656203 -2.171743 125.888651 0.000000 0.000000 0.000000 -73.699063 -2.899033 -16.977865 43.625275 50.828696 29.952073 -88.022441 -25.590555 31.445616 0.000000 0.000000 0.000000 39.594786 -1.950149 1.435882 -32.665096 -49.609385 21.720081 122.670869 29.931579 46.987477 0.000000 0.000000 0.000000
-0.103361 0.357179 0.740321 -0.667140 -12.947680 111.177750 67.461025 -7.582573 -10.038357 -106.344445 44.596767 -25.765012 9.370535 2.659181 -67.213503 0.000000 0.000000 0.000000 -61.011306 28.688610 -11.784746 90.198657 -10.227029 -30.325180 2.379395 -36.520174 -69.590702 0.000000 0.000000 0.000000 -2.196216 -27.265417 169.333150 8.600887 -29.765775 -28.356048 -20.320499 -9.665295 132.276303 -4.640467 4.584425 140.174313 0.000000 0.000000 0.000000 -85.665240 -0.007188 -5.384294 19.301753 38.580491 -42.573594 -86.460015 3.008220 -90.362347 0.000000 0.000000 0.000000 41.592061 -2.148121 3.520371 -53.561782 -59.392728 -47.116766 142.395874 -31.966799 164.694208 0.000000 0.000000 0.000000
-0.109053 0.325654 0.831095 0.146454 -4.842525 161.127596 91.650709 -27.806906 -37.687960 -58.076862 2.785024 -70.907945 -2.613041 39.379839 -103.515859 0.000000 0.000000 0.000000 -58.439451 -0.212578 -46.213256 96.247571 -56.281892 -35.667809 -0.145144 -17.371537 -76.150505 0.000000 0.000000 0.000000 -176.807876 2.668120 27.800675 -2.355609 2.602291 -8.437589 -178.995595 0.284927 127.047362 -21.444245 22.957981 109.521259 0.000000 0.000000 0.000000 -38.596472 -52.427557 -42.072814 85.073247 -58.009247 9.203811 148.936965 13.093399 -148.416510 0.000000 0.000000 0.000000 35.129705 14.169941 62.123885 -75.344537 -22.220139 24.446646 -152.857645 -41.422890 152.030043 0.000000 0.000000 0.000000
-0.111290 0.304573 0.889230 -0.266933 -6.090840 -150.774790 107.912498 -8.914905 -47.749665 23.273645 -6.692051 -99.885224 17.048076 0.291762 -111.215445 0.000000 0.000000 0.000000 -113.407079 16.542484 -47.389397 -72.574867 -5.598787 -76.304856 -21.108856 5.780771 -109.063259 0.000000 0.000000 0.000000 91.969667 -58.762219 85.395220 33.936315 -16.491531 153.487432 53.508633 53.501092 177.306239 -14.706254 20.288526 121.706561 0.000000 0.000000 0.000000 -27.857671 -7.172397 -13.472436 65.696755 25.378269 2.650171 -177.384176 8.540696 143.311282 0.000000 0.000000 0.000000 20.755533 0.841868 26.497866 -79.942839 -29.876869 20.001478 175.897197 -42.668865 108.430750 0.000000 0.000000 0.000000
-0.111771 0.295283 0.925338 0.727543 -6.996533 -131.516675 90.518525 9.141103 -49.057540 35.175670 28.188768 -153.262828 12.402853 5.165315 -93.853335 0.000000 0.000000 0.000000 -102.570521 2.422351 -42.051560 -163.095624 29.538730 -37.915412 -7.979615 -17.852659 -107.464466 0.000000 0.000000 0.000000 -2.912788 -10.545032 163.319355 -10.404602 -20.804524 172.780604 -5.372539 -15.660359 156.947921 -4.524336 0.382900 122.835480 0.000000 0.000000 0.000000 -52.111345 2.198181 9.458267 31.874257 34.572140 -2.161828 178.377181 -9.323656 176.968504 0.000000 0.000000 0.000000 42.440992 5.206682 4.875584 -92.342865 -27.060886 -0.516397 -176.463600 -29.839450 51.875861 0.000000 0.000000 0.000000
-0.113214 0.316133 0.960181 2.033575 -4.989437 141.769904 57.640551 -38.643669 32.783069 -173.209897 58.243992 -11.740439 -2.798654 15.676738 -116.106263 0.000000 0.000000 0.000000 -78.489908 9.905143 2.292503 175.507966 13.771501 -35.310128 -23.331306 -3.204044 -107.126142 0.000000 0.000000 0.000000 -8.332190 4.502947 165.027332 173.457759 -24.899172 -22.326714 -166.592434 -23.752363 52.280829 -10.917878 17.196040 122.654804 0.000000 0.000000 0.000000 -72.542566 -6.742684 10.946756 17.117915 18.773236 4.371015 176.112125 -15.200520 -110.503681 0.000000 0.000000 0.000000 20.619863 20.415677 -107.528309 -65.284352 50.770650 -16.667885 -176.063179 -15.350571 66.099658 0.000000 0.000000 0.000000
-0.119137 0.354513 1.013030 2.338827 -10.394535 104.879569 109.475688 2.413713 19.672151 -162.254188 43.133490 -21.636677 20.956936 1.069417 -104.186611 0.000000 0.000000 0.000000 -105.303174 21.110951 -0.283218 136.576131 11.640697 -54.035184 -17.990364 -7.470021 -77.169231 0.000000 0.000000 0.000000 4.116543 -13.054687 129.986589 -4.024018 -10.621154 164.328057 3.053757 -5.600832 53.442069 -6.476038 3.792731 130.006158 0.000000 0.000000 0.000000 -65.886407 -24.151876 -17.857208 9.081109 -9.497292 1.790980 -178.962151 -23.196079 140.575574 0.000000 0.000000 0.000000 49.867468 18.029901 2.300709 -22.732558 -15.273140 6.295499 -172.300133 35.876499 133.989167 0.000000 0.000000 0.000000
-0.131537 0.397408 1.097861 0.332761 -9.115475 101.901937 113.209509 3.269608 6.783379 -145.687130 46.907443 -25.234075 21.173537 -10.136486 -80.269049 0.000000 0.000000 0.000000 -91.717713 3.211339 -25.798644 121.585941 -17.062427 -38.886459 -11.130169 -8.762133 -72.537719 0.000000 0.000000 0.000000 0.259774 -5.465812 114.359935 1.822928 23.413334 174.417031 5.196726 21.870062 116.432099 -3.529220 11.211478 131.659998 0.000000 0.000000 0.000000 -59.163905 -23.046635 11.682953 28.218464 -41.481375 -9.746858 152.276334 -37.064235 -124.798037 0.000000 0.000000 0.000000 52.130425 23.581310 3.564347 -26.851005 23.731451 -3.410992 -146.330166 43.133252 -116.713968 0.000000 0.000000 0.000000
-0.149263 0.437770 1.212800 0.670482 -10.785661 109.450249 96.309995 8.721293 -11.594849 -132.009855 42.390925 -31.652611 12.812376 -16.604017 -59.306178 0.000000 0.000000 0.000000 -78.284142 7.103074 -36.770277 77.800636 -10.235249 -32.552253 0.628022 -22.683841 -72.964186 0.000000 0.000000 0.000000 3.644606 -2.921598 110.566326 -4.886823 -10.147992 -176.917301 -11.847726 -11.075383 157.805988 -3.001310 5.065677 127.782575 0.000000 0.000000 0.000000 -51.026275 -28.973266 12.154238 74.384922 -42.627354 -33.754737 125.068401 -18.731296 -57.038491 0.000000 0.000000 0.000000 36.981572 15.162086 7.669704 -71.182243 34.418988 -27.006485 -117.846064 16.633187 -62.155194 0.000000 0.000000 0.000000
-0.167044 0.447190 1.334992 -1.170140 -9.364067 119.232443 77.623600 -4.146908 -22.177198 -97.377155 20.520292 -41.908480 4.837362 6.548130 -56.463005 0.000000 0.000000 0.000000 -61.431639 7.008862 -44.800642 48.721479 -5.723079 -10.798403 9.767429 -32.331301 -75.982247 0.000000 0.000000 0.000000 2.788222 -1.369019 110.080930 -8.638757 -10.755653 -147.494662 -5.804956 -18.032293 158.921310 -1.568287 7.104719 123.429667 0.000000 0.000000 0.000000 -31.436502 -30.425149 11.537149 88.228272 -22.731495 -26.006020 125.807796 19.766430 3.540896 0.000000 0.000000 0.000000 24.762934 12.633379 9.018881 -74.344402 16.391990 -17.383981 -118.415741 -13.874376 -23.176149 0.000000 0.000000 0.000000
-0.181537 0.426265 1.445166 -1.591943 -5.726279 134.584024 69.756454 -6.567682 -36.601754 -52.283398 10.748088 -33.357946 -7.173199 24.232309 -76.692437 0.000000 0.000000 0.000000 -49.897730 5.504725 -51.646436 39.737170 -7.876352 3.667201 10.513673 -29.258905 -74.247781 0.000000 0.000000 0.000000 -2.004961 1.623706 105.880101 -7.322601 -2.915627 -123.379540 1.475401 -15.524779 133.629010 -3.953122 7.487919 95.265346 0.000000 0.000000 0.000000 -19.994534 -29.776283 15.820391 76.336943 -13.730216 -16.143681 136.144146 31.257211 43.417487 0.000000 0.000000 0.000000 12.081290 14.546092 12.959905 -62.194443 21.247386 -18.173063 -119.711479 -17.118110 3.150714 0.000000 0.000000 0.000000
-0.192711 0.379487 1.538535 -2.769811 0.470179 154.525070 77.064471 -6.317883 -43.258057 -34.671711 5.217139 -25.634053 -7.568540 26.249029 -99.689820 0.000000 0.000000 0.000000 -44.536370 3.827863 -61.958585 41.256615 -8.894987 7.737156 11.214228 -29.519731 -81.896389 0.000000 0.000000 0.000000 -11.038269 12.603964 94.588878 20.897258 17.088720 -91.996000 1.411368 13.747124 109.587191 -12.777079 -4.333752 72.079626 0.000000 0.000000 0.000000 -8.183334 -29.994050 9.912160 65.917940 -13.143041 -18.697589 137.650308 27.187027 53.398099 0.000000 0.000000 0.000000 14.983037 10.337253 15.302920 -61.480987 27.394956 -25.140007 -115.475045 -12.849032 21.997229 0.000000 0.000000 0.000000
-0.201836 0.317372 1.617916 -1.551449 2.875528 167.946218 85.138099 -12.343488 -50.488148 -34.027294 -28.655774 -11.540090 -0.864554 36.644064 -114.907558 0.000000 0.000000 0.000000 -31.613950 -0.970188 -68.943643 32.924197 -22.344744 29.478736 4.078716 -19.443921 -78.328044 0.000000 0.000000 0.000000 -45.297253 13.397839 80.520390 34.580163 8.417362 -41.187543 21.022367 36.662570 69.262499 -27.557648 3.158467 47.859699 0.000000 0.000000 0.000000 -13.594862 -29.245930 -0.520648 45.396567 -25.729485 -25.915064 123.083819 -4.980843 0.224988 0.000000 0.000000 0.000000 14.172277 14.863133 26.150157 -53.258858 27.440664 -16.375218 -104.635018 -14.677892 44.955772 0.000000 0.000000 0.000000
-0.209564 0.257594 1.686157 -1.008385 5.481170 -166.479600 -71.874789 4.125740 -124.545578 11.238796 7.322083 -46.835535 16.371192 16.751466 -101.060877 0.000000 0.000000 0.000000 -133.638174 21.517479 -79.829176 -12.718572 13.965771 -68.784903 -10.118146 0.901248 -126.340289 0.000000 0.000000 0.000000 -73.119778 -2.054896 61.331449 33.993012 -60.103526 -7.187850 157.555168 50.663307 -171.505204 -45.073941 -37.050275 24.237829 0.000000 0.000000 0.000000 3.282486 -27.936896 -20.178390 5.945954 -25.116689 2.984404 111.467360 -12.560929 24.681743 0.000000 0.000000 0.000000 0.061449 4.129144 45.636777 -50.051097 23.876961 -29.389751 -108.119165 -22.936145 -17.296445 0.000000 0.000000 0.000000
-0.214975 0.202963 1.741164 -0.022556 1.282335 -143.170269 35.562657 21.490064 -86.245566 100.835311 4.821067 -16.879343 12.628002 33.071176 -112.848573 0.000000 0.000000 0.000000 -88.466208 2.398723 -64.503562 10.812221 26.120034 -65.506451 -3.476375 -18.523882 -115.237919 0.000000 0.000000 0.000000 -72.757987 -11.310366 55.616520 7.650707 -67.077488 35.915843 -174.625946 46.083338 -152.028948 -8.810886 -20.505833 2.391097 0.000000 0.000000 0.000000 10.199811 -18.144212 -0.201722 -4.105429 -37.157098 -0.630458 112.303271 -3.316976 5.840905 0.000000 0.000000 0.000000 -0.413722 7.650628 31.524072 -33.382154 37.289394 -19.616651 -105.637864 -13.840099 0.202539 0.000000 0.000000 0.000000
-0.218824 0.169693 1.783698 -0.951201 -4.230263 -121.703632 45.966041 26.613177 -90.300731 133.749106 -14.332513 -16.157883 25.473280 2.016634 -121.078436 0.000000 0.000000 0.000000 -61.270288 -13.360191 -60.723145 -47.694132 -16.709951 -122.564077 -10.245298 -19.612671 -106.985362 0.000000 0.000000 0.000000 -41.054631 -10.778559 44.804667 -121.229981 -75.732591 179.766148 -148.899809 31.326135 -130.970086 1.780503 -10.829358 -13.854340 0.000000 0.000000 0.000000 17.668100 -12.395145 1.281165 -16.810941 -41.109096 2.320285 111.905246 -3.835208 -3.839976 0.000000 0.000000 0.000000 -3.362960 8.184949 25.739327 -20.359190 46.753348 -17.860169 -100.323331 -2.618826 -4.080974 0.000000 0.000000 0.000000
-0.221175 0.157687 1.818128 -3.621745 -6.433799 -109.759405 39.436972 25.203189 -92.724907 146.653626 -11.845283 -18.319234 46.334103 -21.687776 -130.152581 0.000000 0.000000 0.000000 -50.706631 -17.629792 -54.657245 178.651767 61.240017 -24.670787 -20.894920 2.556835 -101.506889 0.000000 0.000000 0.000000 -24.983462 -7.260150 37.294158 -151.712303 -62.257571 -151.872279 -146.949629 31.511895 -131.646116 5.065287 -13.048962 -12.962385 0.000000 0.000000 0.000000 16.813662 -13.885405 -1.093294 -23.828554 -36.529816 5.058852 116.884601 -8.896687 -13.219592 0.000000 0.000000 0.000000 -2.077261 6.851806 26.742283 -17.312293 49.090610 -18.415091 -97.972896 5.347695 -12.086831 0.000000 0.000000 0.000000
-0.221952 0.159314 1.846380 -4.581098 -6.486648 -100.376223 45.723996 29.916980 -83.614226 152.743723 -42.533300 -13.384435 98.284303 -68.720249 -150.619937 0.000000 0.000000 0.000000 -48.448120 -19.059608 -47.032610 13.261305 15.027136 161.174729 -5.578704 -8.554991 -80.180989 0.000000 0.000000 0.000000 -13.963229 -4.699001 25.845956 149.670110 -66.563194 -107.212877 -136.372520 54.606736 -109.575676 9.427964 -8.160823 -14.342028 0.000000 0.000000 0.000000 18.986158 -9.707818 0.602873 -24.931846 -36.401109 4.051594 118.484359 -11.612673 -22.977025 0.000000 0.000000 0.000000 -1.313205 6.347676 22.317224 -2.815590 49.016653 -10.833513 -104.960176 13.869326 -22.304733 0.000000 0.000000 0.000000
-0.221308 0.164784 1.870550 -3.606427 -6.609180 -93.924174 54.930796 34.600298 -71.967721 147.150889 -66.093989 -6.155443 170.623932 -76.605417 143.074488 0.000000 0.000000 0.000000 -45.373649 -17.429534 -42.281951 15.624985 0.633190 151.503306 -3.531631 -11.797709 -69.536977 0.000000 0.000000 0.000000 -5.178251 -1.803684 18.605470 150.454169 -66.932732 -109.524353 -122.049627 49.025833 -97.922615 13.868223 -13.500629 -10.429311 0.000000 0.000000 0.000000 22.794587 -4.942132 3.777529 -25.685896 -34.139945 4.238746 123.895674 -11.005588 -28.358147 0.000000 0.000000 0.000000 1.960328 4.255683 27.830464 -1.702802 48.185614 -11.570928 -117.556884 15.755922 -34.728169 0.000000 0.000000 0.000000
-0.220451 0.163730 1.890165 -5.419934 -5.432866 -89.767923 55.847672 34.158879 -73.599896 144.422013 -66.209837 -3.196633 -162.370348 -54.066181 120.621544 0.000000 0.000000 0.000000 -43.080174 -17.450833 -40.514684 14.819514 1.248659 148.147431 -4.681522 -7.766629 -63.130896 0.000000 0.000000 0.000000 -1.367425 -0.395890 17.242460 -169.372603 -45.153669 -137.905456 -135.197771 23.505169 -113.779634 17.237839 -8.283044 -20.789165 0.000000 0.000000 0.000000 25.597605 -0.659224 1.902966 -24.291112 -32.205030 2.758495 130.314696 -9.115377 -34.216866 0.000000 0.000000 0.000000 0.000159 -4.622225 30.220748 -4.254799 51.640451 -15.670046 -133.390217 12.031500 -45.691182 0.000000 0.000000 0.000000
-0.219391 0.161775 1.904424 -6.537732 -3.513929 -84.928645 54.654827 34.636567 -83.579648 144.379853 -60.985198 -2.317901 -144.090816 -36.217303 113.926002 0.000000 0.000000 0.000000 -41.277930 -17.737590 -43.709334 11.877802 6.619126 149.599198 -5.241696 -6.736747 -59.497211 0.000000 0.000000 0.000000 -3.112734 -1.231270 15.970805 -92.488157 -38.412483 -166.127235 -88.688700 -11.226392 -134.543495 16.345793 -10.782287 -20.839732 0.000000 0.000000 0.000000 33.909728 5.530141 15.892315 -20.867035 -38.955103 -0.325783 131.756178 2.142738 -27.848423 0.000000 0.000000 0.000000 -6.331101 -5.199369 18.402871 21.096753 44.096031 -0.071345 -140.017773 12.731952 -46.005218 0.000000 0.000000 0.000000
-0.218991 0.156117 1.912882 -6.493470 -4.829770 -81.349806 42.587131 29.230340 -91.068999 153.814318 -33.011314 -12.136188 -103.364717 3.730113 117.281380 0.000000 0.000000 0.000000 -35.115718 -14.238497 -44.982316 11.973155 -1.429093 147.253912 -4.780647 -15.183895 -63.482026 0.000000 0.000000 0.000000 6.092582 2.029238 20.264681 -30.658130 -15.529118 -171.911257 -29.236093 -10.921971 -173.297590 11.559629 -4.682736 -22.397880 0.000000 0.000000 0.000000 26.907585 4.751359 12.957550 -26.818889 -37.351462 3.717169 141.568011 0.469654 -31.492171 0.000000 0.000000 0.000000 -15.788513 -7.912721 4.248808 31.573269 32.475124 7.593571 -142.886858 15.948503 -57.473750 0.000000 0.000000 0.000000
-0.218787 0.156010 1.916281 -6.342432 -2.150506 -75.992519 37.980284 23.901004 -91.786917 157.595852 -32.469598 -11.827902 -94.607153 7.272890 120.408352 0.000000 0.000000 0.000000 -34.243671 -14.435570 -47.680686 14.303866 -8.935226 138.149991 -5.434492 -18.168638 -65.800455 0.000000 0.000000 0.000000 2.097275 0.402962 23.404170 -23.229167 -10.762612 -173.179510 -27.410693 -7.084317 -179.524241 6.167590 -9.768000 -12.254852 0.000000 0.000000 0.000000 17.093115 5.394487 12.386460 -34.614975 -40.483097 7.750999 148.477094 -2.251573 -36.788926 0.000000 0.000000 0.000000 -11.804631 -2.838683 5.409836 28.137883 31.655120 7.184283 -143.209479 20.202212 -66.606744 0.000000 0.000000 0.000000
-0.219085 0.152980 1.917889 -7.291783 -2.129952 -71.787497 33.943771 19.622105 -92.643361 158.969932 -19.477561 -13.083846 -74.435594 18.541921 127.074208 0.000000 0.000000 0.000000 -33.029987 -14.351159 -53.380864 14.033764 -9.936354 133.866531 -6.109642 -17.352648 -61.452206 0.000000 0.000000 0.000000 6.679169 0.990025 26.091750 -20.662141 -12.843562 -178.404917 -23.272515 -5.470429 -175.197941 8.404636 -6.966857 -4.855820 0.000000 0.000000 0.000000 12.026651 1.031289 10.716172 -38.212157 -40.310674 12.878662 155.033065 -7.702192 -50.429092 0.000000 0.000000 0.000000 -7.752021 -3.613305 2.773814 26.247773 31.886767 10.684531 -140.489752 22.769856 -62.787414 0.000000 0.000000 0.000000
-0.219601 0.157195 1.919945 -5.954710 -1.680431 -68.846935 31.594730 17.182345 -87.228421 162.384313 -23.524544 -12.589435 -109.528911 11.230273 126.630970 0.000000 0.000000 0.000000 -32.845466 -14.219814 -57.640277 17.789971 -17.369791 127.568079 -5.955698 -19.267031 -53.652656 0.000000 0.000000 0.000000 8.130872 -0.218049 37.904548 -19.084749 -8.707496 -176.149483 -22.110324 -2.089173 176.861974 9.395817 -7.890760 0.270812 0.000000 0.000000 0.000000 1.446348 -1.314623 8.366085 -36.302690 -40.795540 17.910034 160.480498 -15.566697 -72.016832 0.000000 0.000000 0.000000 -6.147372 2.865330 5.179853 19.130548 28.347840 10.633647 -136.242848 19.933502 -44.958224 0.000000 0.000000 0.000000
-0.220204 0.166228 1.922136 -5.788366 -0.954673 -61.849285 31.313611 16.389972 -85.695492 164.547510 -45.643422 -10.205212 -168.084942 -29.329679 131.993199 0.000000 0.000000 0.000000 -34.530093 -15.920748 -62.998692 18.511163 -19.980607 124.660965 -6.385128 -18.239704 -48.643262 0.000000 0.000000 0.000000 10.650799 -1.899722 44.108947 -17.084112 -8.419634 -179.043440 -19.973604 0.506274 177.797474 5.071317 -10.778415 4.793644 0.000000 0.000000 0.000000 -7.507006 -4.729363 7.123559 -33.107789 -37.045997 24.053715 162.976857 -21.775455 -64.750179 0.000000 0.000000 0.000000 -3.868112 8.211106 6.056062 16.679257 22.299737 14.571580 -133.945337 14.832237 -13.189853 0.000000 0.000000 0.000000
-0.221231 0.183563 1.925361 -2.794379 -2.536835 -54.157194 35.147355 20.931976 -81.019920 137.254211 -83.882747 19.187766 165.634456 -67.832822 149.923323 0.000000 0.000000 0.000000 -35.875935 -15.896426 -68.726626 23.943389 -26.832131 113.744809 -6.944190 -20.286176 -40.759446 0.000000 0.000000 0.000000 12.663541 -4.171973 52.522302 -18.984943 -9.324723 -175.585282 -18.787761 -2.045906 174.539087 -19.812387 -32.509707 11.161504 0.000000 0.000000 0.000000 -12.765661 -9.690310 13.808797 -26.302556 -36.505031 29.469808 158.814254 -27.183035 -27.510527 0.000000 0.000000 0.000000 -3.534993 12.073309 8.919548 18.812738 20.881111 23.701385 -127.358324 12.392519 14.774184 0.000000 0.000000 0.000000
-0.223944 0.210839 1.930682 -0.263428 -4.563246 -44.333088 42.639605 28.040011 -76.915931 -1.806298 -43.741284 154.093097 7.377350 -73.112329 -47.328479 0.000000 0.000000 0.000000 -39.031650 -17.142213 -74.456219 35.951643 -35.236400 94.290678 -7.908717 -21.352306 -24.672451 0.000000 0.000000 0.000000 11.302842 -5.484641 60.250232 -68.335323 -33.022048 -150.063254 -57.384057 -33.631405 -167.547375 169.515787 24.894543 103.398010 0.000000 0.000000 0.000000 0.288123 7.182341 72.565421 44.804210 -53.694033 -12.066063 131.696671 -10.100329 69.561977 0.000000 0.000000 0.000000 -9.655950 -1.942785 82.980105 -33.121646 41.247054 7.872190 -132.650052 -46.820524 127.930484 0.000000 0.000000 0.000000
-0.229351 0.238718 1.942884 2.639171 -7.367645 -34.442140 52.547400 33.507683 -66.238702 -5.678215 -9.813650 146.617076 7.205777 -53.212708 -46.943896 0.000000 0.000000 0.000000 -39.874784 -16.820258 -81.130522 48.080917 -38.794511 75.160551 -11.003459 -27.800907 -6.197504 0.000000 0.000000 0.000000 5.709668 -2.779275 63.673954 80.954315 -38.233810 -80.415519 -74.881267 77.462499 -29.255525 -70.900432 -17.205999 57.351729 0.000000 0.000000 0.000000 -13.496558 -33.673974 -56.454119 -13.220567 17.105974 0.875994 -103.639060 -33.154358 52.563067 0.000000 0.000000 0.000000 19.477804 7.873522 112.496706 -32.691624 15.669595 -8.084909 -89.425927 -47.446773 30.930697 0.000000 0.000000 0.000000
-0.237025 0.272096 1.968440 2.140034 -8.102562 -25.847666 60.739440 35.503555 -58.926187 -10.984068 14.350655 139.285393 5.155550 -34.928721 -41.759274 0.000000 0.000000 0.000000 -43.490422 -19.701092 -82.370225 60.383644 -40.097693 58.930295 -12.605829 -28.740467 5.973583 0.000000 0.000000 0.000000 4.856159 -2.693631 71.684588 17.262977 -1.553216 -66.343952 -7.243704 17.997974 56.159621 -4.510397 -1.738111 35.076564 0.000000 0.000000 0.000000 -38.384339 -22.978765 13.303088 -9.800556 -20.973693 -4.795264 -13.658534 -68.582553 10.478260 0.000000 0.000000 0.000000 32.373629 28.856613 27.222011 -1.477487 12.712717 -1.573791 -58.325522 38.866576 -24.334480 0.000000 0.000000 0.000000
-0.245099 0.301011 2.011888 1.324510 -8.361294 -20.215359 66.247223 35.299023 -52.638585 -15.198455 25.197223 132.375874 4.442014 -25.146589 -37.994590 0.000000 0.000000 0.000000 -46.201777 -21.265332 -81.001246 70.053822 -41.324945 49.507298 -14.271872 -31.860923 6.048840 0.000000 0.000000 0.000000 2.748972 -1.380031 74.880332 14.265416 -1.950027 -50.582712 -7.313073 15.483690 40.510771 -3.887736 -1.995149 34.701609 0.000000 0.000000 0.000000 -40.443731 -26.893740 13.577610 -13.211990 -20.288908 -1.873025 -7.213339 -49.727332 4.538764 0.000000 0.000000 0.000000 31.654644 31.716789 25.387997 1.811834 17.003261 -1.719484 -34.231714 32.431751 -9.761525 0.000000 0.000000 0.000000
-0.251737 0.327242 2.071072 1.011213 -7.572241 -14.480519 70.791270 33.297153 -46.344355 -20.864615 35.700863 124.912752 4.624069 -11.827443 -33.522333 0.000000 0.000000 0.000000 -49.714415 -23.711943 -78.697595 78.830714 -42.256615 42.046564 -15.273966 -34.777581 2.404135 0.000000 0.000000 0.000000 2.402646 -1.645152 78.428111 8.219390 -0.513013 -50.142107 -3.649454 8.677207 41.715390 -6.029703 9.061375 36.595294 0.000000 0.000000 0.000000 -47.123786 -27.397460 18.440895 -8.937646 -25.874789 -1.953199 2.738187 -35.316913 -0.089554 0.000000 0.000000 0.000000 29.076008 36.836428 24.296472 2.529195 20.843545 -1.870258 -23.632854 27.150045 -5.447664 0.000000 0.000000 0.000000
-0.255935 0.335981 2.137238 1.635357 -4.778138 -11.951322 71.440875 30.924775 -45.529093 -23.030490 39.905554 122.401959 4.556591 0.933057 -22.413813 0.000000 0.000000 0.000000 -54.355822 -27.129077 -74.068453 83.984892 -44.908660 41.127831 -15.002638 -37.194537 -5.362523 0.000000 0.000000 0.000000 3.645318 -4.154314 81.734641 2.503191 0.455244 -45.042739 -2.539103 2.746273 36.550653 -5.367504 8.783134 33.204018 0.000000 0.000000 0.000000 -51.724587 -30.650199 24.480827 -5.181386 -27.051632 -1.877209 7.769789 -26.914953 -1.316055 0.000000 0.000000 0.000000 26.519720 39.105674 22.866817 4.521046 23.474805 -1.652480 -21.485618 24.015897 -4.170469 0.000000 0.000000 0.000000
-0.259716 0.340629 2.195929 2.374266 -4.723666 -10.710600 71.766526 30.584447 -44.755685 -21.084897 39.167038 125.869427 5.544173 10.485956 -7.313237 0.000000 0.000000 0.000000 -55.405952 -27.376003 -73.088580 89.415382 -49.418570 41.506473 -16.478014 -44.839132 -12.339740 0.000000 0.000000 0.000000 4.604104 -5.364805 86.345428 0.088018 0.755262 -46.793522 -3.458750 -0.334712 37.403020 -4.808001 8.729379 36.234918 0.000000 0.000000 0.000000 -50.417644 -33.011457 27.554925 0.085375 -30.753711 -2.795490 9.574219 -19.529485 -1.352298 0.000000 0.000000 0.000000 28.665105 41.401118 24.394264 -1.385357 27.081541 -2.314149 -18.268141 19.570596 -2.849321 0.000000 0.000000 0.000000
-0.263765 0.345823 2.234302 2.386709 -2.786484 -7.218208 71.449383 30.240361 -47.013166 -21.169224 41.510845 126.433243 4.678363 7.614861 -8.905973 0.000000 0.000000 0.000000 -56.289155 -29.607158 -73.011234 92.655465 -51.531301 40.979913 -18.450444 -50.669738 -13.121307 0.000000 0.000000 0.000000 5.744168 -8.106660 89.352920 -2.387628 1.167292 -37.498885 -2.920143 -2.643262 23.453189 -3.791732 4.428825 26.460376 0.000000 0.000000 0.000000 -50.015754 -36.446737 31.137821 6.359677 -30.890198 -3.193408 10.215572 -18.423671 -1.283079 0.000000 0.000000 0.000000 22.283473 44.219705 23.120497 0.457853 27.792447 -1.768480 -18.970081 20.273734 -2.826966 0.000000 0.000000 0.000000
-0.269067 0.355464 2.254015 3.105285 -2.972042 -4.718170 66.571387 30.491576 -51.508283 -21.209639 42.391997 126.372305 5.090262 7.778856 -11.432768 0.000000 0.000000 0.000000 -52.499378 -29.247580 -78.019048 86.140014 -55.650071 50.383734 -18.174237 -51.020301 -14.689679 0.000000 0.000000 0.000000 3.799698 -6.406445 91.831566 -1.522321 0.997211 -35.299075 -1.796320 -2.850320 22.826425 -3.313363 3.204120 9.038516 0.000000 0.000000 0.000000 -35.246006 -41.307895 28.794324 10.056731 -35.823980 -4.597472 17.027708 -11.817192 -1.537516 0.000000 0.000000 0.000000 7.119446 46.236696 17.910390 -0.497968 33.376490 -2.343802 -25.644883 14.063929 -2.639364 0.000000 0.000000 0.000000
-0.273611 0.368421 2.262352 2.824244 -2.722348 -2.233690 62.072535 30.964749 -57.247033 -21.524843 42.800910 125.279039 4.623804 4.974034 -14.650295 0.000000 0.000000 0.000000 -48.877197 -28.408409 -81.473821 78.795978 -57.557179 59.159260 -17.099705 -49.091002 -15.995540 0.000000 0.000000 0.000000 2.989173 -6.033206 93.491976 -1.323555 0.959185 -32.564453 -1.063670 -2.901183 19.124347 -4.681764 4.360573 1.677392 0.000000 0.000000 0.000000 -25.707039 -43.627746 26.320134 14.270218 -36.113627 -5.403979 18.501504 -6.473500 -0.930874 0.000000 0.000000 0.000000 -3.278233 46.543714 14.233585 -2.306205 34.512537 -2.790267 -28.071599 12.563463 -2.515509 0.000000 0.000000 0.000000
-0.276346 0.381480 2.267883 3.010673 -1.740879 -1.099338 56.234860 30.019986 -63.613900 -20.575243 40.972914 124.950875 4.122120 0.144141 -19.909093 0.000000 0.000000 0.000000 -45.462327 -26.934535 -82.638146 71.837086 -56.403393 65.044408 -18.030352 -52.171732 -16.279412 0.000000 0.000000 0.000000 2.846073 -6.697912 94.328605 -1.410379 1.004594 -33.558502 -0.925920 -2.370537 21.208061 -4.783988 4.332188 -4.527875 0.000000 0.000000 0.000000 -14.635340 -44.904990 21.931077 16.274409 -36.791031 -5.931255 20.559674 -3.508051 -0.621132 0.000000 0.000000 0.000000 -10.625068 45.931998 11.144270 -3.140955 35.729795 -3.110901 -28.343485 8.429322 -1.598354 0.000000 0.000000 0.000000
-0.276631 0.390191 2.273710 3.579063 -2.211936 -1.405180 52.351855 29.393785 -66.734963 -20.242847 39.267525 124.050136 4.356956 0.577122 -20.533442 0.000000 0.000000 0.000000 -43.209734 -25.341367 -84.304491 66.827771 -55.817097 69.757642 -20.777527 -55.065531 -12.139773 0.000000 0.000000 0.000000 3.144248 -6.781406 95.456199 -2.576374 1.184497 -32.734832 -1.202740 -2.832099 20.515571 -2.557382 2.348072 -8.631066 0.000000 0.000000 0.000000 -3.883328 -45.551660 17.441088 14.234678 -37.446296 -5.426217 23.073903 -1.762820 -0.392157 0.000000 0.000000 0.000000 -12.453302 44.010885 10.072488 -3.235155 37.737053 -3.400026 -28.100558 9.593903 -1.838324 0.000000 0.000000 0.000000
-0.275087 0.392265 2.278974 3.612954 -1.978699 -4.056204 49.983615 28.280067 -68.110183 -17.881645 34.856912 125.864596 3.572426 -2.389899 -20.682433 0.000000 0.000000 0.000000 -43.157015 -24.714100 -82.775144 63.642103 -54.807527 72.595556 -23.780427 -56.007348 -5.745524 0.000000 0.000000 0.000000 3.573668 -7.512749 96.826691 -3.133078 1.288030 -33.189293 -1.867256 -3.270370 20.625385 -1.528924 1.496673 -9.818245 0.000000 0.000000 0.000000 -1.736390 -45.965331 16.409757 13.068643 -36.662718 -4.841677 22.619613 -2.931804 -0.590610 0.000000 0.000000 0.000000 -9.682415 44.589956 11.015358 -1.400077 36.859505 -2.809930 -26.977464 11.758718 -2.240565 0.000000 0.000000 0.000000
-0.272834 0.387269 2.282754 3.611801 -1.756153 -7.789242 46.677572 26.972967 -70.589254 -16.886240 32.301680 126.620122 4.518791 0.742403 -21.601089 0.000000 0.000000 0.000000 -41.476755 -23.180329 -82.339308 58.864998 -53.795985 77.673054 -30.005835 -59.872566 3.021563 0.000000 0.000000 0.000000 3.159728 -7.058089 96.856496 -1.374656 1.017815 -32.470454 -2.621982 -1.699166 18.133665 -3.047002 2.888345 -2.668784 0.000000 0.000000 0.000000 -10.523997 -47.971989 20.699579 13.802961 -33.835386 -4.433438 22.072924 -4.240059 -0.818910 0.000000 0.000000 0.000000 2.794154 46.242593 16.345226 -0.525094 33.521417 -2.087186 -26.760682 15.966024 -3.114221 0.000000 0.000000 0.000000
-0.270879 0.381637 2.284201 3.737605 -2.591492 -11.378910 45.991850 27.228389 -70.676833 -16.382498 30.127084 126.703472 4.451547 0.969319 -21.149879 0.000000 0.000000 0.000000 -40.139775 -21.385798 -82.590764 57.415622 -51.464203 76.914826 -55.292020 -66.592020 33.698429 0.000000 0.000000 0.000000 2.158844 -5.130727 96.212762 -2.685265 1.199297 -36.128434 -0.534682 -2.180383 21.285185 -4.645198 4.651608 0.769697 0.000000 0.000000 0.000000 -19.920336 -49.573813 25.683432 14.996233 -27.854510 -3.276780 22.774417 -9.677759 -1.865007 0.000000 0.000000 0.000000 11.466036 47.807175 20.108182 1.702886 28.625784 -1.373893 -28.641912 20.949285 -4.695912 0.000000 0.000000 0.000000
-0.270130 0.373768 2.283383 3.638268 -1.347244 -14.559292 47.304667 26.765895 -69.548667 -18.477107 30.543334 121.548686 4.412958 2.300394 -19.013991 0.000000 0.000000 0.000000 -38.553697 -20.258680 -80.461562 56.091704 -47.461755 74.115513 -115.533007 -66.219302 93.601985 0.000000 0.000000 0.000000 2.480292 -6.192369 95.538301 -2.198584 1.207848 -35.705947 -2.740484 -2.111910 19.509978 -5.620411 5.616436 -2.201667 0.000000 0.000000 0.000000 -18.096123 -47.634998 23.389623 10.956604 -29.689056 -2.979282 24.725243 -11.471195 -2.415292 0.000000 0.000000 0.000000 17.568235 45.954422 21.693271 5.353348 27.316397 -0.725691 -27.819032 26.734475 -5.912956 0.000000 0.000000 0.000000
-0.270017 0.362923 2.282151 3.705228 0.475274 -19.875997 46.981766 25.154972 -69.175692 -19.670399 29.405137 117.538223 3.106576 2.620478 -10.843370 0.000000 0.000000 0.000000 -37.225982 -19.795967 -78.544130 51.605023 -44.382182 76.914775 -41.924300 -67.513647 14.025061 0.000000 0.000000 0.000000 0.987118 -5.380215 93.770594 -0.565335 1.061338 -37.061900 -3.002967 -0.459997 19.731835 -6.187687 6.806806 -0.134841 0.000000 0.000000 0.000000 -30.087461 -46.242291 27.350577 10.009780 -27.895488 -2.474725 22.491865 -18.083500 -3.418986 0.000000 0.000000 0.000000 26.451023 43.150236 23.889866 10.302518 23.448698 -0.252775 -26.073305 32.133259 -6.757140 0.000000 0.000000 0.000000
-0.270172 0.355179 2.282887 3.582138 1.488623 -24.472797 44.388071 23.319323 -70.702045 -20.272778 27.559660 113.727543 4.571793 10.166422 1.357991 0.000000 0.000000 0.000000 -36.784635 -19.418526 -76.265652 48.460811 -41.656535 78.297899 -28.109279 -56.728923 3.894581 0.000000 0.000000 0.000000 0.348835 -5.027491 91.744452 -1.940916 1.397357 -38.205107 -1.870839 -1.063169 21.429783 -6.390134 7.440652 0.975431 0.000000 0.000000 0.000000 -33.212627 -43.420182 26.904141 4.406694 -27.951939 -1.762558 23.601134 -24.180007 -4.880228 0.000000 0.000000 0.000000 31.626234 40.295512 23.670866 13.258878 19.763780 -0.301955 -23.717501 36.384452 -7.022803 0.000000 0.000000 0.000000
-0.270069 0.347530 2.287278 3.630604 1.552771 -28.409961 43.404709 22.368974 -69.817492 -20.367943 25.021775 110.162205 4.819962 11.379381 4.877049 0.000000 0.000000 0.000000 -37.437797 -18.849869 -72.876009 48.382435 -40.210350 77.107675 -28.158632 -55.563657 5.497921 0.000000 0.000000 0.000000 0.036913 -4.165228 86.819030 -0.723588 1.182958 -34.126436 -3.248797 0.794372 19.015329 -4.938902 6.051157 6.003784 0.000000 0.000000 0.000000 -41.755039 -39.753887 26.849177 0.621452 -25.180335 -1.022717 21.518233 -32.591354 -5.974975 0.000000 0.000000 0.000000 36.471581 36.167336 23.179518 17.210129 14.612981 -0.818649 -21.037059 42.119734 -7.146953 0.000000 0.000000 0.000000
-0.270259 0.341929 2.295492 3.090153 1.193125 -32.698561 42.719291 21.492390 -67.823876 -20.132272 22.505016 107.392257 4.451942 9.548518 -0.113305 0.000000 0.000000 0.000000 -38.138204 -18.261488 -69.785691 48.817840 -39.741151 76.760162 -32.816598 -56.866265 13.580960 0.000000 0.000000 0.000000 -1.959764 -1.958978 80.899285 2.003240 0.199487 -32.796680 -2.892654 4.856272 19.925202 -3.126198 4.077486 6.920217 0.000000 0.000000 0.000000 -44.089718 -36.173517 22.586869 -5.973067 -23.516949 -0.294407 17.155972 -39.221371 -5.605524 0.000000 0.000000 0.000000 41.351683 33.427796 24.498686 18.240408 10.762944 -1.695470 -16.456023 44.484617 -5.833463 0.000000 0.000000 0.000000
-0.270751 0.338496 2.304671 2.185181 1.418427 -37.001774 42.481438 19.989056 -64.407740 -21.311920 21.009327 101.933498 5.122124 9.942831 -4.051838 0.000000 0.000000 0.000000 -38.108615 -17.580180 -66.206899 46.414694 -38.497475 79.602343 -33.818809 -56.097154 17.197689 0.000000 0.000000 0.000000 -2.464985 -1.538343 73.269824 4.335278 -2.101382 -21.566705 -5.388595 9.218317 8.538029 -3.726374 1.116633 14.740245 0.000000 0.000000 0.000000 -48.378323 -32.785549 14.226907 -12.798966 -16.291369 0.441290 4.009427 -45.144301 -1.048420 0.000000 0.000000 0.000000 47.576640 28.799177 25.078474 17.690129 5.928533 -2.297163 -9.327606 45.445318 -3.561593 0.000000 0.000000 0.000000
-0.271229 0.345092 2.311493 1.023078 0.816368 -39.548422 42.244332 18.775053 -60.408419 -20.234317 17.386490 97.761283 3.472310 4.189068 -9.040781 0.000000 0.000000 0.000000 -38.938017 -17.085635 -62.690232 46.771985 -39.322762 81.001410 -27.819178 -50.445023 13.987202 0.000000 0.000000 0.000000 -1.805733 -1.696513 65.739469 1.893379 -0.637826 -20.685272 -2.488798 7.431393 11.340027 -3.432149 0.827361 17.489651 0.000000 0.000000 0.000000 -49.703135 -30.154088 13.992803 -16.525601 -13.840843 0.097001 5.602340 -48.263737 -2.083589 0.000000 0.000000 0.000000 47.478131 29.328103 23.216800 19.508355 2.829526 -2.632679 -5.445273 44.364926 -1.916073 0.000000 0.000000 0.000000
-0.271432 0.350136 2.316209 -0.329167 -0.425507 -41.325098 41.936828 18.099205 -57.099067 -19.757009 15.362454 94.365895 4.313145 4.837955 -12.506395 0.000000 0.000000 0.000000 -39.144175 -16.369948 -60.840234 45.640781 -39.421598 83.660992 -20.462698 -40.978319 11.752598 0.000000 0.000000 0.000000 -2.885635 -0.881408 58.179556 7.547514 -4.833244 -18.648963 -4.618946 14.786398 11.566903 -0.922932 -4.682331 17.549101 0.000000 0.000000 0.000000 -47.797564 -30.138283 7.283507 -20.651800 -9.823287 0.650190 -3.139977 -49.798833 1.650374 0.000000 0.000000 0.000000 49.424318 25.561627 25.916051 17.251638 6.590583 -2.541901 -6.376136 39.768378 -2.246967 0.000000 0.000000 0.000000
-0.271645 0.351845 2.321614 -0.298026 -1.378584 -43.350138 39.577827 16.133280 -52.371111 -19.681655 14.190986 90.650339 7.600120 11.079385 -22.113147 0.000000 0.000000 0.000000 -36.720526 -14.429834 -60.318485 44.575472 -38.216586 84.056395 -25.773860 -46.868163 15.743495 0.000000 0.000000 0.000000 -2.125992 -0.916149 52.532615 3.484696 -3.457080 -4.642237 -4.850809 10.850724 -5.184594 -1.461907 -6.641199 24.032117 0.000000 0.000000 0.000000 -44.904604 -27.649634 5.658401 -25.607665 -5.060279 1.729934 -1.252203 -49.728461 -0.216197 0.000000 0.000000 0.000000 48.974681 25.167131 24.716565 20.418830 3.851769 -0.933185 -4.864413 37.429528 -1.210319 0.000000 0.000000 0.000000
-0.270982 0.353623 2.328667 -0.377417 -3.796964 -46.892759 38.883555 15.832080 -47.643938 -17.903044 12.122263 91.849501 8.486654 10.608001 -32.279277 0.000000 0.000000 0.000000 -34.481196 -11.911374 -58.780632 42.817237 -36.291517 85.645578 -24.524934 -45.107008 15.853484 0.000000 0.000000 0.000000 -1.165774 -0.760334 49.035436 -4.558448 4.671723 -4.361537 3.458480 4.742936 -5.182991 -1.127873 -3.656939 29.939931 0.000000 0.000000 0.000000 -50.322077 -26.600280 11.398597 -22.010306 -2.319417 1.275092 -5.775830 -48.747563 2.354625 0.000000 0.000000 0.000000 48.726165 24.614979 16.527970 19.506116 -0.982179 0.524053 2.366877 34.378020 1.019323 0.000000 0.000000 0.000000
-0.270120 0.355510 2.335935 0.429357 -2.462020 -47.382885 36.479985 14.205519 -48.214783 -18.583065 12.823616 89.858119 8.372611 11.579726 -28.936636 0.000000 0.000000 0.000000 -34.986460 -12.251427 -56.888560 38.579586 -34.545308 90.108399 -18.264975 -42.738282 -0.273049 0.000000 0.000000 0.000000 -1.991986 -0.731447 43.343567 1.648621 -2.130320 -2.126502 -5.346378 9.631266 -2.159513 1.132247 -9.572901 30.635878 0.000000 0.000000 0.000000 -44.730569 -25.908480 5.953483 -19.291899 -0.890321 0.802935 -11.811558 -45.029225 5.049670 0.000000 0.000000 0.000000 54.819867 22.739020 22.201901 15.523793 3.745536 -0.328738 -0.804113 31.124309 0.144259 0.000000 0.000000 0.000000
