HIERARCHY
ROOT Hips
{
	OFFSET -0.001795 -0.223333 0.028219
	CHANNELS 6 Xposition Yposition Zposition Zrotation Yrotation Xrotation
	JOINT LeftUpLeg
	{
		OFFSET 0.069520 -0.091406 -0.006815
		CHANNELS 3 Zrotation Yrotation Xrotation
		JOINT LeftLeg
		{
			OFFSET 0.034277 -0.375199 -0.004496
			CHANNELS 3 Zrotation Yrotation Xrotation
			JOINT LeftFoot
			{
				OFFSET -0.013596 -0.397961 -0.043693
				CHANNELS 3 Zrotation Yrotation Xrotation
				JOINT LeftToe
				{
					OFFSET 0.026358 -0.055791 0.119288
					CHANNELS 3 Zrotation Yrotation Xrotation
					End Site
					{
						OFFSET 0.000000 0.000000 0.000000
					}
				}
			}
		}
	}
	JOINT RightUpLeg
	{
		OFFSET -0.067670 -0.090522 -0.004320
		CHANNELS 3 Zrotation Yrotation Xrotation
		JOINT RightLeg
		{
			OFFSET -0.038290 -0.382569 -0.008850
			CHANNELS 3 Zrotation Yrotation Xrotation
			JOINT RightFoot
			{
				OFFSET 0.015774 -0.398415 -0.042312
				CHANNELS 3 Zrotation Yrotation Xrotation
				JOINT RightToe
				{
					OFFSET -0.025372 -0.048144 0.123348
					CHANNELS 3 Zrotation Yrotation Xrotation
					End Site
					{
						OFFSET 0.000000 0.000000 0.000000
					}
				}
			}
		}
	}
	JOINT Spine
	{
		OFFSET -0.002533 0.108963 -0.026696
		CHANNELS 3 Zrotation Yrotation Xrotation
		JOINT Spine1
		{
			OFFSET 0.005487 0.135180 0.001092
			CHANNELS 3 Zrotation Yrotation Xrotation
			JOINT Spine2
			{
				OFFSET 0.001457 0.052922 0.025425
				CHANNELS 3 Zrotation Yrotation Xrotation
				JOINT Neck
				{
					OFFSET -0.002778 0.213870 -0.042857
					CHANNELS 3 Zrotation Yrotation Xrotation
					JOINT Head
					{
						OFFSET 0.005152 0.064970 0.051349
						CHANNELS 3 Zrotation Yrotation Xrotation
						End Site
						{
							OFFSET 0.000000 0.000000 0.000000
						}
					}
				}
				JOINT LeftShoulder
				{
					OFFSET 0.078845 0.121749 -0.034090
					CHANNELS 3 Zrotation Yrotation Xrotation
					JOINT LeftArm
					{
						OFFSET 0.090977 0.030469 -0.008868
						CHANNELS 3 Zrotation Yrotation Xrotation
						JOINT LeftForeArm
						{
							OFFSET 0.259612 -0.012772 -0.027456
							CHANNELS 3 Zrotation Yrotation Xrotation
							JOINT LeftHand
							{
								OFFSET 0.249234 0.008986 -0.001171
								CHANNELS 3 Zrotation Yrotation Xrotation
								End Site
								{
									OFFSET 0.000000 0.000000 0.000000
								}
							}
						}
					}
				}
				JOINT RightShoulder
				{
					OFFSET -0.081759 0.118833 -0.038615
					CHANNELS 3 Zrotation Yrotation Xrotation
					JOINT RightArm
					{
						OFFSET -0.096012 0.032551 -0.009143
						CHANNELS 3 Zrotation Yrotation Xrotation
						JOINT RightForeArm
						{
							OFFSET -0.253742 -0.013329 -0.021401
							CHANNELS 3 Zrotation Yrotation Xrotation
							JOINT RightHand
							{
								OFFSET -0.255298 0.007772 -0.005559
								CHANNELS 3 Zrotation Yrotation Xrotation
								End Site
								{
									OFFSET 0.000000 0.000000 0.000000
								}
							}
						}
					}
				}
			}
		}
	}
}
MOTION
Frames: 76
Frame Time: 0.050000
0.000000 0.478662 0.000000 -1.906526 23.757525 44.972731 23.801036 -3.173947 -18.002600 -21.865610 4.124350 49.518235 10.957008 18.879509 -41.714902 0.000000 0.000000 0.000000 -10.391916 -13.029138 -69.932111 20.603966 -38.772992 106.520643 -8.485020 -16.002126 -19.868664 0.000000 0.000000 0.000000 -7.233946 -8.785857 65.932455 13.192945 2.164865 -58.754942 10.379870 11.350757 21.649811 -5.409171 5.553220 -32.858373 0.000000 0.000000 0.000000 -27.847139 -12.159392 -2.526435 -26.141764 -16.246456 0.750649 49.460841 -64.428057 -31.345635 0.000000 0.000000 0.000000 30.681012 9.861619 14.345752 30.495197 11.651975 -3.062162 -20.981488 42.898881 -4.224662 0.000000 0.000000 0.000000
0.021228 0.430786 0.053319 -1.286071 24.434213 49.605404 27.927367 -4.183206 -14.592444 -22.638330 4.587523 47.519424 10.967888 19.374159 -34.768483 0.000000 0.000000 0.000000 -12.521489 -15.273191 -69.414955 28.155699 -44.623065 98.216926 -9.312606 -20.588445 -12.175203 0.000000 0.000000 0.000000 -5.613626 -9.841460 64.301917 20.749942 4.766785 -69.774072 8.619689 15.528838 32.413903 -0.947228 4.712947 -28.005943 0.000000 0.000000 0.000000 -34.982794 -8.832045 -9.078436 -20.394781 -7.066044 -0.428594 46.059514 -71.990728 -33.442897 0.000000 0.000000 0.000000 41.303875 6.355375 18.108413 20.988327 5.621822 -4.164563 -30.376209 48.124366 -10.682468 0.000000 0.000000 0.000000
0.046025 0.363289 0.104396 -0.958791 23.512207 52.122799 26.679321 -6.074684 0.871872 -12.304715 0.767705 35.472659 8.644135 7.228061 -21.636880 0.000000 0.000000 0.000000 -19.887435 -16.239883 -58.673112 28.991620 -48.435145 97.960457 -7.027313 -11.890477 -11.251101 0.000000 0.000000 0.000000 -2.722936 -11.515573 63.560738 20.654958 6.254104 -75.383231 8.881181 16.645562 35.044891 -7.362405 6.356738 -8.520948 0.000000 0.000000 0.000000 -35.032613 -7.844479 -9.593736 -19.383137 0.783776 -1.143093 48.972012 -82.243599 -43.625019 0.000000 0.000000 0.000000 44.616725 0.493019 11.890179 18.753321 -1.140677 -3.788231 -42.895277 64.084161 -25.125299 0.000000 0.000000 0.000000
0.070851 0.294713 0.141261 1.562458 23.699667 59.061768 21.388414 -5.319728 4.608916 -0.590004 -2.481853 27.898021 0.097139 -5.791007 -6.672166 0.000000 0.000000 0.000000 -29.115191 -18.463237 -48.462984 34.747418 -52.588549 89.462265 -1.848915 0.401186 -5.913394 0.000000 0.000000 0.000000 2.565897 -16.512946 63.368302 13.039959 6.131675 -91.024512 12.582512 8.580381 45.306231 -11.687282 9.527581 -7.483713 0.000000 0.000000 0.000000 -38.917220 -4.216305 -9.615484 -15.502562 5.155330 -1.442096 62.774294 -87.956330 -62.214921 0.000000 0.000000 0.000000 36.685006 3.619433 8.727019 24.107249 -8.137165 -5.042362 -77.879595 74.623681 -60.793780 0.000000 0.000000 0.000000
0.095243 0.223864 0.164761 -2.328488 20.500817 61.654288 17.513431 -4.658716 10.980747 0.871591 -1.917848 22.776014 -2.638274 -6.406159 -0.763633 0.000000 0.000000 0.000000 -42.113345 -19.640354 -40.947977 52.528901 -59.931069 76.325455 7.998739 1.119468 23.888908 0.000000 0.000000 0.000000 7.753386 -17.854115 59.945572 10.782047 5.472411 -92.675672 16.298711 12.944414 49.069649 -6.705117 5.552193 -5.821712 0.000000 0.000000 0.000000 -35.370605 -3.306499 -11.739920 -17.607546 11.676184 -2.049275 -105.948498 -89.511616 102.438342 0.000000 0.000000 0.000000 37.349228 -0.931328 6.843149 19.584292 -6.779199 -3.945388 -106.306345 69.454829 -83.178424 0.000000 0.000000 0.000000
0.117143 0.166353 0.177893 -5.180226 20.040874 64.386819 16.321814 -4.412035 12.325871 2.549274 -1.994146 20.382257 -5.437907 -12.701661 -1.606031 0.000000 0.000000 0.000000 -54.609158 -16.085143 -24.891656 76.174645 -62.684081 52.208745 16.202437 13.104163 24.801473 0.000000 0.000000 0.000000 13.269338 -21.161705 57.318121 8.237235 4.558563 -94.344478 21.707010 16.073915 51.764986 -5.099493 4.519915 -6.834231 0.000000 0.000000 0.000000 -30.855869 -1.290798 -13.401127 -19.623185 17.893840 -3.082846 -94.595606 -83.255918 83.330542 0.000000 0.000000 0.000000 30.508429 -1.632294 7.130766 23.853882 -7.234879 -5.069907 -129.509198 61.333251 -95.331324 0.000000 0.000000 0.000000
0.136910 0.122091 0.184071 -6.834608 16.837240 65.862057 12.080406 -2.977400 15.608349 2.541733 -1.474459 16.862674 -5.133979 -10.676770 -0.173464 0.000000 0.000000 0.000000 -68.238124 -12.323713 -15.411896 93.444673 -62.036100 37.172030 20.447740 10.427664 39.383630 0.000000 0.000000 0.000000 15.261047 -20.321346 55.377693 5.361742 3.364225 -90.562238 24.624483 17.722722 48.849353 -2.587755 3.091512 -8.830895 0.000000 0.000000 0.000000 -28.715294 -2.183090 -12.950000 -23.584086 23.313728 -4.516917 -115.577962 -80.708528 101.395741 0.000000 0.000000 0.000000 21.777860 -2.505107 4.975821 26.323048 -7.684249 -4.999392 -140.960402 52.891356 -94.226204 0.000000 0.000000 0.000000
0.153528 0.091358 0.187227 -6.078019 15.289792 67.624281 10.348888 -2.306463 15.721671 2.531653 -1.231137 14.698713 -4.622633 -11.748092 -2.908556 0.000000 0.000000 0.000000 -80.414841 -11.462796 -9.708727 100.483618 -62.676775 33.675339 20.192281 6.776666 46.456503 0.000000 0.000000 0.000000 19.190151 -21.365431 51.744863 1.909233 1.854148 -87.075287 26.664676 19.302161 46.235716 -2.246967 2.750147 -8.208045 0.000000 0.000000 0.000000 -29.556457 -2.236821 -14.313962 -23.395335 25.979729 -4.438256 -116.733161 -79.583566 101.789529 0.000000 0.000000 0.000000 16.263472 -5.091001 2.321762 24.546316 -8.022795 -4.182308 -146.729754 49.598535 -94.729086 0.000000 0.000000 0.000000
0.167214 0.070106 0.191373 -3.877880 12.494779 69.026644 5.951352 -0.732893 15.907114 3.250630 -1.210286 13.364754 -4.545679 -14.874580 -6.911233 0.000000 0.000000 0.000000 -91.932026 -5.967655 -2.085509 110.886511 -60.771586 25.224159 20.654357 5.948274 50.694593 0.000000 0.000000 0.000000 22.235500 -21.622014 49.047660 -2.914974 0.235841 -86.379784 26.122945 17.584042 42.927706 -2.784272 2.931296 -7.101889 0.000000 0.000000 0.000000 -29.729579 -1.559439 -13.434411 -25.820490 27.904744 -5.505862 -127.940593 -77.834491 112.476179 0.000000 0.000000 0.000000 13.984360 -5.389085 1.098002 20.402281 -8.918939 -3.188052 -152.855040 48.129059 -103.954459 0.000000 0.000000 0.000000
0.177137 0.053283 0.198555 -1.757879 11.803313 70.685340 5.587031 -0.658949 15.651566 2.901578 -1.015615 12.050074 -4.238665 -18.046547 -11.053923 0.000000 0.000000 0.000000 -95.944438 -2.187632 2.704235 115.259993 -58.388968 20.522508 16.818780 3.304953 47.737380 0.000000 0.000000 0.000000 24.545352 -22.172568 46.053368 -5.324505 -0.735830 -86.514465 28.175509 16.926007 41.355576 -4.102259 3.112965 -3.542026 0.000000 0.000000 0.000000 -31.544490 -3.242619 -12.835665 -25.423105 29.951952 -5.425262 -128.035852 -77.729732 112.702364 0.000000 0.000000 0.000000 10.883216 -7.455626 -0.836267 18.026712 -8.834653 -2.512777 -158.708143 48.578047 -114.171685 0.000000 0.000000 0.000000
0.183653 0.043131 0.208326 0.644139 10.818086 71.445719 5.174368 -0.549664 15.257871 1.948018 -0.884193 12.703094 -1.804275 -19.870826 -18.730293 0.000000 0.000000 0.000000 -100.237060 1.163992 6.873994 118.090709 -55.978889 17.514668 14.918414 1.673773 47.076084 0.000000 0.000000 0.000000 26.873274 -22.586799 43.222181 -6.763934 -1.288464 -87.254543 28.579220 16.072251 40.924957 -4.496273 2.971686 -0.181812 0.000000 0.000000 0.000000 -31.663841 -3.003399 -12.340372 -27.004932 31.158370 -6.331397 -131.573010 -76.013107 115.117588 0.000000 0.000000 0.000000 10.677126 -8.586772 -1.670471 12.468809 -8.277412 -1.280522 -159.318434 49.605846 -118.451895 0.000000 0.000000 0.000000
0.187761 0.032214 0.218191 3.647939 10.431384 72.649016 6.247770 -0.985889 14.952691 -0.581647 -0.425293 12.317042 2.282349 -20.121539 -29.487358 0.000000 0.000000 0.000000 -103.462942 7.830039 15.276322 125.819132 -48.033176 9.002644 11.192745 -0.054266 40.955438 0.000000 0.000000 0.000000 30.083134 -24.025566 40.377898 -9.816513 -3.380939 -96.384270 31.907312 10.865086 48.138042 -6.549244 5.185507 3.388310 0.000000 0.000000 0.000000 -36.183144 -4.389109 -11.042589 -24.286859 30.694208 -5.854784 -149.829770 -77.569697 138.890294 0.000000 0.000000 0.000000 10.640252 -10.087349 -2.933185 8.195771 -6.917853 -0.711497 -158.564491 49.817691 -121.519219 0.000000 0.000000 0.000000
0.190572 0.025847 0.225860 5.164291 11.146294 73.742756 8.297721 -1.760285 14.197270 -2.879667 -0.083541 12.578053 5.646345 -16.936720 -36.654728 0.000000 0.000000 0.000000 -103.876781 11.857030 21.684945 129.720852 -40.831103 4.015125 10.154321 -0.762074 39.731772 0.000000 0.000000 0.000000 32.994522 -25.689408 38.324699 -11.458038 -4.706188 -99.560422 34.469880 8.822830 49.064966 -7.110521 5.560206 7.164518 0.000000 0.000000 0.000000 -37.801914 -5.380470 -9.983812 -22.723584 30.907692 -5.525752 -161.905684 -78.173913 154.488101 0.000000 0.000000 0.000000 11.375899 -11.160648 -3.672882 2.866154 -5.865922 0.460078 -156.982067 52.013731 -123.800949 0.000000 0.000000 0.000000
0.193456 0.023026 0.230241 7.709519 11.600677 73.721321 9.921184 -2.472343 15.212611 -5.062359 0.235302 9.728589 7.455194 -18.711716 -42.758347 0.000000 0.000000 0.000000 -106.682052 15.122082 26.954031 132.283393 -38.066264 3.368493 7.878518 -3.477327 40.473978 0.000000 0.000000 0.000000 35.412434 -26.312981 35.363310 -11.220425 -5.103472 -100.977450 33.996393 7.195501 51.171692 -8.921574 8.140481 7.213708 0.000000 0.000000 0.000000 -40.020695 -3.730976 -11.116836 -20.032623 28.331580 -4.489352 -168.515210 -78.386936 163.526868 0.000000 0.000000 0.000000 11.066661 -13.096727 -4.860086 0.276175 -3.385922 0.798592 -158.308779 53.387122 -129.444150 0.000000 0.000000 0.000000
0.196350 0.025692 0.232321 11.151669 12.975690 74.420778 12.477486 -3.566640 14.442970 -5.879345 0.256064 8.957758 9.937895 -18.374400 -48.537326 0.000000 0.000000 0.000000 -105.588356 15.699136 32.100234 132.490807 -34.877562 3.090475 7.086574 -3.017669 36.572649 0.000000 0.000000 0.000000 37.462284 -27.577600 32.783088 -11.388738 -7.096741 -109.138774 33.647604 1.168911 59.695235 -9.783214 11.042643 -0.021138 0.000000 0.000000 0.000000 -42.885839 -1.864042 -10.939198 -19.765947 23.483651 -4.750251 -179.372338 -76.433546 177.563370 0.000000 0.000000 0.000000 12.475486 -14.290152 -5.759085 -0.034413 -1.388036 0.403652 -156.466221 53.602031 -130.525793 0.000000 0.000000 0.000000
0.198770 0.029708 0.233133 13.360193 13.955993 75.036230 14.090071 -4.167914 12.948995 -6.770121 0.276768 10.253342 13.191658 -12.066955 -56.017447 0.000000 0.000000 0.000000 -110.586165 14.880874 32.991213 133.353543 -38.094211 6.328791 7.063082 -2.743278 37.283837 0.000000 0.000000 0.000000 38.227877 -28.165188 31.475956 -9.698265 -7.199549 -113.969102 31.810509 -0.863697 65.667956 -8.154359 10.386931 -2.756006 0.000000 0.000000 0.000000 -45.234811 -0.260960 -11.993730 -20.778297 20.516636 -5.274633 174.945902 -72.681694 -173.731995 0.000000 0.000000 0.000000 12.183003 -13.576583 -5.377236 4.791602 -2.798902 -0.982822 -155.902311 53.519639 -128.926831 0.000000 0.000000 0.000000
0.200488 0.036888 0.233515 16.086179 14.988182 74.936555 16.745930 -5.057480 10.748986 -8.712016 0.405687 13.740341 14.496114 -11.311659 -59.195413 0.000000 0.000000 0.000000 -115.451476 10.413672 31.001408 129.925521 -45.962160 13.646678 9.547048 0.713263 37.346800 0.000000 0.000000 0.000000 38.451872 -28.696302 30.599954 -10.634305 -10.024144 -121.090073 30.428099 -6.597050 72.414326 -8.361351 10.591657 -10.935207 0.000000 0.000000 0.000000 -47.442538 1.055372 -9.943426 -22.507446 17.344075 -6.571298 173.915598 -70.623889 -169.970033 0.000000 0.000000 0.000000 11.192207 -13.697620 -5.723236 12.613700 -5.135718 -3.718506 -156.757165 50.829140 -125.958527 0.000000 0.000000 0.000000
0.201879 0.043894 0.233963 12.952134 15.211232 74.162522 18.645033 -5.643205 10.504811 -10.616261 0.676893 14.907851 14.250843 -8.990599 -59.511623 0.000000 0.000000 0.000000 -120.885299 4.595108 24.955654 126.609699 -55.158042 21.245015 12.612588 3.440392 40.394840 0.000000 0.000000 0.000000 35.393008 -28.515635 34.526397 -3.242950 -3.622332 -126.346682 28.601454 -0.766122 80.566971 -2.420578 6.127274 -11.954894 0.000000 0.000000 0.000000 -44.931097 0.701681 -12.984627 -26.125557 19.173224 -7.941391 -174.348826 -70.484500 173.743656 0.000000 0.000000 0.000000 17.120464 -13.275366 -4.421847 15.811095 -4.854089 -5.581448 -148.074002 47.717435 -100.883092 0.000000 0.000000 0.000000
0.203133 0.053060 0.234469 11.148622 16.823671 73.774260 21.610556 -6.781216 9.311915 -15.143378 1.160045 16.844168 15.133331 -2.005352 -66.129556 0.000000 0.000000 0.000000 -125.478040 -8.899427 16.874251 110.935526 -66.040738 41.400037 14.134364 4.122548 43.145056 0.000000 0.000000 0.000000 32.433191 -29.814884 39.670379 0.832506 0.500240 -131.051194 28.268205 1.070301 84.010770 -0.974505 4.533400 -9.136890 0.000000 0.000000 0.000000 -46.239008 -0.011993 -14.410280 -26.517800 21.434392 -8.375736 -167.005188 -71.107809 164.358631 0.000000 0.000000 0.000000 19.947553 -11.752114 -2.739348 19.764095 -5.410764 -7.429410 -143.500974 47.330387 -89.149424 0.000000 0.000000 0.000000
0.204880 0.059731 0.234616 8.259347 17.297568 74.140141 24.047038 -8.221543 11.104103 -20.058835 1.161560 11.972339 14.026552 0.911319 -66.818769 0.000000 0.000000 0.000000 -133.344205 -20.748031 9.764387 77.116635 -73.442088 81.042916 16.929110 5.420799 48.637659 0.000000 0.000000 0.000000 30.263350 -31.438733 44.894707 4.520252 7.023967 -140.041085 31.170439 4.446301 90.999234 2.971126 2.470965 -11.747704 0.000000 0.000000 0.000000 -42.183091 -1.491125 -14.281507 -29.089280 25.508309 -10.350256 -158.095655 -68.211121 151.601754 0.000000 0.000000 0.000000 27.449337 -13.241165 -1.017338 21.149720 -6.099423 -9.574987 -142.400721 42.595462 -74.704333 0.000000 0.000000 0.000000
0.206998 0.066472 0.234161 8.813222 18.896857 77.289910 28.159300 -11.343263 12.701850 -28.027238 -2.099788 -2.284775 12.359847 7.936243 -70.362351 0.000000 0.000000 0.000000 -142.231265 -23.958281 11.260059 72.815190 -76.289008 89.659812 17.262740 6.794942 48.748420 0.000000 0.000000 0.000000 26.765662 -34.607520 51.549505 9.137831 16.777712 -148.257759 34.489902 8.335993 93.999520 3.677293 3.393973 -8.150024 0.000000 0.000000 0.000000 -39.234859 -0.572898 -16.049815 -29.522538 30.422658 -11.354606 -149.139847 -62.866751 136.607164 0.000000 0.000000 0.000000 31.481839 -16.593036 -0.558247 22.352166 -6.861601 -11.212928 -141.339157 40.438301 -62.126975 0.000000 0.000000 0.000000
0.209869 0.068965 0.232299 10.419189 19.232612 80.603110 28.735127 -13.320814 15.958356 -31.244653 -7.771905 -18.915798 9.757482 14.081088 -72.525218 0.000000 0.000000 0.000000 -154.031076 -18.121813 13.827602 52.690551 -76.793315 112.935874 20.368615 11.046331 49.446397 0.000000 0.000000 0.000000 22.431024 -37.422962 59.492129 11.499294 26.532278 -154.166118 38.043632 14.237167 91.250028 6.468801 -2.429550 1.520982 0.000000 0.000000 0.000000 -36.235966 -0.429406 -16.624516 -29.740989 37.307105 -12.744335 -146.078462 -58.855318 130.015521 0.000000 0.000000 0.000000 35.763067 -20.613555 -1.007188 20.723902 -8.981001 -10.850664 -137.723676 39.148970 -54.309245 0.000000 0.000000 0.000000
0.213295 0.065742 0.228032 14.119261 18.472186 83.988480 30.066253 -16.183543 21.587362 -34.997778 -13.906660 -40.967995 4.941992 12.602861 -75.560551 0.000000 0.000000 0.000000 -141.592699 36.686223 32.319794 154.958900 -46.999526 5.337015 26.269236 19.915253 49.528020 0.000000 0.000000 0.000000 16.162065 -40.754377 70.218076 0.691036 24.597719 -166.111939 33.242661 9.870345 76.339477 4.549100 -8.268214 14.460428 0.000000 0.000000 0.000000 -31.812683 2.782341 -10.365144 -31.364113 36.277766 -14.861865 -153.081253 -54.356032 140.898402 0.000000 0.000000 0.000000 35.408348 -23.767724 -6.781747 19.535763 -14.680529 -10.201457 -141.136568 42.749010 -61.119291 0.000000 0.000000 0.000000
0.217772 0.066050 0.220532 13.398046 17.321393 87.288826 30.336912 -18.414700 30.319034 -54.492114 -9.035722 -61.161547 3.288899 -2.131101 -74.840596 0.000000 0.000000 0.000000 112.205836 -71.018160 74.122997 27.053979 85.671053 -163.164628 157.218569 55.676657 160.155139 0.000000 0.000000 0.000000 8.705063 -42.580778 83.142112 -33.436672 -20.646636 -174.573702 18.189207 -31.673128 40.380029 5.284647 -13.410578 19.167526 0.000000 0.000000 0.000000 -35.967709 5.348056 2.324014 -27.044197 26.914719 -14.877622 -165.703861 -55.572605 -179.976874 0.000000 0.000000 0.000000 28.827945 -27.545397 -20.069658 16.030303 -18.863017 -5.479804 -143.709650 45.974271 -97.259916 0.000000 0.000000 0.000000
0.222768 0.069642 0.211282 43.298622 61.890116 -19.803449 129.000716 -35.469757 -24.345914 -34.562214 38.041863 61.644882 52.600661 -18.724498 -133.118557 0.000000 0.000000 0.000000 7.172633 -8.583391 -137.334818 7.079060 38.360203 -142.780574 16.308910 -54.798839 -79.663229 0.000000 0.000000 0.000000 15.118690 -78.966501 124.142769 -34.350843 2.439699 -59.973675 -38.169977 -55.899137 -9.992577 42.815658 -13.836513 53.664042 0.000000 0.000000 0.000000 -52.636120 2.724674 20.080149 -13.891429 27.187992 -2.630455 157.054117 -50.807126 -125.994063 0.000000 0.000000 0.000000 21.156544 -18.854956 -20.960092 -11.653677 -29.648573 2.701835 -147.791789 46.056571 -98.508424 0.000000 0.000000 0.000000
0.227426 0.075352 0.201824 7.319785 42.883089 -66.497364 121.594987 13.991010 -49.244619 34.422059 -37.318617 82.688249 -39.692711 51.912286 -160.927790 0.000000 0.000000 0.000000 6.472358 -18.116980 -99.024449 -5.120970 -17.029378 -161.458213 38.990625 -52.641460 -118.149741 0.000000 0.000000 0.000000 156.702321 -76.873498 -4.561000 -39.569405 10.625062 -38.091838 -75.561766 -53.316677 11.811909 17.987396 -10.517071 64.132400 0.000000 0.000000 0.000000 -55.183537 -2.631777 17.932930 0.918828 29.927122 1.549952 160.828611 -50.867681 -142.317082 0.000000 0.000000 0.000000 7.918841 -12.500740 -7.893305 -20.477018 -23.062514 -1.311947 -146.536680 25.801170 -54.897238 0.000000 0.000000 0.000000
0.230702 0.077050 0.193282 1.676951 34.313220 -74.274218 71.303146 23.205116 -86.390424 131.338591 10.055519 -13.334198 -3.241758 48.275537 -95.675061 0.000000 0.000000 0.000000 -5.049919 -16.178158 -75.674949 -164.309556 4.770505 -11.341925 -43.418947 15.673235 -118.535330 0.000000 0.000000 0.000000 158.928620 -30.192154 -9.662760 -59.814560 37.498428 7.237970 -118.222535 -43.314212 69.781586 24.898696 -22.260511 70.200529 0.000000 0.000000 0.000000 -51.690920 -2.991672 32.253266 3.588294 26.881904 3.117499 146.925209 -49.434628 -136.003635 0.000000 0.000000 0.000000 9.537267 13.081139 -8.206919 -6.741272 22.482849 -6.263654 -139.999038 18.310541 -50.303244 0.000000 0.000000 0.000000
0.231045 0.083335 0.186577 -1.687025 32.183437 -80.456445 50.004104 11.600856 -97.867529 25.776048 53.023660 -130.598903 14.435795 9.770538 -90.995779 0.000000 0.000000 0.000000 -8.253296 -15.889605 -67.998989 -123.793930 65.693262 24.468292 -27.124476 21.753216 -83.512890 0.000000 0.000000 0.000000 145.490185 13.888367 -17.099042 -4.766114 19.614927 118.336521 169.253694 -48.894089 173.601385 56.455892 -19.110881 48.097653 0.000000 0.000000 0.000000 -49.474244 1.486214 53.724528 1.285598 4.581387 -1.751483 124.091847 -29.088343 -96.357659 0.000000 0.000000 0.000000 -2.085793 19.241680 -5.525616 19.867887 41.252324 -0.051337 -132.180574 21.325614 -97.708014 0.000000 0.000000 0.000000
0.228707 0.092909 0.181880 -3.469507 27.992224 -84.094743 34.177748 -0.401717 -98.708808 -141.632286 -7.343570 -16.966248 -1.018613 33.837148 -120.037391 0.000000 0.000000 0.000000 -13.317394 -15.107511 -58.914106 -45.678210 57.156046 89.538217 -17.363029 18.916158 -65.030766 0.000000 0.000000 0.000000 100.295379 46.288157 -50.778557 -6.048181 -6.952763 137.625003 155.841353 -79.617094 -165.181118 25.975530 -7.399390 27.181406 0.000000 0.000000 0.000000 -10.638506 -7.844008 6.951266 -22.157497 -4.331909 -4.460954 136.707882 -53.578022 -70.030894 0.000000 0.000000 0.000000 -3.720580 14.651726 2.238967 31.299614 62.767558 -6.003001 -105.683639 35.021073 -84.558243 0.000000 0.000000 0.000000
0.222829 0.100345 0.179137 -5.199967 22.198904 -87.571366 23.249851 -8.148221 -95.268568 -83.774324 47.537906 40.785697 -2.952289 44.746048 -99.639642 0.000000 0.000000 0.000000 -14.872259 -12.616539 -53.611471 -34.799282 47.950264 94.078109 -11.795019 24.979494 -48.349670 0.000000 0.000000 0.000000 64.616051 40.064020 -66.950913 -7.179045 -0.373648 137.723368 17.090774 -64.873615 -22.460749 11.930612 -11.032936 9.585053 0.000000 0.000000 0.000000 14.948855 -4.498948 -11.750452 -40.368642 0.473176 -1.693977 138.868247 -59.059782 -65.420445 0.000000 0.000000 0.000000 -0.220221 31.749349 6.143980 29.182498 57.447153 -5.785983 -89.771382 29.630826 -63.329620 0.000000 0.000000 0.000000
0.213957 0.114571 0.178082 -8.333339 19.665708 -89.047432 20.164790 -11.576394 -92.805789 -46.763631 39.746789 72.250437 -1.358743 49.076813 -88.273181 0.000000 0.000000 0.000000 -17.443989 -12.709625 -47.403222 -38.902953 45.083243 87.032216 -3.420062 26.555905 -29.156396 0.000000 0.000000 0.000000 41.782021 26.563268 -75.133846 -8.727799 25.397920 131.331316 18.036030 -21.380288 -7.727856 8.964523 -12.193753 -5.958668 0.000000 0.000000 0.000000 21.271751 -0.993285 -7.197258 -43.692426 -11.911218 1.330550 127.454845 -54.056300 -68.394919 0.000000 0.000000 0.000000 2.389604 32.447352 7.972743 33.066353 57.517572 4.736886 -79.169018 22.148544 -37.260236 0.000000 0.000000 0.000000
0.204923 0.127051 0.178436 -9.286659 15.725744 -89.571211 16.833976 -12.229519 -91.260351 -17.834026 22.698220 103.013121 8.056902 42.825208 -60.880801 0.000000 0.000000 0.000000 -15.999012 -10.196689 -45.703271 -36.923920 46.744718 92.022603 6.689271 27.527934 -5.017061 0.000000 0.000000 0.000000 24.753088 14.019263 -75.364015 -9.315787 21.980078 125.291197 16.995792 1.323815 -7.940214 7.553667 -7.688877 -7.874347 0.000000 0.000000 0.000000 17.273636 3.756186 -1.261391 -43.627661 -23.100390 2.358514 122.228714 -49.215622 -75.305065 0.000000 0.000000 0.000000 9.777313 25.650511 6.874555 41.258035 59.719917 13.295906 -73.322894 29.273243 -30.062673 0.000000 0.000000 0.000000
0.197847 0.135292 0.179307 -9.725404 13.477969 -89.919408 14.003340 -12.961445 -87.782671 -8.069493 8.181760 113.308522 10.390861 24.514487 -41.711003 0.000000 0.000000 0.000000 -14.982176 -8.751559 -44.862697 -43.691516 49.484051 85.481838 20.169066 35.390737 14.982154 0.000000 0.000000 0.000000 12.893404 3.789113 -68.817740 -10.222025 19.478213 117.673650 16.189351 16.669671 -11.127109 3.373031 -1.801001 -4.050711 0.000000 0.000000 0.000000 13.993083 6.818574 0.795658 -45.702754 -23.353606 0.674088 122.911343 -50.158424 -85.772670 0.000000 0.000000 0.000000 14.668042 19.445066 7.400766 45.641186 58.297589 16.563781 -72.220151 39.116551 -29.158387 0.000000 0.000000 0.000000
0.193220 0.143079 0.179723 -10.252573 10.434251 -89.013532 10.174951 -14.080114 -83.714548 -4.362446 -0.649505 118.516209 7.639753 12.041484 -23.794206 0.000000 0.000000 0.000000 -12.630543 -6.517420 -45.872758 -43.065973 49.928142 88.142960 28.800880 31.952208 31.833899 0.000000 0.000000 0.000000 5.041053 -0.928801 -59.546619 -10.766475 13.745702 109.549096 12.997412 24.113824 -17.947389 2.800312 -1.826932 1.537007 0.000000 0.000000 0.000000 7.910336 9.376933 -0.462484 -44.985866 -17.608098 -0.849028 137.448665 -52.275140 -109.425115 0.000000 0.000000 0.000000 19.340639 13.416633 7.725656 51.670394 55.619703 18.977463 -69.324766 47.234543 -27.975142 0.000000 0.000000 0.000000
0.189495 0.145005 0.180580 -11.121339 9.453678 -87.951178 9.364093 -13.475535 -80.532579 -5.489920 0.971353 121.959707 6.773319 12.279615 -14.493452 0.000000 0.000000 0.000000 -11.673615 -5.653732 -45.074154 -51.550693 53.880262 82.034109 40.289460 41.811722 39.078674 0.000000 0.000000 0.000000 -1.758643 -6.365869 -55.390506 -9.563009 9.920002 103.542407 7.631066 29.463966 -21.456582 -0.189649 -1.082742 10.418123 0.000000 0.000000 0.000000 6.895553 10.827643 -0.785018 -44.220817 -11.563249 -2.924290 149.254043 -51.396004 -127.975072 0.000000 0.000000 0.000000 27.394022 8.941170 9.020226 48.785226 51.674370 14.944957 -71.321883 55.773023 -31.710797 0.000000 0.000000 0.000000
0.186142 0.144182 0.182011 -13.254960 6.130847 -85.136432 7.868701 -12.784134 -77.176331 -5.069710 -2.524966 125.105881 6.119130 11.359114 -11.485137 0.000000 0.000000 0.000000 -9.654892 -3.646974 -44.928229 -51.405206 54.389240 84.364814 47.713062 45.227407 45.736001 0.000000 0.000000 0.000000 -8.516060 -10.252528 -51.083099 -7.244474 2.852892 99.598826 2.768743 32.753916 -27.198338 0.063560 -4.357964 15.680418 0.000000 0.000000 0.000000 3.149564 10.538104 -1.847102 -40.153789 -4.445401 -3.948375 159.087980 -48.702035 -141.929078 0.000000 0.000000 0.000000 29.474507 6.963571 9.729267 52.069443 47.425106 14.537512 -75.027143 59.650521 -34.958174 0.000000 0.000000 0.000000
0.181905 0.142331 0.184561 -14.017293 3.135704 -84.115060 8.163030 -9.990189 -72.696912 -4.997036 -5.207385 126.542339 4.690878 8.888948 -6.552287 0.000000 0.000000 0.000000 -7.412789 -1.546667 -44.228238 -44.244643 53.828402 93.219649 43.849717 46.217656 40.461714 0.000000 0.000000 0.000000 -13.088165 -11.253821 -44.970341 -4.529155 -3.224528 90.588575 -1.265379 32.311481 -29.150035 -2.938887 -5.958334 26.534930 0.000000 0.000000 0.000000 2.917052 10.420979 -1.462028 -37.413691 1.186025 -5.000977 168.310352 -46.451478 -157.480705 0.000000 0.000000 0.000000 36.706850 6.150888 12.311211 47.167234 44.217928 10.137733 -79.972235 64.423454 -41.469211 0.000000 0.000000 0.000000
0.177919 0.141959 0.187892 -14.471398 -0.052668 -82.479778 8.409503 -7.094876 -67.124868 -5.534360 -6.671842 126.973249 6.420567 12.515542 -13.054367 0.000000 0.000000 0.000000 -3.651708 1.411982 -43.481296 -39.471373 52.192818 99.071238 41.917314 47.703418 36.998121 0.000000 0.000000 0.000000 -16.521871 -11.219846 -39.962740 -0.390136 -8.513048 75.390751 0.109219 31.923200 -21.328266 -4.410585 -7.417141 33.957649 0.000000 0.000000 0.000000 0.228905 9.475798 -2.418380 -36.541039 6.618462 -6.258657 179.671662 -42.683439 179.792069 0.000000 0.000000 0.000000 41.216713 5.118024 14.049253 44.935701 42.051686 7.464647 -86.224021 67.879110 -48.074828 0.000000 0.000000 0.000000
0.175092 0.143858 0.190735 -15.330062 -2.028273 -80.841787 7.527954 -6.106698 -62.680866 -4.763674 -9.141093 124.661634 6.683431 12.265930 -18.509425 0.000000 0.000000 0.000000 -1.568042 2.858842 -42.692409 -34.580723 50.332145 104.586076 35.919471 50.959890 26.701814 0.000000 0.000000 0.000000 -19.287881 -11.611592 -36.633654 2.370002 -9.932002 65.393004 2.555734 31.258329 -15.462804 -4.301864 -9.995475 40.160277 0.000000 0.000000 0.000000 -3.367051 8.597838 -3.813380 -34.150292 11.001873 -6.681053 -174.360453 -41.012571 165.846241 0.000000 0.000000 0.000000 43.995206 5.052304 14.655816 43.020275 39.415452 5.496235 -103.147325 72.864207 -68.705013 0.000000 0.000000 0.000000
0.174188 0.147653 0.192561 -14.901532 -4.415621 -79.401712 7.272563 -4.435633 -58.426580 -3.537281 -11.102284 121.392512 7.405025 12.424411 -28.493764 0.000000 0.000000 0.000000 0.866552 4.694485 -42.647122 -30.038036 48.554903 109.016432 27.347009 46.307531 17.983607 0.000000 0.000000 0.000000 -19.149204 -10.570500 -36.540085 4.838810 -10.665990 57.853044 2.254847 29.496883 -10.745931 -1.311180 -14.286088 40.221455 0.000000 0.000000 0.000000 -3.612889 6.128421 -3.227064 -35.864899 12.755654 -7.609714 -168.902278 -39.879807 150.622771 0.000000 0.000000 0.000000 46.869975 4.354684 14.923099 41.433129 37.250408 3.627878 -114.077874 74.413446 -81.068744 0.000000 0.000000 0.000000
0.174137 0.149886 0.193554 -15.706679 -7.039454 -79.139356 5.746412 -4.224661 -55.097043 -1.311648 -13.964599 117.993420 7.986224 12.731889 -34.058397 0.000000 0.000000 0.000000 2.302037 5.629480 -40.881481 -26.559753 44.495459 109.536846 24.653575 44.064219 15.008504 0.000000 0.000000 0.000000 -19.349832 -9.929965 -35.351937 7.183515 -11.757786 52.588587 3.443774 26.860256 -6.802197 0.960954 -15.522552 38.591583 0.000000 0.000000 0.000000 -4.127972 4.898552 -3.157049 -39.124215 14.692180 -9.036601 -165.675444 -39.321170 143.078172 0.000000 0.000000 0.000000 44.985330 6.401676 14.636488 42.587624 32.921775 2.906003 -113.460399 75.176369 -82.420965 0.000000 0.000000 0.000000
0.174238 0.153355 0.193756 -15.960859 -8.806790 -78.558515 5.308911 -3.460515 -51.269944 0.157322 -15.086492 113.646976 8.424567 12.694531 -37.973813 0.000000 0.000000 0.000000 3.719898 6.507739 -40.309999 -24.119977 41.079923 109.153249 18.927750 37.031162 10.359812 0.000000 0.000000 0.000000 -18.639682 -9.047945 -35.644164 8.131896 -11.716416 49.923808 3.710187 25.014243 -4.720102 4.990862 -18.748049 34.517364 0.000000 0.000000 0.000000 -4.451243 2.310725 -2.387473 -42.858143 14.452263 -9.983935 -163.373864 -42.753733 140.443848 0.000000 0.000000 0.000000 43.801992 5.933618 12.949130 43.690640 29.366430 2.106542 -101.016428 77.473942 -73.149318 0.000000 0.000000 0.000000
0.174430 0.157067 0.193272 -15.857115 -10.447625 -78.318767 4.695602 -3.148892 -49.620265 1.869415 -17.118248 113.493037 8.293429 10.634325 -38.246290 0.000000 0.000000 0.000000 4.605491 7.290139 -40.632548 -21.195486 38.025345 110.004484 17.887961 31.783308 12.515691 0.000000 0.000000 0.000000 -17.339877 -7.990517 -36.514285 8.964985 -12.507459 51.331168 2.395997 22.114125 -6.630132 9.418740 -21.844161 30.807169 0.000000 0.000000 0.000000 -6.170908 1.232109 -2.145387 -46.455564 13.990303 -10.613426 -164.729421 -45.672858 147.683240 0.000000 0.000000 0.000000 40.549767 5.420300 9.963330 48.717547 23.499932 1.632006 -111.231202 77.622369 -84.012742 0.000000 0.000000 0.000000
0.174787 0.159496 0.192199 -15.781697 -11.457988 -79.038812 4.227947 -2.908453 -47.163782 3.433013 -19.037757 111.583944 7.967911 7.230753 -38.241415 0.000000 0.000000 0.000000 5.311846 7.569587 -39.145297 -19.610643 34.724950 108.509268 14.392647 25.733196 10.690852 0.000000 0.000000 0.000000 -15.897288 -6.916293 -36.387991 9.422433 -12.431970 49.433241 3.111213 19.956839 -4.512022 14.209439 -22.723356 22.389072 0.000000 0.000000 0.000000 -6.271584 -0.731708 -1.316480 -49.662498 12.307473 -10.886926 -168.273308 -50.812274 159.550931 0.000000 0.000000 0.000000 34.532628 4.243097 7.046189 53.923888 19.130671 1.048818 -118.562667 78.329179 -92.162964 0.000000 0.000000 0.000000
0.175483 0.165122 0.190629 -15.111873 -12.195496 -79.066614 3.731169 -2.759941 -45.776470 4.654492 -20.174949 111.538249 7.580468 4.912828 -36.834146 0.000000 0.000000 0.000000 4.930887 7.361595 -38.058603 -17.822052 32.168333 106.868747 11.822067 21.871436 8.601106 0.000000 0.000000 0.000000 -14.030049 -5.649670 -37.689949 9.822885 -12.414231 48.490058 3.642324 16.040222 -2.934087 16.444492 -22.467823 18.667028 0.000000 0.000000 0.000000 -8.216861 0.234604 -1.760004 -50.586886 12.469943 -11.138628 -172.834612 -54.158575 172.344051 0.000000 0.000000 0.000000 29.938128 3.999630 4.556444 56.054289 13.854759 -0.531578 -129.096624 79.624411 -106.616178 0.000000 0.000000 0.000000
0.176382 0.167861 0.189109 -14.290613 -13.116140 -79.804168 3.848908 -2.183895 -43.356695 7.280419 -22.431011 107.905003 6.989355 0.611015 -36.062257 0.000000 0.000000 0.000000 5.320322 7.534287 -36.898897 -16.800910 30.735075 105.207900 10.621641 19.751589 7.775988 0.000000 0.000000 0.000000 -11.777843 -4.069736 -37.865042 10.136068 -12.067188 46.625315 3.893354 13.147576 -0.188777 18.295822 -22.422597 15.146534 0.000000 0.000000 0.000000 -8.169930 -0.222494 -1.283329 -51.611425 12.650219 -11.651278 -177.041084 -57.514334 -177.518180 0.000000 0.000000 0.000000 23.574398 3.483429 2.837863 61.172080 12.108098 -0.772944 -127.856627 78.986918 -105.477716 0.000000 0.000000 0.000000
0.177428 0.170615 0.188029 -13.320114 -13.337750 -80.376968 3.712512 -1.936422 -41.267065 9.049537 -23.568842 105.421353 6.605565 -1.260554 -35.068444 0.000000 0.000000 0.000000 5.312671 7.424918 -35.947536 -16.303439 29.432139 102.569551 9.555418 18.344648 6.490080 0.000000 0.000000 0.000000 -9.026089 -2.281482 -37.919309 9.570793 -10.587607 42.196519 5.442476 8.995788 5.143728 19.985993 -21.781280 10.495585 0.000000 0.000000 0.000000 -9.812544 0.790639 -1.516412 -49.689434 14.067443 -11.969134 -177.503056 -58.667326 -174.564377 0.000000 0.000000 0.000000 19.796368 2.648040 1.227639 60.744680 10.529700 -1.978173 -126.400100 80.190212 -106.813007 0.000000 0.000000 0.000000
0.178725 0.169020 0.187447 -12.302952 -13.478856 -80.825201 3.336707 -1.950978 -40.692950 9.743314 -23.381171 104.475163 6.194907 -3.025166 -34.034504 0.000000 0.000000 0.000000 4.881200 7.165734 -35.290554 -16.652358 28.673784 98.181922 9.918335 17.847942 7.841595 0.000000 0.000000 0.000000 -6.294375 -0.499290 -38.652080 8.895636 -9.780726 41.691425 4.837363 6.378447 7.023407 20.169600 -20.470311 7.176518 0.000000 0.000000 0.000000 -8.381857 1.172992 -1.309915 -50.822814 16.378450 -13.282613 -174.039944 -58.787109 -179.846105 0.000000 0.000000 0.000000 16.302997 2.357009 0.657430 63.602989 10.019268 -2.332443 -114.817280 81.048448 -96.263436 0.000000 0.000000 0.000000
0.179933 0.168299 0.187297 -11.064933 -12.991268 -80.525028 2.794616 -2.153879 -40.691472 10.929499 -23.393533 101.578106 5.142454 -6.561681 -31.764695 0.000000 0.000000 0.000000 4.136285 7.049724 -36.394073 -17.411096 28.661802 95.077454 11.010981 16.954649 11.674885 0.000000 0.000000 0.000000 -4.248107 0.846723 -39.070394 8.016463 -8.281636 37.283593 5.066348 3.820557 12.570937 20.901986 -20.350037 4.377502 0.000000 0.000000 0.000000 -8.183648 1.951574 -1.440075 -50.703982 18.401536 -14.376793 -169.639708 -57.045306 172.438871 0.000000 0.000000 0.000000 12.081428 1.239709 -0.015181 66.575048 11.618337 -2.078377 -99.925998 81.114200 -81.253102 0.000000 0.000000 0.000000
0.180914 0.167899 0.187329 -10.271838 -12.727603 -80.735183 2.333684 -2.386312 -41.168531 10.566776 -23.028212 102.985751 4.129627 -8.744925 -29.350864 0.000000 0.000000 0.000000 3.287862 6.783967 -37.035597 -17.474622 28.202482 92.987117 11.692073 15.611645 15.155866 0.000000 0.000000 0.000000 -3.130766 1.516372 -38.536619 7.440897 -7.666905 36.618422 4.996390 2.663477 13.153210 20.655641 -20.146866 4.647181 0.000000 0.000000 0.000000 -9.111835 2.531225 -1.635893 -50.153156 20.631158 -14.993121 -164.950523 -56.177596 163.551029 0.000000 0.000000 0.000000 8.775199 0.898443 -0.155522 69.188086 12.024160 -1.805061 -91.425574 80.155030 -72.301985 0.000000 0.000000 0.000000
0.181415 0.168823 0.187421 -9.602587 -12.096889 -80.520969 2.384718 -2.453595 -41.953865 9.620674 -21.848496 103.847098 3.886718 -8.668947 -28.353402 0.000000 0.000000 0.000000 2.277184 6.320861 -37.394034 -17.903383 27.960225 90.570339 12.332800 15.813987 16.459778 0.000000 0.000000 0.000000 -3.337364 1.316927 -38.185697 7.455802 -7.455810 35.050590 4.844779 2.435960 15.036542 20.826486 -19.760324 2.884624 0.000000 0.000000 0.000000 -10.715956 3.042546 -1.926462 -49.886411 23.309435 -15.999595 -159.049312 -51.644475 149.416178 0.000000 0.000000 0.000000 8.070063 1.142131 -0.005193 70.475770 13.854038 -0.817331 -78.008541 79.135424 -58.493859 0.000000 0.000000 0.000000
0.181127 0.171374 0.187692 -9.218952 -11.750501 -80.351810 2.653015 -2.360610 -42.290365 8.617720 -21.091198 105.918120 4.220486 -9.053034 -29.904694 0.000000 0.000000 0.000000 2.076337 6.171996 -37.342086 -17.940589 27.159019 88.415262 12.803629 15.745349 17.669469 0.000000 0.000000 0.000000 -3.746774 0.981847 -37.348189 6.913072 -6.781052 34.004164 5.682284 2.857019 15.926347 21.561571 -21.754225 5.719506 0.000000 0.000000 0.000000 -15.255223 2.878150 -2.155831 -47.495977 24.797881 -15.744942 -152.717685 -50.025394 134.864330 0.000000 0.000000 0.000000 9.160283 0.677515 -0.214011 71.261457 13.754509 -0.865761 -70.963834 79.506377 -52.091703 0.000000 0.000000 0.000000
0.180548 0.175879 0.188278 -9.950064 -11.672202 -80.483801 2.906367 -2.406206 -43.058237 6.433891 -19.755973 109.870873 4.425256 -6.557869 -28.940815 0.000000 0.000000 0.000000 0.960768 5.485614 -36.833192 -16.585422 24.811122 86.965851 13.027142 15.000748 19.214078 0.000000 0.000000 0.000000 -4.885348 0.175800 -36.064553 7.086634 -7.001878 33.768882 6.143614 4.278735 15.797647 19.772907 -21.156098 8.277715 0.000000 0.000000 0.000000 -16.417451 2.269267 -2.211391 -49.489260 26.374228 -17.059063 -141.527687 -48.165869 112.004610 0.000000 0.000000 0.000000 11.717966 1.168623 0.134831 71.756509 14.213023 -0.282025 -59.773908 75.624856 -38.680512 0.000000 0.000000 0.000000
0.179679 0.177301 0.189195 -11.041380 -11.704322 -80.283419 2.458449 -2.931046 -44.463167 5.011437 -18.980844 113.293156 5.014220 -4.167855 -29.619339 0.000000 0.000000 0.000000 -0.208450 4.763723 -36.230318 -15.872829 23.215676 85.463389 13.406057 15.260263 19.667242 0.000000 0.000000 0.000000 -6.048335 -0.620722 -34.880279 5.882509 -5.832914 32.211807 8.621867 4.692907 17.419925 19.663810 -22.117385 10.165880 0.000000 0.000000 0.000000 -19.402338 0.513095 -1.492740 -50.277007 25.450784 -17.204950 -131.207636 -50.935182 99.592455 0.000000 0.000000 0.000000 13.277067 2.044280 0.655899 71.530481 15.078723 0.102442 -41.441946 68.655237 -20.654996 0.000000 0.000000 0.000000
0.179102 0.179510 0.189932 -11.769925 -12.076743 -80.109506 2.967237 -2.743119 -45.020518 4.458934 -18.590712 113.683043 4.294409 -4.947578 -27.224434 0.000000 0.000000 0.000000 -1.100189 4.293783 -35.834040 -13.817195 20.501104 84.015002 12.436118 13.585870 19.573548 0.000000 0.000000 0.000000 -6.549570 -0.926885 -33.894342 5.788751 -5.490094 29.402426 8.807492 5.906816 20.818806 18.362034 -21.264319 10.275080 0.000000 0.000000 0.000000 -19.269867 -1.791664 -0.536153 -53.281105 21.226590 -17.115983 -116.560256 -57.866224 89.297998 0.000000 0.000000 0.000000 15.395657 3.589508 1.896401 71.013133 18.101437 1.654039 -30.836241 59.581558 -10.441071 0.000000 0.000000 0.000000
0.178556 0.179737 0.190458 -13.554404 -11.189506 -79.783830 1.821206 -3.982831 -46.298335 2.174823 -16.450898 116.148937 5.177916 -0.495416 -27.563808 0.000000 0.000000 0.000000 -2.070245 3.496238 -35.044797 -13.938867 19.055269 82.942402 12.440536 15.176241 17.134912 0.000000 0.000000 0.000000 -7.835658 -1.873752 -32.014815 4.389392 -4.562404 28.374726 11.189218 6.199911 21.584174 15.039624 -19.955867 15.509413 0.000000 0.000000 0.000000 -22.887952 -4.384466 0.546295 -53.644640 15.316003 -14.904895 -96.201117 -67.519876 78.784966 0.000000 0.000000 0.000000 18.284322 5.774632 3.511504 67.291819 21.492091 3.135959 -25.677663 49.014123 -5.896065 0.000000 0.000000 0.000000
0.177441 0.184585 0.190414 -14.894731 -9.977659 -79.025970 1.778531 -4.567779 -47.228465 -1.228602 -11.528640 118.294483 6.201309 4.329616 -28.745181 0.000000 0.000000 0.000000 -2.976000 2.811594 -34.651827 -14.189741 18.601067 83.713357 11.696961 16.234909 13.711049 0.000000 0.000000 0.000000 -9.906789 -3.212449 -32.146054 3.335193 -4.039030 29.786289 13.802092 7.559382 21.208760 11.937598 -16.943002 17.111963 0.000000 0.000000 0.000000 -23.636114 -7.785425 2.126035 -55.353045 7.210135 -11.974563 -48.424363 -73.543943 41.988141 0.000000 0.000000 0.000000 21.279978 7.502302 5.144772 61.958187 24.452937 3.814202 -20.561867 39.115674 -3.037237 0.000000 0.000000 0.000000
0.175174 0.187938 0.190078 -15.841702 -8.705121 -78.178903 3.098952 -4.340097 -48.016832 -5.818557 -3.771446 120.859981 7.807776 12.241627 -32.970402 0.000000 0.000000 0.000000 -3.211141 2.509323 -34.959039 -16.363788 19.887605 83.880865 12.975716 18.642738 13.666347 0.000000 0.000000 0.000000 -11.304870 -4.103120 -31.192672 2.769088 -3.815656 29.672508 15.024798 8.994459 20.853545 9.930332 -16.689401 22.067000 0.000000 0.000000 0.000000 -24.667502 -10.377579 3.040235 -55.914989 -0.724339 -8.412286 -10.899168 -68.277180 11.477957 0.000000 0.000000 0.000000 24.266879 8.775540 6.811519 57.548021 28.332568 4.988862 -17.367941 29.772837 -1.629360 0.000000 0.000000 0.000000
0.171899 0.196421 0.189720 -17.039857 -7.787820 -77.589997 5.233348 -3.421232 -47.542582 -9.430621 2.033947 121.906235 8.386221 17.237271 -37.482052 0.000000 0.000000 0.000000 -3.432605 2.229447 -35.022181 -15.742405 18.664599 85.558424 11.535648 17.545382 11.573043 0.000000 0.000000 0.000000 -13.209894 -5.252542 -30.666705 2.660926 -4.759101 36.361227 15.367211 12.015836 14.071988 7.715934 -15.712271 26.686262 0.000000 0.000000 0.000000 -26.337699 -14.123914 4.558686 -55.722227 -7.014420 -4.555813 4.437069 -59.900117 0.514865 0.000000 0.000000 0.000000 27.493257 10.275049 8.519620 50.813865 31.250925 5.557424 -13.512254 21.779380 -0.803135 0.000000 0.000000 0.000000
0.168588 0.200467 0.189772 -17.785803 -7.284557 -76.993619 7.270100 -2.506028 -47.756136 -13.793673 10.173580 121.157796 8.958973 24.986308 -40.166274 0.000000 0.000000 0.000000 -3.518255 2.165714 -36.114451 -14.377892 16.878608 87.104332 9.727353 14.915177 10.239996 0.000000 0.000000 0.000000 -14.437485 -5.818199 -28.957166 2.540391 -6.041270 44.443684 14.007657 15.891120 5.911396 5.202127 -14.101954 30.114776 0.000000 0.000000 0.000000 -28.169433 -16.063468 4.510651 -54.975104 -9.948496 -1.766421 7.720658 -56.002398 -2.022718 0.000000 0.000000 0.000000 30.447327 11.537290 10.414132 44.486783 34.010673 5.963890 -12.048777 17.385371 -0.574364 0.000000 0.000000 0.000000
0.165784 0.205020 0.189848 -17.897398 -6.386810 -76.074773 10.198311 -1.295248 -49.466555 -19.002050 20.020242 119.617170 9.099310 32.662223 -42.905383 0.000000 0.000000 0.000000 -3.720168 2.083082 -38.390852 -12.880984 15.444690 89.426019 7.027067 11.636646 6.976949 0.000000 0.000000 0.000000 -15.771271 -6.843386 -30.278828 1.048109 -6.659108 59.400602 11.435693 20.882762 -6.683847 2.852729 -13.810055 35.126257 0.000000 0.000000 0.000000 -29.505895 -18.620978 4.804591 -53.779548 -12.836408 1.301060 7.897839 -53.113372 -2.929252 0.000000 0.000000 0.000000 34.283466 12.245057 12.292677 38.965442 35.387429 5.792059 -12.010154 16.046506 -0.615247 0.000000 0.000000 0.000000
0.163717 0.208623 0.189940 -18.102282 -5.861242 -75.198404 12.990261 -0.100155 -51.389481 -23.963388 27.091177 115.807140 10.363131 37.767834 -37.457251 0.000000 0.000000 0.000000 -5.089423 1.437176 -41.131041 -8.507668 10.688818 91.044071 4.157650 5.870010 6.438297 0.000000 0.000000 0.000000 -17.433940 -7.752729 -29.516793 0.680063 -8.763501 73.077417 4.826641 25.617506 -19.909180 1.771553 -13.298945 33.445774 0.000000 0.000000 0.000000 -27.062433 -20.724849 4.085707 -56.521495 -15.107076 4.064766 10.694544 -53.905579 -6.408959 0.000000 0.000000 0.000000 37.064041 12.170819 14.204200 33.617838 35.427009 4.778431 -13.095003 18.288795 -0.950678 0.000000 0.000000 0.000000
0.161760 0.210535 0.189018 -17.210650 -6.128517 -73.522319 18.045329 2.783419 -56.463681 -29.280676 35.228145 112.303545 13.614958 42.342316 -25.732669 0.000000 0.000000 0.000000 -6.957552 0.785029 -44.844384 -4.470063 7.180362 89.562574 2.666722 1.915804 8.061677 0.000000 0.000000 0.000000 -18.474298 -8.570226 -31.194559 1.296806 -13.370099 91.662833 -7.040969 25.690461 -34.200999 1.608877 -13.840771 32.016318 0.000000 0.000000 0.000000 -26.934442 -22.519651 3.227477 -53.416062 -18.660029 6.876639 12.875140 -56.384047 -10.029843 0.000000 0.000000 0.000000 35.739465 15.005178 16.919836 32.221218 37.125429 5.213998 -19.152408 21.675565 -2.211165 0.000000 0.000000 0.000000
0.159115 0.221333 0.186325 -18.729600 -4.983654 -71.969231 19.514411 2.717107 -62.139087 -34.162294 42.124476 109.799952 18.627208 46.636410 -12.091947 0.000000 0.000000 0.000000 -9.246454 -0.963230 -48.532038 0.032010 1.711795 90.301937 0.378830 -4.218219 12.450786 0.000000 0.000000 0.000000 -24.236499 -11.673760 -27.027177 -0.454237 -15.394352 108.222855 -17.746805 31.219451 -46.859969 -0.463340 -13.736518 28.252007 0.000000 0.000000 0.000000 -26.811861 -28.842094 2.689643 -50.054090 -22.825341 10.319044 16.453354 -56.672797 -14.790033 0.000000 0.000000 0.000000 33.294069 12.440199 17.879906 27.950524 41.697266 5.052152 -27.438392 30.004720 -4.797668 0.000000 0.000000 0.000000
0.155132 0.236659 0.182988 -18.412460 -5.357206 -71.255921 21.607880 4.390021 -62.300842 -39.939074 47.070848 104.898684 25.837774 52.522103 -0.094365 0.000000 0.000000 0.000000 -9.144310 -0.701034 -50.923499 3.063756 -1.477151 89.634169 1.420512 -4.433383 18.611510 0.000000 0.000000 0.000000 -27.986946 -13.273082 -23.374086 -1.241598 -14.941215 119.709214 -23.735312 34.503758 -50.304881 -4.888061 -9.784977 22.595677 0.000000 0.000000 0.000000 -29.688557 -31.961459 0.291880 -45.027249 -25.372770 11.453820 35.054002 -61.314203 -28.783273 0.000000 0.000000 0.000000 27.463618 12.949126 18.689721 25.604546 44.565058 5.342976 -40.190966 34.121867 -8.117868 0.000000 0.000000 0.000000
0.150269 0.258399 0.180626 -19.273851 -3.515653 -69.890752 26.913114 6.801743 -63.372756 -55.170702 59.567631 96.008755 38.507554 57.812483 19.000927 0.000000 0.000000 0.000000 -9.384041 -1.464821 -52.477349 4.383515 -3.762404 91.380017 2.416822 -1.488639 14.746443 0.000000 0.000000 0.000000 -40.181890 -18.947212 -16.068938 -1.201751 -16.976244 125.378387 -34.799196 42.579471 -52.242271 -19.540160 -3.197622 19.493161 0.000000 0.000000 0.000000 -36.463613 -35.958393 -5.774208 -38.756946 -20.191959 10.758634 41.248625 -67.240436 -33.949158 0.000000 0.000000 0.000000 23.171299 12.153958 20.201633 19.393426 41.890894 2.850763 -51.802153 40.585842 -12.476992 0.000000 0.000000 0.000000
0.145080 0.278652 0.182047 -19.041216 -1.121505 -67.731244 34.971102 10.502668 -62.157559 -72.908612 72.250217 86.859163 44.674794 51.197673 42.077025 0.000000 0.000000 0.000000 -8.190343 -1.342818 -55.698500 2.456795 -2.864800 98.120264 2.383786 2.835500 5.053850 0.000000 0.000000 0.000000 -62.732466 -25.082601 -0.598817 -0.781551 -21.901735 129.387963 -61.485886 52.039396 -63.343073 -33.882225 -4.828168 18.529121 0.000000 0.000000 0.000000 -43.455910 -40.959860 -22.176770 -34.862427 -4.748167 10.674550 28.474391 -77.396897 -22.634312 0.000000 0.000000 0.000000 11.939238 9.339259 18.672664 25.653917 39.747896 6.815467 -66.414516 45.541287 -15.262195 0.000000 0.000000 0.000000
0.141117 0.296506 0.187605 -18.284684 2.350988 -65.766608 46.072228 12.406323 -50.203592 -15.477743 58.537211 152.969526 13.391800 22.103029 31.235548 0.000000 0.000000 0.000000 -5.672531 -0.565229 -55.098123 -0.809461 -0.750799 106.657257 1.926159 6.719126 -2.429204 0.000000 0.000000 0.000000 -77.632489 -21.766241 16.788398 -1.111223 -20.344908 129.995884 -88.894829 48.944132 -88.407323 -46.094713 -11.937396 21.852414 0.000000 0.000000 0.000000 -40.721423 -43.874753 -32.862089 -32.885022 7.535058 10.457214 -7.969534 -79.909413 11.272996 0.000000 0.000000 0.000000 11.754685 2.658412 25.357113 23.485459 42.687747 7.397781 -75.067082 44.802249 -15.907320 0.000000 0.000000 0.000000
0.138765 0.321588 0.195407 -17.811676 6.924531 -61.059647 61.296484 8.635541 -31.394166 -8.640940 2.323104 158.123486 -19.617822 -14.072010 34.867357 0.000000 0.000000 0.000000 -4.079969 -0.722391 -55.315785 -3.985615 3.292250 116.613877 2.461284 11.573963 -5.402667 0.000000 0.000000 0.000000 -88.166628 -7.118367 35.556318 -1.639021 -41.845315 128.689432 -116.577250 40.774274 -101.901526 -58.283554 -17.126233 28.211907 0.000000 0.000000 0.000000 -37.569314 -39.829430 -42.230522 -33.711949 15.848943 9.238263 -54.293115 -75.963693 49.870810 0.000000 0.000000 0.000000 15.342578 -3.620799 42.289434 10.679471 49.021591 1.715743 -84.495603 36.275209 -15.773301 0.000000 0.000000 0.000000
0.138537 0.350655 0.203686 -18.032946 10.417151 -55.479834 59.615503 0.358407 -15.467213 -12.353573 9.456874 146.843011 -12.547747 -11.093681 24.635781 0.000000 0.000000 0.000000 -3.109336 -0.914635 -53.639653 -4.926699 3.148848 119.518828 0.481107 11.777698 -11.083105 0.000000 0.000000 0.000000 -68.498287 11.948709 56.213245 -0.099201 -73.192251 124.530548 -125.908396 26.169480 -105.238043 -57.428534 -20.419165 28.598020 0.000000 0.000000 0.000000 -32.682619 -34.353080 -38.163503 -35.457922 15.363665 5.803449 -69.888581 -74.661206 59.519262 0.000000 0.000000 0.000000 20.856761 -5.557081 64.815109 -14.180182 51.186158 -13.516614 -86.110783 19.862553 -13.876956 0.000000 0.000000 0.000000
0.140550 0.393036 0.209576 -15.747752 12.327738 -47.633485 53.032564 -4.713600 -2.406802 -17.837746 16.651828 131.259015 -8.087872 -8.295561 16.577181 0.000000 0.000000 0.000000 -3.981276 -1.371535 -52.519327 -2.193568 -2.436756 116.717692 -2.787452 1.129487 -12.957067 0.000000 0.000000 0.000000 -39.159853 14.898553 82.889239 166.766645 -49.426333 -49.179158 -152.213733 28.246845 -100.872927 -39.832195 -26.835673 17.066659 0.000000 0.000000 0.000000 -22.322820 -32.048147 -54.143869 -33.918809 32.278440 -0.980908 -83.659570 -59.993282 54.683884 0.000000 0.000000 0.000000 21.448078 -7.131110 82.392393 -36.305138 48.520118 -25.966139 -81.715750 4.636979 -7.781878 0.000000 0.000000 0.000000
0.143022 0.449151 0.212418 -14.001124 14.094501 -42.140474 43.920172 -3.574555 -1.644385 -22.377373 19.931765 121.635783 -0.613275 3.568450 16.077498 0.000000 0.000000 0.000000 -5.324103 -1.971898 -49.282279 -1.473481 -4.748016 109.420022 -2.956457 3.203427 -16.168182 0.000000 0.000000 0.000000 -25.843214 7.576921 89.774150 146.893315 -4.310512 -53.686004 -169.020590 54.070794 -91.434543 -2.734495 -2.771754 -9.831233 0.000000 0.000000 0.000000 -21.386955 -30.849803 -47.542775 -35.467395 27.960047 -2.398263 -67.677905 -61.689876 38.266449 0.000000 0.000000 0.000000 31.624122 -2.572355 72.940123 -25.993871 47.142180 -23.092451 -72.442717 14.587005 -18.519038 0.000000 0.000000 0.000000
0.144757 0.523191 0.210478 -12.498570 16.527386 -35.051791 31.484555 -1.432118 -5.406314 -25.272283 18.992938 114.448747 4.739441 12.293328 20.101983 0.000000 0.000000 0.000000 -6.346027 -2.574062 -46.500173 -0.578847 -7.152565 98.495421 -1.443577 2.909328 -10.470217 0.000000 0.000000 0.000000 -20.711810 2.749513 91.233125 91.619625 26.970397 -77.752673 -0.109482 71.243768 87.038305 11.467280 22.650805 -27.539421 0.000000 0.000000 0.000000 -29.183250 -26.851274 -28.675246 -36.636241 8.994508 -2.288769 -27.517460 -62.441142 10.970679 0.000000 0.000000 0.000000 43.508894 7.221448 44.370702 -0.484619 40.663534 -12.215962 -51.315856 36.598112 -21.631546 0.000000 0.000000 0.000000
0.145734 0.598763 0.203457 -11.069565 14.318210 -28.590264 24.440486 0.034853 -11.372544 -24.556736 18.265358 110.831118 6.235105 14.424089 21.451051 0.000000 0.000000 0.000000 -4.975232 -0.847465 -43.530499 2.183896 -8.275027 86.992179 -1.481177 -0.621150 -6.103101 0.000000 0.000000 0.000000 -18.555697 2.367432 89.982836 58.983044 13.493324 -72.989819 -4.544312 46.020323 55.530770 11.951717 4.581693 -12.156892 0.000000 0.000000 0.000000 -39.346415 -23.144205 -14.384498 -30.673642 0.796514 -1.669598 -13.282868 -53.190046 7.494806 0.000000 0.000000 0.000000 49.383827 9.723149 36.840083 9.569772 32.259769 -8.193183 -32.127022 42.152549 -13.307086 0.000000 0.000000 0.000000
0.146208 0.669759 0.195595 -8.312249 12.284434 -19.227612 21.573613 0.303156 -14.501664 -26.020581 18.857155 99.374325 10.200356 20.449667 14.956302 0.000000 0.000000 0.000000 -3.925517 0.337574 -43.029177 3.344517 -7.121865 81.234910 -3.765246 -7.001233 -6.691710 0.000000 0.000000 0.000000 -18.722669 4.442125 88.950825 48.200307 12.696426 -74.792659 -0.511371 33.773616 51.628487 3.448531 9.051821 -15.069007 0.000000 0.000000 0.000000 -45.992638 -19.345183 -8.872240 -26.005429 -2.005291 -1.605206 -10.717759 -50.989876 7.160644 0.000000 0.000000 0.000000 46.516718 12.961087 29.649153 15.219491 29.926105 -5.994151 -19.523839 44.798900 -7.451648 0.000000 0.000000 0.000000
0.146312 0.723249 0.190378 -6.329272 12.602692 -14.588181 18.249147 0.059048 -16.262488 -24.981593 14.690395 90.103680 11.623197 23.783103 2.341063 0.000000 0.000000 0.000000 -4.690021 0.304107 -36.087011 2.099521 -6.300951 81.194304 -3.924588 -8.356567 -4.270981 0.000000 0.000000 0.000000 -14.057993 0.347494 88.966939 22.269311 8.439493 -78.364758 7.116370 13.840061 47.596399 -1.464916 6.154359 -4.182037 0.000000 0.000000 0.000000 -50.112277 -18.337076 4.916869 -26.920123 -10.363569 -2.726547 2.133062 -40.326694 1.295241 0.000000 0.000000 0.000000 39.993979 15.019181 18.582677 23.762743 25.138755 -3.916504 -13.248663 42.446945 -3.169342 0.000000 0.000000 0.000000
