HIERARCHY
ROOT Hips
{
	OFFSET -0.001795 -0.223333 0.028219
	CHANNELS 6 Xposition Yposition Zposition Zrotation Yrotation Xrotation
	JOINT LeftUpLeg
	{
		OFFSET 0.069520 -0.091406 -0.006815
		CHANNELS 3 Zrotation Yrotation Xrotation
		JOINT LeftLeg
		{
			OFFSET 0.034277 -0.375199 -0.004496
			CHANNELS 3 Zrotation Yrotation Xrotation
			JOINT LeftFoot
			{
				OFFSET -0.013596 -0.397961 -0.043693
				CHANNELS 3 Zrotation Yrotation Xrotation
				JOINT LeftToe
				{
					OFFSET 0.026358 -0.055791 0.119288
					CHANNELS 3 Zrotation Yrotation Xrotation
					End Site
					{
						OFFSET 0.000000 0.000000 0.000000
					}
				}
			}
		}
	}
	JOINT RightUpLeg
	{
		OFFSET -0.067670 -0.090522 -0.004320
		CHANNELS 3 Zrotation Yrotation Xrotation
		JOINT RightLeg
		{
			OFFSET -0.038290 -0.382569 -0.008850
			CHANNELS 3 Zrotation Yrotation Xrotation
			JOINT RightFoot
			{
				OFFSET 0.015774 -0.398415 -0.042312
				CHANNELS 3 Zrotation Yrotation Xrotation
				JOINT RightToe
				{
					OFFSET -0.025372 -0.048144 0.123348
					CHANNELS 3 Zrotation Yrotation Xrotation
					End Site
					{
						OFFSET 0.000000 0.000000 0.000000
					}
				}
			}
		}
	}
	JOINT Spine
	{
		OFFSET -0.002533 0.108963 -0.026696
		CHANNELS 3 Zrotation Yrotation Xrotation
		JOINT Spine1
		{
			OFFSET 0.005487 0.135180 0.001092
			CHANNELS 3 Zrotation Yrotation Xrotation
			JOINT Spine2
			{
				OFFSET 0.001457 0.052922 0.025425
				CHANNELS 3 Zrotation Yrotation Xrotation
				JOINT Neck
				{
					OFFSET -0.002778 0.213870 -0.042857
					CHANNELS 3 Zrotation Yrotation Xrotation
					JOINT Head
					{
						OFFSET 0.005152 0.064970 0.051349
						CHANNELS 3 Zrotation Yrotation Xrotation
						End Site
						{
							OFFSET 0.000000 0.000000 0.000000
						}
					}
				}
				JOINT LeftShoulder
				{
					OFFSET 0.078845 0.121749 -0.034090
					CHANNELS 3 Zrotation Yrotation Xrotation
					JOINT LeftArm
					{
						OFFSET 0.090977 0.030469 -0.008868
						CHANNELS 3 Zrotation Yrotation Xrotation
						JOINT LeftForeArm
						{
							OFFSET 0.259612 -0.012772 -0.027456
							CHANNELS 3 Zrotation Yrotation Xrotation
							JOINT LeftHand
							{
								OFFSET 0.249234 0.008986 -0.001171
								CHANNELS 3 Zrotation Yrotation Xrotation
								End Site
								{
									OFFSET 0.000000 0.000000 0.000000
								}
							}
						}
					}
				}
				JOINT RightShoulder
				{
					OFFSET -0.081759 0.118833 -0.038615
					CHANNELS 3 Zrotation Yrotation Xrotation
					JOINT RightArm
					{
						OFFSET -0.096012 0.032551 -0.009143
						CHANNELS 3 Zrotation Yrotation Xrotation
						JOINT RightForeArm
						{
							OFFSET -0.253742 -0.013329 -0.021401
							CHANNELS 3 Zrotation Yrotation Xrotation
							JOINT RightHand
							{
								OFFSET -0.255298 0.007772 -0.005559
								CHANNELS 3 Zrotation Yrotation Xrotation
								End Site
								{
									OFFSET 0.000000 0.000000 0.000000
								}
							}
						}
					}
				}
			}
		}
	}
}
MOTION
Frames: 76
Frame Time: 0.050000
0.000000 0.953323 0.000000 0.547738 -4.761199 -7.288474 0.555599 0.270926 2.850134 -3.160072 0.443981 -7.323909 4.482707 12.343681 19.169538 0.000000 0.000000 0.000000 2.023853 -1.268212 11.522601 0.274168 -0.180565 -4.235895 -2.149975 -8.704099 8.806938 0.000000 0.000000 0.000000 3.661619 -0.900025 14.126449 -1.243793 0.742162 -22.442306 0.150343 5.670709 23.502039 3.692025 -0.586476 -21.067009 0.000000 0.000000 0.000000 -34.436375 -15.650818 7.562106 -40.533268 -6.468473 -4.186637 -14.284991 -24.909837 4.100471 0.000000 0.000000 0.000000 33.317449 12.342332 7.550253 41.986822 8.623917 -3.471557 11.459654 26.887704 3.608052 0.000000 0.000000 0.000000
-0.000288 0.952273 -0.000079 0.324887 -4.202046 -7.205720 0.738304 0.286309 3.080003 -3.118865 0.443389 -7.956580 4.188491 11.986710 18.925802 0.000000 0.000000 0.000000 2.415124 -1.349491 11.723285 0.136497 -0.188011 -4.672082 -2.408712 -9.146300 8.754462 0.000000 0.000000 0.000000 4.158676 -0.963754 14.133837 -2.266022 1.044242 -22.469620 0.936113 5.476413 23.565636 3.672798 -0.422388 -22.405965 0.000000 0.000000 0.000000 -34.213814 -15.733209 7.533603 -40.133190 -5.826406 -4.333608 -14.500499 -24.338690 4.038039 0.000000 0.000000 0.000000 32.915176 13.090470 8.137848 42.957714 8.559524 -3.573822 10.676527 26.409521 3.369047 0.000000 0.000000 0.000000
-0.000564 0.951917 -0.000084 0.787826 -3.004726 -8.096484 0.749445 0.314902 3.443618 -4.167674 0.485515 -7.067917 3.577889 11.237782 18.497885 0.000000 0.000000 0.000000 2.027841 -1.481103 13.190537 0.062881 -0.213812 -5.469119 -2.864219 -9.995372 8.898673 0.000000 0.000000 0.000000 3.643331 -0.947379 14.697100 -1.774419 0.955127 -22.683969 1.114698 5.414477 24.180796 3.054714 0.051858 -22.309337 0.000000 0.000000 0.000000 -34.013735 -15.623381 7.161286 -39.791067 -5.451756 -4.399912 -15.746193 -23.972983 4.224688 0.000000 0.000000 0.000000 31.884711 13.834942 8.831870 42.451459 8.284745 -3.747435 10.555797 26.818786 3.384248 0.000000 0.000000 0.000000
-0.000802 0.950856 -0.000063 0.799265 -2.502083 -8.598827 0.396253 0.386574 4.164851 -3.622282 0.451180 -7.435886 3.338989 10.924439 18.198358 0.000000 0.000000 0.000000 2.464498 -1.585288 13.528665 -0.656513 -0.155670 -5.034968 -3.210292 -10.547944 8.522897 0.000000 0.000000 0.000000 3.213573 -0.895912 14.611969 -0.991669 0.752740 -22.088835 0.851093 5.633421 24.261845 3.433956 -0.060760 -22.759861 0.000000 0.000000 0.000000 -33.866674 -15.896585 7.087287 -39.496411 -4.698175 -4.519027 -15.961045 -24.247888 4.303945 0.000000 0.000000 0.000000 32.337128 14.774027 9.764930 41.543591 7.928747 -3.859528 10.396506 26.150347 3.224785 0.000000 0.000000 0.000000
-0.001044 0.950267 -0.000187 0.690724 -1.936213 -9.421505 0.421589 0.407381 4.428946 -3.503699 0.434406 -6.383307 3.136873 10.616133 17.591782 0.000000 0.000000 0.000000 2.545628 -1.642180 13.833464 -0.510365 -0.116547 -3.898820 -3.541721 -11.088201 8.151240 0.000000 0.000000 0.000000 2.798851 -0.871619 14.938869 -0.666479 0.653485 -20.760121 1.231396 4.949946 23.479252 2.413277 0.513304 -22.463522 0.000000 0.000000 0.000000 -33.888615 -15.876644 7.164881 -39.511819 -3.866670 -4.732772 -16.753991 -25.240406 4.671545 0.000000 0.000000 0.000000 31.359989 15.745753 10.072879 41.284717 7.245450 -3.890150 10.634451 26.585173 3.303565 0.000000 0.000000 0.000000
-0.001223 0.949399 -0.000382 0.480251 -1.170455 -9.982161 0.716193 0.427059 4.807012 -3.712430 0.439211 -6.076589 2.776627 10.118543 17.098526 0.000000 0.000000 0.000000 2.942413 -1.772370 14.315075 -0.702856 -0.088544 -3.598955 -3.918391 -11.773800 8.024650 0.000000 0.000000 0.000000 1.893914 -0.778152 14.865711 0.477409 0.361353 -21.314149 1.508681 4.631649 24.993321 1.325482 1.244487 -22.715218 0.000000 0.000000 0.000000 -34.835603 -15.801234 7.165014 -38.597941 -3.432588 -4.853200 -17.195092 -25.586596 4.839750 0.000000 0.000000 0.000000 31.383880 17.185671 11.157765 40.785257 6.979915 -4.058173 10.432946 25.805470 3.112692 0.000000 0.000000 0.000000
-0.001114 0.948489 -0.000379 0.310904 -0.524105 -10.341579 0.882983 0.387656 4.465100 -3.799198 0.437314 -4.865749 2.577824 9.779844 16.396974 0.000000 0.000000 0.000000 3.088996 -1.773271 14.023262 -0.527873 -0.044103 -2.295446 -4.316656 -12.461747 7.588161 0.000000 0.000000 0.000000 1.759883 -0.771575 14.855584 0.864148 0.251571 -20.628504 1.398042 4.164926 24.472846 1.415968 1.085553 -21.638258 0.000000 0.000000 0.000000 -34.989702 -15.539749 6.971377 -38.202374 -2.643824 -4.991492 -17.854698 -25.909238 5.052898 0.000000 0.000000 0.000000 30.685548 17.631074 11.286323 41.167167 6.790800 -4.072929 10.987057 25.706136 3.209526 0.000000 0.000000 0.000000
-0.000855 0.945608 -0.000033 0.021726 0.291505 -11.291132 1.154222 0.377795 4.504471 -3.886889 0.437452 -3.179559 2.413381 9.342275 14.945538 0.000000 0.000000 0.000000 3.047158 -1.759688 13.814487 0.229466 -0.021312 0.109262 -4.881350 -13.402837 6.407794 0.000000 0.000000 0.000000 1.293519 -0.751921 15.263352 1.341288 0.126715 -20.239873 1.518752 3.797564 24.289443 1.042130 1.192889 -19.590628 0.000000 0.000000 0.000000 -35.783805 -15.450884 6.846478 -37.225945 -1.595982 -5.118486 -18.666588 -26.297496 5.313128 0.000000 0.000000 0.000000 30.563679 18.009208 11.546339 40.945151 6.101696 -4.267325 12.466572 25.988743 3.557615 0.000000 0.000000 0.000000
-0.000412 0.942927 0.000826 -0.302687 1.010553 -12.270624 1.282456 0.371829 4.538792 -3.658866 0.409733 -1.355935 2.318114 8.954390 13.484106 0.000000 0.000000 0.000000 3.084275 -1.727149 13.413413 0.897955 -0.009339 2.945889 -5.400124 -14.349185 5.374371 0.000000 0.000000 0.000000 0.945377 -0.737147 15.509269 1.694217 0.022742 -19.652450 1.613533 3.479965 23.582048 1.157512 0.997013 -18.010409 0.000000 0.000000 0.000000 -36.042474 -15.425079 6.711642 -36.880392 -0.780405 -5.214556 -20.032726 -25.753598 5.499672 0.000000 0.000000 0.000000 30.258994 17.953515 11.458946 40.900987 5.385895 -4.435881 14.242926 25.776849 3.901707 0.000000 0.000000 0.000000
0.000081 0.938520 0.001661 -0.825605 1.564598 -13.346776 1.886110 0.401974 5.246100 -3.861264 0.425182 -0.537670 2.301135 8.561866 11.700776 0.000000 0.000000 0.000000 2.946371 -1.645973 12.839173 2.258228 -0.144270 6.278553 -5.849097 -15.175535 3.963717 0.000000 0.000000 0.000000 0.863612 -0.736056 15.486795 2.508288 -0.223059 -19.444734 1.294201 3.349443 23.883538 0.507281 1.388028 -16.614269 0.000000 0.000000 0.000000 -36.745778 -15.166421 6.414890 -36.170364 -0.525487 -5.167882 -21.464761 -24.816820 5.599235 0.000000 0.000000 0.000000 30.449847 18.416358 11.898706 40.868845 4.249215 -4.837627 15.511960 27.290379 4.463263 0.000000 0.000000 0.000000
0.000623 0.934830 0.001843 -1.297656 1.761386 -13.969584 2.630249 0.382170 5.353705 -4.365853 0.478703 0.438354 2.433790 8.414596 10.208940 0.000000 0.000000 0.000000 2.588879 -1.433794 11.471571 3.834429 -0.411416 9.774772 -6.150755 -15.792870 3.413352 0.000000 0.000000 0.000000 0.680067 -0.709432 15.238365 2.979211 -0.411414 -18.639849 1.139091 3.339014 22.949536 0.583036 1.258332 -15.512871 0.000000 0.000000 0.000000 -37.421801 -15.154163 6.279654 -35.749268 0.518625 -5.274889 -22.595141 -24.000303 5.636165 0.000000 0.000000 0.000000 31.047719 18.560622 12.097756 40.350875 2.956904 -5.105844 17.671357 27.630731 5.019173 0.000000 0.000000 0.000000
0.000977 0.925539 0.001309 -1.761018 1.989196 -15.240277 3.320362 0.322471 4.676953 -4.820465 0.547780 3.988157 3.029509 8.454647 6.593026 0.000000 0.000000 0.000000 2.431880 -1.137638 9.284339 5.210879 -0.779017 15.526127 -7.006306 -17.646536 2.516592 0.000000 0.000000 0.000000 0.492754 -0.699619 15.318425 3.787383 -0.697390 -18.368917 0.103475 3.608510 22.647713 0.569268 1.275686 -14.672378 0.000000 0.000000 0.000000 -36.909361 -14.430180 5.434531 -35.931510 0.947105 -5.338226 -24.066629 -22.307469 5.498142 0.000000 0.000000 0.000000 31.403201 18.040010 11.974255 40.930973 1.061033 -5.786820 19.917785 28.478696 5.782642 0.000000 0.000000 0.000000
0.001164 0.915284 0.000177 -1.772851 1.836351 -16.297962 3.058128 0.253236 3.269052 -4.439886 0.495834 8.508149 3.959870 9.082190 2.856611 0.000000 0.000000 0.000000 2.394203 -0.818609 6.850894 5.796680 -1.037033 20.886529 -8.384848 -20.663084 2.519263 0.000000 0.000000 0.000000 -0.491355 -0.614492 15.542456 4.276462 -0.926113 -17.748103 -0.135703 4.576442 21.350619 1.055081 0.833035 -12.569094 0.000000 0.000000 0.000000 -36.993029 -14.573059 5.030199 -35.558335 2.618374 -5.516813 -25.192993 -20.153652 5.115170 0.000000 0.000000 0.000000 32.916038 16.755303 11.614031 40.619811 -0.989557 -6.384501 22.402110 28.424045 6.393972 0.000000 0.000000 0.000000
0.001206 0.897579 -0.001400 -1.918924 2.992472 -17.859869 3.005564 0.082837 0.523228 -4.562253 0.439737 16.146683 4.861052 9.047678 -3.055232 0.000000 0.000000 0.000000 1.665913 -0.292587 2.716773 7.911207 -2.228099 29.437902 -11.194819 -26.158894 5.507553 0.000000 0.000000 0.000000 -1.853430 -0.552915 16.490471 5.229453 -1.172933 -18.589672 -0.799968 4.225915 22.314272 1.342113 0.582500 -11.966049 0.000000 0.000000 0.000000 -37.853138 -13.309249 3.933465 -33.347715 4.125891 -5.552121 -27.148789 -19.827106 5.359304 0.000000 0.000000 0.000000 33.976314 15.322018 10.927000 39.416199 -3.503333 -7.101671 25.572744 28.560223 7.231687 0.000000 0.000000 0.000000
0.001803 0.876894 -0.003550 -1.516996 3.362741 -20.410008 2.541673 -0.101149 -2.290312 -5.126351 0.451576 25.978423 6.008970 10.060578 -7.790678 0.000000 0.000000 0.000000 0.348695 0.199445 -1.895343 9.396600 -3.704911 40.639932 -13.904006 -29.432517 12.879744 0.000000 0.000000 0.000000 -3.705582 -0.444334 17.940505 5.663607 -1.489839 -17.199708 -1.679352 5.262750 19.991794 1.936288 -0.053360 -9.468126 0.000000 0.000000 0.000000 -37.177920 -12.314370 2.443240 -31.171995 6.512763 -5.439720 -30.144927 -18.930116 5.546403 0.000000 0.000000 0.000000 36.127567 13.647965 10.378825 38.300093 -5.545428 -7.501823 27.510441 27.088639 7.257456 0.000000 0.000000 0.000000
0.003412 0.847411 -0.005627 -1.329926 3.205349 -23.570081 2.678241 -0.335650 -6.014346 -6.619798 0.887050 38.431646 7.227980 11.966701 -11.672804 0.000000 0.000000 0.000000 -0.151202 0.708529 -7.318971 9.862468 -5.163559 54.612068 -15.334797 -29.671954 21.880438 0.000000 0.000000 0.000000 -5.135342 -0.359213 17.634705 5.643001 -1.658447 -16.118205 -0.804357 6.242350 20.864538 0.055441 1.048742 -4.503558 0.000000 0.000000 0.000000 -38.538047 -11.088896 1.096948 -25.919373 6.926891 -4.482386 -32.291404 -16.892279 5.189648 0.000000 0.000000 0.000000 37.054414 11.365833 9.128520 35.262749 -8.743087 -7.923400 31.103317 27.179607 8.132192 0.000000 0.000000 0.000000
0.006731 0.813175 -0.008636 -1.760234 2.485203 -27.086253 3.327418 -0.473610 -9.302355 -7.912539 1.598106 50.334282 8.225735 14.215575 -14.083158 0.000000 0.000000 0.000000 -2.224195 1.020649 -14.113435 12.698567 -8.330692 66.665948 -15.776621 -28.492802 32.628778 0.000000 0.000000 0.000000 -6.251775 -0.327341 18.790235 7.983357 -2.626517 -18.048183 -2.398278 9.075612 22.536143 0.927958 -0.916810 3.912527 0.000000 0.000000 0.000000 -38.910301 -11.603716 0.244951 -18.368499 9.472698 -3.276432 -38.173994 -18.029979 6.384560 0.000000 0.000000 0.000000 40.606743 8.262632 8.250976 28.055589 -12.610375 -7.419331 34.306578 25.990479 8.160644 0.000000 0.000000 0.000000
0.011109 0.762476 -0.013727 -0.992174 0.623608 -30.760990 5.034003 -0.621591 -17.111215 -13.412366 6.800824 65.142455 12.838153 25.157022 -1.526954 0.000000 0.000000 0.000000 -4.846382 1.074194 -22.112050 18.151374 -12.944421 73.893998 -24.287349 -35.411489 41.179268 0.000000 0.000000 0.000000 -6.382356 -0.363586 18.410574 8.784054 -4.199364 -11.573881 -4.227337 10.276566 14.313781 -1.972188 -0.102095 13.454293 0.000000 0.000000 0.000000 -36.759015 -9.730524 -2.134030 -14.881953 10.765659 -2.268653 -41.574159 -18.260510 6.910210 0.000000 0.000000 0.000000 38.068617 8.089492 7.342055 26.651733 -17.976357 -7.338736 36.910608 25.294913 8.482890 0.000000 0.000000 0.000000
0.015977 0.698504 -0.019922 -0.827484 -0.420714 -37.090344 7.095864 -0.367948 -24.328936 -18.177437 13.248138 78.190612 17.157885 30.111544 13.225419 0.000000 0.000000 0.000000 -6.343672 0.970113 -27.058834 23.070149 -16.723289 74.481462 -25.660360 -39.802088 30.606147 0.000000 0.000000 0.000000 -5.206569 -0.510700 21.090595 9.126541 -5.151515 -12.449836 -5.086049 10.497694 14.662186 -3.190174 -1.790347 27.328842 0.000000 0.000000 0.000000 -35.504171 -13.104312 -0.045621 -12.698930 11.488766 -1.808550 -40.736376 -21.854530 7.949732 0.000000 0.000000 0.000000 37.666214 7.223137 6.072345 22.150286 -20.194755 -6.192969 38.090167 27.585018 9.275464 0.000000 0.000000 0.000000
0.020193 0.620026 -0.024287 -0.725358 -1.375489 -44.548591 10.437578 0.751531 -28.167468 -21.165324 18.368978 86.562858 20.590718 34.836128 12.860190 0.000000 0.000000 0.000000 -8.089846 0.430272 -27.664967 31.302433 -22.228051 71.970987 -14.880147 -34.249012 -1.128101 0.000000 0.000000 0.000000 -4.854757 -0.619675 20.931948 11.416329 -8.389019 -8.422148 -9.637184 10.795671 11.704375 -3.510402 -4.173056 36.518921 0.000000 0.000000 0.000000 -35.085628 -14.405934 -0.058526 -7.347109 9.806780 -0.463527 -36.849895 -27.200216 9.065888 0.000000 0.000000 0.000000 39.383544 11.862536 9.352512 18.550100 -20.707168 -4.445057 38.054284 29.619376 9.514035 0.000000 0.000000 0.000000
0.023444 0.529354 -0.024573 1.827969 -3.782966 -52.612595 13.111425 2.245112 -28.771899 -20.631405 20.358888 89.945242 21.171314 42.416393 -7.162090 0.000000 0.000000 0.000000 -7.602782 0.731663 -27.705300 40.891285 -27.095629 69.774688 -14.143372 -34.542428 -6.642225 0.000000 0.000000 0.000000 -4.848241 -0.674774 18.466185 0.948142 -1.489652 6.677223 0.139582 4.634993 -1.758750 -5.730456 -0.136181 49.457656 0.000000 0.000000 0.000000 -39.884485 -16.274353 4.005627 -2.689068 7.800989 0.472077 -31.738414 -26.730914 8.629130 0.000000 0.000000 0.000000 34.548208 12.191102 4.745597 18.366949 -23.823188 -2.431938 35.056144 30.253450 9.040188 0.000000 0.000000 0.000000
0.027971 0.438112 -0.023115 0.738937 -3.818719 -59.628327 14.049061 2.781545 -30.364463 -17.113327 15.425050 91.968093 15.283322 38.322546 -27.594084 0.000000 0.000000 0.000000 -9.471691 0.033755 -28.997767 49.490626 -33.876468 69.274669 -17.559014 -44.947919 -10.093996 0.000000 0.000000 0.000000 -4.590143 -0.840562 16.956359 0.049544 -0.638639 -6.670527 2.196132 1.881683 18.527645 -2.416642 -3.919272 61.147014 0.000000 0.000000 0.000000 -41.460502 -20.945463 11.325927 0.363833 3.500180 0.506763 -20.714946 -29.925829 5.778830 0.000000 0.000000 0.000000 37.044573 13.992195 5.347845 16.015432 -16.004383 -2.310138 26.239447 30.421790 6.512612 0.000000 0.000000 0.000000
0.037239 0.353196 -0.025331 0.128303 -4.873063 -68.675265 13.511684 2.894261 -30.049646 -11.599646 8.860286 97.280747 11.920003 29.363341 -37.287690 0.000000 0.000000 0.000000 -9.236449 0.163167 -31.345315 49.562117 -36.085489 74.220085 -17.758346 -46.577864 -10.607164 0.000000 0.000000 0.000000 -2.885222 -0.808219 12.540537 -0.047821 -0.327401 3.981995 1.451032 0.508318 14.429284 -0.910667 -4.696493 58.162252 0.000000 0.000000 0.000000 -35.747654 -19.509251 11.447376 -1.537522 -5.171862 -0.383960 -17.685947 -30.068830 5.443562 0.000000 0.000000 0.000000 29.981413 12.995536 4.501257 21.657572 -11.496066 -3.200344 22.801367 32.043202 6.634156 0.000000 0.000000 0.000000
0.053611 0.295802 -0.035650 -0.951353 -7.073047 -73.843876 13.807189 3.466123 -32.941232 -8.328857 4.274094 98.955638 10.765837 21.818559 -36.134453 0.000000 0.000000 0.000000 -8.317932 0.957979 -34.994857 47.054703 -35.065147 76.873697 -19.616073 -47.100282 -5.183235 0.000000 0.000000 0.000000 -0.464843 -0.508990 12.812399 4.654413 -5.316014 3.094275 -4.629158 3.958773 11.291141 -1.225531 -7.598034 64.498782 0.000000 0.000000 0.000000 -36.308316 -22.337633 12.294216 -0.205309 -4.872386 -0.268451 -12.639019 -30.226612 4.318832 0.000000 0.000000 0.000000 31.826549 14.363295 6.229660 18.162888 -10.694387 -1.910639 16.490883 34.046066 5.192854 0.000000 0.000000 0.000000
0.074779 0.250323 -0.051220 -1.412347 -8.464102 -79.708898 11.224625 2.482673 -33.792634 -4.638177 0.111076 95.723173 10.112750 17.747498 -31.520161 0.000000 0.000000 0.000000 -8.922482 0.870044 -36.498747 42.110328 -29.990154 78.312069 -20.346643 -41.325360 7.369555 0.000000 0.000000 0.000000 0.102372 -0.272819 9.828254 5.402687 -5.257729 2.089119 -3.434679 2.207838 20.111512 1.652464 -10.095007 58.047528 0.000000 0.000000 0.000000 -32.964687 -21.734935 14.167175 -1.565534 -11.536054 -0.900787 2.392103 -34.683164 0.055354 0.000000 0.000000 0.000000 22.680526 12.753734 4.647515 19.004636 0.864785 -1.805495 8.632839 35.427799 3.188399 0.000000 0.000000 0.000000
0.096702 0.221350 -0.068937 0.501567 -10.253582 -83.612087 10.484400 2.631476 -34.722048 -1.935934 -1.410632 95.704592 9.289408 15.363049 -21.547119 0.000000 0.000000 0.000000 -9.619972 1.447084 -40.311203 38.859122 -25.609640 79.464519 -18.559258 -33.580739 21.913733 0.000000 0.000000 0.000000 4.118945 0.743910 8.987517 3.474239 -3.945757 6.833577 -5.346867 1.310690 13.297620 1.139831 -9.261310 62.182247 0.000000 0.000000 0.000000 -34.371416 -22.816373 15.300547 -0.646247 -11.194498 -0.817779 15.611389 -39.236288 -4.344510 0.000000 0.000000 0.000000 20.395186 16.018456 6.236015 15.986292 2.538240 -1.075993 0.002602 37.277737 0.757635 0.000000 0.000000 0.000000
0.114796 0.209401 -0.084535 0.842731 -10.842340 -85.494793 7.810183 1.346537 -35.884243 -0.014369 -2.274686 91.019669 7.790187 13.593221 -6.349479 0.000000 0.000000 0.000000 -10.599183 0.916006 -39.063286 39.040047 -21.828237 72.307804 -22.834740 -36.251989 29.312191 0.000000 0.000000 0.000000 6.139752 1.395752 8.991832 3.225016 -4.119175 6.608185 -6.656806 1.699670 10.672164 1.610074 -10.751647 62.555268 0.000000 0.000000 0.000000 -34.394271 -22.366219 14.608093 1.851219 -13.187560 -0.988259 27.642442 -44.531937 -9.623392 0.000000 0.000000 0.000000 17.559735 16.320935 6.581096 9.529003 7.825474 -0.531772 -11.766829 36.109320 -2.751899 0.000000 0.000000 0.000000
0.126755 0.201580 -0.095102 1.659993 -11.534488 -87.550016 6.252193 0.703026 -35.463852 1.778641 -3.253014 89.834065 4.598668 8.565822 0.083837 0.000000 0.000000 0.000000 -11.060448 0.803290 -38.495046 40.476135 -21.552142 70.455068 -26.529524 -39.527879 31.256938 0.000000 0.000000 0.000000 9.148787 2.345723 8.999520 -0.189148 -0.990033 6.459726 -5.220329 -1.147693 9.131764 2.068688 -10.421140 62.864937 0.000000 0.000000 0.000000 -35.758027 -21.447978 14.646621 5.698579 -17.810866 -1.660770 43.972754 -46.554125 -17.147482 0.000000 0.000000 0.000000 15.896031 13.802243 4.775945 2.661769 14.400825 -0.937297 -25.224450 30.268841 -5.509591 0.000000 0.000000 0.000000
0.132514 0.201886 -0.101247 1.629373 -11.755231 -89.863897 5.962276 0.634274 -31.658901 2.051174 -3.476201 85.877228 4.470011 8.688063 2.303231 0.000000 0.000000 0.000000 -10.509541 0.299709 -33.134193 36.099605 -17.793617 70.804603 -26.118235 -45.038700 13.476230 0.000000 0.000000 0.000000 11.326849 3.247265 8.271804 -1.328846 0.332194 8.485095 -5.998002 -3.573370 5.774589 3.085813 -9.559187 56.446311 0.000000 0.000000 0.000000 -32.513109 -20.901112 13.924615 2.371732 -22.868842 -1.948425 60.414877 -47.797381 -25.218729 0.000000 0.000000 0.000000 12.072930 13.786398 4.561172 2.620874 17.849132 -1.116791 -42.021092 14.573839 -4.136695 0.000000 0.000000 0.000000
0.132702 0.207225 -0.103198 1.301663 -10.844000 -90.587240 3.369914 -0.800674 -30.698086 1.768821 -3.050649 84.950474 3.488382 6.610914 0.999505 0.000000 0.000000 0.000000 -11.115210 -0.456369 -30.065300 30.944246 -14.531895 72.626722 -20.800654 -42.362680 -0.189544 0.000000 0.000000 0.000000 10.564893 3.806848 3.292338 -3.551677 3.503241 15.008967 -2.650924 -6.109343 -0.596977 6.355066 -12.658235 51.577736 0.000000 0.000000 0.000000 -32.789725 -19.164907 13.169626 0.270069 -27.775482 -2.221912 75.660203 -51.094035 -34.241798 0.000000 0.000000 0.000000 6.004281 9.790470 2.840016 4.524794 21.765850 -1.033181 -50.890521 9.896437 -2.365843 0.000000 0.000000 0.000000
0.128386 0.216026 -0.102402 1.194335 -11.549083 -92.185691 4.073181 -0.282271 -28.477656 1.355482 -2.614561 83.648846 5.385204 7.992310 -6.794042 0.000000 0.000000 0.000000 -9.866846 -0.518026 -24.667444 29.172210 -12.506027 70.437050 -16.465174 -37.008855 -10.984336 0.000000 0.000000 0.000000 10.840242 4.002899 2.320799 -3.717328 2.716404 6.682119 -4.445632 -5.987708 11.787764 6.494556 -9.806652 34.796207 0.000000 0.000000 0.000000 -24.305152 -18.751805 12.523392 -8.309029 -35.103675 -1.555980 80.590672 -50.240140 -36.848604 0.000000 0.000000 0.000000 -0.961450 8.308373 2.808109 7.520576 24.365085 -1.175028 -53.634488 0.136423 0.823194 0.000000 0.000000 0.000000
0.120925 0.219375 -0.101238 0.323683 -12.308563 -92.518584 5.702478 0.520925 -29.523777 0.685726 -2.414512 86.125222 4.749282 4.888555 -12.642556 0.000000 0.000000 0.000000 -9.912132 -0.721482 -23.225761 28.102457 -10.977174 68.011347 -16.868330 -39.463145 -16.322715 0.000000 0.000000 0.000000 10.213165 4.166023 0.372256 -2.611441 1.729164 7.599955 -4.538735 -6.215841 10.571885 6.243414 -6.801974 20.994159 0.000000 0.000000 0.000000 -18.978512 -18.172740 11.778078 -19.339911 -40.516914 1.269360 78.302225 -54.131588 -36.488153 0.000000 0.000000 0.000000 -8.657062 7.312267 3.060087 11.382410 24.322383 -0.705563 -48.540195 -1.891558 1.288138 0.000000 0.000000 0.000000
0.111996 0.217610 -0.100700 -1.044855 -13.161702 -93.154338 5.047139 0.301000 -25.581720 -0.048949 -2.014609 86.219158 8.377069 10.820628 -24.542820 0.000000 0.000000 0.000000 -8.278189 -0.243249 -21.769515 27.353178 -11.015097 66.591678 -17.966802 -41.288900 -14.622873 0.000000 0.000000 0.000000 8.310828 3.048622 2.895651 0.187881 -0.763008 -3.569643 -7.191471 -1.667782 20.218281 11.175658 -11.640451 9.880661 0.000000 0.000000 0.000000 -18.889883 -24.946777 15.090414 -24.056116 -41.647553 2.255217 72.140419 -55.873764 -34.787095 0.000000 0.000000 0.000000 -8.107025 6.169624 2.556468 10.732951 23.007709 -1.003798 -39.345132 -5.139262 2.092488 0.000000 0.000000 0.000000
0.103135 0.209610 -0.101643 0.566104 -13.288415 -95.490248 2.478086 -0.669564 -21.117092 -0.817902 1.665852 86.511117 9.971278 15.047598 -31.818547 0.000000 0.000000 0.000000 -7.353523 0.000063 -21.249044 27.059644 -9.625528 66.425005 -16.004697 -37.588133 -18.752998 0.000000 0.000000 0.000000 8.049297 3.039103 4.228421 -2.455771 1.261010 1.309072 -2.221974 -5.236608 17.790504 5.477408 -4.927330 2.622368 0.000000 0.000000 0.000000 -18.542360 -18.797569 12.717124 -31.949296 -51.596498 7.371771 58.928231 -56.079206 -24.922038 0.000000 0.000000 0.000000 -13.659773 5.932518 3.082106 13.834446 24.789976 -0.658815 -31.296449 -6.539435 1.631177 0.000000 0.000000 0.000000
0.094338 0.203201 -0.104175 0.074796 -13.636025 -94.470430 0.942315 -1.434340 -21.908631 -1.290893 2.706119 85.297388 11.129697 19.869470 -36.054728 0.000000 0.000000 0.000000 -5.369500 0.585844 -19.224694 23.225927 -7.200659 60.103439 -15.776436 -38.759230 -24.963053 0.000000 0.000000 0.000000 6.188402 2.332615 3.246561 -0.657058 -0.104862 2.803522 -2.807705 -2.255674 16.750509 8.066515 -7.941653 8.583581 0.000000 0.000000 0.000000 -23.025713 -22.108838 15.253431 -30.702668 -52.536292 7.048244 51.279072 -58.569546 -22.339911 0.000000 0.000000 0.000000 -7.595656 6.583432 2.736226 11.452507 21.527353 -0.858420 -16.297387 -5.731439 0.865388 0.000000 0.000000 0.000000
0.085347 0.189959 -0.108707 0.301912 -13.038836 -95.523345 -0.005377 -1.952759 -22.360813 -0.511649 1.790506 80.629105 11.107934 20.038345 -35.084617 0.000000 0.000000 0.000000 -4.379725 0.885767 -18.770161 21.194514 -6.085148 57.668823 -16.154733 -37.318617 -21.259823 0.000000 0.000000 0.000000 3.850329 1.294966 4.859540 -1.576802 0.720641 2.928723 -0.333660 -1.674166 19.292990 6.339610 -6.718951 9.770753 0.000000 0.000000 0.000000 -22.260335 -25.499303 16.976939 -29.026807 -55.920318 7.249837 45.956765 -54.263749 -17.944887 0.000000 0.000000 0.000000 -3.667283 7.993621 2.902624 12.363618 18.844411 -0.862120 -6.647612 -0.010419 0.105877 0.000000 0.000000 0.000000
0.077773 0.175379 -0.112970 -0.172989 -12.560104 -96.398316 -0.930731 -2.688751 -24.917660 -0.188350 0.988819 74.005839 11.464055 20.235163 -20.303841 0.000000 0.000000 0.000000 -3.621583 1.171692 -18.930004 18.192758 -4.614374 56.576279 -15.994927 -33.398668 -13.577266 0.000000 0.000000 0.000000 2.421902 0.667103 7.566622 -1.221365 0.383878 -1.226482 0.300937 -2.491355 25.267672 5.053816 -5.604993 8.236937 0.000000 0.000000 0.000000 -20.964169 -26.434733 17.360247 -24.972113 -59.737777 6.097490 44.543092 -53.134697 -17.038507 0.000000 0.000000 0.000000 -2.472641 6.673920 2.380248 16.363827 17.984941 -0.878249 3.648843 7.857475 0.335689 0.000000 0.000000 0.000000
0.073607 0.169106 -0.115124 0.757899 -12.597018 -97.141364 -0.895614 -2.777137 -26.289226 0.762100 0.684004 68.311450 9.093733 14.951532 -8.332476 0.000000 0.000000 0.000000 -2.728694 1.535348 -19.018373 18.177881 -4.266276 54.791624 -18.188856 -35.023682 -5.267222 0.000000 0.000000 0.000000 4.537543 1.385762 8.456368 -1.778934 0.872021 2.436978 -0.319484 -2.976737 22.190297 3.608968 -4.064742 8.018428 0.000000 0.000000 0.000000 -17.038058 -29.537343 17.422603 -27.753231 -58.664690 7.868738 46.097192 -49.484851 -16.754579 0.000000 0.000000 0.000000 -2.469098 5.912341 2.125239 23.019323 15.247416 -0.863931 6.871447 15.561007 1.077083 0.000000 0.000000 0.000000
0.072593 0.160679 -0.114975 1.440548 -11.417146 -97.399161 -2.125373 -3.626322 -27.859902 -1.223300 2.645920 66.331762 8.115440 14.657516 7.875798 0.000000 0.000000 0.000000 -2.907670 1.670953 -20.795610 21.295972 -6.034553 52.049901 -23.910160 -44.189521 -4.047397 0.000000 0.000000 0.000000 5.902795 1.693191 10.547830 -2.870584 1.473482 -3.860693 0.180000 -4.980074 26.953586 1.605126 -2.083459 2.444002 0.000000 0.000000 0.000000 -17.780606 -30.734517 18.274290 -25.564717 -57.280631 6.426654 49.342772 -50.234262 -19.069618 0.000000 0.000000 0.000000 -3.816465 6.886613 2.530356 29.054804 14.568232 -1.281393 9.649388 22.818628 2.053266 0.000000 0.000000 0.000000
0.074413 0.158741 -0.115015 3.676882 -9.587722 -97.624525 -2.391332 -3.901171 -29.497379 -1.941467 3.657513 67.322821 7.887549 15.386416 21.079746 0.000000 0.000000 0.000000 -3.111247 1.627451 -21.130949 23.602193 -7.065347 51.483036 -24.580500 -45.518988 -3.645983 0.000000 0.000000 0.000000 9.125655 2.567649 11.271440 -5.460263 3.201592 -5.970054 -1.510580 -8.899909 29.399662 -0.982753 0.126199 2.803064 0.000000 0.000000 0.000000 -17.758236 -30.005518 18.233995 -27.984796 -54.510444 6.737440 51.340517 -52.820675 -20.979347 0.000000 0.000000 0.000000 -5.530099 8.883296 3.307276 33.439503 18.470437 -0.781372 14.325689 28.025503 3.474682 0.000000 0.000000 0.000000
0.078342 0.155688 -0.117029 6.856480 -6.689289 -97.381976 -2.452112 -3.942711 -29.885940 0.909771 1.619398 71.679241 6.400569 13.210660 16.837436 0.000000 0.000000 0.000000 -3.168969 1.683636 -21.832643 23.169290 -6.925313 53.632741 -25.278051 -46.814636 -3.170867 0.000000 0.000000 0.000000 10.047645 2.707257 10.420767 -6.407927 3.770392 -5.165947 -3.293025 -7.290015 29.659398 -0.019930 -1.009351 -1.102178 0.000000 0.000000 0.000000 -18.672745 -31.942032 18.957764 -28.346767 -50.704204 5.867426 48.020481 -55.795665 -21.197440 0.000000 0.000000 0.000000 -6.515387 7.996346 3.065126 39.645016 25.166947 1.028711 18.103405 28.900235 4.776588 0.000000 0.000000 0.000000
0.083979 0.155754 -0.123247 8.196394 -3.048321 -95.296496 -3.237874 -4.566855 -30.911393 4.452160 -2.302431 69.544218 0.939011 7.862740 23.976780 0.000000 0.000000 0.000000 -5.296318 0.819175 -22.490635 21.530289 -6.244257 52.370930 -23.868210 -39.935844 8.410862 0.000000 0.000000 0.000000 9.840060 2.860298 6.197013 -9.227311 6.251762 1.191130 -2.673744 -10.756970 26.787569 0.042247 -1.047523 6.021536 0.000000 0.000000 0.000000 -20.802293 -28.832335 18.961504 -26.380330 -48.658154 4.256605 44.890647 -61.644983 -21.526533 0.000000 0.000000 0.000000 -6.192573 13.611172 4.633256 44.056502 30.041530 3.039645 14.847885 34.805354 4.955892 0.000000 0.000000 0.000000
0.090277 0.161933 -0.131572 8.585987 -0.620327 -91.975619 0.529452 -2.981143 -34.179804 1.300799 -1.850173 66.471331 0.710101 7.961050 25.443255 0.000000 0.000000 0.000000 -7.347228 0.090699 -23.615942 19.369807 -5.485117 50.128695 -21.549971 -35.033828 14.375454 0.000000 0.000000 0.000000 11.671556 3.453515 4.947417 -9.653196 6.911818 3.204695 -6.387199 -11.200618 24.589482 1.272160 -2.420283 23.496607 0.000000 0.000000 0.000000 -26.919878 -30.057023 21.362523 -17.964299 -35.964483 -0.142923 26.622755 -75.043088 -15.361711 0.000000 0.000000 0.000000 5.568600 18.005816 6.281620 37.106480 31.777023 3.296905 13.762130 37.146311 5.285455 0.000000 0.000000 0.000000
0.096589 0.167679 -0.137513 9.663236 1.712016 -87.825464 4.302667 -1.354905 -38.448266 -3.815337 0.971262 62.743193 4.613202 11.694628 23.435240 0.000000 0.000000 0.000000 -9.045234 -0.367092 -26.276986 18.569253 -5.369583 49.563700 -25.376647 -39.791674 13.171949 0.000000 0.000000 0.000000 12.570272 3.502627 4.888896 -12.207843 9.358556 5.289870 -4.802232 -12.857940 20.998139 1.721328 -3.156192 37.206332 0.000000 0.000000 0.000000 -32.756545 -29.013839 22.470236 -8.901745 -22.851722 -1.572096 -63.550658 -84.829554 62.898865 0.000000 0.000000 0.000000 14.077004 19.513189 7.167163 27.030357 30.914873 2.047136 19.502816 42.457377 8.218210 0.000000 0.000000 0.000000
0.103935 0.173603 -0.139465 9.678243 2.406483 -84.914655 9.114727 1.097553 -41.858747 -7.946815 2.862224 59.389006 1.523713 10.295577 32.855687 0.000000 0.000000 0.000000 -11.180993 -1.065547 -28.608145 19.635416 -6.099300 50.861778 -29.996396 -44.656505 14.148314 0.000000 0.000000 0.000000 14.634909 3.177131 9.271628 -12.700789 9.595835 1.429423 -6.974536 -13.910984 23.239152 2.631394 -5.169536 41.685173 0.000000 0.000000 0.000000 -33.806036 -27.107843 20.990015 -2.102520 -11.690790 -1.005158 -118.590666 -71.836973 103.286478 0.000000 0.000000 0.000000 17.967659 21.468523 8.020784 18.204813 28.173377 0.613202 24.607280 48.913844 11.360473 0.000000 0.000000 0.000000
0.113669 0.179740 -0.137846 9.556146 4.005138 -83.079726 11.452652 1.986465 -45.773794 -10.934622 4.412453 61.967326 1.388194 10.650953 33.852306 0.000000 0.000000 0.000000 -12.488807 -1.636523 -30.647857 18.587144 -5.880726 52.683405 -31.621951 -43.834340 22.158043 0.000000 0.000000 0.000000 15.242050 2.898056 10.913964 -12.644092 9.407972 0.596197 -7.763170 -15.168146 25.511152 3.287204 -6.248266 40.433942 0.000000 0.000000 0.000000 -32.336299 -22.650869 17.459941 2.730206 -5.600124 -0.033973 -113.226874 -61.429083 84.089151 0.000000 0.000000 0.000000 14.498802 20.208809 7.075112 15.388742 25.163453 0.004228 38.076212 56.222900 19.940775 0.000000 0.000000 0.000000
0.126368 0.193774 -0.134623 8.726695 5.206947 -80.764922 14.574353 3.285253 -50.787634 -16.136992 8.232941 71.752204 4.727310 13.409492 27.473473 0.000000 0.000000 0.000000 -14.211177 -2.489729 -32.664367 17.957285 -6.339452 57.619244 -25.740959 -43.335236 5.795240 0.000000 0.000000 0.000000 14.850156 2.363691 11.954400 -10.351394 7.567463 0.565183 -9.085151 -12.190521 26.797003 1.884229 -5.529061 40.656574 0.000000 0.000000 0.000000 -31.752585 -24.666065 17.304432 1.906881 0.934725 0.368352 -104.982211 -56.729476 69.711580 0.000000 0.000000 0.000000 18.009199 18.547560 7.054496 5.643253 14.243491 -0.731845 57.289308 55.906518 30.576270 0.000000 0.000000 0.000000
0.140360 0.213055 -0.130212 8.384200 6.222544 -78.954367 19.272485 5.771625 -53.027700 -22.996891 16.252951 87.462013 9.609849 18.612150 4.816703 0.000000 0.000000 0.000000 -15.188006 -3.096565 -34.462441 16.166528 -5.625888 62.879202 -20.623767 -38.087703 1.069153 0.000000 0.000000 0.000000 14.431311 2.056990 12.988892 -9.479113 6.947341 1.614875 -8.068627 -13.070720 27.807819 0.366802 -1.869183 36.933194 0.000000 0.000000 0.000000 -25.508073 -19.177563 12.445665 -4.433071 -1.280483 -0.939627 -94.121257 -52.151520 56.546362 0.000000 0.000000 0.000000 14.061575 15.841055 5.477094 6.764826 4.285325 -0.638303 69.181221 51.546870 33.918606 0.000000 0.000000 0.000000
0.153269 0.239227 -0.126372 7.946850 7.197186 -74.929644 25.569680 9.013849 -56.295362 -29.668361 31.719248 106.646791 11.854590 27.531267 -9.257202 0.000000 0.000000 0.000000 -17.631248 -4.375528 -37.706461 16.480684 -6.692886 67.995511 -16.080474 -33.432906 -6.521693 0.000000 0.000000 0.000000 13.931685 1.433702 14.413482 -9.176978 6.561179 -4.087980 -8.860139 -12.126363 31.431300 -0.049829 -1.836191 35.889251 0.000000 0.000000 0.000000 -26.529894 -18.411081 11.800589 -4.902799 0.090630 -1.064760 -82.403805 -47.919412 42.876746 0.000000 0.000000 0.000000 14.822352 14.082191 4.935724 6.537776 -9.169752 -0.873305 72.565653 46.826412 32.072066 0.000000 0.000000 0.000000
0.163560 0.259429 -0.124269 6.796690 8.096638 -72.332888 33.058928 12.513986 -56.112736 -20.324695 35.524932 135.601456 7.493520 20.585858 -20.836117 0.000000 0.000000 0.000000 -17.727205 -4.692311 -36.150341 17.950987 -8.869207 70.427865 -14.670736 -39.369813 -24.933633 0.000000 0.000000 0.000000 13.241147 1.261508 14.291167 -6.876740 5.132038 -2.243732 -8.590914 -12.468358 29.670995 -0.813575 -0.068268 34.227202 0.000000 0.000000 0.000000 -23.293300 -15.561653 9.507861 -11.124340 -4.539400 -2.053107 -69.249791 -45.507895 33.910140 0.000000 0.000000 0.000000 14.893287 11.135033 3.388278 9.965802 -16.267502 -1.962345 67.545877 40.133777 24.850863 0.000000 0.000000 0.000000
0.171556 0.285390 -0.128448 4.880477 8.331573 -68.200245 44.013247 16.536798 -52.096558 -9.352855 8.555440 156.343883 -0.324519 -9.678268 -17.000094 0.000000 0.000000 0.000000 -16.924342 -4.571152 -37.308423 20.479662 -13.665992 77.111418 -11.990504 -43.384340 -36.437722 0.000000 0.000000 0.000000 13.319371 0.675405 16.602867 -6.671578 5.573314 -4.053807 -7.342578 -14.885475 26.805627 -1.520454 2.425071 37.618858 0.000000 0.000000 0.000000 -29.160012 -16.411748 11.418587 -9.083154 -5.596178 -1.707361 -54.766798 -48.098057 27.056519 0.000000 0.000000 0.000000 19.915061 11.228261 2.252096 8.988209 -25.371279 -2.086828 62.228856 36.802420 20.287817 0.000000 0.000000 0.000000
0.178171 0.309731 -0.141873 3.716050 7.012558 -62.603491 51.066179 17.199810 -41.517517 -7.023940 -18.186406 156.818654 -17.822797 -35.811139 2.914033 0.000000 0.000000 0.000000 -14.595968 -3.336183 -40.562765 21.485785 -16.572439 81.744664 -11.304171 -42.795288 -36.516100 0.000000 0.000000 0.000000 14.760636 0.241621 18.340761 -7.604333 7.074174 0.545280 -2.517997 -18.455745 17.188472 -0.467387 3.736503 42.137350 0.000000 0.000000 0.000000 -35.305789 -18.257680 15.373738 -7.833347 -9.448315 -1.312905 -40.833271 -52.297644 21.484982 0.000000 0.000000 0.000000 22.613143 10.984875 -0.795862 10.282592 -29.769020 -2.103711 53.436920 32.453869 14.123864 0.000000 0.000000 0.000000
0.184542 0.351528 -0.165264 0.942556 6.949080 -55.787196 43.760750 11.530902 -32.500177 -8.693723 -2.605598 151.023499 -8.726309 -12.511596 10.006048 0.000000 0.000000 0.000000 -14.077990 -3.430271 -44.560621 22.710091 -19.511822 82.389103 -13.103846 -44.398821 -29.028937 0.000000 0.000000 0.000000 13.929756 -0.435846 20.153439 -5.996546 8.330047 -4.335002 -2.267488 -21.894141 17.665499 1.741532 3.529161 46.466704 0.000000 0.000000 0.000000 -42.142258 -16.345838 17.009204 -4.012429 -15.289699 -1.022703 -24.742506 -51.919731 11.857502 0.000000 0.000000 0.000000 29.829782 13.753237 -4.145114 9.269638 -31.335993 -0.110699 44.047551 31.077819 9.232304 0.000000 0.000000 0.000000
0.192026 0.416194 -0.193137 -1.488264 6.463285 -50.602459 29.931037 5.887639 -26.441628 -14.043450 17.292864 138.842729 9.281128 18.862861 6.952714 0.000000 0.000000 0.000000 -13.039707 -2.900838 -43.355788 22.070841 -17.882765 75.589130 -13.925998 -39.412359 -21.423241 0.000000 0.000000 0.000000 12.562773 -1.410837 24.008026 0.590151 1.179561 2.764070 -1.818874 -13.711609 -3.763655 -0.772521 3.467920 50.706846 0.000000 0.000000 0.000000 -43.181957 -18.059278 15.358313 -9.146480 -10.802604 0.635656 -31.096774 -50.784836 16.057146 0.000000 0.000000 0.000000 31.215373 12.946553 -3.556005 13.634368 -37.653712 0.816988 37.338987 30.466901 7.352378 0.000000 0.000000 0.000000
0.200411 0.500352 -0.217768 -1.325134 5.977216 -43.373505 21.326712 2.858815 -20.708616 -19.728074 22.370257 120.532403 17.016765 33.430207 1.951731 0.000000 0.000000 0.000000 -12.339914 -2.252255 -42.780028 23.687340 -18.124286 70.110852 -14.380920 -37.013620 -14.762739 0.000000 0.000000 0.000000 9.273229 -2.163735 28.050632 16.384533 -18.376379 -13.547221 -16.617259 7.488886 3.166384 -18.197519 4.311049 45.958242 0.000000 0.000000 0.000000 -38.009049 -18.618472 1.244053 -12.587107 -6.254212 2.422159 -36.535168 -49.404332 16.831277 0.000000 0.000000 0.000000 43.789734 13.810444 6.842258 17.100405 -32.508258 2.846210 20.071584 34.319685 2.164734 0.000000 0.000000 0.000000
0.208139 0.595591 -0.236607 -0.962496 3.451522 -36.919065 17.561847 1.819696 -16.032638 -22.668645 21.491117 101.708661 18.713134 38.690513 -6.068823 0.000000 0.000000 0.000000 -11.565511 -1.189689 -41.914550 24.929986 -17.145933 65.745129 -13.946293 -33.351531 -7.848856 0.000000 0.000000 0.000000 9.097704 -2.038665 26.267626 17.835277 -13.892538 -17.552774 -17.067139 6.997695 8.324063 -14.177739 6.062488 39.550783 0.000000 0.000000 0.000000 -39.830846 -18.889503 1.569564 -13.363508 -5.615649 0.398545 -38.659439 -44.131399 15.423687 0.000000 0.000000 0.000000 43.490112 11.186887 6.873663 19.696876 -28.364726 -3.320991 17.112984 28.063003 3.281225 0.000000 0.000000 0.000000
0.212884 0.720476 -0.249066 -0.985578 3.468302 -29.473305 13.408418 0.748433 -10.235160 -22.678173 15.155861 78.832770 16.248840 36.513580 -15.922427 0.000000 0.000000 0.000000 -12.505070 -1.309002 -36.479688 25.405571 -16.105763 59.396510 -12.245972 -27.504026 1.406579 0.000000 0.000000 0.000000 8.461976 -1.761709 22.015999 11.594118 -4.408051 -24.352320 -10.561819 -2.602512 23.016973 -8.967433 11.595903 33.039286 0.000000 0.000000 0.000000 -46.502660 -17.764263 9.439190 -13.054362 -10.458235 -1.307383 -29.312366 -42.539293 11.593361 0.000000 0.000000 0.000000 39.713884 12.985943 5.107560 21.736019 -27.386906 -6.877065 15.158037 23.065071 3.057509 0.000000 0.000000 0.000000
0.213837 0.813061 -0.256801 -1.315992 3.029655 -24.647635 11.769446 0.408090 -4.221635 -20.055948 9.457580 57.306476 15.026952 32.092289 -14.070532 0.000000 0.000000 0.000000 -13.208031 -1.209881 -30.508078 24.826907 -14.860052 56.221320 -10.293798 -23.408327 6.883495 0.000000 0.000000 0.000000 5.770590 -1.362840 19.423940 17.881462 -6.938220 -20.277424 -14.375683 1.074965 17.460243 -9.513237 9.792788 22.005037 0.000000 0.000000 0.000000 -42.407065 -15.718118 5.810088 -20.380212 -8.136880 -1.503676 -31.488959 -34.026729 10.376438 0.000000 0.000000 0.000000 37.084090 9.381186 5.062191 25.766060 -25.985228 -8.151330 14.616626 18.299810 2.470280 0.000000 0.000000 0.000000
0.211623 0.880198 -0.261079 -1.846617 4.855185 -18.980257 10.704439 0.130081 0.323630 -15.804223 4.697118 38.550267 13.028527 25.659002 -4.648397 0.000000 0.000000 0.000000 -13.327220 -1.070046 -23.700266 22.754343 -13.479336 52.316508 -9.877893 -22.585632 9.156967 0.000000 0.000000 0.000000 5.029530 -1.073839 15.180826 11.173302 -3.081480 -20.357871 -7.148440 -6.754477 21.991662 -9.584807 10.440310 9.807100 0.000000 0.000000 0.000000 -43.689308 -13.904249 9.616007 -25.435551 -12.037871 -2.448920 -25.115048 -30.264314 7.794325 0.000000 0.000000 0.000000 28.143915 7.516291 1.602457 33.851834 -26.011613 -10.983233 12.642028 15.038972 1.823439 0.000000 0.000000 0.000000
0.207416 0.920869 -0.263031 -2.501834 7.731303 -15.114922 9.529104 -0.051362 2.955787 -11.831967 2.150642 24.639632 10.463978 20.759821 4.301926 0.000000 0.000000 0.000000 -13.091326 -0.847032 -16.079414 18.312156 -10.828726 47.882540 -8.746680 -20.528400 10.402519 0.000000 0.000000 0.000000 3.967663 -0.766381 11.477816 9.405918 -2.153574 -20.229708 -5.730678 -9.532723 23.916524 -8.836241 8.364849 0.492994 0.000000 0.000000 0.000000 -40.658819 -12.841919 9.337209 -31.256709 -14.540880 -2.548828 -22.843551 -25.937726 6.299254 0.000000 0.000000 0.000000 25.034334 4.413620 -0.246736 37.639337 -25.768797 -12.344949 12.395923 11.286906 1.290138 0.000000 0.000000 0.000000
0.202212 0.936582 -0.264447 -2.788022 10.283152 -12.631582 9.405202 -0.201630 5.055004 -9.891024 1.298675 16.218245 7.376018 16.040735 7.014984 0.000000 0.000000 0.000000 -12.570761 -0.637294 -9.879699 13.970025 -8.748867 46.309164 -7.757501 -18.676356 12.926802 0.000000 0.000000 0.000000 3.148707 -0.596255 9.484725 8.259774 -1.659197 -19.880053 -4.848097 -11.490265 24.211802 -9.019529 7.667292 -5.977484 0.000000 0.000000 0.000000 -38.560787 -10.788949 7.808697 -34.348565 -16.357898 -2.261524 -23.206343 -23.501392 5.902219 0.000000 0.000000 0.000000 22.155265 2.342149 -1.264706 41.409748 -26.964428 -14.096340 11.772291 9.257765 0.980528 0.000000 0.000000 0.000000
0.195892 0.942154 -0.266667 -2.282467 12.271672 -10.784769 7.964377 -0.190493 5.324430 -7.503977 0.726777 11.473336 5.347644 13.161665 8.285651 0.000000 0.000000 0.000000 -12.041297 -0.502690 -3.594235 8.233204 -5.223221 42.082916 -6.311020 -16.000736 15.757686 0.000000 0.000000 0.000000 2.668596 -0.470639 7.962634 7.096983 -1.134050 -20.441742 -4.787821 -12.828482 25.413890 -8.640640 6.699891 -12.587811 0.000000 0.000000 0.000000 -36.833369 -10.561676 7.591891 -36.800892 -18.190392 -1.847566 -21.600392 -22.404887 5.355665 0.000000 0.000000 0.000000 20.085741 0.940137 -1.768639 44.890989 -26.229465 -15.260126 10.893937 7.328281 0.691198 0.000000 0.000000 0.000000
0.187073 0.935023 -0.270633 -1.693421 11.973134 -10.233799 7.677213 -0.161181 5.293784 -7.411281 0.725026 9.957195 6.221630 14.213209 7.053861 0.000000 0.000000 0.000000 -13.798261 -0.548863 0.999394 5.103092 -2.899086 38.132631 -5.705310 -15.087173 19.333879 0.000000 0.000000 0.000000 3.075910 -0.471547 7.668060 6.184474 -0.827832 -20.931125 -4.956635 -11.667239 26.054432 -7.911587 6.178509 -13.916878 0.000000 0.000000 0.000000 -36.034243 -10.256584 6.897768 -37.580215 -18.923036 -1.551710 -20.230023 -22.387915 5.088111 0.000000 0.000000 0.000000 21.078849 0.339598 -1.951483 45.064040 -24.149816 -14.617733 10.621798 6.009864 0.519935 0.000000 0.000000 0.000000
0.174149 0.927639 -0.276337 -0.720339 12.092563 -8.888733 7.459351 -0.160506 4.353340 -7.636076 0.749544 8.527783 6.574804 14.371539 5.359968 0.000000 0.000000 0.000000 -14.192617 -0.492634 5.220662 2.632113 -1.144228 30.907049 -4.959669 -13.850632 20.990854 0.000000 0.000000 0.000000 2.914020 -0.298626 5.413795 7.110176 -1.390119 -17.507373 -6.364776 -9.633101 22.415761 -5.271597 4.436758 -12.426366 0.000000 0.000000 0.000000 -35.269033 -11.879653 6.812766 -38.716118 -17.663913 -1.205251 -16.323902 -22.362395 4.196914 0.000000 0.000000 0.000000 21.216883 0.980929 -1.175556 47.083032 -22.698000 -14.506011 9.853324 4.469851 0.314293 0.000000 0.000000 0.000000
0.154852 0.920741 -0.284125 0.482156 10.364175 -8.858981 6.816731 -0.065936 4.156966 -6.903654 0.696095 8.507656 7.572762 15.923800 4.781704 0.000000 0.000000 0.000000 -14.514525 -0.360978 8.863792 1.558006 -0.234020 24.482987 -3.814286 -11.793315 16.299662 0.000000 0.000000 0.000000 3.026887 -0.355705 6.167446 4.904372 -0.611812 -19.178445 -5.765347 -7.993957 24.314100 -4.594025 4.012962 -16.125208 0.000000 0.000000 0.000000 -34.839814 -9.904758 5.231041 -38.825274 -18.741850 -0.998456 -15.447485 -22.355242 4.032927 0.000000 0.000000 0.000000 21.407703 1.361912 -0.767616 47.917726 -18.200679 -13.349869 9.387530 3.586368 0.203411 0.000000 0.000000 0.000000
0.127574 0.919729 -0.295704 0.639526 8.698773 -7.993907 7.218485 -0.066174 3.725691 -5.081655 0.469129 6.168990 8.002604 17.002227 6.661522 0.000000 0.000000 0.000000 -13.004123 -0.315571 11.746915 1.511284 -0.018720 15.931704 -3.982413 -11.803517 11.798245 0.000000 0.000000 0.000000 3.079546 -0.339906 5.820670 5.843662 -1.112755 -17.320385 -6.788435 -6.120573 21.686936 -3.909096 3.658382 -17.154009 0.000000 0.000000 0.000000 -33.686528 -8.094390 3.315132 -39.172320 -18.241535 -0.724279 -15.256166 -21.643177 3.820317 0.000000 0.000000 0.000000 21.437672 3.121930 0.343724 49.337694 -15.363034 -12.445476 8.461978 5.354552 0.383068 0.000000 0.000000 0.000000
0.094813 0.922612 -0.311630 0.623839 6.119027 -7.741811 8.470107 -0.071555 3.616902 -3.759335 0.340912 4.200426 8.392170 18.152506 11.083385 0.000000 0.000000 0.000000 -11.622061 -0.258054 12.056376 2.395302 -0.171599 11.235409 -3.441178 -10.460991 8.374608 0.000000 0.000000 0.000000 3.222861 -0.397508 6.510971 4.395579 -0.679860 -18.126388 -5.537037 -4.575748 23.206901 -5.010227 4.427750 -18.586946 0.000000 0.000000 0.000000 -34.201021 -7.545046 3.090677 -37.174367 -19.327488 -0.621643 -13.714360 -20.841243 3.369475 0.000000 0.000000 0.000000 21.892120 5.163995 1.515527 49.038324 -11.217661 -10.975642 7.894877 8.278361 0.674048 0.000000 0.000000 0.000000
0.061954 0.932588 -0.330666 0.577624 3.431212 -5.719737 10.454308 -0.110479 0.587287 -3.728729 0.368097 3.896279 8.583669 18.814364 18.108973 0.000000 0.000000 0.000000 -9.657073 -0.169755 8.776364 3.037095 -0.268125 9.144118 -3.642662 -10.991036 8.346215 0.000000 0.000000 0.000000 2.949242 -0.475701 7.572604 5.224950 -0.892766 -19.922867 -6.109476 -2.515239 22.062562 -4.634490 4.256722 -17.944662 0.000000 0.000000 0.000000 -34.673374 -6.487063 2.073288 -36.082857 -15.944751 -1.443431 -13.775294 -20.673088 3.333581 0.000000 0.000000 0.000000 23.734551 6.803212 2.525650 45.558648 -8.302460 -9.056895 9.896337 12.007760 1.239559 0.000000 0.000000 0.000000
0.034714 0.943219 -0.347564 1.079185 2.182425 -4.297122 9.927957 -0.098983 -1.941351 -1.617666 0.070824 4.562596 7.600595 17.702755 22.759252 0.000000 0.000000 0.000000 -8.397661 -0.121775 6.541840 2.416046 -0.150007 7.414067 -2.571931 -9.236991 9.977011 0.000000 0.000000 0.000000 2.048703 -0.381036 6.756028 5.232152 -1.003074 -18.914775 -6.170512 -2.521838 20.689651 -4.984958 4.351554 -20.269517 0.000000 0.000000 0.000000 -35.288557 -5.387548 1.542262 -36.086442 -14.311855 -1.876830 -13.096604 -18.695430 2.894347 0.000000 0.000000 0.000000 23.174029 8.899736 3.455226 45.824640 -6.301227 -8.204514 10.922985 16.597587 1.940426 0.000000 0.000000 0.000000
0.015496 0.951700 -0.359558 1.551857 -0.319146 -3.449075 7.383361 -0.095309 -2.484812 0.367958 -0.282963 6.431983 4.964781 14.164035 23.915610 0.000000 0.000000 0.000000 -6.976980 -0.099853 5.824032 0.289797 0.181670 5.622483 -0.749903 -5.576573 9.056803 0.000000 0.000000 0.000000 1.889140 -0.388933 7.025394 4.971894 -0.812839 -21.555308 -6.042602 -1.459383 22.800368 -5.134336 4.397473 -21.319555 0.000000 0.000000 0.000000 -35.835449 -4.200696 1.124303 -36.851352 -11.515747 -2.984207 -13.987655 -17.410857 2.851741 0.000000 0.000000 0.000000 23.135547 9.336827 3.588404 44.585378 -3.871938 -7.315711 11.264100 19.996846 2.455244 0.000000 0.000000 0.000000
0.002438 0.957906 -0.367832 1.882376 -1.182512 -3.695565 4.110518 -0.066067 -1.071374 0.034728 -0.345004 10.262627 -0.602092 6.524865 22.465842 0.000000 0.000000 0.000000 -5.949314 -0.128937 5.339674 -0.294999 0.212294 4.174672 -1.036435 -7.433372 12.880188 0.000000 0.000000 0.000000 1.751237 -0.426990 7.953537 4.161698 -0.572290 -22.330131 -5.355787 -0.709628 23.859082 -3.024903 3.096811 -22.586614 0.000000 0.000000 0.000000 -35.534544 -4.997785 1.759263 -39.098754 -9.397298 -3.811421 -13.027825 -15.047960 2.317580 0.000000 0.000000 0.000000 23.148887 8.798935 3.349930 44.917154 -2.366192 -6.999872 10.452716 22.421331 2.676630 0.000000 0.000000 0.000000
-0.006931 0.961228 -0.374422 1.568914 -2.218440 -3.495500 2.223567 0.084157 1.126241 -1.993239 0.073561 12.227713 -0.286444 5.604399 17.871558 0.000000 0.000000 0.000000 -4.500657 -0.226042 5.730481 -1.054715 0.199312 1.809233 -0.839897 -7.539291 13.991058 0.000000 0.000000 0.000000 2.016084 -0.434522 7.761481 3.893328 -0.525026 -22.453864 -5.003938 0.023584 24.057087 -2.430269 2.696952 -20.355959 0.000000 0.000000 0.000000 -35.179600 -4.149906 1.147601 -40.601506 -6.161900 -4.929641 -12.284378 -13.798245 2.034853 0.000000 0.000000 0.000000 23.580134 9.481473 3.782611 45.305748 -2.018778 -6.963173 8.817044 22.947453 2.450798 0.000000 0.000000 0.000000
-0.014219 0.962725 -0.380887 0.802416 -1.846038 -2.530484 1.447242 0.272990 3.416592 -2.115095 0.127951 8.728438 2.719616 9.189898 13.497680 0.000000 0.000000 0.000000 -2.886406 -0.267715 4.618500 -1.339183 0.193109 1.040072 -1.133789 -8.323990 15.182592 0.000000 0.000000 0.000000 2.017380 -0.453687 7.930270 5.205111 -0.837866 -22.599948 -5.301620 0.056752 23.382834 -2.247490 2.620856 -20.104241 0.000000 0.000000 0.000000 -35.360356 -4.161371 0.930687 -40.727363 -3.724457 -5.563899 -12.949529 -13.850347 2.119939 0.000000 0.000000 0.000000 24.778698 9.740744 4.052806 44.242583 -3.155016 -7.126047 6.170750 24.236243 2.085074 0.000000 0.000000 0.000000
-0.020039 0.963099 -0.388388 0.172413 -2.136480 -1.265961 1.264796 0.380420 4.660429 -1.023065 0.035821 3.465197 4.008451 11.190297 13.630532 0.000000 0.000000 0.000000 -2.002052 -0.210200 3.256956 -1.008331 0.138991 0.718781 -0.831383 -7.536495 14.163403 0.000000 0.000000 0.000000 2.042286 -0.455960 7.746367 4.936527 -0.812047 -22.019161 -4.648938 0.127203 21.934513 -1.334340 1.964399 -18.726668 0.000000 0.000000 0.000000 -35.375453 -4.939173 1.446839 -40.888206 -1.944699 -5.993188 -11.993963 -14.179996 2.047582 0.000000 0.000000 0.000000 25.850540 9.426487 3.798420 43.396315 -2.802111 -6.718127 4.931320 23.980173 1.807487 0.000000 0.000000 0.000000
-0.024600 0.963800 -0.396831 -0.310806 -2.409812 -0.883355 2.003424 0.393662 5.265432 -0.601292 0.045643 0.845484 3.525445 10.495960 14.132396 0.000000 0.000000 0.000000 -1.437749 -0.192144 2.703823 -0.642547 0.089366 0.516340 -0.397882 -6.563102 13.426414 0.000000 0.000000 0.000000 2.084386 -0.488540 8.208810 4.593155 -0.648003 -23.100578 -3.686480 0.395710 22.605447 -1.002896 1.741771 -18.610868 0.000000 0.000000 0.000000 -34.294830 -5.322505 1.826374 -42.143647 -1.726197 -6.309993 -11.375317 -15.075624 2.118639 0.000000 0.000000 0.000000 24.100153 8.659255 3.377438 46.015769 -2.387579 -7.089243 3.141267 22.657093 1.402935 0.000000 0.000000 0.000000
-0.027738 0.966866 -0.405310 -0.125021 -1.735170 -1.562230 2.686902 0.410169 6.038598 -0.714747 0.099393 -0.667061 1.570032 7.985102 16.021662 0.000000 0.000000 0.000000 -1.128998 -0.239415 3.014197 -0.515713 0.053743 0.010393 -1.336796 -8.624245 15.094777 0.000000 0.000000 0.000000 1.101695 -0.487638 9.798415 4.724780 -0.689210 -22.791852 -2.946897 0.319220 22.235168 -0.326615 1.268051 -17.370081 0.000000 0.000000 0.000000 -33.113150 -6.659141 2.634061 -43.069522 -2.454741 -6.125345 -9.970326 -15.013164 1.913164 0.000000 0.000000 0.000000 24.729142 8.477588 3.367415 45.861186 -0.705836 -6.484410 3.288764 20.588956 1.284701 0.000000 0.000000 0.000000
