HIERARCHY
ROOT Hips
{
	OFFSET -0.001795 -0.223333 0.028219
	CHANNELS 6 Xposition Yposition Zposition Zrotation Yrotation Xrotation
	JOINT LeftUpLeg
	{
		OFFSET 0.069520 -0.091406 -0.006815
		CHANNELS 3 Zrotation Yrotation Xrotation
		JOINT LeftLeg
		{
			OFFSET 0.034277 -0.375199 -0.004496
			CHANNELS 3 Zrotation Yrotation Xrotation
			JOINT LeftFoot
			{
				OFFSET -0.013596 -0.397961 -0.043693
				CHANNELS 3 Zrotation Yrotation Xrotation
				JOINT LeftToe
				{
					OFFSET 0.026358 -0.055791 0.119288
					CHANNELS 3 Zrotation Yrotation Xrotation
					End Site
					{
						OFFSET 0.000000 0.000000 0.000000
					}
				}
			}
		}
	}
	JOINT RightUpLeg
	{
		OFFSET -0.067670 -0.090522 -0.004320
		CHANNELS 3 Zrotation Yrotation Xrotation
		JOINT RightLeg
		{
			OFFSET -0.038290 -0.382569 -0.008850
			CHANNELS 3 Zrotation Yrotation Xrotation
			JOINT RightFoot
			{
				OFFSET 0.015774 -0.398415 -0.042312
				CHANNELS 3 Zrotation Yrotation Xrotation
				JOINT RightToe
				{
					OFFSET -0.025372 -0.048144 0.123348
					CHANNELS 3 Zrotation Yrotation Xrotation
					End Site
					{
						OFFSET 0.000000 0.000000 0.000000
					}
				}
			}
		}
	}
	JOINT Spine
	{
		OFFSET -0.002533 0.108963 -0.026696
		CHANNELS 3 Zrotation Yrotation Xrotation
		JOINT Spine1
		{
			OFFSET 0.005487 0.135180 0.001092
			CHANNELS 3 Zrotation Yrotation Xrotation
			JOINT Spine2
			{
				OFFSET 0.001457 0.052922 0.025425
				CHANNELS 3 Zrotation Yrotation Xrotation
				JOINT Neck
				{
					OFFSET -0.002778 0.213870 -0.042857
					CHANNELS 3 Zrotation Yrotation Xrotation
					JOINT Head
					{
						OFFSET 0.005152 0.064970 0.051349
						CHANNELS 3 Zrotation Yrotation Xrotation
						End Site
						{
							OFFSET 0.000000 0.000000 0.000000
						}
					}
				}
				JOINT LeftShoulder
				{
					OFFSET 0.078845 0.121749 -0.034090
					CHANNELS 3 Zrotation Yrotation Xrotation
					JOINT LeftArm
					{
						OFFSET 0.090977 0.030469 -0.008868
						CHANNELS 3 Zrotation Yrotation Xrotation
						JOINT LeftForeArm
						{
							OFFSET 0.259612 -0.012772 -0.027456
							CHANNELS 3 Zrotation Yrotation Xrotation
							JOINT LeftHand
							{
								OFFSET 0.249234 0.008986 -0.001171
								CHANNELS 3 Zrotation Yrotation Xrotation
								End Site
								{
									OFFSET 0.000000 0.000000 0.000000
								}
							}
						}
					}
				}
				JOINT RightShoulder
				{
					OFFSET -0.081759 0.118833 -0.038615
					CHANNELS 3 Zrotation Yrotation Xrotation
					JOINT RightArm
					{
						OFFSET -0.096012 0.032551 -0.009143
						CHANNELS 3 Zrotation Yrotation Xrotation
						JOINT RightForeArm
						{
							OFFSET -0.253742 -0.013329 -0.021401
							CHANNELS 3 Zrotation Yrotation Xrotation
							JOINT RightHand
							{
								OFFSET -0.255298 0.007772 -0.005559
								CHANNELS 3 Zrotation Yrotation Xrotation
								End Site
								{
									OFFSET 0.000000 0.000000 0.000000
								}
							}
						}
					}
				}
			}
		}
	}
}
MOTION
Frames: 76
Frame Time: 0.050000
0.000000 0.966718 0.000000 -0.309070 -7.284430 3.183498 2.103494 0.198411 2.647359 -2.396227 0.489098 -10.613734 2.202858 8.610328 18.787244 0.000000 0.000000 0.000000 -2.918655 0.055354 1.144410 3.543667 -0.341076 -6.361480 3.331577 -3.883797 21.481790 0.000000 0.000000 0.000000 6.771354 -0.436443 3.371673 -5.610930 1.832446 -22.911546 -1.322272 7.961351 26.214617 11.250567 -3.848013 -29.040028 0.000000 0.000000 0.000000 -26.371096 -14.368593 6.287415 -46.064739 -6.067312 -4.972843 -10.901653 -21.356802 2.884627 0.000000 0.000000 0.000000 36.296008 1.524422 -0.013769 48.607171 7.381600 -4.459284 9.329209 22.606140 2.780107 0.000000 0.000000 0.000000
-0.000181 0.965097 0.000390 -0.307991 -7.498697 3.809546 2.528408 0.150897 2.211650 -3.128459 0.519716 -10.781201 2.236189 8.518460 18.184981 0.000000 0.000000 0.000000 -2.657177 0.132459 -0.111387 3.200950 -0.324086 -5.426560 2.966803 -4.270674 20.831787 0.000000 0.000000 0.000000 6.923188 -0.374978 2.568422 -5.596096 1.824523 -22.494634 -1.833962 7.143506 25.929952 12.252812 -4.580191 -28.866103 0.000000 0.000000 0.000000 -25.757481 -13.970776 6.383786 -46.725317 -6.591058 -4.952075 -10.223520 -21.158764 2.756157 0.000000 0.000000 0.000000 35.615159 1.857001 -0.272878 49.932735 6.019251 -4.860251 10.060484 24.324882 3.148276 0.000000 0.000000 0.000000
-0.000353 0.964305 0.000548 -0.014976 -7.418755 3.783548 2.873464 0.104281 1.690197 -3.903667 0.525977 -9.260442 1.551021 7.194121 16.483358 0.000000 0.000000 0.000000 -2.320737 0.105840 0.023879 2.741178 -0.310498 -5.807929 1.646372 -6.266268 20.594326 0.000000 0.000000 0.000000 7.010136 -0.401642 2.810246 -5.859285 1.883002 -23.335188 -1.518423 6.733307 26.872487 11.617811 -4.363945 -28.786857 0.000000 0.000000 0.000000 -25.678012 -14.163059 6.692737 -46.237929 -6.916642 -4.917066 -10.948953 -19.941185 2.714785 0.000000 0.000000 0.000000 35.739799 2.343551 -0.047538 49.647376 5.632438 -5.042615 9.358481 23.890744 2.937138 0.000000 0.000000 0.000000
-0.000580 0.964744 0.000659 0.050454 -8.322691 4.390874 2.914232 0.113163 1.796529 -3.872727 0.543955 -9.897357 1.231330 6.479727 16.058128 0.000000 0.000000 0.000000 -2.697060 0.165291 -0.438251 3.476531 -0.323567 -6.418871 1.584987 -6.633779 20.922520 0.000000 0.000000 0.000000 7.104549 -0.393067 2.593343 -5.545125 1.778598 -23.841371 -1.886686 7.189608 27.052227 12.208676 -4.591893 -29.471079 0.000000 0.000000 0.000000 -25.809905 -14.413835 6.947056 -46.208590 -6.335350 -5.153321 -11.271540 -20.403110 2.845251 0.000000 0.000000 0.000000 37.047700 2.297408 -0.259360 48.923110 5.282290 -5.106245 9.524293 23.230055 2.865740 0.000000 0.000000 0.000000
-0.000790 0.964141 0.000766 0.015708 -8.904959 4.135324 2.871827 0.144014 2.116251 -3.357677 0.511806 -8.979366 0.766056 5.269393 14.160312 0.000000 0.000000 0.000000 -2.648795 0.150490 -0.236733 3.413225 -0.314719 -6.651033 1.782503 -6.582897 21.363138 0.000000 0.000000 0.000000 7.013666 -0.412075 2.885144 -5.102704 1.665999 -23.003062 -2.041134 6.758954 26.405887 11.806407 -4.693538 -28.197166 0.000000 0.000000 0.000000 -26.191459 -14.017025 6.980396 -46.304500 -6.190257 -5.223746 -11.231256 -20.261101 2.828141 0.000000 0.000000 0.000000 36.558758 2.732778 -0.354771 48.836524 4.997303 -5.002010 9.598313 22.650592 2.750680 0.000000 0.000000 0.000000
-0.001045 0.964489 0.000819 0.223695 -9.209929 3.777552 2.688642 0.196143 2.679875 -3.174182 0.504539 -8.929892 0.392742 4.539352 13.751381 0.000000 0.000000 0.000000 -2.848170 0.139970 0.076703 3.524081 -0.313745 -6.622551 1.625578 -6.846913 21.270341 0.000000 0.000000 0.000000 6.787638 -0.472927 3.677594 -4.864559 1.598874 -23.547630 -2.122017 6.638812 26.702446 11.749005 -4.644890 -28.637570 0.000000 0.000000 0.000000 -26.322060 -14.079107 7.163618 -46.150585 -5.979403 -5.347399 -11.563916 -20.683267 2.957087 0.000000 0.000000 0.000000 36.716548 2.843527 -0.442040 48.698104 4.967157 -4.980562 9.123084 22.435160 2.621803 0.000000 0.000000 0.000000
-0.001320 0.964409 0.000760 0.183954 -9.187211 3.593539 2.702155 0.202902 2.754543 -3.060556 0.491705 -8.600766 0.367355 4.426177 13.419540 0.000000 0.000000 0.000000 -2.653916 0.104888 0.415643 3.606806 -0.314837 -6.974610 1.057016 -7.777281 21.479960 0.000000 0.000000 0.000000 7.002588 -0.520624 4.113972 -4.833358 1.592898 -23.370979 -2.233067 6.357219 26.675725 11.786981 -4.724479 -28.540164 0.000000 0.000000 0.000000 -26.641655 -13.863807 7.143265 -45.991042 -5.913301 -5.379619 -11.584692 -21.217061 3.050283 0.000000 0.000000 0.000000 36.476487 2.798317 -0.593302 48.898910 4.774907 -5.030718 8.987284 22.465582 2.594750 0.000000 0.000000 0.000000
-0.001621 0.964239 0.000694 0.110249 -9.468326 3.463474 2.688927 0.213153 2.841580 -2.935522 0.488918 -8.674209 0.594968 4.854924 13.835956 0.000000 0.000000 0.000000 -2.596846 0.090019 0.599343 3.844392 -0.314037 -7.173288 0.832823 -8.202972 21.608004 0.000000 0.000000 0.000000 7.122912 -0.553942 4.438595 -4.756471 1.568155 -23.254318 -2.387160 6.478822 26.435225 11.772310 -4.761748 -28.253932 0.000000 0.000000 0.000000 -26.628082 -13.925697 7.179534 -45.818844 -5.648711 -5.435579 -12.000933 -21.915751 3.236979 0.000000 0.000000 0.000000 36.493106 2.779746 -0.644310 48.800852 4.679386 -5.030949 8.866316 22.389557 2.556691 0.000000 0.000000 0.000000
-0.001976 0.964058 0.000685 0.066982 -9.578019 3.425336 2.653407 0.223101 2.941990 -2.900942 0.491172 -8.818720 0.852143 5.282112 13.948542 0.000000 0.000000 0.000000 -2.654591 0.092604 0.618311 4.062779 -0.315122 -7.247699 0.849233 -8.266167 21.846799 0.000000 0.000000 0.000000 7.196093 -0.580036 4.683958 -4.723828 1.557177 -23.477757 -2.389505 6.590119 26.415567 11.674503 -4.702744 -28.227155 0.000000 0.000000 0.000000 -26.699137 -13.759338 7.060479 -45.668461 -5.818341 -5.352745 -11.805162 -22.306073 3.260510 0.000000 0.000000 0.000000 36.275899 2.410945 -0.891664 48.478361 4.574223 -5.047933 9.315899 22.312870 2.626670 0.000000 0.000000 0.000000
-0.002352 0.964012 0.000784 0.075771 -9.840879 3.190051 2.674370 0.236306 3.065600 -2.904928 0.490681 -8.667932 0.944763 5.452217 14.204370 0.000000 0.000000 0.000000 -2.599813 0.071949 0.885911 4.213150 -0.312271 -7.343018 0.506822 -8.811105 21.803672 0.000000 0.000000 0.000000 7.264478 -0.616420 5.087577 -4.629355 1.529110 -23.832337 -2.414252 7.050361 26.586634 11.493845 -4.605542 -27.989130 0.000000 0.000000 0.000000 -26.521943 -13.801115 6.970088 -45.664912 -5.732494 -5.372345 -11.891774 -23.104127 3.400343 0.000000 0.000000 0.000000 36.215374 2.187115 -0.906250 47.993134 4.394427 -5.136477 9.461783 22.680242 2.709609 0.000000 0.000000 0.000000
-0.002830 0.964176 0.001019 0.176090 -9.767323 2.917098 2.575206 0.245444 3.132497 -2.833185 0.484720 -8.602487 0.940954 5.590762 14.848614 0.000000 0.000000 0.000000 -2.575837 0.044715 1.247814 4.355249 -0.315170 -7.375349 -0.074868 -9.589553 21.540193 0.000000 0.000000 0.000000 7.203489 -0.625930 5.276344 -4.813200 1.576614 -23.992480 -2.342108 7.150766 26.770684 11.439562 -4.560404 -27.991371 0.000000 0.000000 0.000000 -26.480050 -13.785984 6.910451 -45.617947 -5.852293 -5.330101 -11.620412 -23.877549 3.468343 0.000000 0.000000 0.000000 36.055330 2.005758 -0.944369 47.818475 4.445961 -5.144202 9.278871 22.769878 2.693879 0.000000 0.000000 0.000000
-0.003390 0.964473 0.001418 0.294530 -9.881107 2.639889 2.563474 0.234671 2.962043 -2.776883 0.473198 -8.177288 0.786033 5.514947 15.748474 0.000000 0.000000 0.000000 -2.469950 0.025640 1.427934 4.403773 -0.315497 -7.234173 -0.813923 -10.691319 21.477001 0.000000 0.000000 0.000000 6.977639 -0.635400 5.568637 -4.798187 1.570211 -24.256018 -2.165681 7.531226 26.955202 11.460439 -4.601944 -27.638319 0.000000 0.000000 0.000000 -26.689075 -13.847085 6.857520 -45.333071 -5.794697 -5.313328 -11.546262 -24.419351 3.530283 0.000000 0.000000 0.000000 36.444961 1.911051 -0.883968 47.198414 4.396421 -5.176499 9.202199 23.281844 2.757782 0.000000 0.000000 0.000000
-0.004173 0.964798 0.001906 0.344702 -9.994733 2.455807 2.618318 0.223900 2.816240 -2.700264 0.460049 -7.756105 0.605263 5.334718 16.315381 0.000000 0.000000 0.000000 -2.483142 0.016138 1.584852 4.633145 -0.317306 -7.184033 -1.198152 -11.291151 21.551448 0.000000 0.000000 0.000000 6.799295 -0.628418 5.644665 -4.698745 1.544626 -24.180072 -2.133084 7.912376 26.786991 11.612631 -4.627629 -27.659592 0.000000 0.000000 0.000000 -26.578385 -13.851736 6.722588 -45.244600 -5.324775 -5.421644 -11.630968 -25.420080 3.698265 0.000000 0.000000 0.000000 36.290864 1.677669 -0.889150 47.158728 4.264954 -5.258319 9.165573 23.697226 2.819340 0.000000 0.000000 0.000000
-0.005032 0.964988 0.002492 0.283658 -10.340024 2.398702 2.491429 0.206311 2.537132 -2.514401 0.441249 -7.368566 1.217143 6.351855 16.986300 0.000000 0.000000 0.000000 -2.251996 -0.002658 1.664312 4.796572 -0.314688 -7.092566 -1.726372 -12.032160 21.177296 0.000000 0.000000 0.000000 6.724591 -0.617204 5.592725 -4.751366 1.550921 -24.296094 -1.869391 8.525542 26.669052 11.800274 -4.747061 -27.217446 0.000000 0.000000 0.000000 -26.436862 -13.995950 6.650886 -45.146008 -5.022879 -5.462702 -12.108726 -26.248166 3.927722 0.000000 0.000000 0.000000 36.234978 1.555407 -0.784658 47.173564 4.196201 -5.332294 9.154449 24.359423 2.924481 0.000000 0.000000 0.000000
-0.005860 0.965125 0.003028 0.216581 -10.730541 2.275084 2.359983 0.195140 2.335026 -2.331295 0.423845 -7.076438 1.922599 7.515856 17.905617 0.000000 0.000000 0.000000 -2.185823 -0.007165 1.695840 4.866907 -0.316104 -6.638938 -1.507728 -11.610498 20.504228 0.000000 0.000000 0.000000 6.565605 -0.600231 5.540872 -4.765624 1.546472 -24.433319 -1.382701 9.455493 26.814063 11.871876 -4.699343 -27.146074 0.000000 0.000000 0.000000 -26.281272 -14.274523 6.573040 -45.016966 -4.685552 -5.507406 -12.040397 -27.280566 4.057056 0.000000 0.000000 0.000000 36.493642 1.443220 -0.530215 46.884644 4.266678 -5.401570 8.888991 25.136977 3.008322 0.000000 0.000000 0.000000
-0.006517 0.965483 0.003386 0.407074 -10.870316 2.029112 2.072283 0.120645 1.378399 -2.613566 0.422389 -5.952190 3.280113 9.766479 19.933908 0.000000 0.000000 0.000000 -1.940926 -0.054541 2.149028 4.958081 -0.318078 -6.468884 -2.640941 -12.970219 18.979740 0.000000 0.000000 0.000000 6.449334 -0.571457 5.340845 -5.001350 1.601641 -24.306098 -1.244584 9.870149 26.796858 11.433729 -4.551537 -26.271753 0.000000 0.000000 0.000000 -25.895590 -14.220763 6.394319 -45.063783 -4.552081 -5.530072 -12.055933 -27.682789 4.112265 0.000000 0.000000 0.000000 36.811981 1.455137 -0.356047 47.005411 3.984314 -5.580334 9.025895 25.667701 3.133923 0.000000 0.000000 0.000000
-0.007324 0.965467 0.003536 0.535500 -10.727039 2.069001 1.884377 0.006821 0.009384 -2.716533 0.409019 -4.709863 4.384971 11.557562 22.080450 0.000000 0.000000 0.000000 -1.915684 -0.086902 2.590800 4.857945 -0.314667 -6.726349 -2.570400 -12.557359 17.779055 0.000000 0.000000 0.000000 6.543691 -0.550032 5.031195 -5.419406 1.706628 -24.514609 -1.143095 10.225308 27.035756 11.175739 -4.421474 -25.805093 0.000000 0.000000 0.000000 -25.238088 -14.379614 6.310189 -45.522602 -4.505839 -5.584475 -12.009975 -27.843932 4.115749 0.000000 0.000000 0.000000 37.180527 1.394437 -0.164223 46.964069 4.136035 -5.625627 9.413869 25.643652 3.238673 0.000000 0.000000 0.000000
-0.008390 0.965419 0.003588 0.608179 -9.984028 2.098999 1.846767 -0.144780 -1.867591 -2.853645 0.394490 -2.757057 5.383524 13.189480 24.485177 0.000000 0.000000 0.000000 -1.350942 -0.155859 2.895001 4.509688 -0.319738 -6.869977 -3.629949 -13.944401 16.988039 0.000000 0.000000 0.000000 6.506170 -0.534251 4.840867 -5.523057 1.743940 -24.468079 -1.055384 10.070040 26.883417 10.402430 -3.971099 -25.428727 0.000000 0.000000 0.000000 -24.905049 -14.272060 6.102747 -45.763644 -4.884034 -5.438887 -11.881951 -27.257506 3.980390 0.000000 0.000000 0.000000 37.398280 1.206465 -0.141829 47.250330 4.351551 -5.621435 9.474416 25.455759 3.244422 0.000000 0.000000 0.000000
-0.009834 0.965129 0.004502 0.487785 -9.672960 1.601092 2.110028 -0.330919 -4.577628 -3.634360 0.486035 1.094728 8.580660 17.368050 29.399358 0.000000 0.000000 0.000000 -0.971694 -0.280157 4.133066 4.703535 -0.324706 -7.169519 -4.054034 -14.267933 15.546294 0.000000 0.000000 0.000000 6.563379 -0.574049 5.346150 -5.369363 1.715819 -24.313021 -0.940764 10.385936 27.045397 9.596946 -3.534589 -24.654450 0.000000 0.000000 0.000000 -24.721902 -13.991996 5.727660 -45.918870 -5.059001 -5.361673 -13.018927 -26.551627 4.118781 0.000000 0.000000 0.000000 37.753995 1.755315 0.590320 46.933653 5.208433 -5.408446 9.510889 24.339827 3.091917 0.000000 0.000000 0.000000
-0.011409 0.965211 0.006987 0.252903 -9.702101 1.878294 2.401210 -0.532228 -8.025658 -4.355942 0.632344 3.729852 14.662603 23.344168 40.276609 0.000000 0.000000 0.000000 -0.225033 -0.364319 4.403578 4.822874 -0.331863 -6.748892 -4.752692 -14.965725 13.325695 0.000000 0.000000 0.000000 6.740150 -0.581249 5.262630 -4.762885 1.558833 -24.569138 -0.768710 11.360337 26.799994 8.767876 -2.848263 -24.663335 0.000000 0.000000 0.000000 -25.319456 -12.826790 4.668215 -46.484057 -4.252714 -5.593731 -13.059246 -25.885865 3.996678 0.000000 0.000000 0.000000 37.219450 1.406277 0.838645 47.316267 5.688586 -5.394775 10.490951 23.371632 3.170467 0.000000 0.000000 0.000000
-0.013091 0.964794 0.012277 0.468049 -10.172264 1.440955 1.605246 -0.807889 -11.645371 -4.538359 0.709523 5.434445 30.773018 31.770659 65.339418 0.000000 0.000000 0.000000 -0.370450 -0.462308 5.909521 4.868290 -0.332182 -6.314615 -4.217525 -13.305763 10.021331 0.000000 0.000000 0.000000 7.395638 -0.615783 5.416767 -5.328831 1.695778 -24.696955 -0.043384 12.972889 26.926903 8.034842 -2.204413 -24.401349 0.000000 0.000000 0.000000 -26.188655 -12.610240 4.008523 -45.943650 -3.539192 -5.604218 -13.824640 -24.229161 3.834979 0.000000 0.000000 0.000000 36.632620 1.015158 1.257273 48.139232 7.111647 -5.145741 10.867820 22.520670 3.161870 0.000000 0.000000 0.000000
-0.015407 0.964760 0.020398 0.294682 -10.635125 0.750157 1.383754 -0.995256 -14.821091 -5.208193 0.838276 5.270119 41.132364 34.325573 77.343654 0.000000 0.000000 0.000000 -0.384078 -0.603422 7.985342 5.086388 -0.338637 -5.815730 -3.442704 -11.015668 7.127493 0.000000 0.000000 0.000000 8.118934 -0.726653 6.378049 -4.458523 1.485727 -25.473013 0.133820 15.660570 27.561213 8.793243 -2.101175 -25.398809 0.000000 0.000000 0.000000 -25.777457 -12.030530 2.740874 -48.014586 -1.965901 -6.257916 -13.277526 -23.803911 3.571012 0.000000 0.000000 0.000000 35.924882 0.830110 2.360135 49.514231 9.589238 -4.668302 10.610180 21.822997 3.078062 0.000000 0.000000 0.000000
-0.019237 0.965278 0.030309 0.313559 -11.492341 0.395160 0.821116 -1.212484 -18.012781 -5.704139 0.924220 4.606003 41.291599 34.893523 74.839275 0.000000 0.000000 0.000000 -0.486015 -0.637933 8.932202 4.685391 -0.334193 -4.482787 -2.527029 -8.473520 5.138124 0.000000 0.000000 0.000000 8.400131 -0.796216 7.070831 -4.810477 1.558264 -25.877539 1.272016 17.628863 27.955093 8.149999 -1.558485 -24.708140 0.000000 0.000000 0.000000 -26.844669 -11.022316 1.461312 -48.433101 -0.805408 -6.566695 -12.782691 -22.565842 3.233950 0.000000 0.000000 0.000000 35.083983 1.528069 3.548827 50.311359 11.699915 -4.033293 9.863077 22.575505 3.098979 0.000000 0.000000 0.000000
-0.025392 0.965731 0.042378 0.344769 -13.001795 -0.390580 -0.134214 -1.452393 -20.895595 -7.367517 1.174751 2.583476 31.088432 33.126495 56.753147 0.000000 0.000000 0.000000 0.242802 -0.815770 10.815307 4.783334 -0.325835 -3.844086 -3.441845 -9.535085 3.073340 0.000000 0.000000 0.000000 8.409436 -0.947582 8.969943 -4.763664 1.524608 -26.343991 2.947967 20.907193 28.307470 10.172652 -2.272070 -25.417524 0.000000 0.000000 0.000000 -26.664504 -10.957776 0.460755 -50.058825 1.035318 -7.260159 -11.787692 -22.325100 2.909627 0.000000 0.000000 0.000000 35.164952 1.694905 4.779582 51.277592 14.970386 -2.982577 7.446350 23.652089 2.866754 0.000000 0.000000 0.000000
-0.035302 0.965079 0.057122 0.116174 -14.398160 -1.044659 -1.006412 -1.652461 -23.179498 -8.055758 1.214746 0.312305 16.191830 24.433753 33.597488 0.000000 0.000000 0.000000 1.274721 -1.024088 12.447238 4.160870 -0.293916 -3.289359 -3.629222 -9.495252 2.124785 0.000000 0.000000 0.000000 8.283122 -1.061115 10.695961 -4.622645 1.460261 -26.152423 3.428108 24.097256 27.898185 10.912389 -2.511869 -24.370878 0.000000 0.000000 0.000000 -25.763249 -9.959580 -0.952428 -51.583219 2.170793 -7.796173 -10.387457 -22.704734 2.566325 0.000000 0.000000 0.000000 35.520374 2.418446 6.464912 51.691844 18.257306 -1.892879 5.642832 25.734031 2.872194 0.000000 0.000000 0.000000
-0.049688 0.962771 0.074527 -0.360380 -16.098306 -0.507499 -1.278896 -1.652427 -24.535829 -7.764750 1.181058 -0.068679 10.344485 18.345980 22.992940 0.000000 0.000000 0.000000 3.030458 -1.234962 12.278730 3.861602 -0.265083 -2.376839 -3.946206 -10.291159 2.565147 0.000000 0.000000 0.000000 8.681419 -1.168237 11.700232 -5.007448 1.505834 -26.013326 3.869679 28.387066 28.377424 11.223116 -1.726666 -26.412555 0.000000 0.000000 0.000000 -24.726656 -9.870773 -2.064095 -53.504077 3.637110 -8.596864 -8.041965 -24.104693 2.054360 0.000000 0.000000 0.000000 36.541663 3.291768 8.921374 50.972672 22.239943 -0.827539 3.269794 28.062151 2.741328 0.000000 0.000000 0.000000
-0.069501 0.958146 0.095042 -0.185409 -17.593836 -0.361830 -2.654234 -1.906356 -25.595293 -6.889874 1.057539 -0.292646 11.762263 19.689872 25.605515 0.000000 0.000000 0.000000 4.277942 -1.450868 13.307579 3.971106 -0.252564 -1.671717 -3.765053 -9.512640 1.893354 0.000000 0.000000 0.000000 8.199244 -1.194343 12.948041 -6.649529 1.875634 -25.484298 4.488782 31.310495 27.209755 10.754811 -0.801740 -27.872537 0.000000 0.000000 0.000000 -23.030455 -8.345954 -3.346813 -52.875414 4.864375 -8.831305 -7.599821 -25.270407 1.847219 0.000000 0.000000 0.000000 35.176818 5.412831 11.101811 50.957445 26.510166 1.145663 1.148488 28.772784 2.297785 0.000000 0.000000 0.000000
-0.095408 0.955919 0.118913 0.010795 -18.274302 0.664020 -3.831915 -2.131108 -25.809300 -5.196499 0.779765 -1.068492 13.250498 20.964319 29.631265 0.000000 0.000000 0.000000 6.766743 -1.893435 14.167374 2.643856 -0.170900 -0.462205 -3.128443 -8.201596 2.084264 0.000000 0.000000 0.000000 7.470881 -1.125939 12.843853 -5.800280 1.658989 -26.283996 3.631779 35.221359 28.699783 9.443066 1.084787 -31.328087 0.000000 0.000000 0.000000 -21.491374 -6.669389 -5.061711 -51.727530 4.936447 -8.521745 -5.554641 -26.846242 1.164587 0.000000 0.000000 0.000000 33.529742 6.588482 13.251415 48.392576 33.373649 3.312340 0.700332 28.893251 2.228397 0.000000 0.000000 0.000000
-0.127397 0.959825 0.147350 0.112911 -19.691462 2.483083 -4.185726 -2.151661 -27.477921 -4.451414 0.690850 -0.063627 7.552362 14.380400 34.810957 0.000000 0.000000 0.000000 8.757818 -2.143765 13.739725 2.001058 -0.076767 1.399209 -1.170714 -6.026179 5.435112 0.000000 0.000000 0.000000 6.550482 -1.007061 12.199690 -6.301775 1.760383 -26.549302 4.680675 39.210704 28.886083 9.069810 2.040161 -33.231070 0.000000 0.000000 0.000000 -19.914335 -5.034228 -6.528654 -49.100141 5.688108 -7.976275 -6.640617 -28.410933 1.119744 0.000000 0.000000 0.000000 28.480938 7.886025 13.716913 50.547929 36.714628 6.175983 0.159841 30.599621 2.400491 0.000000 0.000000 0.000000
-0.162766 0.972261 0.180632 -0.416324 -23.427088 3.182047 -4.968259 -2.067524 -28.087847 -5.394446 0.912240 0.739370 -1.320167 5.472695 39.344884 0.000000 0.000000 0.000000 9.181663 -1.966066 12.284810 1.637632 0.383283 9.265653 4.338547 -0.131763 12.227845 0.000000 0.000000 0.000000 3.854819 -0.685485 12.777397 -5.887681 1.590433 -26.053394 6.443370 44.599852 27.882948 10.491636 1.505994 -30.272863 0.000000 0.000000 0.000000 -17.754818 -4.621253 -6.857849 -46.438564 6.574964 -7.533231 -6.614612 -30.581200 0.762052 0.000000 0.000000 0.000000 23.943454 9.179903 13.627178 49.937545 39.190507 8.281017 0.652760 31.791508 2.658545 0.000000 0.000000 0.000000
-0.197390 0.979118 0.218763 -1.481858 -25.063395 3.873345 -6.027907 -2.202920 -28.230615 -5.051687 0.893072 1.638200 -4.423578 2.808482 41.274732 0.000000 0.000000 0.000000 9.140980 -1.484207 7.659721 3.710112 1.328783 22.301853 7.325768 1.929627 17.154234 0.000000 0.000000 0.000000 2.061396 -0.433429 14.181553 -4.425797 1.232965 -25.758081 5.173983 48.538398 25.065824 13.202323 0.037270 -27.781125 0.000000 0.000000 0.000000 -11.110149 -2.461893 -5.656751 -48.659120 7.499182 -9.158968 -5.313589 -38.223865 -0.681450 0.000000 0.000000 0.000000 18.847288 6.650198 10.787419 56.408829 42.200409 14.216607 1.591507 32.152177 3.285637 0.000000 0.000000 0.000000
-0.227241 0.963377 0.259538 -3.386668 -25.781428 2.164374 -7.383272 -2.392701 -23.737799 -3.090298 0.543620 1.618784 -0.369535 5.807819 38.674985 0.000000 0.000000 0.000000 6.471584 -0.205607 -1.117942 12.709227 1.300967 44.323579 0.628960 -7.879592 16.349810 0.000000 0.000000 0.000000 2.973400 -0.530328 16.252560 -7.851655 2.025497 -24.712085 7.708125 46.424743 23.394998 11.506946 -0.447937 -22.690293 0.000000 0.000000 0.000000 -6.943446 -0.057217 -4.097822 -45.822661 10.666246 -10.034381 5.533841 -49.189899 -6.427456 0.000000 0.000000 0.000000 13.821569 12.621723 11.292499 52.116356 42.034702 13.669658 -1.598065 32.623734 2.021262 0.000000 0.000000 0.000000
-0.251471 0.928391 0.300719 -4.604990 -23.672863 -2.340981 -8.594023 -2.489616 -18.844097 -1.632543 0.374979 7.161384 2.054775 6.878257 27.596259 0.000000 0.000000 0.000000 0.576796 1.203751 -11.010360 24.644300 -4.842003 68.321040 -8.446497 -21.085927 12.676673 0.000000 0.000000 0.000000 4.211856 -0.697719 20.476564 -7.800280 2.075727 -26.669232 9.747067 44.976467 27.463169 12.902508 -0.790351 -24.695574 0.000000 0.000000 0.000000 -4.784662 -0.482144 -2.903684 -34.884582 8.306534 -6.201783 33.705192 -54.574896 -23.913016 0.000000 0.000000 0.000000 13.364889 15.328664 12.349939 40.222949 43.682200 9.559263 -5.898807 28.862390 0.319745 0.000000 0.000000 0.000000
-0.272628 0.901665 0.339286 -6.082079 -15.960730 -6.264767 -9.934638 -2.493108 -14.819588 -0.216480 0.013393 12.804752 1.143849 5.708951 18.334409 0.000000 0.000000 0.000000 -3.959365 1.977576 -20.308841 25.652071 -11.897370 80.507102 -10.001251 -23.547645 10.630711 0.000000 0.000000 0.000000 6.271797 -1.447310 24.800702 -7.980387 2.246721 -27.328152 7.399272 40.050099 26.573392 14.304703 -1.530747 -25.385185 0.000000 0.000000 0.000000 -1.714855 -4.735004 0.020084 -21.143693 -0.061686 -1.668698 52.280178 -39.806415 -27.499461 0.000000 0.000000 0.000000 19.270320 13.567187 14.246540 25.067917 39.672246 2.112463 -3.849205 26.052051 0.388154 0.000000 0.000000 0.000000
-0.290260 0.905459 0.374729 -8.672431 -4.731105 -8.589788 -10.360493 -1.835071 -9.662946 3.582549 -1.311561 14.950923 -4.702435 -2.856761 13.753024 0.000000 0.000000 0.000000 -5.419657 1.491129 -22.769388 18.820268 -12.158280 77.061548 -8.283507 -20.256951 3.191071 0.000000 0.000000 0.000000 7.797909 -2.396751 24.262611 -6.236366 2.000295 -28.436145 5.703637 32.441915 27.154583 13.804219 -2.046612 -22.734473 0.000000 0.000000 0.000000 2.814476 -7.624314 2.684917 -8.161439 -8.180214 -0.285023 57.078608 -30.042820 -24.690834 0.000000 0.000000 0.000000 23.711011 11.880965 15.296350 16.603837 31.017154 -1.609217 -2.953761 20.139294 0.088548 0.000000 0.000000 0.000000
-0.303671 0.935027 0.404365 -12.082453 6.466527 -9.529361 -7.028090 -1.220675 -7.980025 4.291780 -1.807686 15.278474 -12.647767 -6.637678 25.703721 0.000000 0.000000 0.000000 0.070390 1.933250 -21.270906 9.823184 -8.082513 61.094672 -2.652033 -7.851578 4.662585 0.000000 0.000000 0.000000 7.648531 -2.597080 20.864658 -3.342191 1.526311 -27.375471 3.705788 25.458209 25.153546 14.307161 -4.846912 -15.678584 0.000000 0.000000 0.000000 10.075534 -9.043986 5.377389 -0.536653 -16.770420 -1.274814 55.809198 -23.982554 -21.321077 0.000000 0.000000 0.000000 19.994146 6.412867 10.472566 21.692334 21.982251 -2.262025 -2.253473 19.665532 0.424551 0.000000 0.000000 0.000000
-0.311554 0.966052 0.424830 -14.707514 17.830502 -9.047178 -2.461201 -1.506761 -12.821516 0.679530 -2.123643 22.137406 -16.446159 -6.385566 31.529135 0.000000 0.000000 0.000000 5.188462 2.306636 -18.643614 5.174472 -4.493264 36.660659 1.825481 2.462638 5.703999 0.000000 0.000000 0.000000 5.898346 -2.294282 17.911719 -0.762255 1.121664 -27.957480 1.126271 18.085986 24.581145 12.462582 -3.845871 -14.826780 0.000000 0.000000 0.000000 14.075701 -8.747231 6.380295 9.169077 -25.643108 -4.760030 55.452688 -23.932439 -20.833387 0.000000 0.000000 0.000000 18.824940 4.964241 9.281013 20.572257 11.917724 -3.464437 -3.994353 17.116450 0.094401 0.000000 0.000000 0.000000
-0.309435 0.981290 0.436221 -15.197239 24.481049 -10.605613 -0.003367 -2.178547 -18.246525 -7.232794 -1.685465 31.857319 -9.761541 1.941257 29.967735 0.000000 0.000000 0.000000 7.082018 2.006895 -13.372639 3.863653 -2.046220 18.903370 7.182965 10.890762 14.342362 0.000000 0.000000 0.000000 3.948363 -2.161793 18.018265 -2.144751 1.491751 -28.451955 2.724517 14.376187 23.994733 12.192974 -2.557628 -18.158875 0.000000 0.000000 0.000000 16.421722 -12.641724 7.574727 14.472694 -31.682307 -8.373018 59.156406 -28.199639 -24.916630 0.000000 0.000000 0.000000 16.414127 4.218547 7.977375 16.212728 3.094894 -3.504557 -4.086183 15.582651 0.054102 0.000000 0.000000 0.000000
-0.291910 0.972082 0.439962 -14.352310 31.182125 -11.301181 -1.139554 -3.420825 -22.676737 -14.944150 -1.274586 40.923299 -3.003243 6.304882 19.289010 0.000000 0.000000 0.000000 5.033762 1.452790 -10.758577 4.661640 -2.064657 13.614779 7.111941 9.756263 20.032955 0.000000 0.000000 0.000000 4.108860 -2.437752 18.391507 -3.613397 1.933622 -27.455325 0.932145 11.340802 22.770952 13.118744 -4.083640 -15.535123 0.000000 0.000000 0.000000 15.971407 -13.861079 7.779185 13.831512 -36.795005 -10.316821 63.053519 -37.977233 -33.410127 0.000000 0.000000 0.000000 14.345748 6.079025 8.236016 10.728048 -2.577832 -2.337356 -1.305486 11.025605 0.148770 0.000000 0.000000 0.000000
-0.262866 0.945163 0.433779 -12.840200 33.438859 -12.406409 0.174630 -3.820201 -24.906761 -26.226629 1.963449 46.049169 5.047378 14.850308 12.193119 0.000000 0.000000 0.000000 2.915305 1.037602 -8.949527 3.598842 -2.174425 16.060704 4.142565 6.744351 13.803850 0.000000 0.000000 0.000000 5.635199 -3.291565 20.680063 -6.990242 2.668322 -26.324857 1.671275 12.877539 21.074824 13.129074 -3.652781 -15.938419 0.000000 0.000000 0.000000 9.750074 -16.782927 6.940642 6.488620 -39.158227 -8.373307 71.769697 -53.662332 -51.280138 0.000000 0.000000 0.000000 12.509424 5.666818 7.433095 7.917376 -4.780039 -1.611515 -2.427089 9.670494 0.111571 0.000000 0.000000 0.000000
-0.230006 0.924733 0.418814 -11.319199 34.824454 -12.993613 0.726022 -3.875380 -25.251887 -30.789938 3.238841 48.299065 8.858782 19.545639 7.312089 0.000000 0.000000 0.000000 0.435303 0.653051 -8.749604 3.311388 -2.374797 17.409638 0.755630 0.856475 12.850595 0.000000 0.000000 0.000000 7.800756 -4.498161 23.149096 -7.475290 2.872756 -25.616781 0.855373 13.358004 20.899549 13.750304 -3.509293 -17.338155 0.000000 0.000000 0.000000 0.886863 -17.281299 4.584524 -11.996725 -34.409097 -1.412723 66.278445 -74.453305 -64.444034 0.000000 0.000000 0.000000 11.178569 6.375790 7.238906 3.839749 -0.337838 -0.871892 -2.689164 7.084649 0.099228 0.000000 0.000000 0.000000
-0.199998 0.922867 0.402775 -8.341765 34.324497 -11.351030 2.943306 -3.585212 -25.786032 -27.900167 2.560229 49.389224 7.992859 17.381808 3.759480 0.000000 0.000000 0.000000 -2.992945 0.108175 -8.813579 2.528461 -1.977446 17.519112 -1.213085 -2.956004 13.571987 0.000000 0.000000 0.000000 9.065370 -4.470417 22.154677 -9.070120 3.159733 -24.869969 0.622322 13.455053 23.284143 14.710503 -3.551200 -19.432745 0.000000 0.000000 0.000000 -6.229627 -17.881404 2.530126 -26.127162 -23.588136 1.069513 -8.183906 -69.954345 -2.424076 0.000000 0.000000 0.000000 12.964108 6.975457 8.285840 1.010770 8.008956 -0.895820 -3.136548 5.929200 0.077718 0.000000 0.000000 0.000000
-0.173727 0.932704 0.388828 -5.464895 31.070368 -8.580459 6.032897 -2.856699 -25.387916 -21.088215 0.833883 49.686382 10.542310 21.525628 3.290686 0.000000 0.000000 0.000000 -6.236002 -0.366266 -10.142996 1.859773 -1.231136 15.677583 -0.348358 -2.312426 19.471977 0.000000 0.000000 0.000000 8.130737 -3.715501 20.833900 -8.849725 3.080564 -24.656245 0.880993 15.698374 23.703336 15.585312 -3.535903 -21.278481 0.000000 0.000000 0.000000 -12.345647 -17.670458 0.151273 -33.693311 -13.021332 0.200990 -13.661793 -46.228360 2.248925 0.000000 0.000000 0.000000 15.450232 7.029604 9.564472 2.378439 16.725388 -1.579612 -4.553193 8.728291 -0.013775 0.000000 0.000000 0.000000
-0.148181 0.942794 0.375957 -3.195880 28.643637 -5.447466 9.263445 -1.733918 -20.970839 -12.173921 -1.734357 43.543968 11.792508 23.504687 6.891608 0.000000 0.000000 0.000000 -8.627115 -0.733977 -11.737979 1.333907 -0.788273 14.445201 -0.596371 -3.128890 19.296546 0.000000 0.000000 0.000000 6.840565 -2.823312 18.553930 -8.914589 3.128128 -23.991892 0.448529 16.652681 23.895346 16.187742 -3.801663 -22.215940 0.000000 0.000000 0.000000 -16.288877 -15.573011 -2.085125 -34.872916 -5.529757 -1.343109 -8.912671 -33.289010 1.164672 0.000000 0.000000 0.000000 21.505626 6.133188 11.660154 -0.557025 24.716124 -2.351169 -4.037806 8.834213 -0.049768 0.000000 0.000000 0.000000
-0.120585 0.946279 0.361406 -2.661333 27.607774 -3.115954 11.311684 -1.114024 -14.820632 -4.249329 -2.780223 32.275558 7.980966 17.785976 8.268930 0.000000 0.000000 0.000000 -10.053832 -0.973570 -12.747059 1.735365 -0.573887 10.354157 -1.734030 -5.277641 21.652535 0.000000 0.000000 0.000000 5.716673 -2.245886 16.658938 -8.215037 2.802698 -25.282572 0.549765 16.248263 25.839865 16.937658 -4.022934 -23.527773 0.000000 0.000000 0.000000 -18.541964 -14.476526 -3.369533 -34.681694 -1.617481 -2.211775 -6.848837 -25.552481 0.851243 0.000000 0.000000 0.000000 24.993747 5.459689 12.804605 2.746263 28.990623 -2.883091 -7.122964 12.106149 -0.338666 0.000000 0.000000 0.000000
-0.089819 0.944605 0.342941 -2.379743 27.272012 -1.238339 11.396457 -0.978936 -10.938019 -2.381273 -1.833299 23.246789 6.461883 15.534166 8.560873 0.000000 0.000000 0.000000 -9.973294 -0.990162 -14.293622 0.805414 -0.266304 9.031645 -3.163797 -7.414260 19.727250 0.000000 0.000000 0.000000 4.749752 -1.879080 15.385930 -8.107601 2.871272 -23.921482 -0.130603 15.173932 24.454865 17.571771 -4.171421 -25.043039 0.000000 0.000000 0.000000 -18.043120 -14.024929 -2.988281 -37.008019 -0.728477 -2.921341 -4.675791 -20.254182 0.501485 0.000000 0.000000 0.000000 27.638731 3.980207 12.492348 9.391243 30.011854 -2.613894 -9.345479 14.787296 -0.573771 0.000000 0.000000 0.000000
-0.059402 0.943349 0.322130 -2.136968 27.949755 -0.976158 10.291503 -0.924094 -9.571405 -3.020242 -1.283237 20.099014 6.870308 15.728573 7.527627 0.000000 0.000000 0.000000 -11.756576 -1.452754 -14.421719 0.129683 -0.124767 9.410958 -1.594574 -4.626617 17.593580 0.000000 0.000000 0.000000 3.827440 -1.635507 14.735094 -7.979547 2.947259 -22.876539 0.385928 12.523222 25.998144 16.676584 -3.143161 -28.045564 0.000000 0.000000 0.000000 -20.372051 -15.019492 -2.620899 -34.980835 -0.934457 -2.616127 -4.115680 -18.760116 0.574410 0.000000 0.000000 0.000000 30.515165 2.205575 11.688679 16.309662 27.827533 -2.532017 -11.817846 18.703837 -0.911715 0.000000 0.000000 0.000000
-0.032281 0.948413 0.304327 -2.307300 27.379247 -0.598939 9.815932 -0.845429 -7.492658 -3.760756 -0.544021 14.805512 5.006487 13.068004 7.882582 0.000000 0.000000 0.000000 -12.043471 -1.467709 -14.387641 0.573986 -0.226986 9.530674 -2.495266 -6.176553 15.918114 0.000000 0.000000 0.000000 2.749821 -1.394348 14.202846 -6.413387 2.645906 -22.606521 -0.292011 11.432245 26.365680 15.287046 -2.015357 -29.937298 0.000000 0.000000 0.000000 -22.288403 -15.697715 -2.521296 -34.107483 -0.617245 -2.463861 -4.912638 -17.538404 0.763722 0.000000 0.000000 0.000000 32.168499 0.908899 10.871169 24.043632 23.706626 -2.787776 -9.347770 21.636039 -0.538428 0.000000 0.000000 0.000000
-0.008714 0.958226 0.291688 -2.842691 26.120561 0.298820 8.772456 -0.743709 -5.895074 -4.249913 -0.039518 8.833977 5.672176 15.280982 11.757160 0.000000 0.000000 0.000000 -10.653675 -1.053099 -14.605092 3.491280 -1.160345 12.586025 -5.832091 -12.489583 14.216295 0.000000 0.000000 0.000000 2.619065 -1.164576 12.672631 -6.519659 2.612592 -22.855964 -0.194652 9.943484 26.695141 14.103553 -1.546789 -30.555786 0.000000 0.000000 0.000000 -23.132839 -14.901289 -2.445880 -34.664210 -0.476111 -2.713593 -5.395854 -18.584424 0.922974 0.000000 0.000000 0.000000 32.907851 -0.702650 9.076138 30.438918 18.706299 -3.582068 -4.010320 23.025694 0.463391 0.000000 0.000000 0.000000
0.011206 0.965507 0.283135 -2.998338 24.959401 1.256097 8.002929 -0.661573 -4.458196 -5.106745 0.196046 4.424183 5.809763 15.997715 13.946596 0.000000 0.000000 0.000000 -9.194553 -0.605930 -13.727478 5.486195 -2.038450 15.731179 -6.280301 -13.445873 15.644915 0.000000 0.000000 0.000000 2.546112 -0.961661 11.091129 -6.079943 2.454872 -23.239701 -1.013619 7.854542 27.216457 13.133158 -1.213537 -31.717264 0.000000 0.000000 0.000000 -23.023387 -13.416930 -2.240049 -35.852396 -0.150671 -3.277607 -6.437764 -20.279152 1.216896 0.000000 0.000000 0.000000 33.113792 -1.977347 7.103075 35.778127 15.260977 -4.246364 0.173148 22.602228 1.267888 0.000000 0.000000 0.000000
0.027802 0.970493 0.277085 -3.063284 23.118616 2.199656 6.645549 -0.528302 -2.950693 -4.097113 0.197826 0.568648 5.166658 15.504591 15.632706 0.000000 0.000000 0.000000 -6.084977 0.086556 -11.987397 6.143297 -2.248088 16.388676 -6.006790 -13.091079 18.619573 0.000000 0.000000 0.000000 2.629392 -0.848356 10.013268 -5.942562 2.321410 -24.181089 -1.541342 7.038536 26.752890 13.060434 -1.839220 -29.757300 0.000000 0.000000 0.000000 -22.072820 -12.651648 -1.675983 -37.995218 -0.149396 -3.866456 -6.470096 -20.547534 1.280276 0.000000 0.000000 0.000000 32.378368 -3.307757 5.132334 40.802604 10.955865 -5.255829 1.832029 21.670323 1.579814 0.000000 0.000000 0.000000
0.041527 0.972868 0.272106 -2.686522 21.170364 3.432671 5.064385 -0.419149 -2.689493 -3.515212 0.196828 -1.528460 5.360012 15.974126 17.074104 0.000000 0.000000 0.000000 -3.629357 0.461215 -9.942091 5.372317 -1.646317 13.875610 -5.618320 -12.673913 20.431076 0.000000 0.000000 0.000000 2.211439 -0.605652 7.990808 -5.804761 2.298131 -23.679122 -1.800569 6.596051 26.543196 13.340058 -2.317064 -29.483819 0.000000 0.000000 0.000000 -22.545083 -12.662520 -1.172610 -39.231638 -0.256726 -4.169602 -5.719120 -20.102387 1.204171 0.000000 0.000000 0.000000 33.665747 -3.811108 4.284223 43.052457 8.909814 -5.916456 1.163680 20.776958 1.425504 0.000000 0.000000 0.000000
0.052862 0.973933 0.267759 -2.056482 19.574059 4.619910 3.459073 -0.347416 -2.873311 -3.695590 0.217385 -2.509316 6.356585 17.149537 17.302408 0.000000 0.000000 0.000000 -2.543998 0.517649 -7.826274 3.616104 -0.795681 9.212039 -5.335372 -12.407426 21.713904 0.000000 0.000000 0.000000 2.034736 -0.535937 7.349188 -6.293538 2.311423 -24.554769 -2.082523 6.223519 26.468124 13.231164 -2.481305 -29.389775 0.000000 0.000000 0.000000 -22.941008 -12.513782 -0.820191 -39.019794 -1.222949 -3.976415 -6.058391 -18.847993 1.257856 0.000000 0.000000 0.000000 34.159553 -4.794782 2.985086 44.517161 7.716631 -6.247950 1.821781 20.603717 1.555857 0.000000 0.000000 0.000000
0.062087 0.974193 0.263887 -2.177573 17.369782 5.104856 2.890380 -0.293194 -2.453109 -3.690341 0.234527 -3.469511 6.781975 17.480610 17.137374 0.000000 0.000000 0.000000 -1.609840 0.530246 -6.459594 2.379292 -0.364736 5.405966 -5.411647 -12.909569 23.254498 0.000000 0.000000 0.000000 2.068016 -0.486055 6.690544 -6.147230 2.217710 -25.054005 -1.880724 6.585701 26.747580 12.712722 -2.173156 -30.285728 0.000000 0.000000 0.000000 -23.194006 -12.130020 -0.671691 -39.465030 -1.299934 -4.154938 -6.048677 -19.891576 1.352847 0.000000 0.000000 0.000000 34.378484 -4.991530 2.325106 44.896614 6.495151 -6.533392 3.028962 22.362454 1.954734 0.000000 0.000000 0.000000
0.069375 0.973781 0.260957 -2.233646 15.344334 5.495780 2.405207 -0.240951 -1.999138 -3.424720 0.243259 -4.172871 6.598162 16.996166 16.546475 0.000000 0.000000 0.000000 -1.711877 0.471354 -5.513463 2.381498 -0.324296 2.271101 -5.977209 -14.170726 23.390220 0.000000 0.000000 0.000000 2.328736 -0.467221 6.164638 -5.696843 2.092848 -25.152542 -1.915063 7.094226 26.932356 12.153316 -1.930588 -30.508864 0.000000 0.000000 0.000000 -23.082403 -11.631122 -0.613304 -40.082504 -1.828652 -4.211586 -6.487701 -20.809753 1.511096 0.000000 0.000000 0.000000 34.463446 -4.590150 2.284066 45.238485 6.780167 -6.386775 3.498081 22.723331 2.072173 0.000000 0.000000 0.000000
0.075126 0.973233 0.259117 -2.133883 13.927037 5.710710 1.930411 -0.209482 -1.834385 -3.170259 0.248766 -4.369366 6.316748 16.502917 16.402054 0.000000 0.000000 0.000000 -1.970694 0.413735 -4.784287 2.407213 -0.333427 -0.185848 -6.555081 -15.321098 24.329336 0.000000 0.000000 0.000000 2.803638 -0.499420 6.081335 -5.612219 2.015301 -25.941818 -1.510266 7.799315 27.345800 11.920336 -1.918745 -30.039428 0.000000 0.000000 0.000000 -23.212731 -12.034879 -0.302526 -41.146245 -1.597118 -4.488042 -6.808192 -21.878384 1.653625 0.000000 0.000000 0.000000 34.428079 -5.024662 1.799123 45.730397 6.428917 -6.498528 4.693700 23.534409 2.411649 0.000000 0.000000 0.000000
0.079548 0.972638 0.258055 -2.166149 12.623966 5.475187 1.736065 -0.167996 -1.377330 -2.986881 0.254806 -4.375158 6.069140 16.060167 16.364656 0.000000 0.000000 0.000000 -1.956685 0.387184 -4.361574 2.272262 -0.315646 -0.749412 -6.726098 -15.830345 23.876752 0.000000 0.000000 0.000000 3.217498 -0.552629 6.361915 -5.296970 1.924689 -26.280450 -1.427893 8.214287 27.816697 11.825289 -1.977239 -29.818621 0.000000 0.000000 0.000000 -23.085207 -11.790276 -0.227317 -42.222964 -2.330419 -4.521419 -6.710880 -23.300751 1.747880 0.000000 0.000000 0.000000 34.821117 -4.744623 1.861000 46.079233 6.713930 -6.448804 4.690058 23.767667 2.439506 0.000000 0.000000 0.000000
0.082675 0.971852 0.257368 -2.209193 11.832484 5.192196 1.803110 -0.141841 -0.991833 -2.870040 0.257639 -4.594880 5.533179 15.378809 16.938808 0.000000 0.000000 0.000000 -2.452234 0.302902 -3.421685 2.711824 -0.386970 -2.185317 -6.271985 -15.308017 24.137843 0.000000 0.000000 0.000000 3.578112 -0.594689 6.540163 -5.113567 1.882747 -26.280517 -1.191500 8.397846 27.785319 11.575767 -1.909046 -29.712258 0.000000 0.000000 0.000000 -23.436254 -11.790227 -0.157758 -42.758794 -2.550286 -4.542255 -7.064930 -24.135635 1.896820 0.000000 0.000000 0.000000 34.690664 -4.678888 1.721907 46.787298 6.103713 -6.642038 4.987740 24.102442 2.547702 0.000000 0.000000 0.000000
0.084524 0.970996 0.256718 -2.043023 11.457993 4.849338 1.875750 -0.108020 -0.475681 -2.913569 0.262951 -4.503149 4.478385 13.835208 16.460539 0.000000 0.000000 0.000000 -2.628255 0.247529 -2.757720 2.704176 -0.396662 -2.950537 -6.625494 -15.918560 24.375949 0.000000 0.000000 0.000000 3.886420 -0.639370 6.807802 -5.034587 1.855215 -26.536651 -1.125809 8.448359 28.062169 11.292265 -1.851726 -29.322673 0.000000 0.000000 0.000000 -23.750714 -11.562441 -0.263633 -43.360502 -2.656809 -4.619591 -7.140187 -24.779095 1.972557 0.000000 0.000000 0.000000 35.190810 -5.006482 1.434163 46.909051 5.907738 -6.776332 5.431284 24.261178 2.674436 0.000000 0.000000 0.000000
0.085425 0.970174 0.256039 -2.070768 10.970127 4.509781 2.080596 -0.096733 -0.207775 -2.968904 0.269737 -4.526012 4.101289 13.373470 16.947748 0.000000 0.000000 0.000000 -3.093513 0.189291 -2.083786 2.619490 -0.402508 -3.861971 -5.229884 -13.955997 24.990681 0.000000 0.000000 0.000000 4.388082 -0.708644 7.125520 -4.936283 1.827949 -26.585347 -1.149892 8.293078 28.083530 11.132498 -1.831614 -29.371817 0.000000 0.000000 0.000000 -23.678288 -11.180367 -0.283167 -44.092746 -2.944355 -4.697005 -7.424556 -25.201797 2.088974 0.000000 0.000000 0.000000 34.981976 -5.141809 1.079749 47.646036 5.353621 -6.942492 5.495886 23.856843 2.633369 0.000000 0.000000 0.000000
0.085632 0.969675 0.255211 -1.796708 10.392909 4.451747 2.104985 -0.091518 -0.146756 -3.088684 0.279924 -4.567866 3.434846 12.537411 17.545098 0.000000 0.000000 0.000000 -3.430714 0.169083 -1.823124 2.540440 -0.399143 -4.220152 -4.841123 -13.468815 24.503866 0.000000 0.000000 0.000000 4.697578 -0.738006 7.174800 -4.836463 1.805288 -26.594901 -1.119838 8.294511 28.206399 10.941114 -1.790054 -29.365215 0.000000 0.000000 0.000000 -24.151756 -10.924243 -0.355393 -44.544809 -2.705129 -4.873506 -8.200861 -25.108634 2.281358 0.000000 0.000000 0.000000 35.224796 -5.210492 0.842086 47.997163 4.960417 -7.079531 5.622741 23.331059 2.575048 0.000000 0.000000 0.000000
0.085636 0.969180 0.254204 -1.538667 9.719301 4.470520 2.119763 -0.088382 -0.125941 -3.047113 0.284372 -4.743977 2.594314 11.501491 18.329253 0.000000 0.000000 0.000000 -3.733077 0.146835 -1.477459 2.622566 -0.415251 -4.795942 -4.605960 -13.198793 23.668223 0.000000 0.000000 0.000000 4.993850 -0.776894 7.325792 -4.667796 1.748251 -26.985139 -1.202381 8.454751 28.456910 11.103421 -1.874570 -29.694971 0.000000 0.000000 0.000000 -24.322279 -10.760271 -0.357972 -44.831765 -2.519220 -5.025825 -9.044823 -24.687046 2.446802 0.000000 0.000000 0.000000 35.429502 -5.420847 0.561242 48.515656 4.608772 -7.248246 5.818199 22.825873 2.547386 0.000000 0.000000 0.000000
0.085681 0.969028 0.253122 -1.269423 9.304903 4.539526 2.090834 -0.085031 -0.112716 -3.326586 0.299399 -4.932838 2.274164 11.115079 18.758730 0.000000 0.000000 0.000000 -4.198161 0.140067 -1.365358 2.591855 -0.412738 -4.919980 -3.841448 -12.047187 22.864725 0.000000 0.000000 0.000000 5.130661 -0.778529 7.227436 -4.635482 1.732642 -27.097554 -1.293972 8.218968 28.523814 11.017154 -1.871469 -29.919846 0.000000 0.000000 0.000000 -24.271360 -10.274340 -0.434974 -45.339215 -1.945068 -5.374507 -9.029693 -24.796967 2.481332 0.000000 0.000000 0.000000 35.383818 -5.485084 0.266470 48.749386 4.212746 -7.342467 5.916074 22.244775 2.473021 0.000000 0.000000 0.000000
0.086041 0.968686 0.252088 -0.993372 9.461623 4.708945 2.122041 -0.091224 -0.173591 -3.611125 0.307546 -5.239910 1.573337 10.249543 18.999957 0.000000 0.000000 0.000000 -4.638523 0.128127 -1.222782 2.493309 -0.417170 -5.430951 -3.412764 -11.362122 22.931834 0.000000 0.000000 0.000000 5.116236 -0.759414 7.018441 -4.820356 1.771760 -27.036142 -1.285837 7.854482 28.361888 10.892000 -1.761159 -30.399143 0.000000 0.000000 0.000000 -23.902714 -9.786763 -0.565962 -45.960944 -1.502836 -5.669072 -9.143453 -24.562458 2.491210 0.000000 0.000000 0.000000 34.940782 -5.810755 -0.129322 49.264380 3.750361 -7.466119 6.549031 21.874560 2.540659 0.000000 0.000000 0.000000
0.086804 0.968459 0.251361 -0.774872 9.343683 4.683708 2.026443 -0.075337 -0.002512 -3.676020 0.310866 -5.326604 0.994992 9.400523 18.817787 0.000000 0.000000 0.000000 -4.906278 0.107601 -0.901450 2.227908 -0.402082 -5.688366 -2.911593 -10.542133 22.349669 0.000000 0.000000 0.000000 5.264315 -0.769177 6.998755 -4.931924 1.804249 -26.815179 -1.360310 7.779847 28.018197 10.820354 -1.764477 -30.239895 0.000000 0.000000 0.000000 -23.666475 -9.543728 -0.617104 -46.319796 -0.998392 -5.914264 -9.446432 -24.719310 2.573615 0.000000 0.000000 0.000000 34.817372 -5.856952 -0.254636 49.433257 3.542938 -7.497367 6.642732 21.272769 2.462790 0.000000 0.000000 0.000000
0.087899 0.967819 0.250879 -0.481540 9.384561 4.560219 1.743825 -0.039976 0.337187 -3.678128 0.309400 -5.554028 0.584017 8.793323 18.638480 0.000000 0.000000 0.000000 -5.456498 0.088306 -0.648867 2.304638 -0.406349 -5.610207 -2.561567 -9.918529 21.781773 0.000000 0.000000 0.000000 5.399035 -0.766122 6.874282 -4.890620 1.805691 -26.666490 -1.424928 7.671293 28.051285 10.689310 -1.695552 -30.289303 0.000000 0.000000 0.000000 -23.287024 -9.471469 -0.563082 -47.076981 -0.874487 -6.123587 -9.415534 -24.432395 2.543177 0.000000 0.000000 0.000000 34.659612 -6.207731 -0.565576 49.430505 3.209342 -7.598752 6.853960 20.991798 2.462457 0.000000 0.000000 0.000000
0.089119 0.967110 0.250470 -0.417816 9.641444 4.582131 1.653517 0.001391 0.897916 -3.555976 0.297862 -6.229686 -0.008609 7.747197 17.780903 0.000000 0.000000 0.000000 -5.557910 0.076597 -0.511851 2.096520 -0.396708 -5.796829 -2.455770 -9.695192 21.748511 0.000000 0.000000 0.000000 5.551244 -0.758127 6.643670 -4.937857 1.823080 -26.539027 -1.497798 7.424676 27.977356 10.584285 -1.655145 -30.241218 0.000000 0.000000 0.000000 -23.217669 -9.485284 -0.523097 -47.386110 -0.415969 -6.347378 -9.384797 -24.136035 2.510891 0.000000 0.000000 0.000000 34.525447 -6.086953 -0.506756 49.194349 2.910690 -7.661453 7.064662 20.992549 2.489264 0.000000 0.000000 0.000000
0.090148 0.966275 0.249824 -0.218930 9.752333 4.843741 1.455970 0.010387 0.898109 -3.337227 0.289696 -6.350968 -0.763125 6.412144 16.931732 0.000000 0.000000 0.000000 -5.659833 0.089575 -0.729136 2.244389 -0.405539 -5.686521 -3.207078 -10.787529 21.026111 0.000000 0.000000 0.000000 5.617114 -0.721123 6.173886 -5.075008 1.843632 -26.689590 -1.673207 7.402413 28.028355 10.267896 -1.508016 -29.980705 0.000000 0.000000 0.000000 -23.029460 -9.806762 -0.329031 -47.977477 0.093172 -6.643451 -8.925034 -23.306087 2.337379 0.000000 0.000000 0.000000 34.418018 -6.196419 -0.532096 49.266252 2.600263 -7.802614 7.416079 21.077359 2.575117 0.000000 0.000000 0.000000
0.090923 0.965686 0.248894 -0.145707 9.965180 5.085783 1.359358 0.009786 0.835705 -3.169660 0.281931 -6.507339 -1.245502 5.504795 16.269296 0.000000 0.000000 0.000000 -5.720396 0.103926 -0.998070 2.333337 -0.410834 -5.586449 -3.609258 -11.361639 20.700743 0.000000 0.000000 0.000000 5.739600 -0.715593 5.961153 -5.219758 1.864977 -26.825014 -1.831103 7.236235 27.721612 10.184875 -1.478266 -29.872368 0.000000 0.000000 0.000000 -22.884629 -9.877747 -0.262216 -48.299005 0.660247 -6.898812 -8.659455 -22.157181 2.177593 0.000000 0.000000 0.000000 34.478149 -6.102912 -0.493150 48.843394 2.357961 -7.813481 7.846966 21.338528 2.680238 0.000000 0.000000 0.000000
0.091499 0.965830 0.247666 -0.159378 10.052339 5.270890 1.484316 0.007697 0.905754 -3.165062 0.277132 -7.107588 -1.818374 4.767723 16.531553 0.000000 0.000000 0.000000 -5.780479 0.110662 -1.102320 2.097846 -0.403104 -5.964639 -3.238950 -10.798605 21.232215 0.000000 0.000000 0.000000 5.896316 -0.708072 5.710717 -5.485246 1.908897 -26.947227 -1.808802 7.279874 27.632921 10.005205 -1.346391 -29.961438 0.000000 0.000000 0.000000 -22.991748 -10.028226 -0.232903 -48.190652 0.941454 -6.952853 -8.014254 -21.051277 1.955735 0.000000 0.000000 0.000000 34.607372 -5.995483 -0.371901 48.817556 2.327708 -7.828759 7.577733 21.265867 2.617785 0.000000 0.000000 0.000000
0.091985 0.965975 0.246460 -0.165697 9.628362 5.444490 1.449123 -0.009015 0.627755 -3.066250 0.280386 -7.033756 -1.934899 4.598217 16.700162 0.000000 0.000000 0.000000 -5.784826 0.149230 -1.678217 2.079457 -0.389634 -5.630962 -3.272406 -10.932795 21.317380 0.000000 0.000000 0.000000 6.016990 -0.698446 5.494254 -5.450827 1.899800 -26.853577 -1.969775 7.636362 27.414579 10.338938 -1.498817 -30.039464 0.000000 0.000000 0.000000 -23.044520 -10.637763 0.080877 -48.263177 0.928221 -6.925334 -8.086900 -20.191440 1.894579 0.000000 0.000000 0.000000 34.497404 -5.880743 -0.276080 48.762701 2.703793 -7.659269 7.737109 21.299019 2.646686 0.000000 0.000000 0.000000
0.092483 0.966284 0.245598 -0.348275 9.399010 5.427480 1.515288 0.008946 0.925313 -3.166661 0.282567 -7.467263 -1.510879 5.096008 16.462758 0.000000 0.000000 0.000000 -5.509881 0.152091 -1.618345 1.708055 -0.365930 -5.822412 -2.889075 -10.357466 21.306180 0.000000 0.000000 0.000000 6.165874 -0.677441 5.173516 -5.497872 1.923605 -26.509935 -2.072373 7.974999 27.181338 10.503270 -1.610586 -29.656283 0.000000 0.000000 0.000000 -22.771561 -10.524542 -0.021190 -48.614755 1.001803 -6.993829 -8.136703 -19.779496 1.855656 0.000000 0.000000 0.000000 34.567882 -5.658466 -0.012268 48.757255 2.995221 -7.568380 7.535402 21.574241 2.655474 0.000000 0.000000 0.000000
0.092826 0.966582 0.244851 -0.232168 9.325369 5.193185 1.278750 0.063664 1.521864 -3.316206 0.285625 -7.619536 -1.122777 5.327516 15.568400 0.000000 0.000000 0.000000 -5.716097 0.143286 -1.539419 1.766515 -0.366470 -5.705361 -2.860937 -10.366056 21.609260 0.000000 0.000000 0.000000 6.262983 -0.669455 5.075512 -6.060822 2.036561 -26.531053 -1.927081 7.933927 27.479804 10.903897 -1.806197 -29.988962 0.000000 0.000000 0.000000 -22.962331 -11.097598 0.325141 -48.212664 1.143445 -6.997218 -8.298441 -19.775854 1.891610 0.000000 0.000000 0.000000 34.150017 -5.399446 0.154380 49.420772 3.306967 -7.513654 7.333974 22.021119 2.698451 0.000000 0.000000 0.000000
0.092933 0.966438 0.243823 -0.322006 9.455692 4.982193 1.526318 0.076008 1.910045 -3.345797 0.281879 -7.960638 -1.612338 4.584379 15.501459 0.000000 0.000000 0.000000 -5.622980 0.129014 -1.333687 1.621859 -0.356574 -5.716903 -2.676891 -10.046172 21.573850 0.000000 0.000000 0.000000 6.076907 -0.662612 5.180632 -5.836953 1.994427 -26.548216 -2.015774 7.691668 27.445474 10.810221 -1.860859 -29.524354 0.000000 0.000000 0.000000 -23.349019 -10.379424 -0.100471 -48.025424 1.108641 -6.942803 -8.622567 -20.136721 1.982391 0.000000 0.000000 0.000000 34.440076 -4.946451 0.422299 49.104847 3.949608 -7.242872 7.439411 22.311460 2.741193 0.000000 0.000000 0.000000
0.092608 0.967227 0.242188 -0.475591 8.917713 4.493732 1.279086 0.107527 2.122778 -2.927847 0.283530 -7.811337 -0.981653 5.652167 16.049639 0.000000 0.000000 0.000000 -5.507598 0.127466 -1.239706 1.984281 -0.372606 -5.388177 -2.885905 -10.495951 21.582931 0.000000 0.000000 0.000000 5.886469 -0.626956 5.065330 -5.376813 1.927739 -25.998965 -2.280836 8.255328 26.758769 11.050294 -1.888512 -29.852793 0.000000 0.000000 0.000000 -22.235566 -10.024069 -0.203100 -48.773802 1.811943 -7.365774 -9.286395 -21.007350 2.160079 0.000000 0.000000 0.000000 33.897873 -4.560190 0.761791 50.043830 4.330465 -7.095604 6.811874 22.613448 2.680086 0.000000 0.000000 0.000000
0.092019 0.969115 0.239733 -0.740721 9.520738 3.899474 2.048311 0.096538 2.710702 -3.194853 0.277834 -8.149274 -2.135623 4.260880 16.664808 0.000000 0.000000 0.000000 -5.390847 0.067601 -0.441065 2.376217 -0.420082 -5.869231 -2.951530 -10.597102 22.403251 0.000000 0.000000 0.000000 5.978222 -0.688362 5.687679 -5.863740 2.018502 -26.419860 -1.648846 8.106989 27.822055 11.473678 -2.175371 -29.550568 0.000000 0.000000 0.000000 -23.230208 -10.409804 -0.216081 -47.952391 0.001142 -6.514443 -8.806822 -19.586554 1.945754 0.000000 0.000000 0.000000 34.805364 -4.312248 1.238740 48.849033 6.956747 -6.325337 6.278782 21.406810 2.405982 0.000000 0.000000 0.000000
