HIERARCHY
ROOT Hips
{
	OFFSET -0.001795 -0.223333 0.028219
	CHANNELS 6 Xposition Yposition Zposition Zrotation Yrotation Xrotation
	JOINT LeftUpLeg
	{
		OFFSET 0.069520 -0.091406 -0.006815
		CHANNELS 3 Zrotation Yrotation Xrotation
		JOINT LeftLeg
		{
			OFFSET 0.034277 -0.375199 -0.004496
			CHANNELS 3 Zrotation Yrotation Xrotation
			JOINT LeftFoot
			{
				OFFSET -0.013596 -0.397961 -0.043693
				CHANNELS 3 Zrotation Yrotation Xrotation
				JOINT LeftToe
				{
					OFFSET 0.026358 -0.055791 0.119288
					CHANNELS 3 Zrotation Yrotation Xrotation
					End Site
					{
						OFFSET 0.000000 0.000000 0.000000
					}
				}
			}
		}
	}
	JOINT RightUpLeg
	{
		OFFSET -0.067670 -0.090522 -0.004320
		CHANNELS 3 Zrotation Yrotation Xrotation
		JOINT RightLeg
		{
			OFFSET -0.038290 -0.382569 -0.008850
			CHANNELS 3 Zrotation Yrotation Xrotation
			JOINT RightFoot
			{
				OFFSET 0.015774 -0.398415 -0.042312
				CHANNELS 3 Zrotation Yrotation Xrotation
				JOINT RightToe
				{
					OFFSET -0.025372 -0.048144 0.123348
					CHANNELS 3 Zrotation Yrotation Xrotation
					End Site
					{
						OFFSET 0.000000 0.000000 0.000000
					}
				}
			}
		}
	}
	JOINT Spine
	{
		OFFSET -0.002533 0.108963 -0.026696
		CHANNELS 3 Zrotation Yrotation Xrotation
		JOINT Spine1
		{
			OFFSET 0.005487 0.135180 0.001092
			CHANNELS 3 Zrotation Yrotation Xrotation
			JOINT Spine2
			{
				OFFSET 0.001457 0.052922 0.025425
				CHANNELS 3 Zrotation Yrotation Xrotation
				JOINT Neck
				{
					OFFSET -0.002778 0.213870 -0.042857
					CHANNELS 3 Zrotation Yrotation Xrotation
					JOINT Head
					{
						OFFSET 0.005152 0.064970 0.051349
						CHANNELS 3 Zrotation Yrotation Xrotation
						End Site
						{
							OFFSET 0.000000 0.000000 0.000000
						}
					}
				}
				JOINT LeftShoulder
				{
					OFFSET 0.078845 0.121749 -0.034090
					CHANNELS 3 Zrotation Yrotation Xrotation
					JOINT LeftArm
					{
						OFFSET 0.090977 0.030469 -0.008868
						CHANNELS 3 Zrotation Yrotation Xrotation
						JOINT LeftForeArm
						{
							OFFSET 0.259612 -0.012772 -0.027456
							CHANNELS 3 Zrotation Yrotation Xrotation
							JOINT LeftHand
							{
								OFFSET 0.249234 0.008986 -0.001171
								CHANNELS 3 Zrotation Yrotation Xrotation
								End Site
								{
									OFFSET 0.000000 0.000000 0.000000
								}
							}
						}
					}
				}
				JOINT RightShoulder
				{
					OFFSET -0.081759 0.118833 -0.038615
					CHANNELS 3 Zrotation Yrotation Xrotation
					JOINT RightArm
					{
						OFFSET -0.096012 0.032551 -0.009143
						CHANNELS 3 Zrotation Yrotation Xrotation
						JOINT RightForeArm
						{
							OFFSET -0.253742 -0.013329 -0.021401
							CHANNELS 3 Zrotation Yrotation Xrotation
							JOINT RightHand
							{
								OFFSET -0.255298 0.007772 -0.005559
								CHANNELS 3 Zrotation Yrotation Xrotation
								End Site
								{
									OFFSET 0.000000 0.000000 0.000000
								}
							}
						}
					}
				}
			}
		}
	}
}
MOTION
Frames: 76
Frame Time: 0.050000
0.000000 1.163202 0.000000 1.036460 0.656137 -14.288061 7.780052 -0.074350 -6.510923 -5.688228 0.953287 26.887697 1.534347 5.493906 6.137551 0.000000 0.000000 0.000000 -4.399475 -0.587524 9.410169 -0.017685 0.396428 9.794763 2.071008 -3.468598 18.486680 0.000000 0.000000 0.000000 -7.116034 0.647336 38.596092 24.714416 -3.192321 -41.367542 -12.117977 17.501500 25.355873 0.549793 -2.389509 12.065934 0.000000 0.000000 0.000000 -40.250819 -8.222561 -7.239136 -26.883641 5.186130 -3.577210 -15.240658 -26.929571 4.267679 0.000000 0.000000 0.000000 47.489632 8.179752 15.298725 26.618028 2.379539 -6.192878 -1.071630 33.457770 0.755221 0.000000 0.000000 0.000000
-0.000195 1.169460 0.002016 0.611335 0.714549 -13.995385 8.369422 -0.094338 -9.176562 -6.077653 1.156592 33.748701 2.307702 5.186447 0.943076 0.000000 0.000000 0.000000 -5.334806 -0.433612 7.849998 1.157015 0.231386 12.080746 1.931794 -2.864548 16.116968 0.000000 0.000000 0.000000 -8.716658 1.242976 41.542355 33.705205 -0.605343 -52.894558 -12.832311 24.364883 38.619376 3.293941 -0.687235 1.351625 0.000000 0.000000 0.000000 -38.892207 -9.202947 -8.353921 -29.410398 4.110976 -4.221857 -16.637388 -28.088239 4.775091 0.000000 0.000000 0.000000 46.001745 7.812117 19.082683 27.857547 6.319833 -7.507449 -4.032252 33.356876 -0.004546 0.000000 0.000000 0.000000
0.000648 1.174950 0.003241 0.431102 1.001353 -13.662973 8.514556 -0.149299 -11.560592 -6.195441 1.219150 39.690709 2.468870 4.413436 -2.004604 0.000000 0.000000 0.000000 -5.688718 -0.300225 5.632440 1.727034 0.173605 15.188400 -0.022200 -5.800454 14.537617 0.000000 0.000000 0.000000 -8.127733 0.984351 40.865538 37.101159 -2.699479 -48.496096 -18.133307 27.465914 31.502741 3.567237 -3.359121 6.507740 0.000000 0.000000 0.000000 -36.936167 -9.725276 -10.396946 -29.125551 7.234685 -3.944576 -18.429589 -28.148063 4.950755 0.000000 0.000000 0.000000 49.099392 8.800900 22.538240 26.080180 5.171137 -7.078228 -6.404342 31.131193 -1.138927 0.000000 0.000000 0.000000
0.002193 1.179664 0.004040 0.758863 1.354752 -14.273161 8.081617 -0.217042 -12.154358 -5.549378 0.840053 43.272539 3.213814 4.495788 -5.945449 0.000000 0.000000 0.000000 -6.438815 -0.263817 5.324651 1.461252 0.313126 18.398524 -0.166003 -5.319400 12.215220 0.000000 0.000000 0.000000 -8.602489 1.154459 42.078207 43.055943 0.096394 -56.626691 -20.328416 32.104047 41.592223 5.712915 -0.828289 -1.684277 0.000000 0.000000 0.000000 -35.906475 -9.562178 -11.503738 -29.627856 5.427732 -4.240643 -19.704187 -29.963026 5.547998 0.000000 0.000000 0.000000 47.971972 10.249342 25.748484 25.943355 7.765871 -7.570852 -8.642077 29.895467 -1.882483 0.000000 0.000000 0.000000
0.004086 1.179601 0.003485 0.576079 1.557452 -14.417842 7.945157 -0.258671 -12.900461 -5.917296 0.982115 46.620556 4.106161 6.153483 -7.146729 0.000000 0.000000 0.000000 -6.165419 -0.226718 4.145520 0.845504 0.546002 20.790637 0.120218 -5.569579 14.867728 0.000000 0.000000 0.000000 -8.153159 0.967371 42.451334 47.189958 -0.906339 -55.022692 -24.077754 35.662889 35.965403 5.559928 -0.345558 -1.765835 0.000000 0.000000 0.000000 -34.379334 -9.857669 -13.898387 -29.566351 8.628576 -4.022009 -22.076404 -30.114631 5.871390 0.000000 0.000000 0.000000 47.009387 9.195759 26.756876 27.830403 7.372836 -7.973719 -8.970352 29.794393 -2.008243 0.000000 0.000000 0.000000
0.005726 1.174842 0.000289 0.742553 2.715296 -15.410441 7.510439 -0.396475 -14.526717 -6.194158 0.804312 49.800122 4.398360 6.685356 -7.422146 0.000000 0.000000 0.000000 -6.048565 -0.237754 3.625178 -0.156882 0.879797 23.601331 0.763343 -4.814018 16.729871 0.000000 0.000000 0.000000 -8.619609 1.005490 44.588490 47.013263 0.794501 -58.787582 -21.537901 36.026456 41.704267 6.559560 1.474934 -7.053852 0.000000 0.000000 0.000000 -35.131706 -10.079193 -13.749674 -29.035619 8.547789 -4.264195 -21.889781 -31.345360 6.227388 0.000000 0.000000 0.000000 44.881814 8.713977 25.452537 28.447094 6.920852 -8.347201 -9.550661 31.049176 -2.149667 0.000000 0.000000 0.000000
0.006042 1.174368 -0.005768 0.756650 3.774562 -15.866865 7.398479 -0.434857 -14.310767 -6.258335 0.526484 49.422486 4.629641 6.710200 -8.569117 0.000000 0.000000 0.000000 -6.036887 -0.293861 4.209093 0.175777 0.694657 23.659825 0.369247 -5.449344 17.119829 0.000000 0.000000 0.000000 -8.640549 0.853286 45.844372 47.665674 1.885459 -61.638562 -20.999925 37.231757 44.781540 5.890478 2.555277 -6.481216 0.000000 0.000000 0.000000 -34.447170 -9.416358 -14.553778 -28.464696 7.702377 -4.200912 -21.761594 -33.113169 6.517163 0.000000 0.000000 0.000000 43.444793 8.120553 25.232668 28.997817 8.119828 -8.597668 -9.160526 31.243000 -1.989811 0.000000 0.000000 0.000000
0.003957 1.195985 -0.015444 0.844779 7.965903 -15.471810 6.500351 -0.722308 -14.984858 -5.635980 -0.917962 47.646981 3.596874 6.288930 -3.004486 0.000000 0.000000 0.000000 -6.175933 -0.414118 4.844310 0.614959 0.227565 22.009020 -0.373657 -7.150239 22.187396 0.000000 0.000000 0.000000 -10.728279 0.893573 45.290132 50.074918 -1.096203 -56.231198 -24.784218 37.927413 36.707266 7.173707 0.239334 -4.383101 0.000000 0.000000 0.000000 -32.041680 -9.482421 -16.087416 -26.969613 9.277567 -3.400529 -23.912940 -35.430658 7.326593 0.000000 0.000000 0.000000 43.585733 6.130628 25.417949 30.058493 6.798039 -8.709513 -9.681785 33.399565 -2.191757 0.000000 0.000000 0.000000
-0.000540 1.249280 -0.033055 0.864400 9.680193 -14.169288 5.667496 -0.781925 -13.560873 -4.848724 -1.283527 41.747496 1.421659 5.727401 6.162227 0.000000 0.000000 0.000000 -6.204309 -0.443423 4.901424 2.224684 -0.342136 18.427285 0.522548 -7.139916 30.384775 0.000000 0.000000 0.000000 -13.562660 1.652087 46.522481 40.858875 0.549847 -56.615968 -13.717086 27.574974 40.783901 4.613012 -0.472706 -0.579087 0.000000 0.000000 0.000000 -37.270265 -7.110964 -12.946024 -22.763870 5.907564 -2.968315 -25.358843 -37.575719 9.219483 0.000000 0.000000 0.000000 36.713995 7.289618 17.911091 34.159459 -0.841545 -9.905516 -5.163008 37.471854 -0.028612 0.000000 0.000000 0.000000
-0.007067 1.320327 -0.062595 -0.094636 11.016366 -11.497256 6.064976 -0.822622 -13.941090 -3.029828 -1.411503 31.584496 -1.407393 7.241260 21.887114 0.000000 0.000000 0.000000 -5.557116 -0.081960 -1.302027 4.106617 -1.178233 21.446925 1.356415 -6.995408 36.454398 0.000000 0.000000 0.000000 -15.676008 2.175677 48.296955 43.801265 -1.446859 -50.754416 -15.420390 28.735891 29.970816 2.294148 -3.404700 9.494073 0.000000 0.000000 0.000000 -31.385976 -5.926650 -12.924140 -26.278125 5.231273 -2.723207 -29.561746 -39.481204 10.160176 0.000000 0.000000 0.000000 34.795291 7.723374 18.189164 33.650134 -3.046563 -9.301230 -0.589435 40.141616 1.461491 0.000000 0.000000 0.000000
-0.013960 1.389094 -0.104577 0.291201 11.464105 -8.129999 5.710444 -1.236029 -18.333900 -3.933025 -0.912910 29.308078 -0.986949 10.715821 33.243439 0.000000 0.000000 0.000000 -5.967747 0.279848 -10.947123 6.000286 -2.798908 31.802840 2.162592 -5.135414 32.146731 0.000000 0.000000 0.000000 -14.314299 1.591187 52.512973 31.539456 -0.251912 -49.751648 -8.139055 20.724004 29.331713 1.374718 -6.640718 17.933507 0.000000 0.000000 0.000000 -36.122413 -11.748242 -6.217634 -23.322600 1.705517 -2.164687 -17.238797 -40.954618 6.969562 0.000000 0.000000 0.000000 31.734636 8.258018 14.203866 33.064074 0.070524 -7.897936 -5.443374 36.800166 0.307868 0.000000 0.000000 0.000000
-0.018495 1.444413 -0.153526 -1.139855 12.438398 -7.314115 6.395176 -1.343851 -20.093540 -3.887986 -1.804109 37.270025 -2.400890 7.236639 25.849692 0.000000 0.000000 0.000000 -6.384216 0.234165 -22.376640 9.380757 -7.055266 47.747530 -0.726156 -7.946914 24.484375 0.000000 0.000000 0.000000 -13.246976 0.555466 65.108722 30.923363 3.335095 -60.190049 -3.949355 20.757498 38.222886 3.168429 -4.167655 9.091247 0.000000 0.000000 0.000000 -38.693963 -16.155833 -2.321444 -19.330496 -5.822958 -1.239572 -10.130395 -45.033216 5.133081 0.000000 0.000000 0.000000 31.522220 12.930964 16.922481 24.090176 5.707042 -5.411801 -9.613760 33.337969 -1.686367 0.000000 0.000000 0.000000
-0.020343 1.491197 -0.204631 -1.017300 9.450310 -5.138602 8.701583 -1.152409 -24.352840 -11.280062 1.885737 48.998164 4.758864 14.108611 18.383968 0.000000 0.000000 0.000000 -7.573810 0.019886 -31.965176 11.304171 -8.615354 56.187590 -1.990582 -9.257657 17.777176 0.000000 0.000000 0.000000 -14.721350 2.758777 71.281699 28.666400 1.066984 -50.843906 -0.499457 20.271695 26.636589 3.168102 -4.271459 8.132368 0.000000 0.000000 0.000000 -38.310263 -18.678657 -0.230537 -20.752886 -11.355050 0.032646 -7.006948 -42.587857 3.569881 0.000000 0.000000 0.000000 27.093867 20.168876 18.660372 22.473684 6.236649 -3.772711 -14.653300 27.501707 -2.521842 0.000000 0.000000 0.000000
-0.020793 1.525833 -0.253056 -1.831575 9.924970 -0.752424 10.172419 -1.280167 -29.558123 -13.218651 3.027605 50.951153 6.554988 16.251325 15.482742 0.000000 0.000000 0.000000 -10.326680 -1.206755 -38.066834 12.853791 -10.812918 61.416367 -2.724625 -9.873692 13.612515 0.000000 0.000000 0.000000 -13.582272 1.780070 75.238379 23.855336 0.843825 -48.449489 5.386218 15.821768 23.303327 -2.357304 1.753723 8.290175 0.000000 0.000000 0.000000 -40.661817 -20.259485 3.628189 -19.531803 -16.162224 0.369743 -0.652366 -42.253550 1.451798 0.000000 0.000000 0.000000 20.524587 23.838767 16.712772 19.351115 7.398658 -2.567386 -13.904904 25.162520 -2.084935 0.000000 0.000000 0.000000
-0.020674 1.555137 -0.296533 -2.434062 7.300673 4.401554 11.966072 -0.783825 -33.048769 -15.735760 5.351390 49.205769 9.143830 19.923458 18.677444 0.000000 0.000000 0.000000 -11.975325 -1.570684 -43.333340 14.618519 -11.952882 65.703026 -5.311435 -14.851941 14.945477 0.000000 0.000000 0.000000 -12.390346 2.246997 75.337777 24.407638 0.682643 -47.426025 5.716007 16.029300 22.917287 -3.116542 2.597554 6.893998 0.000000 0.000000 0.000000 -40.643230 -21.765061 5.105460 -19.990695 -18.066471 0.595505 4.691198 -45.023466 -0.559277 0.000000 0.000000 0.000000 18.560776 24.041734 16.289122 17.783716 13.772249 -1.809203 -17.424465 23.164860 -2.400105 0.000000 0.000000 0.000000
-0.021347 1.566676 -0.337835 -2.437665 8.251988 7.514150 11.689160 -1.114173 -35.334980 -15.070653 5.017807 52.653039 8.499038 18.904208 13.807364 0.000000 0.000000 0.000000 -12.354683 -1.771657 -42.007210 13.505760 -12.658826 70.409753 -1.756227 -8.743724 14.791846 0.000000 0.000000 0.000000 -11.383734 0.985660 77.170633 22.859891 1.071871 -48.200729 7.978875 16.248937 19.323358 -4.093922 3.103740 7.016562 0.000000 0.000000 0.000000 -42.227692 -23.063036 6.210227 -18.630228 -16.707404 0.546833 1.983843 -47.541419 0.851339 0.000000 0.000000 0.000000 20.958361 25.284992 17.950205 13.698708 12.668386 -1.535000 -17.679025 23.976175 -2.663270 0.000000 0.000000 0.000000
-0.023753 1.564245 -0.379369 -1.651389 8.314744 9.142447 11.384776 -1.379491 -38.186664 -15.938616 6.058925 58.394953 10.682402 22.176794 1.224922 0.000000 0.000000 0.000000 -11.887386 -1.396139 -39.350345 12.746711 -12.559887 71.953638 -1.272914 -7.428478 12.824272 0.000000 0.000000 0.000000 -11.120809 0.802260 74.004814 20.889291 0.596925 -45.436093 8.396937 15.031486 17.081116 -4.770356 2.281187 14.669834 0.000000 0.000000 0.000000 -46.029815 -21.658297 5.689251 -18.866843 -17.332868 0.685317 1.089190 -45.286338 1.375893 0.000000 0.000000 0.000000 23.217117 26.663949 19.405217 12.524655 11.577246 -1.501649 -16.780279 24.271648 -2.595445 0.000000 0.000000 0.000000
-0.026505 1.549254 -0.426320 -1.166073 10.167966 8.152709 9.194772 -2.524817 -40.619543 -16.631827 6.320931 64.604188 11.884421 25.603809 -12.539003 0.000000 0.000000 0.000000 -12.289674 -1.672665 -36.309191 12.800866 -13.426648 70.735729 -3.623017 -9.801724 3.252448 0.000000 0.000000 0.000000 -10.323564 -0.879727 77.014646 21.667818 1.024041 -47.237587 7.299602 16.725615 17.707190 -1.067813 -2.263133 15.503626 0.000000 0.000000 0.000000 -44.529378 -23.339172 6.104862 -22.919572 -17.582817 1.200614 5.651983 -45.759244 -0.729570 0.000000 0.000000 0.000000 22.989275 25.413615 19.043687 12.892668 14.787655 -1.484596 -15.903467 24.735908 -2.450577 0.000000 0.000000 0.000000
-0.028366 1.531711 -0.476864 -0.918803 10.536199 8.164853 9.072614 -3.329925 -47.323223 -20.473521 10.993433 74.527195 11.595716 26.506777 -19.923828 0.000000 0.000000 0.000000 -12.171355 -1.856731 -37.936128 12.663602 -13.428885 70.916424 -4.655026 -11.909554 2.216951 0.000000 0.000000 0.000000 -10.089825 -1.227099 76.302220 23.240483 1.417780 -49.170510 6.448992 18.610111 18.171257 -2.213209 -2.209404 18.724281 0.000000 0.000000 0.000000 -44.610746 -22.553114 4.178168 -22.849253 -16.673032 1.234337 1.735728 -45.331919 0.886524 0.000000 0.000000 0.000000 24.907943 23.741266 19.415676 11.597502 15.439098 -1.591605 -12.862675 23.812426 -1.843541 0.000000 0.000000 0.000000
-0.028743 1.507514 -0.525231 -0.877534 9.207709 7.512693 11.492383 -2.584094 -53.616502 -26.973227 20.177926 80.616623 12.514586 29.559173 -19.138641 0.000000 0.000000 0.000000 -11.924809 -1.671809 -39.832214 11.045518 -11.650881 73.369838 -2.364466 -6.371426 1.379254 0.000000 0.000000 0.000000 -9.959714 -0.613477 76.231304 26.718925 1.821137 -50.802474 5.060467 20.339249 17.499535 -4.206477 -4.280445 30.812024 0.000000 0.000000 0.000000 -47.150362 -19.999133 0.977082 -22.032977 -11.535256 0.562689 -6.201787 -45.307743 4.345619 0.000000 0.000000 0.000000 32.016809 23.129020 22.489963 6.628734 12.154947 -1.573084 -10.505132 27.420737 -1.957421 0.000000 0.000000 0.000000
-0.029144 1.466264 -0.566529 -1.763308 4.810968 4.749923 18.029281 1.816725 -53.618111 -33.980920 30.213578 81.117175 15.230687 32.822334 -8.941587 0.000000 0.000000 0.000000 -11.589022 -0.627913 -39.016208 12.214735 -11.243661 77.938722 -3.756494 -6.962740 -7.437169 0.000000 0.000000 0.000000 -11.735555 3.204986 76.392125 46.832965 3.711435 -54.713992 -7.828041 39.415302 21.877983 -13.646178 -7.419487 50.373021 0.000000 0.000000 0.000000 -39.792313 -23.140031 -5.147545 -20.712696 -3.910812 0.209384 -12.559825 -50.082778 6.926902 0.000000 0.000000 0.000000 41.693361 17.490933 30.713602 0.583707 13.637175 -2.006051 -13.902726 23.953749 -3.358365 0.000000 0.000000 0.000000
-0.030438 1.396175 -0.601469 0.153811 1.095525 -0.245528 19.800109 3.636041 -48.672787 -35.866006 31.341877 76.595307 15.538431 29.499666 5.993572 0.000000 0.000000 0.000000 -16.675065 -1.361459 -33.075070 18.999661 -14.538774 73.633977 -5.836629 -13.148765 -7.576875 0.000000 0.000000 0.000000 -13.215302 5.923767 72.549694 69.323633 4.643507 -56.000840 -26.696827 54.720478 22.793078 -17.668504 -8.486578 48.508910 0.000000 0.000000 0.000000 -38.583969 -20.606335 -15.771710 -15.993289 0.990287 0.129557 -26.421262 -52.684519 14.892343 0.000000 0.000000 0.000000 45.799024 16.682077 40.733574 -2.233093 13.077741 -2.273106 -22.462530 26.466415 -7.496609 0.000000 0.000000 0.000000
-0.032962 1.281454 -0.630683 0.196432 -1.076044 -6.693508 19.265276 3.459893 -40.864666 -31.599152 25.606486 71.430247 15.806654 28.605930 12.966713 0.000000 0.000000 0.000000 -20.837697 -1.956661 -28.606060 21.943750 -13.809479 66.193412 -4.737012 -11.470618 -1.437621 0.000000 0.000000 0.000000 -11.183295 5.329668 73.455424 114.069938 6.521159 -56.947135 -136.663864 67.015036 -61.038022 -24.709544 -21.700042 41.664090 0.000000 0.000000 0.000000 -24.576174 -21.239032 -33.968456 -19.499429 10.487649 0.414885 -46.773961 -48.751672 20.874187 0.000000 0.000000 0.000000 38.001433 8.241779 57.401099 -7.424570 25.216075 -6.417366 -36.239049 19.115500 -10.827195 0.000000 0.000000 0.000000
-0.037875 1.088536 -0.651532 0.347418 -0.797637 -15.923980 18.789403 2.624121 -30.797006 -26.125634 17.521725 63.449263 16.280670 30.174207 6.236337 0.000000 0.000000 0.000000 -22.893373 -2.110106 -21.053904 24.027430 -12.499102 55.394154 -8.101424 -19.292443 -6.152917 0.000000 0.000000 0.000000 -13.449887 5.873202 69.443373 162.922274 -44.519557 -47.997030 -142.189688 5.688478 -94.041582 -79.175350 -18.838481 50.694975 0.000000 0.000000 0.000000 -17.328155 -19.551353 -61.754508 -7.018860 35.209102 2.387252 -69.279916 -26.220292 18.877595 0.000000 0.000000 0.000000 12.447128 -3.474872 85.337279 -13.732287 47.000862 -10.981223 -46.604389 8.791342 -6.728998 0.000000 0.000000 0.000000
-0.044735 0.845012 -0.666458 0.810746 -1.388626 -26.203072 24.064874 3.612654 -22.207282 -23.036037 14.973789 64.326647 11.560984 23.486057 -16.000420 0.000000 0.000000 0.000000 -26.323760 -2.090119 -13.111924 26.303511 -11.695839 48.718549 -8.542079 -17.532154 -29.268665 0.000000 0.000000 0.000000 -12.166942 3.611433 59.960406 -141.035478 -75.639875 -89.351164 -119.842800 -25.875058 -110.034640 -94.269730 -8.712523 58.142482 0.000000 0.000000 0.000000 -19.160534 -16.647833 -64.234127 0.886349 35.868082 5.005456 -77.753865 -15.892976 17.182771 0.000000 0.000000 0.000000 7.760439 -9.326053 85.157131 1.285264 46.185719 -3.069634 -52.786544 19.570761 -10.671344 0.000000 0.000000 0.000000
-0.053420 0.602085 -0.678003 1.748726 -1.000206 -35.292584 28.757762 5.613283 -25.144951 -22.541705 17.832100 80.910286 10.816461 22.162411 -31.810262 0.000000 0.000000 0.000000 -31.549386 -3.151586 -12.500561 31.256019 -16.201386 56.865771 -9.388128 -17.513845 -55.239743 0.000000 0.000000 0.000000 -6.781379 -0.199936 43.907860 -21.120561 -43.564291 160.791074 -50.646284 -30.241511 -149.376425 137.652320 -2.880888 49.549009 0.000000 0.000000 0.000000 -36.988074 -4.510072 1.764842 -16.546368 1.954340 4.454648 -22.678701 -63.705350 25.671461 0.000000 0.000000 0.000000 22.008679 4.076876 6.877410 29.148154 -10.655767 9.262364 -17.758726 62.013662 0.825099 0.000000 0.000000 0.000000
-0.063732 0.427313 -0.686627 1.152114 1.625570 -49.261201 26.568843 6.046454 -32.872791 -15.338581 12.155979 104.721927 9.770047 21.443351 -42.967669 0.000000 0.000000 0.000000 -34.519141 -6.445043 -19.407370 25.161762 -18.371023 83.819566 -9.713543 -13.928294 -60.678704 0.000000 0.000000 0.000000 -12.253052 -3.331420 17.327275 -9.660006 -22.957825 140.977217 -33.672274 -4.407901 -107.219730 161.115446 -2.505356 49.907869 0.000000 0.000000 0.000000 -42.495398 -5.171481 -5.846326 -15.603297 1.616720 0.763596 -29.727341 -63.387758 29.214764 0.000000 0.000000 0.000000 19.918242 2.511460 -0.505717 28.125293 -14.784325 0.896437 -10.907625 74.911319 3.522193 0.000000 0.000000 0.000000
-0.073194 0.311289 -0.692680 0.416686 0.797283 -57.670932 24.976272 7.443252 -46.583639 -8.734197 3.300134 122.525173 8.044134 11.793830 -37.297516 0.000000 0.000000 0.000000 -29.963278 -8.375591 -35.414483 20.950680 -17.416287 99.679519 -8.357409 -21.351822 -53.382626 0.000000 0.000000 0.000000 -8.042901 -3.044590 -6.423756 -4.531712 -20.188502 131.319478 -22.071648 -3.206550 -71.703851 -22.761643 -1.389815 56.249561 0.000000 0.000000 0.000000 -41.158412 -6.411534 -4.478274 -18.373409 0.146251 0.229316 -36.279989 -73.002127 34.923807 0.000000 0.000000 0.000000 17.227077 0.914101 -2.198375 29.948393 -18.427282 -1.569511 -41.924786 80.062124 -29.870996 0.000000 0.000000 0.000000
-0.081521 0.242209 -0.695804 -0.077822 -0.510902 -67.452135 19.502334 5.503266 -51.016049 -2.183588 -9.470874 117.021380 6.857514 2.369025 -35.618318 0.000000 0.000000 0.000000 -21.202852 -5.391566 -39.800943 14.504825 -7.088219 95.084974 -8.751092 -20.690524 -44.557700 0.000000 0.000000 0.000000 -5.163780 -1.777032 -19.785526 -0.900291 -20.587721 119.460044 -20.135059 -4.359706 -57.808157 -5.937038 -3.831348 58.007233 0.000000 0.000000 0.000000 -31.466308 -2.575172 -5.138276 -23.863800 4.222339 -0.639223 -110.316591 -64.601895 89.247411 0.000000 0.000000 0.000000 7.780712 -0.833563 -1.475376 27.162534 -28.489525 -4.552049 102.945521 79.012279 98.265326 0.000000 0.000000 0.000000
-0.088209 0.208974 -0.700185 0.342234 -1.650622 -72.534648 18.940428 5.813193 -52.325694 2.702775 -15.919194 107.404724 3.408813 -7.554124 -26.624509 0.000000 0.000000 0.000000 -17.412090 -3.588942 -41.711844 12.626396 -4.002835 89.513301 -9.172999 -20.102888 -33.972615 0.000000 0.000000 0.000000 -2.434972 -0.157119 -24.119190 3.524206 -16.208527 94.602390 -17.018189 -2.715511 -42.289738 -6.078854 -1.327799 68.529877 0.000000 0.000000 0.000000 -28.945283 -4.496642 -2.234993 -23.605868 10.347912 -2.505876 -141.737669 -51.684862 116.857843 0.000000 0.000000 0.000000 5.286825 4.940550 1.308372 20.067010 -33.286454 -4.448224 125.768066 65.179953 112.128974 0.000000 0.000000 0.000000
-0.093269 0.191374 -0.705041 -0.250989 -2.232784 -76.116573 16.743050 4.492618 -48.803504 6.450679 -16.784317 92.222798 -0.924608 -10.265567 -13.904077 0.000000 0.000000 0.000000 -14.241817 -2.152281 -39.637632 12.216918 -3.437589 78.802180 -10.678863 -22.964951 -21.653058 0.000000 0.000000 0.000000 -1.090005 0.507908 -22.644067 5.930093 -10.364380 58.306523 -12.752547 3.068139 -12.726452 -5.207857 -2.311398 72.354702 0.000000 0.000000 0.000000 -29.126013 -6.061119 0.193381 -20.392770 8.575817 -2.909788 -157.850782 -41.048442 136.890978 0.000000 0.000000 0.000000 4.273319 9.085107 3.553796 9.830294 -30.899935 -1.097007 149.848159 57.512594 136.142724 0.000000 0.000000 0.000000
-0.096611 0.173436 -0.709249 0.018286 -2.752757 -77.140615 15.902115 4.185110 -48.191667 8.994902 -16.982366 84.036726 -8.937379 -15.077237 2.526132 0.000000 0.000000 0.000000 -12.904209 -1.288542 -41.929449 11.793879 -3.045548 74.860895 -11.999570 -24.284731 -6.100161 0.000000 0.000000 0.000000 -0.015172 1.151500 -23.900180 4.842148 -6.049751 40.904539 -7.796947 4.424102 5.688032 -4.811536 -1.487482 72.897287 0.000000 0.000000 0.000000 -29.050277 -5.848723 1.263011 -17.222904 4.915359 -2.830615 -168.424874 -35.546559 158.638088 0.000000 0.000000 0.000000 0.110483 10.735499 4.155453 0.887561 -25.566895 1.713782 163.553115 49.815380 150.339173 0.000000 0.000000 0.000000
-0.098947 0.163356 -0.713460 -1.437148 -2.513745 -78.277714 14.603241 3.062623 -44.330959 11.507565 -17.611073 75.408646 -11.969696 -12.256307 13.795611 0.000000 0.000000 0.000000 -12.570768 -1.405166 -40.930014 11.212328 -3.012559 69.002338 -13.264525 -24.500100 13.371965 0.000000 0.000000 0.000000 0.146494 1.141260 -22.968373 3.609168 -4.013345 28.335487 -2.930605 5.105790 16.049544 -4.210773 -3.833180 72.152544 0.000000 0.000000 0.000000 -25.371005 -6.596819 2.142753 -11.831040 3.424866 -2.045603 -176.378079 -31.226040 -178.900805 0.000000 0.000000 0.000000 -6.723189 12.309719 3.964129 -7.124150 -18.471550 3.557300 167.185471 46.720210 152.977340 0.000000 0.000000 0.000000
-0.100546 0.152581 -0.718004 -2.070720 -2.717619 -79.230676 13.690234 2.554788 -42.706424 12.483284 -17.569949 71.671555 -13.886380 -10.461542 21.226146 0.000000 0.000000 0.000000 -12.547685 -1.434242 -40.864576 10.522388 -2.496669 66.037970 -10.308926 -20.503583 27.377225 0.000000 0.000000 0.000000 -0.023337 1.122292 -23.611263 3.355790 -3.682211 26.480969 -0.700799 6.151142 17.178518 -4.549276 -3.654527 71.013351 0.000000 0.000000 0.000000 -22.215019 -6.785367 2.034194 -5.070582 4.150425 -0.736928 -179.471036 -25.314369 -165.756606 0.000000 0.000000 0.000000 -9.309586 11.920135 3.448519 -13.187875 -12.401081 4.276224 164.009601 39.192792 138.809342 0.000000 0.000000 0.000000
-0.101849 0.158257 -0.722045 -3.055851 -2.206634 -79.125834 14.745058 2.857216 -41.293623 10.561849 -15.570370 68.200252 -15.301471 -9.407810 26.286806 0.000000 0.000000 0.000000 -13.698322 -2.255021 -39.806322 10.506443 -2.686039 63.718967 -8.341966 -18.647467 34.470058 0.000000 0.000000 0.000000 -0.288663 0.977908 -24.328968 2.985221 -3.604429 26.816500 0.612681 6.807476 15.749508 -5.107521 -1.989670 67.388326 0.000000 0.000000 0.000000 -16.354276 -6.657851 1.758551 -2.665767 3.856588 -0.289315 -177.121695 -22.522907 -175.585264 0.000000 0.000000 0.000000 -8.734821 13.229939 3.914533 -15.763945 -10.997014 4.664600 160.769957 33.890389 123.616735 0.000000 0.000000 0.000000
-0.103007 0.168525 -0.724180 -3.896197 -0.758793 -78.135269 15.604259 2.851521 -41.096469 6.554525 -12.548815 67.071768 -11.717900 -4.712351 27.107887 0.000000 0.000000 0.000000 -15.053381 -3.266803 -38.776303 9.787255 -2.590803 61.496306 -9.010755 -19.228492 37.687339 0.000000 0.000000 0.000000 -1.377370 0.365454 -26.563595 2.619197 -4.072289 31.647838 1.686886 8.930139 10.568047 -7.176548 1.416174 70.793992 0.000000 0.000000 0.000000 -13.950270 -7.296279 1.552945 0.092165 4.310895 0.194241 -173.328209 -13.671819 157.501091 0.000000 0.000000 0.000000 -5.473261 14.562104 4.896296 -19.573078 -13.132129 6.213866 159.913585 29.167155 113.945988 0.000000 0.000000 0.000000
-0.104780 0.183598 -0.722864 -4.291405 0.000458 -77.346178 16.598912 3.134458 -40.752531 2.648836 -9.573578 66.336651 -9.465136 -1.044868 29.776446 0.000000 0.000000 0.000000 -16.005677 -3.848107 -37.584379 9.239353 -2.409601 61.686865 -6.989338 -17.219264 35.914085 0.000000 0.000000 0.000000 -1.557866 0.238487 -27.421726 2.007177 -4.133265 35.061181 1.182255 9.995445 6.374664 -8.867224 4.929658 67.921314 0.000000 0.000000 0.000000 -10.321783 -6.553605 1.076478 0.382444 4.657275 0.236516 -171.445199 -8.970359 123.763059 0.000000 0.000000 0.000000 -1.374095 16.805464 6.583821 -17.615018 -15.118747 6.202615 164.190236 32.181703 134.710156 0.000000 0.000000 0.000000
-0.107657 0.197483 -0.718098 -4.586768 0.891045 -76.142229 16.782069 2.935414 -41.584454 0.859487 -8.285251 66.278641 -8.233767 0.331803 29.848625 0.000000 0.000000 0.000000 -16.187992 -3.984995 -35.610244 8.043322 -1.874136 60.690499 -6.856398 -17.026366 35.017104 0.000000 0.000000 0.000000 -1.888314 -0.020332 -27.716250 1.000319 -3.713864 38.009599 2.441141 11.314156 3.298268 -10.554015 7.760040 65.708882 0.000000 0.000000 0.000000 -8.420966 -6.909586 1.123110 -1.117003 6.185248 0.085995 -171.013724 -5.293742 84.916459 0.000000 0.000000 0.000000 0.602683 17.014501 7.185758 -16.206760 -17.659868 6.470648 171.762988 29.222583 160.348920 0.000000 0.000000 0.000000
-0.111226 0.210961 -0.710473 -5.078318 1.757274 -74.807496 18.534946 3.452245 -42.853630 -4.189172 -4.794366 68.663792 -4.599684 3.287950 26.581777 0.000000 0.000000 0.000000 -16.630441 -4.289729 -34.620291 7.021141 -1.447469 61.851294 -7.698649 -17.622392 30.626144 0.000000 0.000000 0.000000 -1.830929 -0.104314 -28.191619 -0.222918 -3.459974 43.752071 1.764841 11.357454 -2.969696 -10.798610 7.917120 67.502585 0.000000 0.000000 0.000000 -7.648516 -5.247898 0.455532 -0.569813 7.047204 0.207742 -167.027945 -5.622000 55.964540 0.000000 0.000000 0.000000 4.728821 18.362622 8.618242 -17.228032 -20.860183 7.435431 174.256830 28.744852 171.354197 0.000000 0.000000 0.000000
-0.115255 0.219923 -0.700469 -5.716439 2.213561 -73.926653 19.279001 3.555151 -45.121839 -7.139832 -2.710710 73.078061 -2.361496 4.750353 22.986410 0.000000 0.000000 0.000000 -16.056300 -4.078980 -33.462876 6.150165 -1.041695 62.953839 -8.072685 -17.991549 25.453164 0.000000 0.000000 0.000000 -1.691609 -0.135510 -25.568412 -0.796546 -4.486193 52.851059 -0.594666 12.259391 -13.327532 -9.668260 2.531290 69.227431 0.000000 0.000000 0.000000 -8.675475 -5.399258 0.178046 1.387213 9.998996 0.590108 -163.221099 -5.080774 39.054611 0.000000 0.000000 0.000000 6.053549 16.236667 7.815077 -16.481464 -23.287966 7.568193 173.633957 28.029861 172.858900 0.000000 0.000000 0.000000
-0.119504 0.219572 -0.689412 -5.610668 2.546818 -71.870680 20.757786 4.102129 -48.993975 -9.341278 -0.574360 79.520582 -0.772611 4.635306 16.017271 0.000000 0.000000 0.000000 -16.042904 -4.094505 -34.858806 7.130594 -1.834846 64.375967 -9.726161 -20.131184 20.153440 0.000000 0.000000 0.000000 -0.776014 0.240804 -22.689363 -2.148486 -5.250415 68.036932 -3.750712 11.162040 -28.537946 -8.769903 0.295371 68.617693 0.000000 0.000000 0.000000 -10.451401 -2.246242 -1.302415 1.440846 13.291208 0.619029 -155.357152 -7.000389 40.205824 0.000000 0.000000 0.000000 5.931563 13.519647 5.929089 -15.796132 -29.605474 8.230539 168.920427 25.269206 156.084144 0.000000 0.000000 0.000000
-0.124135 0.219176 -0.678179 -5.296133 2.703205 -70.586258 23.441603 5.493825 -51.562187 -11.492986 1.777326 83.047666 -0.158050 5.093174 14.735360 0.000000 0.000000 0.000000 -15.767715 -4.009999 -36.573864 7.645048 -2.199834 66.853893 -10.855012 -21.964736 16.453668 0.000000 0.000000 0.000000 -0.587593 0.292917 -15.751201 -2.394969 -7.451142 77.363426 -7.219985 9.642244 -40.322708 -6.344846 -4.709987 63.151039 0.000000 0.000000 0.000000 -11.702183 -0.833601 -2.147717 -0.548731 15.559088 0.271758 -147.380974 -11.486964 50.463456 0.000000 0.000000 0.000000 4.991656 9.839754 3.896182 -9.443339 -31.528440 5.971311 164.511502 28.322694 148.608848 0.000000 0.000000 0.000000
-0.128948 0.210751 -0.665418 -4.065043 2.637067 -69.609455 25.790208 7.127044 -54.242377 -13.156834 4.074891 86.952664 2.848968 8.589572 10.714111 0.000000 0.000000 0.000000 -17.266718 -4.640670 -38.751128 8.928513 -2.659863 67.296143 -10.110656 -21.016408 16.322654 0.000000 0.000000 0.000000 -0.432461 0.277277 -8.644523 -2.288865 -9.434526 84.324891 -8.980714 7.686012 -47.277009 -5.305761 -4.710848 55.077613 0.000000 0.000000 0.000000 -15.628568 0.614192 -3.407390 -5.094067 15.783294 -0.366786 -141.928862 -18.892381 66.123371 0.000000 0.000000 0.000000 6.627895 8.916919 3.222373 -3.904288 -30.510822 3.739112 159.863501 35.743960 146.624551 0.000000 0.000000 0.000000
-0.133436 0.211362 -0.648986 -4.038734 1.877132 -67.434019 29.249029 9.781329 -59.727752 -16.453005 8.829120 89.797581 6.745063 15.572343 18.439948 0.000000 0.000000 0.000000 -17.908000 -4.953711 -42.713307 12.414954 -5.168392 67.786524 -10.671699 -21.922874 18.855044 0.000000 0.000000 0.000000 0.329169 0.364146 -0.084121 -3.244105 -8.345247 93.506072 -8.147929 8.365992 -56.936932 -4.016929 -5.563186 41.534851 0.000000 0.000000 0.000000 -20.585842 -2.354085 -3.426919 -11.741504 12.715848 -0.761049 -138.101578 -27.900748 82.297584 0.000000 0.000000 0.000000 6.890614 8.525209 2.883802 3.041473 -25.571218 1.427997 163.005829 46.759568 167.743994 0.000000 0.000000 0.000000
-0.138379 0.213838 -0.625894 -3.704822 2.191727 -65.159962 31.846826 11.582623 -63.065376 -19.705216 13.109429 90.532437 11.908474 22.280499 25.640857 0.000000 0.000000 0.000000 -22.300449 -7.599921 -48.345357 19.425622 -11.143752 72.178825 -13.559213 -25.802362 23.261321 0.000000 0.000000 0.000000 0.886553 0.078277 13.229428 -5.165504 -13.441510 109.879700 -15.834196 4.614798 -75.729183 -0.436352 -8.697171 31.224189 0.000000 0.000000 0.000000 -18.642910 -4.344468 -1.952772 -23.440161 3.995951 0.883637 -136.589975 -40.136436 95.795269 0.000000 0.000000 0.000000 5.930767 10.301439 3.507251 13.710250 -19.758653 -0.496327 176.041593 57.910138 -161.137665 0.000000 0.000000 0.000000
-0.144748 0.224200 -0.593623 -1.634755 0.776204 -62.154453 35.862708 15.297093 -62.677726 -22.242512 16.252519 89.183721 9.210831 19.232720 27.067654 0.000000 0.000000 0.000000 -24.725018 -8.366127 -52.843518 23.804626 -14.165639 73.337844 -11.478137 -23.493759 25.331790 0.000000 0.000000 0.000000 -0.244149 -0.526870 28.366927 -5.448929 -18.313126 117.273807 -22.773657 -1.197597 -90.774612 -9.334754 -9.120188 23.772843 0.000000 0.000000 0.000000 -21.002482 -4.742873 -1.826973 -27.195686 -0.304203 3.386732 -136.317563 -48.542522 103.776999 0.000000 0.000000 0.000000 5.127784 16.600981 6.983293 20.819562 -14.268795 -0.165118 -163.363870 64.032907 -128.849816 0.000000 0.000000 0.000000
-0.152905 0.240561 -0.552576 -0.881048 0.089784 -56.796943 39.667053 18.359768 -63.606806 -25.197174 19.895044 88.232496 7.137556 17.042008 29.412960 0.000000 0.000000 0.000000 -26.837819 -9.504798 -57.698883 27.049382 -17.310306 73.957037 -9.906293 -21.694368 25.212161 0.000000 0.000000 0.000000 -5.277327 -0.269823 47.196791 -8.390268 -25.202945 131.182613 -34.187704 -10.461088 -111.059988 -17.849413 -16.950632 12.434695 0.000000 0.000000 0.000000 -23.760000 -12.594135 -0.302442 -31.167191 -4.301441 8.085756 -136.965088 -60.410667 109.175687 0.000000 0.000000 0.000000 5.854952 17.646322 10.069487 26.019491 -5.113292 2.523104 -132.796254 61.032357 -82.515462 0.000000 0.000000 0.000000
-0.162359 0.264782 -0.503878 -1.798892 -0.978502 -51.266448 44.839084 20.786867 -60.713912 -27.112159 21.626309 86.598674 5.225533 13.491726 16.653300 0.000000 0.000000 0.000000 -25.258144 -8.432507 -60.107589 26.456140 -17.915804 74.924343 -10.058827 -22.160070 19.106435 0.000000 0.000000 0.000000 -16.230716 4.048979 63.718645 -10.074327 -52.170394 134.724507 -67.187951 -23.512026 -106.471504 -36.654203 -34.047984 16.772730 0.000000 0.000000 0.000000 -23.421658 -16.481596 0.840550 -37.119219 -6.075776 8.795539 -96.121168 -67.793816 62.110893 0.000000 0.000000 0.000000 12.468586 13.130309 34.929258 27.006754 18.883989 3.580214 -102.392115 47.453704 -36.284640 0.000000 0.000000 0.000000
-0.170549 0.297747 -0.448244 -2.425445 -1.615609 -45.296091 47.024480 21.232411 -57.790698 -25.132138 20.251609 87.785141 2.498733 5.362502 0.493614 0.000000 0.000000 0.000000 -23.479489 -7.235206 -62.220435 26.701215 -19.117954 76.035599 -11.455240 -24.910837 11.454159 0.000000 0.000000 0.000000 -22.536119 12.165174 81.985024 159.303386 -73.036847 -43.028008 -124.227400 -8.948280 -77.552887 -13.367821 -16.293226 -2.315238 0.000000 0.000000 0.000000 -22.594647 -27.335449 -24.607408 -37.933875 12.849128 -0.476557 -57.368606 -43.521759 17.162587 0.000000 0.000000 0.000000 12.099361 6.702911 70.200988 7.558826 46.915349 -1.161960 -82.612213 21.550182 -17.533696 0.000000 0.000000 0.000000
-0.175911 0.332779 -0.385130 -3.429652 -1.101056 -40.110659 49.345465 20.878583 -55.083997 -23.727064 19.659846 89.981982 3.315003 -0.155864 -16.219012 0.000000 0.000000 0.000000 -23.123585 -7.413759 -63.603830 26.640128 -20.096318 77.198703 -10.500525 -23.821960 6.106023 0.000000 0.000000 0.000000 -22.314548 15.936640 92.557247 128.243787 -30.364199 -44.437062 -135.054255 38.842834 -62.922631 -3.014321 -0.866115 -11.764564 0.000000 0.000000 0.000000 -26.789482 -33.449572 -33.513607 -30.489186 17.550454 1.441178 -33.513720 -32.076166 7.859608 0.000000 0.000000 0.000000 24.636921 10.783282 73.620346 1.484400 46.337829 -8.943799 -61.088493 19.961050 -17.950977 0.000000 0.000000 0.000000
-0.179307 0.366639 -0.316579 -3.512673 -0.856453 -35.729786 50.930066 19.793839 -50.629834 -21.380179 17.976580 92.816171 5.332492 -2.828681 -29.556449 0.000000 0.000000 0.000000 -23.652343 -7.699352 -63.311330 27.549665 -20.918146 76.107862 -11.256700 -25.568882 3.954171 0.000000 0.000000 0.000000 -22.483947 17.395475 95.425980 113.905312 -19.981177 -45.600122 -120.581533 54.269998 -49.601982 -6.079548 5.239073 -10.480906 0.000000 0.000000 0.000000 -32.123455 -35.100044 -33.415185 -28.087073 16.941964 2.712960 -22.322544 -24.930386 4.468720 0.000000 0.000000 0.000000 35.762326 14.070405 70.569824 4.570557 40.363135 -9.897514 -43.616742 21.366058 -14.701143 0.000000 0.000000 0.000000
-0.183506 0.395986 -0.244190 -3.836150 0.002215 -34.370424 53.317654 18.086414 -44.959442 -20.856442 17.642909 94.995782 6.793092 -1.606670 -36.213071 0.000000 0.000000 0.000000 -24.549725 -8.485789 -61.927954 25.527597 -20.022863 78.572108 -9.029827 -21.194889 2.591809 0.000000 0.000000 0.000000 -22.780124 17.720345 96.624718 104.552895 -14.076689 -47.792641 -102.299338 63.748493 -31.500327 -8.989867 12.101974 -13.312838 0.000000 0.000000 0.000000 -35.735752 -35.627146 -31.929803 -25.793737 14.363272 2.911020 -19.308499 -22.256150 4.155244 0.000000 0.000000 0.000000 39.866702 16.732773 67.056630 7.520388 34.722151 -8.264189 -39.991706 21.323985 -13.369765 0.000000 0.000000 0.000000
-0.190689 0.422995 -0.170734 -3.931614 1.253231 -33.361819 56.149092 15.582690 -37.895630 -20.776766 16.930648 94.631785 6.739090 -3.117602 -37.305014 0.000000 0.000000 0.000000 -25.464006 -9.129972 -58.710946 25.546839 -20.718254 79.481722 -9.009289 -21.221398 -1.932666 0.000000 0.000000 0.000000 -22.375665 15.131835 92.142364 115.201978 -16.575418 -48.416762 -119.817070 55.759712 -44.520729 -2.769897 12.980052 -20.795584 0.000000 0.000000 0.000000 -31.074690 -34.741787 -31.898615 -27.104779 12.320309 2.876407 -17.293697 -23.217713 3.176746 0.000000 0.000000 0.000000 36.963215 15.737925 71.024928 -0.201119 36.407708 -9.437632 -39.841232 15.682957 -11.375449 0.000000 0.000000 0.000000
-0.200327 0.452488 -0.098428 -4.131663 3.992913 -33.672620 56.720102 11.043135 -29.568497 -19.760362 13.736840 92.909067 8.126996 -1.604994 -43.981372 0.000000 0.000000 0.000000 -26.035429 -9.644970 -52.578865 23.261162 -19.814285 80.829887 -7.691575 -17.258405 -10.148784 0.000000 0.000000 0.000000 -23.084712 12.252689 85.561424 123.979428 -19.249539 -49.227925 -127.582267 48.415961 -49.870646 2.863023 11.115730 -21.431637 0.000000 0.000000 0.000000 -26.012760 -32.529807 -29.311796 -26.686908 8.259924 2.339071 -17.081389 -29.554578 2.888605 0.000000 0.000000 0.000000 31.464806 17.507576 72.422869 -6.665806 34.198730 -8.332514 -43.293411 12.351033 -10.714381 0.000000 0.000000 0.000000
-0.210016 0.489129 -0.029421 -3.311710 5.383911 -33.581526 54.425113 6.814443 -20.708798 -18.772513 10.504734 88.020334 9.246941 6.615278 -47.367922 0.000000 0.000000 0.000000 -25.353451 -8.418454 -45.474221 19.400145 -16.692180 81.262337 -7.281130 -14.034725 -19.948577 0.000000 0.000000 0.000000 -23.677080 8.934063 71.399606 124.300100 -41.788508 -41.960403 -116.767998 28.047605 -57.377994 9.517079 -0.392619 -18.154173 0.000000 0.000000 0.000000 -16.713120 -24.971649 -17.987534 -29.174046 -4.907902 2.044719 -11.401391 -38.215662 -1.527983 0.000000 0.000000 0.000000 30.899801 17.043321 76.319267 -15.845621 30.216961 -8.815961 -47.846402 8.131644 -9.549151 0.000000 0.000000 0.000000
-0.218003 0.538158 0.035452 -3.272086 5.808810 -32.824525 51.427823 4.127989 -14.401994 -15.231651 5.552925 83.622768 7.928932 5.259520 -36.250665 0.000000 0.000000 0.000000 -22.539693 -5.978578 -37.921043 17.143511 -13.743307 75.045961 -8.128970 -16.881436 -25.427482 0.000000 0.000000 0.000000 -21.846885 5.603657 58.774683 134.622411 -68.484185 -37.829774 -105.838036 3.711467 -73.814426 7.768987 -6.880781 -17.454568 0.000000 0.000000 0.000000 -8.382913 -17.559694 -2.687650 -28.040251 -23.225731 3.077225 4.950864 -46.618692 -12.501734 0.000000 0.000000 0.000000 19.958464 17.199479 66.843748 -17.731048 37.248084 -9.553596 -49.235908 9.373712 -6.156101 0.000000 0.000000 0.000000
-0.223651 0.597244 0.097021 -2.537290 6.768333 -31.907187 47.789221 2.043745 -9.443721 -9.544085 -0.742485 77.519873 2.022514 -6.171145 -17.601337 0.000000 0.000000 0.000000 -21.040550 -4.413462 -29.720865 14.389469 -11.006429 70.172085 -8.277889 -17.761140 -30.311231 0.000000 0.000000 0.000000 -17.896313 2.757794 48.494030 104.160281 -76.031854 -15.086762 -90.810526 3.711566 -78.678800 2.866157 -15.187809 -7.077005 0.000000 0.000000 0.000000 -5.190408 -13.982079 3.618581 -24.702498 -31.002381 3.579842 13.043501 -46.622532 -15.689350 0.000000 0.000000 0.000000 20.423142 20.067665 63.975166 -18.916198 34.829174 -9.033728 -50.342952 12.429091 -6.803187 0.000000 0.000000 0.000000
-0.226240 0.651401 0.154325 -1.756819 7.452789 -30.876662 44.990407 1.973710 -9.978124 -8.354084 -1.508191 70.736153 -2.041146 -1.724599 4.717002 0.000000 0.000000 0.000000 -20.915297 -3.708881 -23.942011 12.061088 -8.809687 67.032610 -7.453231 -14.159363 -26.991507 0.000000 0.000000 0.000000 -16.323831 1.652547 39.562684 39.441591 -79.273390 51.906852 -78.068948 -0.677384 -87.079567 1.531605 -17.956684 -4.372094 0.000000 0.000000 0.000000 -1.445606 -10.608300 8.667438 -26.292869 -37.959202 5.108522 17.729111 -46.075799 -18.084758 0.000000 0.000000 0.000000 14.471964 20.733604 53.099589 -14.659286 40.899602 -7.989418 -45.886405 18.006583 -5.947684 0.000000 0.000000 0.000000
-0.226179 0.693775 0.209274 -1.521899 8.536052 -30.620908 41.337506 1.269133 -8.511649 -8.551393 -0.898777 59.883953 1.990072 5.119153 2.286431 0.000000 0.000000 0.000000 -20.896334 -3.321846 -19.512460 11.431237 -8.130296 62.531010 -8.325396 -19.684919 -15.790266 0.000000 0.000000 0.000000 -14.163181 0.790746 34.182316 -5.199507 -72.008409 103.172916 -67.343070 -6.416890 -99.571212 -2.315147 -20.035912 -2.199961 0.000000 0.000000 0.000000 -0.861000 -9.022675 11.156790 -29.993220 -43.578907 8.867996 18.529491 -46.252244 -18.780876 0.000000 0.000000 0.000000 9.935614 21.236716 46.393985 -10.245446 46.474480 -5.835995 -40.241736 21.446566 -4.901392 0.000000 0.000000 0.000000
-0.224906 0.725220 0.264467 -0.859367 7.784078 -30.746592 38.084760 0.782751 -5.415724 -8.367622 0.106568 45.802087 3.829043 6.296134 -3.758236 0.000000 0.000000 0.000000 -20.535071 -2.616536 -14.561774 12.174095 -7.338151 55.589844 -9.087615 -21.813755 -6.910711 0.000000 0.000000 0.000000 -12.131414 0.127005 24.244496 -14.967934 -50.030296 124.322388 -48.846020 -9.973383 -114.222338 -5.044183 -18.440538 -2.716848 0.000000 0.000000 0.000000 -1.968778 -9.401670 10.094871 -39.006196 -43.654397 16.686792 20.345627 -47.589411 -21.104509 0.000000 0.000000 0.000000 3.832867 21.638533 30.886945 10.495406 49.937259 6.451380 -34.713126 23.951912 -3.593511 0.000000 0.000000 0.000000
-0.223467 0.738827 0.320943 -1.832981 7.803034 -32.705848 37.980861 -0.071969 -1.618579 -10.155473 1.330386 32.885260 4.770240 5.816164 -8.750771 0.000000 0.000000 0.000000 -20.060660 -1.967569 -7.325674 12.207345 -6.231520 46.576481 -8.250369 -20.005210 -10.764458 0.000000 0.000000 0.000000 -10.440388 -0.551986 12.002356 -8.413600 -32.716852 113.212856 -33.498971 -2.906921 -108.548994 -7.382232 -13.742441 5.631342 0.000000 0.000000 0.000000 -4.318803 -13.236983 4.746694 -47.991698 -33.614779 19.831149 10.826645 -49.793642 -15.523201 0.000000 0.000000 0.000000 7.880289 22.570710 18.210162 29.539668 41.293395 15.409879 -22.703603 28.866770 -3.660594 0.000000 0.000000 0.000000
-0.222798 0.735496 0.375840 -2.169189 6.992726 -35.167631 37.030427 -0.001311 -0.368367 -11.562373 1.888903 24.914047 7.860583 13.631002 -6.928613 0.000000 0.000000 0.000000 -19.240476 -1.503426 -2.060580 11.151352 -5.050469 43.750400 -7.728651 -18.347523 -19.193601 0.000000 0.000000 0.000000 -9.642746 -1.217603 -0.084452 -5.360040 -22.523774 104.831642 -25.162432 2.121707 -96.098770 -9.616326 -9.570531 14.724623 0.000000 0.000000 0.000000 -8.042539 -13.024039 1.919690 -51.775846 -28.037642 18.137654 -1.393396 -53.432137 -8.084561 0.000000 0.000000 0.000000 10.510682 24.719620 15.534407 34.777893 35.785498 14.805589 -15.712332 29.780574 -2.614730 0.000000 0.000000 0.000000
-0.222327 0.712296 0.424258 -3.422474 7.099835 -38.251922 35.088251 0.303214 -1.095432 -11.421637 1.755707 22.988224 11.687187 21.733099 -5.290746 0.000000 0.000000 0.000000 -17.931295 -1.371220 0.767556 9.083520 -4.533788 49.698073 -7.887693 -19.153275 -30.929215 0.000000 0.000000 0.000000 -9.639554 -1.821352 -8.395444 -4.403325 -16.693426 100.007660 -19.301912 6.095151 -87.352965 -15.047586 -7.534639 24.358171 0.000000 0.000000 0.000000 -14.456312 -15.020623 0.276394 -50.213692 -22.497593 15.386611 -7.622558 -51.757636 -2.513735 0.000000 0.000000 0.000000 15.936152 24.270403 14.638684 33.621582 31.498971 12.313421 -11.367516 29.116588 -1.568359 0.000000 0.000000 0.000000
-0.219858 0.663232 0.465984 -5.213742 7.441950 -41.491232 32.886835 0.525454 -2.111103 -6.473650 0.087500 26.003482 9.993620 14.424184 -18.310982 0.000000 0.000000 0.000000 -16.521006 -1.357627 2.039137 6.614997 -4.194653 60.949429 -7.984287 -21.320418 -42.283776 0.000000 0.000000 0.000000 -11.056111 -2.735361 -13.650707 -3.169930 -19.496471 95.105555 -20.547375 9.127457 -75.667575 -11.526555 -5.494571 22.477705 0.000000 0.000000 0.000000 -18.014393 -16.476520 0.246193 -47.727268 -22.179879 13.547273 -3.245806 -51.969006 -3.373212 0.000000 0.000000 0.000000 21.095333 25.596178 18.071776 27.413629 29.272666 7.623522 -8.161331 30.854600 -0.581303 0.000000 0.000000 0.000000
-0.215503 0.604162 0.501393 -4.966590 7.093332 -44.192533 32.004303 0.818606 -2.614920 -3.036945 -2.165470 36.531309 11.822917 13.812896 -37.481571 0.000000 0.000000 0.000000 -16.870167 -1.537493 -0.024569 3.075323 -1.710410 75.732080 -8.077367 -23.218331 -48.960234 0.000000 0.000000 0.000000 -11.173754 -2.771123 -13.753400 -0.951481 -20.660647 87.432420 -19.664332 8.688609 -65.856335 -9.547600 -4.573318 27.378026 0.000000 0.000000 0.000000 -19.758961 -15.920333 0.378492 -45.395069 -22.601340 12.023769 -4.204043 -50.442279 -1.331302 0.000000 0.000000 0.000000 24.508043 27.870674 20.661669 26.115523 27.862996 5.938213 -12.642012 31.456211 -1.842542 0.000000 0.000000 0.000000
-0.210424 0.567621 0.529064 -5.130572 7.345013 -45.416151 29.980274 1.110860 -4.266824 2.136691 -6.457528 46.085608 11.389444 7.381821 -42.929587 0.000000 0.000000 0.000000 -16.266875 -1.587812 -1.144234 0.308619 0.805176 82.987119 -8.699647 -14.992012 -53.988236 0.000000 0.000000 0.000000 -11.655297 -3.054831 -15.121344 0.275799 -19.051463 79.328250 -17.432530 10.063592 -57.736201 -9.163468 -4.133071 30.106738 0.000000 0.000000 0.000000 -27.555053 -19.354836 1.391833 -38.022690 -19.242206 9.262285 -7.509815 -47.272752 2.001671 0.000000 0.000000 0.000000 33.201854 25.877312 21.784396 21.796906 22.601187 3.299756 -10.698809 37.153030 -1.651365 0.000000 0.000000 0.000000
-0.204967 0.560579 0.548659 -4.057295 6.639787 -46.421550 27.311546 1.146655 -3.130305 6.269924 -10.093342 51.348818 11.482094 1.496358 -48.743008 0.000000 0.000000 0.000000 -16.953582 -1.620441 -0.969146 0.591951 1.531128 84.388579 -8.572720 -17.707717 -57.870145 0.000000 0.000000 0.000000 -10.950561 -2.740512 -14.345540 1.719267 -17.037902 71.826484 -15.180884 9.416847 -49.587701 -8.763355 -2.289918 29.928049 0.000000 0.000000 0.000000 -29.944670 -18.474698 1.699325 -34.980612 -18.350909 7.519838 -12.421031 -46.077055 4.977977 0.000000 0.000000 0.000000 35.656706 23.374987 19.629110 19.940422 19.638170 2.223782 -0.577265 42.828805 1.877456 0.000000 0.000000 0.000000
-0.199184 0.611751 0.558527 -2.286118 5.890378 -44.623768 24.197839 0.868932 -0.550953 5.985174 -8.485129 47.691882 9.474024 -1.970995 -40.702962 0.000000 0.000000 0.000000 -17.580815 -1.468575 -0.313436 4.171646 -1.358515 78.033800 -8.152356 -25.745443 -46.480842 0.000000 0.000000 0.000000 -8.911019 -2.078220 -14.278114 0.604448 -13.800983 73.716936 -12.305972 6.562653 -50.506253 -6.519145 -2.552825 29.341620 0.000000 0.000000 0.000000 -29.433642 -18.051596 2.610339 -33.105354 -19.406574 7.253148 -11.472240 -50.180785 5.536169 0.000000 0.000000 0.000000 32.843006 24.125413 17.398996 22.036272 17.210674 2.663870 4.075453 47.262523 4.142419 0.000000 0.000000 0.000000
-0.193622 0.698285 0.558939 -1.269534 4.161340 -40.718857 22.098001 0.446420 3.529487 4.427782 -4.750965 35.719481 3.482411 -8.966223 -23.033446 0.000000 0.000000 0.000000 -16.236885 -1.013871 1.368574 7.019263 -2.823189 65.109931 -9.026637 -25.220095 -28.748387 0.000000 0.000000 0.000000 -6.025912 -1.112077 -13.294288 1.398936 -16.679608 79.345647 -16.240898 2.272751 -61.211620 -5.950519 -3.843490 25.755658 0.000000 0.000000 0.000000 -26.115716 -17.532786 1.824421 -32.636217 -18.480357 7.885628 -14.395378 -53.485692 6.911262 0.000000 0.000000 0.000000 29.919151 23.778841 15.800142 24.046408 15.660908 3.414154 9.543941 51.216050 7.158088 0.000000 0.000000 0.000000
-0.188364 0.787918 0.550761 0.498691 2.640807 -38.383093 18.838794 0.331156 6.688305 2.273950 -2.401965 26.853162 -1.804225 -6.712762 -4.084072 0.000000 0.000000 0.000000 -16.840985 -0.660013 4.795434 8.637224 -2.701017 51.596612 -8.519409 -20.777710 -10.698845 0.000000 0.000000 0.000000 -3.293271 -0.372029 -9.876689 0.438463 -13.448690 84.402991 -13.774744 -0.228868 -69.299497 -5.577379 -3.058627 18.519879 0.000000 0.000000 0.000000 -19.338867 -17.401968 2.394750 -35.996998 -19.471186 9.396850 -7.868555 -57.162085 3.338970 0.000000 0.000000 0.000000 20.808311 24.803755 13.087992 31.227369 14.050180 5.408296 14.199622 56.333189 9.962266 0.000000 0.000000 0.000000
-0.184573 0.871393 0.537810 1.146239 0.843206 -34.384566 16.393480 0.227220 9.803220 1.255398 -0.943118 14.419013 -7.622326 -5.143389 16.609195 0.000000 0.000000 0.000000 -14.807251 -0.334352 7.031192 9.324508 -2.344369 37.494044 -7.102556 -17.837287 4.242918 0.000000 0.000000 0.000000 -1.630337 -0.107675 -3.115430 4.109743 -18.527151 75.644768 -18.908777 -2.734251 -70.272200 -4.094564 -4.759479 15.179859 0.000000 0.000000 0.000000 -13.561540 -14.450971 1.348116 -39.239430 -20.052487 10.562621 2.945327 -58.268538 -4.256896 0.000000 0.000000 0.000000 18.537284 25.515241 14.411012 37.130303 14.724321 6.932694 16.031207 56.699902 10.247374 0.000000 0.000000 0.000000
-0.182309 0.931819 0.521112 1.155990 0.937031 -29.856822 15.110901 0.192082 8.886058 -0.403221 -0.217181 7.320685 -8.252599 -0.429332 28.817944 0.000000 0.000000 0.000000 -13.276104 -0.245452 8.168715 8.898057 -1.912440 26.233449 -5.485684 -15.882393 15.709708 0.000000 0.000000 0.000000 -0.906153 -0.206015 4.900030 7.282749 -19.515701 57.030574 -21.520700 -0.736159 -64.527247 -4.634261 -5.833086 15.413028 0.000000 0.000000 0.000000 -9.386313 -12.070399 1.049890 -41.249657 -20.275955 10.479145 -0.870220 -56.439270 -2.849495 0.000000 0.000000 0.000000 20.542264 24.403987 16.317863 40.425366 11.428272 6.359083 19.921828 55.044352 11.054893 0.000000 0.000000 0.000000
-0.181233 0.965165 0.501784 1.113885 0.008939 -26.155200 14.617287 0.290588 5.700819 -2.403488 0.183833 5.837740 -5.474912 4.274738 33.564315 0.000000 0.000000 0.000000 -10.971959 -0.232948 7.000443 7.583898 -1.305041 20.730642 -5.242000 -16.308603 24.000479 0.000000 0.000000 0.000000 -1.273021 -0.385517 11.700033 22.572752 -22.107803 8.149476 -31.716722 11.364841 -29.069995 -7.532475 -7.755396 23.619915 0.000000 0.000000 0.000000 -14.923102 -11.103233 -2.360855 -32.691276 -15.833529 4.534517 -11.248270 -56.197800 2.517110 0.000000 0.000000 0.000000 39.892155 25.583095 32.924750 27.720534 11.155714 0.572188 9.144576 53.380306 4.525741 0.000000 0.000000 0.000000
-0.180483 0.979714 0.481464 0.819368 0.579593 -22.902208 14.440483 0.329344 1.308479 -5.196806 0.645599 7.064664 -1.334692 9.084922 34.460005 0.000000 0.000000 0.000000 -8.075248 -0.299225 5.515509 5.293814 -0.681743 17.036800 -5.687776 -17.141625 29.967197 0.000000 0.000000 0.000000 -2.070246 -0.436604 15.977080 21.067059 -17.349025 3.364198 -27.297331 12.232415 -25.988630 -6.667182 -5.943948 20.346272 0.000000 0.000000 0.000000 -16.855714 -12.843321 -2.492030 -33.582424 -15.813368 4.428642 -8.701254 -55.417408 1.215912 0.000000 0.000000 0.000000 37.388636 23.173327 28.018124 31.153405 8.308526 -0.247923 12.624470 51.630891 6.730548 0.000000 0.000000 0.000000
-0.179583 0.979672 0.461622 0.492872 0.343862 -20.350685 15.811791 0.441956 -2.161140 -8.791316 1.402812 10.450961 2.823776 13.458058 35.065828 0.000000 0.000000 0.000000 -6.802982 -0.209666 3.001378 4.862578 -0.567895 16.960952 -6.245022 -17.786177 29.693959 0.000000 0.000000 0.000000 -1.883139 -0.522159 19.498819 17.555585 -3.960646 -37.258365 -14.386671 16.371831 25.213496 -0.873589 -0.039344 9.569131 0.000000 0.000000 0.000000 -28.750994 -15.185786 0.817330 -22.056696 -21.792268 0.239577 -3.964224 -54.973757 1.755779 0.000000 0.000000 0.000000 37.638218 24.327793 22.879912 24.428387 8.767182 -3.740970 12.414501 49.104908 6.632159 0.000000 0.000000 0.000000
-0.177106 0.974848 0.441141 -0.024351 1.535087 -20.745349 15.364459 0.302680 -0.751643 -7.742496 1.229952 14.093611 3.588035 14.188044 32.923768 0.000000 0.000000 0.000000 -6.718886 -0.270608 3.601732 6.029361 -0.917134 15.220423 -5.761970 -17.050557 31.033472 0.000000 0.000000 0.000000 -2.324099 -0.532520 20.369951 9.578008 -2.693661 -25.393238 -7.077030 8.278696 15.254917 -4.130744 3.147151 7.185429 0.000000 0.000000 0.000000 -33.236700 -17.723842 4.524948 -24.550251 -20.412744 0.768038 3.839568 -48.819501 -1.178856 0.000000 0.000000 0.000000 33.067139 22.059175 16.507547 28.787535 6.954030 -3.022257 20.250288 45.339467 9.530420 0.000000 0.000000 0.000000
