HIERARCHY
ROOT Hips
{
	OFFSET -0.001795 -0.223333 0.028219
	CHANNELS 6 Xposition Yposition Zposition Zrotation Yrotation Xrotation
	JOINT LeftUpLeg
	{
		OFFSET 0.069520 -0.091406 -0.006815
		CHANNELS 3 Zrotation Yrotation Xrotation
		JOINT LeftLeg
		{
			OFFSET 0.034277 -0.375199 -0.004496
			CHANNELS 3 Zrotation Yrotation Xrotation
			JOINT LeftFoot
			{
				OFFSET -0.013596 -0.397961 -0.043693
				CHANNELS 3 Zrotation Yrotation Xrotation
				JOINT LeftToe
				{
					OFFSET 0.026358 -0.055791 0.119288
					CHANNELS 3 Zrotation Yrotation Xrotation
					End Site
					{
						OFFSET 0.000000 0.000000 0.000000
					}
				}
			}
		}
	}
	JOINT RightUpLeg
	{
		OFFSET -0.067670 -0.090522 -0.004320
		CHANNELS 3 Zrotation Yrotation Xrotation
		JOINT RightLeg
		{
			OFFSET -0.038290 -0.382569 -0.008850
			CHANNELS 3 Zrotation Yrotation Xrotation
			JOINT RightFoot
			{
				OFFSET 0.015774 -0.398415 -0.042312
				CHANNELS 3 Zrotation Yrotation Xrotation
				JOINT RightToe
				{
					OFFSET -0.025372 -0.048144 0.123348
					CHANNELS 3 Zrotation Yrotation Xrotation
					End Site
					{
						OFFSET 0.000000 0.000000 0.000000
					}
				}
			}
		}
	}
	JOINT Spine
	{
		OFFSET -0.002533 0.108963 -0.026696
		CHANNELS 3 Zrotation Yrotation Xrotation
		JOINT Spine1
		{
			OFFSET 0.005487 0.135180 0.001092
			CHANNELS 3 Zrotation Yrotation Xrotation
			JOINT Spine2
			{
				OFFSET 0.001457 0.052922 0.025425
				CHANNELS 3 Zrotation Yrotation Xrotation
				JOINT Neck
				{
					OFFSET -0.002778 0.213870 -0.042857
					CHANNELS 3 Zrotation Yrotation Xrotation
					JOINT Head
					{
						OFFSET 0.005152 0.064970 0.051349
						CHANNELS 3 Zrotation Yrotation Xrotation
						End Site
						{
							OFFSET 0.000000 0.000000 0.000000
						}
					}
				}
				JOINT LeftShoulder
				{
					OFFSET 0.078845 0.121749 -0.034090
					CHANNELS 3 Zrotation Yrotation Xrotation
					JOINT LeftArm
					{
						OFFSET 0.090977 0.030469 -0.008868
						CHANNELS 3 Zrotation Yrotation Xrotation
						JOINT LeftForeArm
						{
							OFFSET 0.259612 -0.012772 -0.027456
							CHANNELS 3 Zrotation Yrotation Xrotation
							JOINT LeftHand
							{
								OFFSET 0.249234 0.008986 -0.001171
								CHANNELS 3 Zrotation Yrotation Xrotation
								End Site
								{
									OFFSET 0.000000 0.000000 0.000000
								}
							}
						}
					}
				}
				JOINT RightShoulder
				{
					OFFSET -0.081759 0.118833 -0.038615
					CHANNELS 3 Zrotation Yrotation Xrotation
					JOINT RightArm
					{
						OFFSET -0.096012 0.032551 -0.009143
						CHANNELS 3 Zrotation Yrotation Xrotation
						JOINT RightForeArm
						{
							OFFSET -0.253742 -0.013329 -0.021401
							CHANNELS 3 Zrotation Yrotation Xrotation
							JOINT RightHand
							{
								OFFSET -0.255298 0.007772 -0.005559
								CHANNELS 3 Zrotation Yrotation Xrotation
								End Site
								{
									OFFSET 0.000000 0.000000 0.000000
								}
							}
						}
					}
				}
			}
		}
	}
}
MOTION
Frames: 64
Frame Time: 0.050000
0.000000 0.867599 0.000000 -2.597579 25.459346 -3.532856 24.750404 -2.507828 -2.551805 -10.821010 0.673870 19.450539 9.514647 18.612331 4.492578 0.000000 0.000000 0.000000 -22.862001 -3.614201 -11.154298 10.466968 -4.543826 21.320092 -10.107588 -20.706844 15.984954 0.000000 0.000000 0.000000 -3.837354 -0.321640 10.132681 7.075237 -0.862683 -20.352084 0.296101 -12.967853 17.968145 -2.959541 3.262913 -18.335789 0.000000 0.000000 0.000000 -16.146960 -10.778298 3.725929 -47.705146 -37.413715 7.988511 -137.927908 -82.387566 138.121439 0.000000 0.000000 0.000000 10.460331 6.833470 2.910652 38.951706 5.608727 -3.546267 -51.047447 49.293155 -20.354090 0.000000 0.000000 0.000000
-0.004143 0.852607 -0.004076 -2.960479 26.510845 -3.579203 27.150511 -2.729553 -4.416455 -13.647952 1.129892 21.233168 10.106424 18.766814 0.795886 0.000000 0.000000 0.000000 -25.663319 -4.986414 -13.503543 12.611921 -6.455395 25.964968 -7.169114 -15.740306 14.301694 0.000000 0.000000 0.000000 -5.857131 -0.253241 10.970569 8.592312 -1.241444 -21.291907 0.055035 -11.771364 19.216311 -0.076307 1.411053 -15.739043 0.000000 0.000000 0.000000 -17.352987 -13.220108 4.534503 -46.086032 -40.637947 8.917721 -160.793598 -82.698416 163.080847 0.000000 0.000000 0.000000 11.196182 6.878497 3.297708 39.637918 8.779339 -2.894594 -55.164139 50.742057 -22.438269 0.000000 0.000000 0.000000
-0.013607 0.837728 -0.004205 -3.712678 26.603381 -3.662975 29.745842 -2.840781 -6.603268 -15.578891 1.526509 24.094040 10.747224 19.607544 -1.411053 0.000000 0.000000 0.000000 -27.529420 -6.311053 -16.506115 12.236487 -6.839243 28.747278 -6.595220 -14.601007 15.920734 0.000000 0.000000 0.000000 -5.983800 -0.280501 11.804439 9.895504 -1.659790 -20.769514 -1.010405 -10.395513 17.956805 1.771889 0.348401 -16.074503 0.000000 0.000000 0.000000 -15.836491 -15.145896 5.122827 -44.888452 -43.904288 10.046572 154.496052 -84.488230 -148.114897 0.000000 0.000000 0.000000 14.354512 6.454386 3.497491 35.147767 10.970459 -2.147791 -48.938324 49.427536 -18.799091 0.000000 0.000000 0.000000
-0.029410 0.815085 0.000759 -4.139853 28.351684 -5.093978 32.404825 -3.276365 -7.532794 -16.650943 1.649649 26.404741 10.935679 18.855525 -5.878812 0.000000 0.000000 0.000000 -30.889086 -8.354055 -17.791123 10.870062 -6.951001 32.061390 -6.641730 -14.560253 20.816900 0.000000 0.000000 0.000000 -6.298315 -0.462257 14.403727 9.918954 -1.646943 -20.982583 -1.319198 -12.135025 16.814176 2.890702 -0.411345 -17.318254 0.000000 0.000000 0.000000 -16.396633 -16.324119 5.829778 -41.453390 -47.744996 10.677134 112.261855 -82.051004 -100.942501 0.000000 0.000000 0.000000 14.285486 8.081058 4.102234 34.273356 13.469139 -1.346998 -46.571088 48.487363 -17.625678 0.000000 0.000000 0.000000
-0.053170 0.788705 0.012551 -3.887425 28.297652 -5.965059 34.971673 -3.945872 -6.383499 -17.434079 1.905064 26.446221 11.530073 19.023727 -10.101874 0.000000 0.000000 0.000000 -32.957530 -10.219202 -20.583179 9.621293 -7.160105 36.836915 -9.183052 -18.425458 24.257003 0.000000 0.000000 0.000000 -7.380411 -0.411984 14.770845 9.590330 -1.685854 -19.238908 -1.876718 -10.792555 14.640699 2.943449 -0.403773 -16.003877 0.000000 0.000000 0.000000 -14.460088 -19.598055 6.983742 -36.930902 -53.428684 11.195356 78.323096 -73.448243 -60.058507 0.000000 0.000000 0.000000 14.904746 10.495840 5.492777 29.882917 13.480781 -1.201850 -38.972899 49.303018 -14.704026 0.000000 0.000000 0.000000
-0.086794 0.757500 0.033055 -3.300411 28.193629 -5.576502 37.386747 -4.446772 -6.235520 -16.570498 1.820173 26.846685 11.870394 19.148834 -13.075981 0.000000 0.000000 0.000000 -34.833050 -12.491523 -24.477497 10.450316 -9.051738 44.226412 -10.861253 -21.384953 21.962451 0.000000 0.000000 0.000000 -8.502917 -0.254828 13.036414 10.799564 -2.318054 -17.506683 -2.661681 -12.015598 11.856175 2.668932 -0.554645 -14.088622 0.000000 0.000000 0.000000 -13.713906 -17.299902 6.077213 -31.201977 -59.281228 10.768517 66.410273 -63.400254 -41.823728 0.000000 0.000000 0.000000 10.937014 14.548757 6.625078 24.916500 15.992952 -0.417176 -28.932575 43.321680 -9.148097 0.000000 0.000000 0.000000
-0.131859 0.728511 0.064134 -2.152309 26.679076 -6.440332 40.862038 -5.064396 -4.971936 -16.624473 2.141162 28.849388 10.716070 18.093853 -9.482274 0.000000 0.000000 0.000000 -35.027609 -13.678380 -28.298395 11.130387 -11.364668 54.496358 -10.568917 -22.435025 11.076430 0.000000 0.000000 0.000000 -8.507650 -0.206077 11.550467 7.095456 -1.029530 -17.441196 -1.976812 -11.245466 12.643004 2.068783 -0.428077 -11.787774 0.000000 0.000000 0.000000 -13.085480 -18.273082 6.543857 -24.905349 -60.625212 7.846338 67.712679 -55.196093 -36.733778 0.000000 0.000000 0.000000 9.418213 18.304141 8.087278 18.726819 15.850038 -0.586642 -24.478873 37.593599 -6.533897 0.000000 0.000000 0.000000
-0.182673 0.705960 0.103380 -2.407314 24.946273 -8.477756 45.968071 -4.794279 -7.376094 -14.777817 1.862356 37.958497 6.684158 12.980089 -1.020420 0.000000 0.000000 0.000000 -32.529057 -12.420253 -29.440438 11.795678 -13.603513 62.052619 -11.128034 -25.326500 -1.379620 0.000000 0.000000 0.000000 -6.795311 -0.251920 10.117111 4.860310 -0.193556 -19.916305 -2.523646 -8.769246 16.563527 4.670541 -2.309900 -11.071103 0.000000 0.000000 0.000000 -10.860380 -15.974603 5.182854 -25.982025 -60.749301 7.778067 73.343284 -52.758350 -39.019520 0.000000 0.000000 0.000000 5.430245 20.949658 8.698799 16.510049 15.256069 -0.819503 -22.058244 31.411745 -4.594264 0.000000 0.000000 0.000000
-0.230687 0.690305 0.141511 -1.596557 24.958940 -10.452464 45.032771 -2.636438 -13.528178 -14.303452 1.001953 50.199839 6.473813 11.393319 -5.442963 0.000000 0.000000 0.000000 -31.174081 -11.923642 -29.588227 11.454940 -15.572692 69.982708 -11.430996 -27.310835 -8.847875 0.000000 0.000000 0.000000 -7.466290 -0.281857 10.125645 4.628394 -0.208127 -18.232672 -2.240016 -6.648824 14.766843 6.566273 -4.375829 -7.013730 0.000000 0.000000 0.000000 -11.782467 -13.155254 3.610305 -25.660194 -57.256172 6.890407 84.417098 -58.128425 -52.561047 0.000000 0.000000 0.000000 5.317189 18.528413 7.830136 13.878555 13.795867 -0.937317 -17.853328 27.927763 -2.983091 0.000000 0.000000 0.000000
-0.271035 0.673819 0.171385 -2.176080 24.071719 -12.725800 44.010196 -0.970539 -18.683043 -22.328715 5.499008 59.464818 10.021422 17.204022 -23.750596 0.000000 0.000000 0.000000 -29.482169 -11.136919 -29.839557 12.472072 -18.323491 76.026193 -11.862202 -29.090831 -13.153214 0.000000 0.000000 0.000000 -5.415492 -0.453870 12.484423 1.551377 0.825825 -20.716480 -0.470880 -5.077452 16.265568 8.280780 -5.113882 -9.615848 0.000000 0.000000 0.000000 -11.006137 -13.252137 3.549223 -27.958316 -51.670234 6.424156 97.277813 -58.582459 -64.483205 0.000000 0.000000 0.000000 9.006600 15.351788 7.398419 13.158670 10.367617 -1.321457 -18.923720 27.390265 -3.136393 0.000000 0.000000 0.000000
-0.304471 0.661012 0.192368 -2.925836 24.770301 -14.248270 39.860723 0.079555 -23.743881 -25.211472 7.066030 64.824270 10.396751 19.384602 -29.406725 0.000000 0.000000 0.000000 -28.861502 -10.673878 -28.275547 14.726080 -22.056706 78.181341 -12.448497 -31.530352 -17.622722 0.000000 0.000000 0.000000 -4.218519 -0.731552 15.151417 0.736000 1.092472 -21.913700 1.478298 -7.236765 17.538879 7.240589 -4.406004 -10.451847 0.000000 0.000000 0.000000 -12.195148 -9.117594 2.037050 -25.726309 -47.775261 4.868065 106.081934 -56.239774 -69.692753 0.000000 0.000000 0.000000 11.022746 11.587080 5.854190 15.590291 9.802869 -1.577809 -19.795723 26.251656 -3.181578 0.000000 0.000000 0.000000
-0.334386 0.651642 0.205278 -2.109184 22.665449 -15.773512 36.771920 0.396095 -21.796838 -20.181368 3.794862 65.578568 11.040257 21.132791 -27.646426 0.000000 0.000000 0.000000 -30.720750 -11.710180 -30.469710 4.275931 -9.259364 80.163194 14.158794 40.566737 -4.263407 0.000000 0.000000 0.000000 -4.647919 -1.102435 20.730361 3.427584 0.320237 -27.384136 2.815400 -6.632256 21.322246 5.364688 -2.567814 -14.086521 0.000000 0.000000 0.000000 -18.728801 -10.097454 2.484293 -18.178383 -40.332309 1.634972 110.270825 -55.236079 -72.500331 0.000000 0.000000 0.000000 14.862700 10.236502 5.599875 16.689323 7.148982 -2.020824 -25.170756 25.833643 -4.342004 0.000000 0.000000 0.000000
-0.364572 0.642690 0.216621 -1.669100 18.032280 -15.038943 38.488746 0.525018 -17.528987 -16.691442 2.864410 62.641815 11.218796 21.347630 -27.868754 0.000000 0.000000 0.000000 -35.812245 -13.119431 -32.003120 -0.048364 -1.135309 68.196955 154.063844 55.915857 123.547210 0.000000 0.000000 0.000000 -3.172179 -1.176834 21.678885 8.399798 -1.188358 -24.812893 2.552393 -6.187371 21.108434 3.512876 -1.121017 -16.194988 0.000000 0.000000 0.000000 -20.285389 -8.917548 2.454414 -20.540466 -35.740270 1.556847 115.820481 -52.256850 -73.407979 0.000000 0.000000 0.000000 16.436214 12.501422 6.407912 17.445176 7.298923 -1.953014 -29.411610 22.536590 -4.558658 0.000000 0.000000 0.000000
-0.401644 0.630968 0.233586 -0.913302 12.141881 -12.798274 39.474513 0.456902 -11.543156 -12.110004 1.731315 56.985189 11.547913 22.580118 -28.619849 0.000000 0.000000 0.000000 -43.272689 -14.177525 -32.571046 9.251332 -5.131332 54.473918 4.281075 -3.717093 30.707300 0.000000 0.000000 0.000000 1.311444 -1.381246 19.524244 11.025817 -2.633997 -19.664002 0.596028 -3.160052 16.251326 2.980180 -1.322730 -10.067091 0.000000 0.000000 0.000000 -21.514161 -8.684001 2.182151 -25.560502 -30.875827 1.989803 113.000221 -58.762320 -77.607682 0.000000 0.000000 0.000000 17.756309 11.254292 5.553576 21.638360 10.011535 -1.581800 -35.533319 23.448579 -5.818051 0.000000 0.000000 0.000000
-0.454078 0.618923 0.263718 2.080659 4.905719 -10.941038 41.242844 -0.125359 -2.806876 -11.952844 3.543814 49.050805 11.297472 22.817710 -21.596692 0.000000 0.000000 0.000000 -47.199791 -13.451442 -35.810503 21.156690 -11.171956 53.034389 -14.323902 -30.073495 10.970240 0.000000 0.000000 0.000000 4.712751 -1.246101 15.709928 11.974204 -3.602367 -15.879715 -2.988167 -1.437206 13.995792 1.628012 -0.298948 -10.917785 0.000000 0.000000 0.000000 -24.898972 -8.793096 2.688744 -30.122646 -25.550381 1.529193 100.658842 -74.275459 -80.762616 0.000000 0.000000 0.000000 19.996187 13.386052 6.248700 27.785950 12.226414 -1.074436 -42.665251 25.652215 -8.093297 0.000000 0.000000 0.000000
-0.520071 0.608883 0.304743 3.360724 0.796595 -12.417796 45.070454 -0.845645 3.666772 -8.698507 2.291411 44.662610 7.577218 14.811785 -4.675378 0.000000 0.000000 0.000000 -46.874714 -11.680493 -36.388800 28.059697 -15.613227 56.993998 -14.534465 -35.280129 -5.492672 0.000000 0.000000 0.000000 7.264382 -1.417313 16.010061 10.247228 -2.918499 -17.417433 -1.557999 -3.952578 14.524609 -1.671767 1.420070 -3.281836 0.000000 0.000000 0.000000 -28.089529 -7.184904 3.457819 -36.217433 -20.563250 0.161034 -40.698964 -84.129569 42.471968 0.000000 0.000000 0.000000 20.452644 14.010547 5.170337 31.451558 15.152457 -0.062314 -45.145083 28.559358 -10.509437 0.000000 0.000000 0.000000
-0.583260 0.600879 0.340191 4.222362 -1.879469 -15.644018 44.801541 0.268579 3.577541 1.557163 -3.491268 49.688311 3.420397 8.493901 4.536883 0.000000 0.000000 0.000000 -45.627219 -10.664763 -37.837065 32.091179 -20.130571 65.720826 -13.705980 -37.401398 -13.971261 0.000000 0.000000 0.000000 8.997097 -1.784569 19.320008 12.281030 -3.828629 -17.027195 -3.709004 -4.356368 13.285043 -2.694359 2.231638 -4.394938 0.000000 0.000000 0.000000 -31.751801 -7.041428 3.956622 -38.990780 -17.992246 -0.630816 -60.542677 -73.279842 52.267664 0.000000 0.000000 0.000000 21.051960 17.233432 6.392713 33.148439 16.855884 0.674772 -45.206356 36.030036 -13.979387 0.000000 0.000000 0.000000
-0.630164 0.595019 0.362777 5.437536 -4.996786 -17.932603 38.988978 2.427189 -1.100735 10.401809 -10.046754 60.492397 0.313052 -3.872284 -8.677158 0.000000 0.000000 0.000000 -45.577777 -9.998808 -40.263048 36.430686 -24.428360 70.813394 -13.599369 -38.664841 -15.241906 0.000000 0.000000 0.000000 11.334774 -2.335442 23.625333 11.787892 -4.004816 -15.530156 -3.660085 -3.626177 13.041305 -1.498653 1.286517 -9.690232 0.000000 0.000000 0.000000 -33.053149 -10.892573 6.982099 -41.595870 -21.216628 0.454257 -56.511257 -73.733307 49.393680 0.000000 0.000000 0.000000 19.363636 18.894959 6.909719 30.912037 22.008848 1.863908 -49.333253 42.495955 -18.995145 0.000000 0.000000 0.000000
-0.664019 0.596888 0.376537 5.917668 -5.924213 -19.284835 31.307482 3.445826 -8.194482 6.120705 -8.301230 79.280302 13.853738 -25.882161 -62.490060 0.000000 0.000000 0.000000 -44.087040 -9.624156 -42.127159 36.958122 -26.433010 75.442839 -14.488749 -39.702675 -11.975726 0.000000 0.000000 0.000000 12.079621 -2.749100 27.379756 11.674108 -3.771837 -17.286486 -3.151787 -4.632548 14.065390 -2.045374 1.569152 -12.598097 0.000000 0.000000 0.000000 -31.464659 -15.974329 10.866986 -40.958605 -26.365635 1.992338 -21.906690 -79.885943 24.256668 0.000000 0.000000 0.000000 16.136592 22.420350 8.138397 25.394177 26.010805 2.067653 -51.069233 44.153861 -21.160421 0.000000 0.000000 0.000000
-0.693895 0.610320 0.385602 6.374378 -7.292248 -19.216914 25.040704 3.342093 -12.628864 -13.028221 15.378555 88.791528 18.346383 -50.053261 -65.416632 0.000000 0.000000 0.000000 -41.205670 -8.290653 -42.811493 37.500129 -26.600512 75.923716 -15.376662 -41.732050 -10.955178 0.000000 0.000000 0.000000 11.808776 -2.894807 30.572914 13.499810 -3.995017 -19.828303 -3.899089 -3.814322 15.295670 -3.392807 2.583056 -15.741736 0.000000 0.000000 0.000000 -25.763642 -17.355573 10.637090 -40.908355 -32.470698 4.324304 38.741708 -79.306652 -26.422789 0.000000 0.000000 0.000000 11.363052 23.028681 8.095052 22.423804 33.190828 2.566028 -55.947782 41.027762 -21.897651 0.000000 0.000000 0.000000
-0.726119 0.629208 0.393348 5.755662 -6.188615 -18.473520 20.819481 2.738645 -16.063200 -35.220152 32.815804 73.742850 -22.784874 -47.256030 2.845932 0.000000 0.000000 0.000000 -37.734458 -7.516921 -42.260503 37.028288 -26.645400 76.034856 -17.462769 -44.249510 -7.015562 0.000000 0.000000 0.000000 10.372863 -2.852803 31.483448 12.524633 -3.261596 -22.375152 -1.069041 -5.335617 17.112979 -3.776302 2.659836 -14.575589 0.000000 0.000000 0.000000 -21.486669 -19.559350 11.535765 -39.576209 -38.999710 6.448445 62.540683 -71.983139 -41.039314 0.000000 0.000000 0.000000 7.915386 23.204749 7.756976 17.958967 36.592737 1.773256 -61.533916 36.300139 -22.079675 0.000000 0.000000 0.000000
-0.764338 0.653991 0.402518 4.516476 -4.842126 -18.787629 17.467218 1.712257 -13.371969 -38.565466 30.801538 65.198999 -30.837612 -44.277912 16.644748 0.000000 0.000000 0.000000 -32.914308 -5.781101 -37.663398 37.056065 -25.655854 72.996581 -18.801388 -47.564365 -7.830843 0.000000 0.000000 0.000000 8.087115 -2.409016 30.200670 14.186278 -4.162647 -19.668910 -1.502096 -5.291926 16.543825 -2.557115 1.871766 -13.644213 0.000000 0.000000 0.000000 -19.277377 -20.273068 11.158981 -33.682077 -42.972637 6.459662 65.000646 -64.815390 -38.683297 0.000000 0.000000 0.000000 9.703816 23.021672 7.948126 13.418771 37.500459 0.810612 -66.961192 33.040753 -22.101108 0.000000 0.000000 0.000000
-0.809486 0.678180 0.412480 2.009448 -3.463393 -16.895476 16.704131 1.292829 -11.759946 -34.724931 25.389584 62.441205 -19.419331 -46.354698 -2.039106 0.000000 0.000000 0.000000 -30.664090 -4.906816 -33.039704 44.131310 -27.753468 62.818675 -20.390779 -50.260999 -7.151001 0.000000 0.000000 0.000000 5.557090 -1.897925 27.479755 14.015948 -4.038298 -19.717342 -0.466942 -5.278823 18.252418 -2.733404 2.056655 -10.853699 0.000000 0.000000 0.000000 -20.412337 -20.351281 11.441843 -28.595974 -42.619515 4.707306 72.549050 -62.727072 -42.948308 0.000000 0.000000 0.000000 10.902497 22.260266 7.896771 13.736486 35.306080 0.672541 -71.221675 29.716754 -21.254159 0.000000 0.000000 0.000000
-0.858191 0.709502 0.423175 -1.061157 -2.048377 -16.169679 18.642916 1.210707 -9.281867 -27.330966 18.073923 61.448546 -10.874845 -51.403656 -18.229730 0.000000 0.000000 0.000000 -29.320760 -4.313273 -28.451413 49.460308 -28.335593 54.280057 -20.077617 -43.116062 3.253625 0.000000 0.000000 0.000000 2.371540 -1.322098 24.905187 13.576483 -4.080533 -18.173544 1.781822 -4.596684 17.906829 -0.199600 0.069342 -6.276898 0.000000 0.000000 0.000000 -21.731719 -19.767507 11.101748 -27.512783 -41.878705 4.214284 75.568619 -61.730025 -44.681659 0.000000 0.000000 0.000000 11.279515 19.294545 6.905979 18.988131 32.755221 1.472813 -75.340249 28.341084 -21.275297 0.000000 0.000000 0.000000
-0.902947 0.741128 0.434700 -3.098183 -0.668908 -14.978549 19.988543 0.947607 -6.573894 -21.490544 11.795526 56.555391 -2.602688 -52.435535 -31.478103 0.000000 0.000000 0.000000 -30.521116 -4.577480 -26.345295 51.974909 -28.484244 49.738387 -10.657665 -23.817662 18.568926 0.000000 0.000000 0.000000 -0.904462 -0.746203 21.287052 14.361556 -4.481079 -16.979905 1.789672 -4.010730 19.471654 1.769105 -1.567006 -5.225744 0.000000 0.000000 0.000000 -16.056374 -17.820060 8.760444 -32.991341 -43.795443 6.336046 79.194151 -60.655643 -46.072749 0.000000 0.000000 0.000000 12.259264 16.129194 5.864927 24.191504 30.247629 1.862838 -81.367268 31.495038 -25.465448 0.000000 0.000000 0.000000
-0.941291 0.770066 0.447195 -4.545865 -0.393602 -13.681274 22.873959 0.774610 -4.091086 -18.911799 8.823232 50.189150 -3.002161 -52.700063 -30.772571 0.000000 0.000000 0.000000 -30.679027 -4.533971 -25.758241 46.184989 -24.058973 47.364619 18.471809 8.505148 42.865518 0.000000 0.000000 0.000000 -1.762509 -0.539255 17.377949 14.323011 -4.979145 -13.540552 1.033855 -3.029172 18.161821 2.337515 -2.062346 -3.155099 0.000000 0.000000 0.000000 -14.100489 -15.955374 7.282564 -33.232466 -43.799377 6.592130 84.547249 -62.400844 -52.246808 0.000000 0.000000 0.000000 13.075575 14.305616 5.271535 26.567593 29.839750 2.223752 -82.643975 31.316049 -25.251862 0.000000 0.000000 0.000000
-0.975263 0.795332 0.461565 -5.116121 -0.016719 -12.576871 23.561064 0.483043 -2.269385 -15.283783 6.026934 45.140641 -5.129371 -52.227113 -27.177489 0.000000 0.000000 0.000000 -29.345888 -3.895132 -23.685888 30.443062 -13.118621 40.356039 20.000446 14.009769 36.379477 0.000000 0.000000 0.000000 -1.933227 -0.466291 15.385347 13.705220 -4.326606 -15.869926 0.960372 -2.866368 21.568398 2.567404 -2.102186 -5.491796 0.000000 0.000000 0.000000 -14.456969 -12.785282 5.854766 -35.419421 -46.339521 7.750658 90.850089 -66.504327 -61.058549 0.000000 0.000000 0.000000 14.099933 12.536670 4.682612 27.831232 30.417055 2.223362 -85.078861 31.031850 -25.523056 0.000000 0.000000 0.000000
-1.008732 0.812243 0.478040 -5.319037 1.131586 -11.784317 23.948368 0.091173 -0.288192 -11.780302 3.613011 40.334766 -6.227350 -52.082764 -25.179909 0.000000 0.000000 0.000000 -27.474802 -3.086753 -19.876388 17.859823 -5.662908 29.486774 5.689964 0.328386 23.817594 0.000000 0.000000 0.000000 -2.699565 -0.347488 12.925042 13.392972 -4.303123 -15.027244 0.725758 -1.641734 20.251968 4.635279 -3.698150 -5.083041 0.000000 0.000000 0.000000 -15.682304 -13.059014 5.688541 -36.019346 -45.996374 7.899298 89.764933 -70.225248 -64.442939 0.000000 0.000000 0.000000 14.015898 11.048758 4.305994 28.700330 30.671637 2.457657 -81.712108 27.507039 -20.386459 0.000000 0.000000 0.000000
-1.042538 0.823620 0.494896 -5.511793 4.063866 -11.838521 24.688922 -0.222531 -0.453496 -8.126216 1.301796 39.048267 -11.753881 -53.586833 -16.916765 0.000000 0.000000 0.000000 -25.366273 -2.528430 -15.467339 15.019574 -4.499500 25.284012 -4.493201 -13.674754 17.440540 0.000000 0.000000 0.000000 -2.676853 -0.367749 12.246029 12.181410 -3.733970 -15.583186 0.651189 -2.772970 19.319356 5.729510 -4.902667 -3.155785 0.000000 0.000000 0.000000 -16.870966 -12.532557 5.325374 -38.564829 -45.921281 8.782421 89.167613 -74.517806 -68.261317 0.000000 0.000000 0.000000 13.900401 10.341726 4.081707 29.335011 30.076027 2.453943 -80.609761 24.193692 -17.014538 0.000000 0.000000 0.000000
-1.074929 0.833544 0.510607 -5.127049 6.040825 -11.509512 24.644023 -0.495823 -0.044109 -4.788510 -0.418959 36.570020 -16.578588 -53.477987 -9.502090 0.000000 0.000000 0.000000 -24.571041 -2.492466 -14.404814 13.243239 -4.124010 25.586214 -3.336052 -11.629304 18.029882 0.000000 0.000000 0.000000 -3.024856 -0.325480 11.071482 11.164577 -3.224434 -16.265848 -0.107625 -2.913534 19.549098 6.939857 -5.953815 -3.096212 0.000000 0.000000 0.000000 -16.779186 -12.638307 5.125823 -40.518670 -44.295375 8.785028 99.053691 -77.858412 -81.418625 0.000000 0.000000 0.000000 13.787323 9.321352 3.825484 30.160561 28.559822 2.158233 -79.531420 23.615399 -15.701760 0.000000 0.000000 0.000000
-1.105705 0.842498 0.524723 -4.945124 7.969600 -11.370871 25.287723 -0.923789 1.287135 -2.325475 -1.397004 32.535434 -20.853180 -52.949099 -2.871153 0.000000 0.000000 0.000000 -23.003593 -2.316691 -13.363250 13.036884 -4.342818 26.018121 -4.179498 -12.600966 16.616465 0.000000 0.000000 0.000000 -3.031105 -0.313875 10.205931 10.776740 -3.064834 -16.074820 -0.265138 -3.561310 19.297883 7.092730 -6.269829 -2.081328 0.000000 0.000000 0.000000 -18.172048 -11.403736 4.407549 -41.158005 -43.323588 8.636671 99.774474 -79.738701 -84.263614 0.000000 0.000000 0.000000 13.317826 9.364318 3.917443 28.655241 27.228749 1.663060 -75.645835 20.918111 -12.576351 0.000000 0.000000 0.000000
-1.135968 0.851374 0.536913 -4.341585 10.136109 -10.467591 25.643457 -1.327038 1.935731 -0.426061 -1.848064 27.946498 -25.244315 -51.507684 4.308412 0.000000 0.000000 0.000000 -22.228167 -2.272125 -12.529557 13.510793 -4.766557 25.729223 -4.860003 -13.317737 14.316895 0.000000 0.000000 0.000000 -3.739082 -0.257339 9.428831 11.282736 -3.102546 -16.705349 -1.266800 -3.670123 19.253870 8.511144 -7.190358 -3.513418 0.000000 0.000000 0.000000 -19.293710 -11.378379 4.094406 -41.250894 -41.714862 8.081985 110.143313 -81.306718 -96.874944 0.000000 0.000000 0.000000 14.540515 8.428060 3.773257 27.004278 26.108103 1.149255 -74.428757 21.389696 -12.332665 0.000000 0.000000 0.000000
-1.166264 0.857677 0.547204 -4.052178 11.668244 -10.161875 26.545647 -1.758394 2.884640 -0.976352 -1.444544 24.892250 -23.011752 -42.906890 6.782205 0.000000 0.000000 0.000000 -21.521495 -2.197600 -11.673125 14.854288 -5.364388 24.786104 -5.654140 -14.540798 13.840735 0.000000 0.000000 0.000000 -3.878353 -0.246104 9.043117 10.812815 -2.874316 -16.850720 -1.547859 -4.752549 19.664425 9.218856 -7.883438 -3.530469 0.000000 0.000000 0.000000 -19.236402 -10.799917 3.827006 -40.899766 -41.056861 7.685468 117.595468 -81.651529 -104.924485 0.000000 0.000000 0.000000 14.341823 8.865102 3.975434 26.345636 25.015102 0.837001 -73.527395 21.330121 -12.170352 0.000000 0.000000 0.000000
-1.195853 0.863290 0.555670 -3.684699 12.831559 -9.612626 27.483796 -2.072927 3.101432 -2.962683 -0.711753 22.785672 -18.628724 -30.535885 9.027496 0.000000 0.000000 0.000000 -20.595574 -2.072219 -11.187175 16.102027 -5.821819 23.568051 -6.753751 -16.373549 13.101652 0.000000 0.000000 0.000000 -4.274058 -0.220632 8.743009 10.609671 -2.737559 -17.044215 -2.016784 -4.856708 19.657773 10.107106 -8.949658 -2.425746 0.000000 0.000000 0.000000 -18.676931 -10.862249 3.695407 -41.130373 -40.302956 7.474469 120.091824 -80.960816 -107.132312 0.000000 0.000000 0.000000 14.464314 8.406812 3.883494 25.090470 23.692795 0.448190 -72.854043 22.017772 -12.421859 0.000000 0.000000 0.000000
-1.222326 0.864458 0.562545 -3.121900 13.765482 -9.151176 28.103255 -2.255100 2.959682 -7.144154 0.444173 22.225528 -8.644120 -11.832886 7.544543 0.000000 0.000000 0.000000 -19.987504 -2.038261 -11.250346 16.930729 -6.283981 23.588896 -7.290135 -17.328966 10.904536 0.000000 0.000000 0.000000 -3.983301 -0.238606 9.021341 10.415559 -2.711305 -16.453614 -2.490960 -5.668552 18.609124 9.201780 -8.238643 -1.842022 0.000000 0.000000 0.000000 -20.029140 -10.626227 3.595126 -39.729188 -38.763313 6.668834 126.027603 -80.271026 -112.901959 0.000000 0.000000 0.000000 15.069224 9.336103 4.296395 24.124460 22.851179 0.302979 -73.721538 22.608555 -13.268794 0.000000 0.000000 0.000000
-1.243529 0.865895 0.568035 -2.716727 14.175888 -9.067878 28.540175 -2.425857 3.272563 -10.720192 1.365487 21.601979 -0.869096 2.623568 7.659987 0.000000 0.000000 0.000000 -18.724143 -1.847664 -11.279745 16.636119 -6.270910 23.727461 -7.955856 -18.634196 9.357455 0.000000 0.000000 0.000000 -3.731558 -0.258281 9.304964 9.976862 -2.520748 -16.593680 -2.542027 -5.690913 19.140043 8.723608 -7.936106 -1.447889 0.000000 0.000000 0.000000 -21.209308 -11.353061 3.939570 -38.462514 -37.799732 6.012235 125.256615 -79.739027 -111.666667 0.000000 0.000000 0.000000 16.108539 9.214268 4.378376 22.093990 22.055181 -0.038036 -74.940218 23.952276 -14.651428 0.000000 0.000000 0.000000
-1.259193 0.865493 0.571943 -2.398387 14.937157 -9.316684 28.487415 -2.542151 3.488799 -13.766855 2.064436 21.785359 5.918101 13.635226 6.555189 0.000000 0.000000 0.000000 -18.300199 -1.851277 -11.313111 16.979505 -6.736319 24.803457 -8.350155 -19.476368 7.988543 0.000000 0.000000 0.000000 -3.613862 -0.297967 10.089847 9.763663 -2.491704 -16.043232 -2.837732 -6.114386 18.568736 7.724408 -7.137157 -0.861329 0.000000 0.000000 0.000000 -22.479635 -11.570198 4.031691 -37.447789 -36.933254 5.583771 123.644021 -79.034699 -109.366957 0.000000 0.000000 0.000000 16.031720 10.439434 4.970230 21.343772 20.633009 -0.231112 -75.866009 25.407853 -16.127063 0.000000 0.000000 0.000000
-1.270170 0.865901 0.574180 -2.121225 14.894241 -9.383807 28.511695 -2.756243 4.685296 -17.680589 2.913270 20.302803 11.842697 22.803105 5.953901 0.000000 0.000000 0.000000 -17.485107 -1.712340 -11.460086 16.491080 -6.630330 25.284635 -8.522444 -19.947033 6.778643 0.000000 0.000000 0.000000 -3.625636 -0.304824 10.321458 9.630999 -2.497465 -15.612112 -2.743319 -5.496394 18.604801 7.075961 -6.661145 -0.165223 0.000000 0.000000 0.000000 -23.808433 -11.902848 4.046774 -37.146872 -36.753613 5.518159 120.134232 -78.601068 -105.368384 0.000000 0.000000 0.000000 17.037998 10.225317 5.064954 20.193025 19.665944 -0.458646 -77.878840 27.332642 -18.201233 0.000000 0.000000 0.000000
-1.277672 0.864884 0.574905 -2.315405 15.627839 -9.498546 28.508382 -2.867522 4.741063 -19.128344 3.117712 19.819697 14.812429 27.187080 5.270838 0.000000 0.000000 0.000000 -17.326721 -1.765819 -11.676995 17.189188 -7.182930 25.930928 -8.811336 -20.515958 6.592116 0.000000 0.000000 0.000000 -3.560337 -0.324964 10.529522 9.987005 -2.626508 -15.497054 -3.224876 -5.795649 18.272030 7.098480 -6.818439 0.451621 0.000000 0.000000 0.000000 -25.021035 -12.077231 4.065533 -36.846678 -36.458328 5.436878 114.478142 -78.512498 -99.358520 0.000000 0.000000 0.000000 17.095061 10.818938 5.400566 20.563048 18.585728 -0.558433 -79.534052 29.085808 -20.139074 0.000000 0.000000 0.000000
-1.282182 0.865763 0.574341 -2.627673 15.095485 -9.615348 28.505895 -2.946900 5.501663 -20.401069 3.332062 18.710126 17.347608 30.870580 5.588216 0.000000 0.000000 0.000000 -16.324845 -1.569359 -12.044453 16.738301 -6.987291 26.198572 -8.784982 -20.474196 6.600247 0.000000 0.000000 0.000000 -3.758679 -0.300999 10.249579 10.680512 -2.980566 -14.922337 -3.128620 -4.862562 17.895391 7.605662 -7.568981 1.767875 0.000000 0.000000 0.000000 -25.560388 -12.545371 4.122317 -37.281852 -36.470539 5.638454 108.528300 -76.440956 -91.227257 0.000000 0.000000 0.000000 17.124401 10.991410 5.607020 20.795030 17.863806 -0.645712 -81.508633 31.566295 -22.769442 0.000000 0.000000 0.000000
-1.284481 0.867037 0.572591 -3.129877 15.281394 -9.585326 28.289130 -2.941926 5.425897 -18.999412 2.986271 18.225979 17.337389 30.798499 5.593202 0.000000 0.000000 0.000000 -15.829473 -1.506935 -12.265210 17.019234 -7.120892 25.993544 -8.922608 -20.621230 7.480013 0.000000 0.000000 0.000000 -3.633807 -0.294952 9.814218 10.801299 -3.062043 -14.619160 -3.180987 -5.187782 17.948725 7.651056 -7.638225 1.844566 0.000000 0.000000 0.000000 -26.028824 -12.455858 4.116658 -37.832136 -37.311877 6.037373 101.971739 -74.251525 -82.167757 0.000000 0.000000 0.000000 17.175601 11.413175 5.802670 21.978345 17.489364 -0.655457 -84.239489 33.861425 -25.842965 0.000000 0.000000 0.000000
-1.284973 0.868864 0.569600 -3.663124 15.090620 -9.663443 28.124022 -2.973153 5.790438 -17.949139 2.723315 17.314000 17.464707 30.939925 5.688790 0.000000 0.000000 0.000000 -14.875976 -1.346926 -12.711992 16.432291 -6.901973 26.168894 -8.976671 -20.580226 8.568489 0.000000 0.000000 0.000000 -3.556238 -0.293857 9.650733 10.675550 -2.993837 -14.786616 -2.841225 -5.018057 18.565249 8.329305 -8.301605 1.712143 0.000000 0.000000 0.000000 -26.047005 -12.860436 4.358083 -38.761457 -37.896124 6.399001 102.360702 -71.761290 -79.874071 0.000000 0.000000 0.000000 17.295525 11.417054 5.862409 22.495038 17.228942 -0.723145 -85.596190 35.771912 -28.109458 0.000000 0.000000 0.000000
-1.284361 0.870108 0.565720 -3.949126 14.810052 -9.518274 27.776296 -2.846234 5.562375 -17.153491 2.578570 17.178754 17.685629 31.253407 5.781586 0.000000 0.000000 0.000000 -14.529900 -1.285982 -13.159382 16.295381 -6.868090 26.457454 -8.507947 -19.705064 8.236575 0.000000 0.000000 0.000000 -3.643336 -0.273015 9.228561 10.498012 -2.933973 -14.768822 -2.650198 -4.974258 18.856618 8.144390 -8.169143 1.880568 0.000000 0.000000 0.000000 -25.728888 -12.647992 4.278804 -39.918497 -38.845823 6.966683 100.037093 -70.307475 -75.942429 0.000000 0.000000 0.000000 17.377998 11.954026 6.140118 22.776232 16.963044 -0.761649 -86.079581 37.162277 -29.635292 0.000000 0.000000 0.000000
-1.282884 0.871423 0.561413 -4.296971 14.117172 -9.420651 27.349599 -2.686313 5.522813 -16.281705 2.452014 17.073452 18.090568 31.846037 5.994357 0.000000 0.000000 0.000000 -13.988145 -1.153651 -13.497371 16.275452 -6.755692 26.412389 -8.374658 -19.528181 7.796915 0.000000 0.000000 0.000000 -3.532077 -0.266989 9.014975 9.883781 -2.678432 -15.066822 -2.180736 -4.854585 19.569410 8.478923 -8.346976 1.120685 0.000000 0.000000 0.000000 -25.661117 -12.504315 4.321965 -40.871590 -39.424081 7.317198 102.174516 -69.289467 -76.728703 0.000000 0.000000 0.000000 16.990118 12.566722 6.380294 22.755154 17.027964 -0.773285 -83.923829 37.614003 -29.047282 0.000000 0.000000 0.000000
-1.280524 0.872363 0.557121 -4.360551 13.835664 -9.443852 26.515892 -2.513926 5.468858 -15.232936 2.261048 17.128847 18.337818 32.204796 5.880292 0.000000 0.000000 0.000000 -13.692443 -1.086627 -13.598694 16.190944 -6.701151 26.499873 -8.693535 -20.261391 7.178600 0.000000 0.000000 0.000000 -3.566056 -0.270777 9.225656 9.664935 -2.565747 -15.368421 -1.976651 -4.586709 20.214712 8.750545 -8.602225 0.962055 0.000000 0.000000 0.000000 -25.648554 -12.208317 4.134227 -41.623801 -39.885789 7.626090 104.524161 -69.551565 -79.268941 0.000000 0.000000 0.000000 16.489914 12.733212 6.454572 22.723132 17.587997 -0.733150 -81.670650 37.555594 -27.831230 0.000000 0.000000 0.000000
-1.277340 0.873605 0.553068 -4.650983 13.263455 -9.672293 25.704833 -2.340471 5.614478 -13.911761 2.036789 17.363750 18.696380 32.721104 5.929972 0.000000 0.000000 0.000000 -12.986099 -0.929949 -13.661122 15.632031 -6.342244 26.273749 -9.053609 -20.927608 7.886191 0.000000 0.000000 0.000000 -3.468100 -0.273250 9.156643 9.516742 -2.532725 -15.343696 -1.938370 -4.042909 20.556963 9.163752 -9.210748 1.691913 0.000000 0.000000 0.000000 -25.169209 -12.242134 4.087956 -42.475785 -39.915584 7.840846 106.357866 -69.793129 -81.400914 0.000000 0.000000 0.000000 15.885751 13.231209 6.690637 23.086534 18.133501 -0.658759 -77.698105 37.041051 -25.433928 0.000000 0.000000 0.000000
-1.273641 0.874066 0.549303 -4.570033 13.289977 -9.699729 24.928358 -2.138711 5.069577 -13.253313 1.920269 18.192441 18.823164 32.928513 5.668154 0.000000 0.000000 0.000000 -12.754423 -0.887322 -13.588798 14.841320 -5.921585 25.787841 -9.442367 -21.613782 8.448601 0.000000 0.000000 0.000000 -3.467594 -0.287064 9.540286 9.007982 -2.273791 -15.967306 -1.630896 -3.678902 20.927516 9.535096 -9.594185 1.678280 0.000000 0.000000 0.000000 -25.413066 -12.026304 3.832634 -43.225200 -39.419200 7.844656 110.506781 -71.829992 -87.912429 0.000000 0.000000 0.000000 15.341435 13.162663 6.685669 22.935448 18.559584 -0.644578 -73.082841 35.456731 -22.098710 0.000000 0.000000 0.000000
-1.269767 0.875049 0.545802 -4.543965 13.636344 -9.971001 24.172741 -2.017652 4.771674 -12.485048 1.737744 18.799262 18.765824 32.838186 5.317282 0.000000 0.000000 0.000000 -12.308717 -0.816948 -13.144664 13.518555 -5.364009 25.433103 -9.591886 -21.828734 8.848562 0.000000 0.000000 0.000000 -3.649675 -0.303176 10.103472 8.582923 -2.090652 -16.184474 -1.457769 -3.305145 21.074113 9.994541 -9.858868 0.997171 0.000000 0.000000 0.000000 -25.134660 -11.889830 3.551547 -43.844896 -39.092509 7.899647 114.415845 -73.947933 -94.497817 0.000000 0.000000 0.000000 14.401861 13.164521 6.685114 23.187484 19.163187 -0.575255 -68.868891 32.065501 -17.902450 0.000000 0.000000 0.000000
-1.266288 0.875360 0.542705 -4.627213 13.953792 -10.193762 23.608030 -1.910084 4.383913 -11.789024 1.565302 19.485209 18.733134 32.799850 4.893421 0.000000 0.000000 0.000000 -12.307973 -0.825075 -12.744483 13.149798 -5.179945 24.981170 -9.679397 -21.918488 9.292049 0.000000 0.000000 0.000000 -3.843545 -0.317361 10.621398 8.316569 -1.959588 -16.475634 -1.154351 -2.771431 21.240115 10.766384 -10.539065 0.700553 0.000000 0.000000 0.000000 -24.762091 -11.953318 3.354168 -44.480795 -38.437621 7.821607 122.493134 -75.687492 -105.326688 0.000000 0.000000 0.000000 13.791242 13.186771 6.753165 22.878246 19.522418 -0.572458 -65.104203 28.882409 -14.476246 0.000000 0.000000 0.000000
-1.263473 0.876660 0.540107 -4.690397 14.165450 -10.140743 23.178521 -1.804138 3.833650 -11.339922 1.446174 19.995139 18.736308 32.778396 4.891506 0.000000 0.000000 0.000000 -12.095520 -0.770145 -11.964233 12.654128 -4.756771 23.363590 -9.801982 -22.120752 9.495586 0.000000 0.000000 0.000000 -4.133609 -0.307437 10.752152 8.279672 -1.967057 -16.230499 -0.864669 -2.524747 20.867187 11.179980 -10.771657 0.258060 0.000000 0.000000 0.000000 -24.571487 -11.601852 3.015909 -44.697565 -38.173482 7.823080 127.096479 -77.311093 -112.225764 0.000000 0.000000 0.000000 12.970496 13.082757 6.639368 23.349658 20.317489 -0.416801 -62.866854 26.142367 -12.058285 0.000000 0.000000 0.000000
-1.261510 0.877998 0.538042 -4.979108 14.364598 -10.170165 22.846902 -1.736502 3.428062 -10.531994 1.237120 20.340151 18.721152 32.712822 4.947725 0.000000 0.000000 0.000000 -11.663581 -0.696580 -11.631633 12.214791 -4.501293 22.584817 -9.932009 -22.257407 10.113826 0.000000 0.000000 0.000000 -4.512586 -0.292475 10.850822 8.269117 -1.892057 -16.878300 -0.442354 -2.306467 21.592846 11.548338 -11.000789 -0.288544 0.000000 0.000000 0.000000 -23.801499 -11.522833 2.909984 -44.917901 -38.692066 7.996882 129.431822 -77.734109 -115.318357 0.000000 0.000000 0.000000 12.422478 12.717323 6.468582 23.534830 20.913565 -0.370805 -61.255210 23.742647 -10.163712 0.000000 0.000000 0.000000
-1.260374 0.880628 0.536296 -5.331050 14.935024 -10.259091 22.878972 -1.724689 2.823720 -10.076609 1.080708 20.743134 18.450339 32.232217 5.226755 0.000000 0.000000 0.000000 -11.241512 -0.636818 -10.911297 11.950989 -4.289268 21.322035 -10.203021 -22.567195 11.120941 0.000000 0.000000 0.000000 -4.864287 -0.276848 10.704412 8.353000 -1.965232 -16.296245 -0.224205 -2.699951 20.998554 10.866391 -10.275865 -0.319832 0.000000 0.000000 0.000000 -23.196294 -11.646634 3.002483 -44.672373 -39.139354 8.149302 127.779271 -78.011420 -113.821925 0.000000 0.000000 0.000000 12.342890 13.013916 6.577686 23.829427 21.241023 -0.260411 -60.760608 22.326499 -9.270639 0.000000 0.000000 0.000000
-1.259752 0.882993 0.534659 -5.618192 15.290566 -10.137236 22.779107 -1.689664 2.287048 -9.513478 0.916420 20.842283 18.294426 31.936402 5.568430 0.000000 0.000000 0.000000 -10.831833 -0.578037 -10.715532 11.672025 -4.113366 20.517126 -10.411210 -22.744957 12.110427 0.000000 0.000000 0.000000 -5.373515 -0.253665 10.730181 8.432964 -1.950606 -16.619599 0.079710 -3.010952 21.059503 9.993588 -9.037357 -1.618381 0.000000 0.000000 0.000000 -22.508856 -11.298105 2.867715 -44.534399 -39.842752 8.350144 124.956766 -77.934426 -110.616526 0.000000 0.000000 0.000000 12.174117 12.929390 6.506670 24.420017 21.583815 -0.172998 -61.463042 22.253353 -9.316687 0.000000 0.000000 0.000000
-1.259191 0.885155 0.533047 -5.812137 15.576796 -9.941827 22.561093 -1.617760 1.638453 -8.926685 0.745700 21.109705 18.177791 31.709754 5.962259 0.000000 0.000000 0.000000 -10.641983 -0.546841 -10.356922 11.641712 -3.959277 19.303194 -10.575323 -22.878597 12.908616 0.000000 0.000000 0.000000 -5.817370 -0.233485 10.787219 8.331692 -1.868411 -16.993903 0.458333 -3.336562 21.173651 9.040222 -7.954282 -2.298086 0.000000 0.000000 0.000000 -22.222189 -11.430782 3.011705 -43.215228 -40.261787 8.127219 115.933428 -76.204907 -99.085344 0.000000 0.000000 0.000000 12.284534 13.336470 6.699162 24.224390 21.465121 -0.212557 -62.848408 21.700683 -9.311831 0.000000 0.000000 0.000000
-1.258334 0.887181 0.531613 -5.948553 15.519252 -9.995909 22.450551 -1.602358 1.648201 -8.668942 0.687437 20.979731 18.166330 31.651447 6.350466 0.000000 0.000000 0.000000 -10.346096 -0.494420 -10.111398 11.323319 -3.765219 18.734405 -10.563239 -22.726590 13.648463 0.000000 0.000000 0.000000 -6.174501 -0.218245 10.894391 8.195754 -1.814360 -17.069157 0.771496 -3.308248 21.322174 8.299394 -7.134227 -2.804455 0.000000 0.000000 0.000000 -22.271597 -10.990722 2.773716 -41.444392 -40.758129 7.824794 105.193302 -73.813014 -85.462921 0.000000 0.000000 0.000000 12.478319 14.076511 7.085145 24.496126 21.596270 -0.186070 -65.964106 21.983305 -10.057221 0.000000 0.000000 0.000000
-1.257010 0.889183 0.530446 -5.800862 15.017009 -9.766142 21.674173 -1.502293 1.910788 -7.927059 0.551874 20.470464 18.423114 31.964367 6.954039 0.000000 0.000000 0.000000 -10.113405 -0.431476 -10.006257 10.694597 -3.394597 17.930596 -10.367518 -22.345440 14.066781 0.000000 0.000000 0.000000 -6.307380 -0.203469 10.991159 8.293618 -1.831089 -17.404484 0.807235 -2.797731 21.461939 7.676418 -6.527529 -2.786319 0.000000 0.000000 0.000000 -22.674734 -10.940296 2.673419 -39.777159 -40.294550 7.224915 99.173389 -69.765697 -75.386654 0.000000 0.000000 0.000000 12.972768 14.126750 7.228821 24.602947 22.152828 -0.110663 -69.764820 23.262318 -11.602405 0.000000 0.000000 0.000000
-1.255316 0.892561 0.529709 -5.672130 14.414683 -9.501942 21.091115 -1.439605 2.309573 -7.547418 0.520055 19.685384 18.685735 32.251317 7.888279 0.000000 0.000000 0.000000 -9.503520 -0.313282 -10.144181 9.443056 -2.879218 17.508021 -10.131494 -21.826087 14.940985 0.000000 0.000000 0.000000 -6.190228 -0.192606 10.789525 8.191205 -1.833635 -17.167179 0.874396 -2.326299 21.300708 7.270614 -6.178418 -2.524146 0.000000 0.000000 0.000000 -23.172441 -10.750123 2.499885 -38.722616 -39.822678 6.834613 96.651561 -65.136669 -68.306673 0.000000 0.000000 0.000000 13.150300 15.149049 7.760025 25.068241 22.229188 -0.046754 -73.741097 23.991419 -12.964671 0.000000 0.000000 0.000000
-1.253607 0.896200 0.529420 -5.415403 13.837526 -9.227882 20.287414 -1.395851 3.108429 -7.022968 0.472747 18.276732 18.929965 32.484166 8.803954 0.000000 0.000000 0.000000 -9.311243 -0.258337 -10.176807 9.055971 -2.724394 17.683476 -9.756043 -21.368897 14.047929 0.000000 0.000000 0.000000 -6.212842 -0.180836 10.937526 8.362321 -1.861325 -17.640453 0.787853 -1.871268 21.362122 6.826586 -5.485247 -3.599256 0.000000 0.000000 0.000000 -23.736524 -10.652622 2.384964 -38.750535 -38.949100 6.572540 98.820648 -62.885463 -68.008267 0.000000 0.000000 0.000000 13.455098 15.646487 8.065896 25.671965 22.940627 0.130116 -77.207889 24.489282 -14.128044 0.000000 0.000000 0.000000
-1.251993 0.900145 0.529520 -5.162214 13.165607 -8.623541 19.581021 -1.329245 3.571060 -6.697798 0.472614 16.896748 19.259781 32.808941 9.945926 0.000000 0.000000 0.000000 -9.026816 -0.181439 -10.165521 8.817153 -2.539780 17.117758 -9.700843 -21.477026 13.163790 0.000000 0.000000 0.000000 -5.886546 -0.172470 10.574455 8.104640 -1.806405 -17.409607 0.954617 -1.453979 20.905679 6.375937 -5.036480 -3.602574 0.000000 0.000000 0.000000 -24.371209 -10.506844 2.245003 -39.148182 -38.252489 6.503626 103.017489 -61.371000 -70.338680 0.000000 0.000000 0.000000 13.534192 16.053943 8.269775 26.231534 23.177423 0.255002 -79.735164 25.565813 -15.599161 0.000000 0.000000 0.000000
-1.250605 0.902935 0.529982 -4.843327 12.868621 -8.505460 18.977882 -1.305151 4.231667 -6.509028 0.472317 15.893884 19.353681 32.845194 10.613295 0.000000 0.000000 0.000000 -9.036000 -0.169951 -9.465005 8.599037 -2.345507 16.026332 -9.750674 -21.644023 13.009805 0.000000 0.000000 0.000000 -5.759195 -0.177523 10.907576 8.108135 -1.791737 -17.632877 0.933507 -1.053357 21.168504 5.881384 -4.531566 -3.793706 0.000000 0.000000 0.000000 -25.397549 -10.333878 2.015372 -38.936576 -37.359462 6.189801 108.009443 -62.450757 -76.438070 0.000000 0.000000 0.000000 13.891498 16.702262 8.692891 25.743679 23.118301 0.184316 -80.193946 24.981639 -15.274998 0.000000 0.000000 0.000000
-1.249273 0.904081 0.530402 -4.331214 12.707736 -8.328091 18.368887 -1.317994 5.237594 -6.631673 0.542507 14.215410 19.419541 32.902888 10.726006 0.000000 0.000000 0.000000 -9.483730 -0.218380 -8.936617 8.579906 -2.226128 14.939230 -9.910334 -21.953248 13.110507 0.000000 0.000000 0.000000 -5.793078 -0.171866 11.088231 7.660888 -1.676656 -17.291849 1.325122 -0.763561 21.413838 5.708014 -4.435479 -3.494709 0.000000 0.000000 0.000000 -26.195525 -10.445028 1.996753 -39.303127 -36.747502 6.088546 116.613192 -64.865383 -88.081077 0.000000 0.000000 0.000000 13.623683 16.651114 8.637530 26.286326 23.447344 0.281901 -81.445281 24.411022 -15.033466 0.000000 0.000000 0.000000
-1.248129 0.904852 0.530737 -4.093942 13.123916 -8.648458 17.827461 -1.295336 5.489380 -6.162096 0.432778 14.299693 19.167833 32.547129 10.628132 0.000000 0.000000 0.000000 -9.492255 -0.241758 -8.422076 7.952849 -2.068890 14.979848 -10.035837 -22.119014 13.333449 0.000000 0.000000 0.000000 -5.661447 -0.205249 11.864619 7.678774 -1.721309 -16.796263 0.871225 -0.369854 21.282863 5.300583 -3.952541 -3.767261 0.000000 0.000000 0.000000 -25.977032 -10.528980 1.819734 -40.195882 -35.716090 6.004254 125.612419 -67.674416 -101.582757 0.000000 0.000000 0.000000 13.639676 16.569156 8.700689 26.620418 23.330117 0.293103 -81.836034 24.723354 -15.217502 0.000000 0.000000 0.000000
-1.247038 0.904779 0.530722 -3.709749 12.774351 -8.315178 17.052504 -1.157583 5.247578 -5.767212 0.360556 14.558469 19.439970 32.891152 10.905592 0.000000 0.000000 0.000000 -9.509767 -0.224880 -8.324097 7.256552 -1.787015 14.248355 -9.896711 -21.937986 13.083703 0.000000 0.000000 0.000000 -5.640512 -0.201965 12.203819 7.860259 -1.791917 -16.806677 0.653389 0.473734 21.780722 5.310767 -3.848240 -4.058064 0.000000 0.000000 0.000000 -27.090960 -10.333031 1.404382 -40.682351 -34.112147 5.611969 138.317849 -69.693692 -119.081516 0.000000 0.000000 0.000000 13.869173 16.176283 8.678287 26.571511 22.492152 0.060525 -82.184096 25.251288 -15.568140 0.000000 0.000000 0.000000
-1.246426 0.905235 0.530801 -3.541957 12.483501 -7.875103 16.185868 -1.011893 4.728884 -4.773079 0.152541 14.952929 19.702887 33.174676 11.426305 0.000000 0.000000 0.000000 -9.803147 -0.240905 -8.291948 7.475538 -1.765901 13.313212 -9.764614 -21.721602 13.110196 0.000000 0.000000 0.000000 -5.193139 -0.235579 12.683547 7.738800 -1.743648 -16.897134 0.217947 0.817185 21.311170 5.120940 -3.365988 -5.371529 0.000000 0.000000 0.000000 -27.272882 -10.379968 1.320353 -39.661463 -30.774325 4.385658 143.291421 -69.905342 -125.742948 0.000000 0.000000 0.000000 14.629233 15.982662 8.763024 26.786001 20.371800 -0.321046 -82.179092 27.877344 -17.821311 0.000000 0.000000 0.000000
