HIERARCHY
ROOT Hips
{
	OFFSET -0.001795 -0.223333 0.028219
	CHANNELS 6 Xposition Yposition Zposition Zrotation Yrotation Xrotation
	JOINT LeftUpLeg
	{
		OFFSET 0.069520 -0.091406 -0.006815
		CHANNELS 3 Zrotation Yrotation Xrotation
		JOINT LeftLeg
		{
			OFFSET 0.034277 -0.375199 -0.004496
			CHANNELS 3 Zrotation Yrotation Xrotation
			JOINT LeftFoot
			{
				OFFSET -0.013596 -0.397961 -0.043693
				CHANNELS 3 Zrotation Yrotation Xrotation
				JOINT LeftToe
				{
					OFFSET 0.026358 -0.055791 0.119288
					CHANNELS 3 Zrotation Yrotation Xrotation
					End Site
					{
						OFFSET 0.000000 0.000000 0.000000
					}
				}
			}
		}
	}
	JOINT RightUpLeg
	{
		OFFSET -0.067670 -0.090522 -0.004320
		CHANNELS 3 Zrotation Yrotation Xrotation
		JOINT RightLeg
		{
			OFFSET -0.038290 -0.382569 -0.008850
			CHANNELS 3 Zrotation Yrotation Xrotation
			JOINT RightFoot
			{
				OFFSET 0.015774 -0.398415 -0.042312
				CHANNELS 3 Zrotation Yrotation Xrotation
				JOINT RightToe
				{
					OFFSET -0.025372 -0.048144 0.123348
					CHANNELS 3 Zrotation Yrotation Xrotation
					End Site
					{
						OFFSET 0.000000 0.000000 0.000000
					}
				}
			}
		}
	}
	JOINT Spine
	{
		OFFSET -0.002533 0.108963 -0.026696
		CHANNELS 3 Zrotation Yrotation Xrotation
		JOINT Spine1
		{
			OFFSET 0.005487 0.135180 0.001092
			CHANNELS 3 Zrotation Yrotation Xrotation
			JOINT Spine2
			{
				OFFSET 0.001457 0.052922 0.025425
				CHANNELS 3 Zrotation Yrotation Xrotation
				JOINT Neck
				{
					OFFSET -0.002778 0.213870 -0.042857
					CHANNELS 3 Zrotation Yrotation Xrotation
					JOINT Head
					{
						OFFSET 0.005152 0.064970 0.051349
						CHANNELS 3 Zrotation Yrotation Xrotation
						End Site
						{
							OFFSET 0.000000 0.000000 0.000000
						}
					}
				}
				JOINT LeftShoulder
				{
					OFFSET 0.078845 0.121749 -0.034090
					CHANNELS 3 Zrotation Yrotation Xrotation
					JOINT LeftArm
					{
						OFFSET 0.090977 0.030469 -0.008868
						CHANNELS 3 Zrotation Yrotation Xrotation
						JOINT LeftForeArm
						{
							OFFSET 0.259612 -0.012772 -0.027456
							CHANNELS 3 Zrotation Yrotation Xrotation
							JOINT LeftHand
							{
								OFFSET 0.249234 0.008986 -0.001171
								CHANNELS 3 Zrotation Yrotation Xrotation
								End Site
								{
									OFFSET 0.000000 0.000000 0.000000
								}
							}
						}
					}
				}
				JOINT RightShoulder
				{
					OFFSET -0.081759 0.118833 -0.038615
					CHANNELS 3 Zrotation Yrotation Xrotation
					JOINT RightArm
					{
						OFFSET -0.096012 0.032551 -0.009143
						CHANNELS 3 Zrotation Yrotation Xrotation
						JOINT RightForeArm
						{
							OFFSET -0.253742 -0.013329 -0.021401
							CHANNELS 3 Zrotation Yrotation Xrotation
							JOINT RightHand
							{
								OFFSET -0.255298 0.007772 -0.005559
								CHANNELS 3 Zrotation Yrotation Xrotation
								End Site
								{
									OFFSET 0.000000 0.000000 0.000000
								}
							}
						}
					}
				}
			}
		}
	}
}
MOTION
Frames: 64
Frame Time: 0.050000
0.000000 0.924421 0.000000 -1.482815 1.879475 -1.635035 12.107228 -0.228405 3.004948 -4.959238 0.577165 7.596151 13.209970 24.930878 14.462287 0.000000 0.000000 0.000000 -11.923298 0.121413 -8.132761 5.151207 -0.599976 3.522961 -6.660413 -17.589863 22.733937 0.000000 0.000000 0.000000 2.663595 -0.877583 13.008956 -4.097073 1.623844 -25.830704 -1.737489 -0.536465 25.289892 10.050458 -5.172649 -21.677686 0.000000 0.000000 0.000000 -12.859834 -12.745548 5.320739 -38.057486 -37.876579 4.971000 69.694552 -77.088014 -52.217218 0.000000 0.000000 0.000000 22.860229 -0.174134 -1.160768 45.204024 25.317670 2.365650 -75.104416 68.186448 -47.994852 0.000000 0.000000 0.000000
-0.000235 0.924102 -0.000496 -1.400918 3.213507 -1.041603 12.900187 -0.327520 2.700010 -5.927172 0.701525 6.732941 11.779061 23.035415 12.784038 0.000000 0.000000 0.000000 -12.357096 0.053812 -8.103837 5.627463 -0.681839 2.878165 -7.388118 -18.444697 23.164985 0.000000 0.000000 0.000000 1.563793 -0.749148 12.727905 -3.729862 1.547879 -26.624438 -1.698743 -1.877096 26.153992 10.594877 -5.779091 -21.162915 0.000000 0.000000 0.000000 -12.936386 -11.881638 5.040305 -36.467082 -38.831586 4.806696 76.787507 -75.878893 -57.322740 0.000000 0.000000 0.000000 22.843226 0.933709 -0.631540 44.170432 26.679502 2.691195 -76.493269 66.682963 -48.072747 0.000000 0.000000 0.000000
-0.000057 0.922962 -0.000299 -1.144594 3.177706 -0.842686 12.779617 -0.295977 1.550819 -5.576222 0.664115 8.825087 10.610396 21.367332 11.841912 0.000000 0.000000 0.000000 -13.123141 -0.011298 -9.261642 6.741636 -0.889199 4.952641 -7.665281 -18.847352 21.686214 0.000000 0.000000 0.000000 1.228918 -0.693996 12.494143 -3.257401 1.454268 -26.053262 -2.010488 0.485658 25.636429 11.946018 -6.335819 -20.985251 0.000000 0.000000 0.000000 -12.637753 -12.333348 4.793947 -34.914197 -39.270644 4.621226 80.399774 -75.051893 -60.945929 0.000000 0.000000 0.000000 24.886137 -0.127443 -0.660410 42.136459 28.945574 3.056667 -75.886423 63.737370 -44.242441 0.000000 0.000000 0.000000
0.000327 0.921975 0.000892 -1.096517 4.068776 -0.337041 13.627503 -0.374924 1.331462 -5.725898 0.668356 8.819074 7.820444 17.037921 9.525764 0.000000 0.000000 0.000000 -13.465003 -0.078476 -9.647640 7.687904 -1.089182 5.630876 -8.762697 -20.383011 20.505843 0.000000 0.000000 0.000000 1.503278 -0.693819 11.813648 -4.809100 1.801968 -26.389037 -1.677946 -0.668744 26.735738 11.956000 -6.699039 -20.109982 0.000000 0.000000 0.000000 -11.410028 -11.905651 4.668777 -32.948179 -39.984146 4.259880 79.693366 -71.106155 -56.614771 0.000000 0.000000 0.000000 24.351757 -0.030705 -0.711938 42.018008 30.814959 3.640683 -76.441219 61.549110 -42.894395 0.000000 0.000000 0.000000
0.000700 0.920153 0.003836 -1.091172 3.848793 -0.105764 13.862613 -0.362084 0.756803 -5.345939 0.610342 9.637938 6.861968 15.555400 9.802460 0.000000 0.000000 0.000000 -13.090894 -0.055294 -10.851547 7.533407 -1.122578 7.543206 -9.655083 -21.798470 19.657456 0.000000 0.000000 0.000000 0.911329 -0.611783 11.555266 -5.287843 1.883711 -26.840960 -0.848824 0.141076 27.070646 11.899185 -6.525097 -20.253185 0.000000 0.000000 0.000000 -10.135086 -11.652436 4.413141 -31.213606 -39.971230 3.792470 81.152820 -66.486666 -54.084090 0.000000 0.000000 0.000000 23.855164 -0.171943 -0.544289 41.517922 30.675129 3.423492 -79.576666 63.212236 -46.400449 0.000000 0.000000 0.000000
0.000714 0.917770 0.008744 -1.564159 3.956378 -0.081050 15.195926 -0.410502 0.549934 -5.872355 0.707823 10.059157 5.892247 14.075156 10.140798 0.000000 0.000000 0.000000 -12.893971 -0.075166 -12.500566 8.063773 -1.370665 10.981195 -9.830325 -22.088625 18.980148 0.000000 0.000000 0.000000 0.054637 -0.533600 11.771522 -5.334223 1.822592 -28.789393 -0.086944 0.544470 28.493086 12.252783 -6.712318 -20.604418 0.000000 0.000000 0.000000 -9.104229 -11.478049 4.271512 -29.439477 -40.983727 3.432759 82.081337 -60.106726 -49.334867 0.000000 0.000000 0.000000 22.859520 0.199335 -0.060924 42.406761 30.545244 3.350482 -87.034588 63.859041 -52.402462 0.000000 0.000000 0.000000
0.000281 0.914234 0.015381 -2.085364 3.890209 0.276284 16.070023 -0.401145 -0.420065 -6.103035 0.772197 12.009145 5.862702 13.860036 9.139093 0.000000 0.000000 0.000000 -12.152344 -0.018421 -14.776798 7.914866 -1.512524 14.975706 -10.226718 -22.757942 18.179849 0.000000 0.000000 0.000000 0.342539 -0.579582 11.985892 -5.805433 1.898069 -29.033990 -0.020724 0.610280 27.857212 12.191943 -7.122144 -18.431349 0.000000 0.000000 0.000000 -8.630682 -11.053124 4.068223 -27.846004 -41.017276 3.081458 87.107673 -53.826078 -47.601692 0.000000 0.000000 0.000000 21.799253 0.944603 0.385588 42.751581 29.749011 3.206252 -97.594017 66.612186 -64.340277 0.000000 0.000000 0.000000
-0.001640 0.908810 0.024320 -2.199013 5.252118 0.729147 16.952402 -0.417378 -2.195534 -6.177675 0.757955 15.658029 4.503322 10.904851 5.702798 0.000000 0.000000 0.000000 -13.288764 -0.325406 -17.730329 10.002816 -2.560010 20.776149 -10.895291 -23.649738 18.092731 0.000000 0.000000 0.000000 -0.065743 -0.575724 12.503360 -5.868562 1.897227 -29.432268 -0.081252 0.625501 27.494546 12.911167 -8.005678 -16.487862 0.000000 0.000000 0.000000 -8.066648 -11.244689 4.017983 -27.103423 -40.883330 2.860937 90.878637 -46.932937 -44.230550 0.000000 0.000000 0.000000 21.396602 0.527233 0.381450 42.502773 29.363523 3.018119 -109.150845 70.510112 -79.384012 0.000000 0.000000 0.000000
-0.006969 0.901550 0.034885 -2.545963 5.310731 0.524644 19.351667 -0.360098 -3.660726 -7.788127 1.208948 20.710000 2.991607 7.498907 3.489504 0.000000 0.000000 0.000000 -14.291542 -0.613254 -20.399464 13.048230 -4.229665 26.965149 -11.400343 -24.559736 16.994162 0.000000 0.000000 0.000000 -0.481085 -0.570477 13.299637 -6.268344 1.954887 -29.776219 0.254958 1.095750 27.231528 13.089260 -8.522512 -14.757271 0.000000 0.000000 0.000000 -8.752099 -11.281722 3.982450 -25.248630 -39.711572 2.210347 90.496172 -42.362566 -39.985668 0.000000 0.000000 0.000000 20.919376 -0.155525 0.113367 43.095424 28.802044 2.906773 -117.048739 74.559980 -91.795977 0.000000 0.000000 0.000000
-0.017585 0.887536 0.047084 -3.042104 6.419804 -0.218094 21.711364 -0.328230 -5.034494 -8.677129 1.448706 25.709928 2.768097 6.099619 0.794778 0.000000 0.000000 0.000000 -18.937168 -2.100942 -25.278372 19.445175 -8.473489 35.413195 -11.302726 -23.747126 22.316937 0.000000 0.000000 0.000000 -1.727398 -0.537055 15.462810 -5.534618 1.740270 -31.742824 0.912409 1.721289 29.265076 13.773438 -8.792077 -15.767589 0.000000 0.000000 0.000000 -8.426663 -9.584605 3.147026 -24.522453 -40.256396 1.908766 92.016670 -39.856950 -39.125745 0.000000 0.000000 0.000000 20.897251 -0.089679 0.609107 42.359925 27.290768 1.914446 -139.103003 74.804721 -115.805095 0.000000 0.000000 0.000000
-0.034222 0.867065 0.061692 -3.938147 6.536019 -0.317541 26.406083 -0.218872 -6.361965 -11.172826 2.407941 29.864508 1.774555 3.144202 -1.300028 0.000000 0.000000 0.000000 -23.080990 -3.916073 -30.672862 20.532384 -9.988804 40.353150 -9.955668 -21.572762 27.649689 0.000000 0.000000 0.000000 -1.635230 -0.637196 17.014654 -4.797213 1.637056 -31.307933 0.902679 2.919980 27.502928 14.061078 -9.288390 -13.735145 0.000000 0.000000 0.000000 -9.831433 -7.968578 2.216257 -23.003601 -37.916609 1.377217 95.036762 -40.596018 -42.620688 0.000000 0.000000 0.000000 20.529702 -0.051646 0.861722 40.073593 25.082751 1.007328 -165.180327 73.300468 -147.211405 0.000000 0.000000 0.000000
-0.058004 0.842302 0.080901 -3.708241 9.702798 -0.836742 29.675366 -0.340970 -8.361941 -11.711261 2.324829 33.689061 2.254436 3.537827 -2.548330 0.000000 0.000000 0.000000 -28.301670 -6.538593 -31.776337 18.875952 -9.098317 37.918741 -12.550948 -24.625998 26.242691 0.000000 0.000000 0.000000 -2.344619 -0.776285 19.940363 -3.449418 1.335526 -33.759948 0.491115 3.097743 28.275426 15.140703 -9.953696 -13.959045 0.000000 0.000000 0.000000 -10.600783 -7.099014 1.493720 -22.580480 -33.997950 0.777070 99.321766 -40.369977 -46.545609 0.000000 0.000000 0.000000 18.045892 0.292994 1.460920 36.529843 21.673728 -0.444143 -168.932970 72.695853 -151.341634 0.000000 0.000000 0.000000
-0.090504 0.822620 0.108283 -2.895643 10.043409 0.165538 32.835755 -1.129789 -5.148622 -13.529787 2.818581 27.978706 4.761115 9.416580 -1.201833 0.000000 0.000000 0.000000 -33.037995 -7.698751 -29.628795 14.365641 -4.709416 24.359350 -12.706263 -24.528368 27.084824 0.000000 0.000000 0.000000 -3.124644 -0.550646 18.448849 -3.709444 1.467578 -32.062489 1.038521 3.962763 27.716083 13.917798 -8.676019 -14.082237 0.000000 0.000000 0.000000 -11.951785 -2.901750 -0.757145 -21.747555 -31.548413 0.465458 103.954047 -40.911466 -51.319452 0.000000 0.000000 0.000000 15.510087 0.596482 1.650544 33.074066 22.091718 -0.445765 -160.349438 76.679629 -142.411745 0.000000 0.000000 0.000000
-0.135481 0.806505 0.147070 -0.928512 10.329633 3.806922 33.694484 -2.255161 -1.076150 -10.815847 1.676232 17.015279 6.359191 13.622232 3.114533 0.000000 0.000000 0.000000 -37.292133 -9.022493 -29.509746 10.092962 -2.109650 12.438433 -15.971393 -25.670486 47.638166 0.000000 0.000000 0.000000 -2.015118 -0.544651 15.794322 -5.327066 1.615233 -33.577303 0.223668 7.032735 28.712602 15.389712 -10.249950 -11.667066 0.000000 0.000000 0.000000 -11.708285 -0.545437 -2.363109 -21.248561 -28.654917 0.078994 111.537773 -41.073682 -59.473544 0.000000 0.000000 0.000000 13.333738 -0.157930 1.635666 28.234799 19.920009 -1.306873 -142.293532 80.577842 -123.274221 0.000000 0.000000 0.000000
-0.195113 0.795032 0.197147 0.821513 9.588411 6.332362 34.922996 -3.647528 4.501858 -6.885258 0.732706 6.309941 6.005852 15.065167 14.777623 0.000000 0.000000 0.000000 -39.440441 -9.918684 -31.122116 10.322300 -2.136490 12.546920 -22.029218 -26.522658 81.052319 0.000000 0.000000 0.000000 -0.477317 -0.428010 10.364001 -8.706248 2.153809 -32.176531 0.034596 7.962692 28.948409 14.890693 -10.873107 -8.549188 0.000000 0.000000 0.000000 -11.276162 1.598654 -3.327258 -21.811171 -24.987390 -0.278292 120.836445 -38.212944 -64.874992 0.000000 0.000000 0.000000 11.403017 1.807152 2.415308 21.252703 18.108652 -1.647118 -54.200508 76.026507 -35.022402 0.000000 0.000000 0.000000
-0.263482 0.781518 0.245551 1.980419 8.280026 7.900576 37.253884 -4.807229 8.390974 -3.937943 0.360342 0.325143 4.188848 13.126634 19.602649 0.000000 0.000000 0.000000 -40.297979 -11.608659 -36.779747 16.924369 -4.938572 21.332391 -45.082563 -24.394764 126.663764 0.000000 0.000000 0.000000 2.577161 -0.882207 11.534383 -12.447020 2.097829 -36.862358 -0.340725 8.512587 28.879437 14.280922 -11.210969 -6.316858 0.000000 0.000000 0.000000 -11.952212 4.441864 -4.728587 -18.782515 -22.638123 -0.706430 126.800502 -37.628716 -70.195194 0.000000 0.000000 0.000000 8.723140 1.338047 1.735155 18.622828 17.534140 -1.638077 -38.047055 71.006282 -20.476966 0.000000 0.000000 0.000000
-0.328339 0.768217 0.279012 2.957695 5.580777 7.300512 38.898907 -4.808520 9.916013 -3.406751 0.280499 8.415428 4.665880 13.209010 17.697762 0.000000 0.000000 0.000000 -38.866302 -12.928899 -45.781288 19.938401 -8.329035 36.309560 -40.411898 -19.950588 140.665768 0.000000 0.000000 0.000000 4.400408 -1.614490 17.048133 -14.855165 1.665769 -42.752788 -1.403364 5.477245 30.213921 13.688025 -13.195664 -1.413445 0.000000 0.000000 0.000000 -12.029035 1.505759 -2.455508 -13.100487 -20.508566 -1.350212 116.740423 -35.147567 -55.399334 0.000000 0.000000 0.000000 12.696836 1.352016 1.652491 9.511476 20.211309 -1.712550 -37.958301 62.766540 -19.816860 0.000000 0.000000 0.000000
-0.381670 0.748814 0.294002 3.073892 2.235208 6.854574 39.386762 -3.934815 9.540196 -4.092341 0.480975 23.494235 8.271301 17.308691 5.691384 0.000000 0.000000 0.000000 -37.478133 -13.038270 -53.143728 24.479926 -12.462738 46.697663 -35.269169 -18.779396 144.187835 0.000000 0.000000 0.000000 7.245786 -2.832713 23.771168 -16.983530 1.616665 -45.337952 -2.815710 -2.362142 28.584529 9.547768 -11.771800 7.776000 0.000000 0.000000 0.000000 -16.248650 -1.568329 0.570009 -5.238959 -17.054487 -1.599155 98.409556 -35.258792 -39.078252 0.000000 0.000000 0.000000 14.327022 2.788693 0.741227 5.108353 23.870715 -1.821231 -44.245331 56.695243 -23.139609 0.000000 0.000000 0.000000
-0.421662 0.717656 0.295745 3.874603 -0.412777 8.828464 38.559647 -3.040801 8.310763 -8.463501 2.996288 38.119993 8.841572 17.438275 -18.314257 0.000000 0.000000 0.000000 -36.325804 -13.689463 -62.174789 27.046164 -15.759503 54.182421 -35.444325 -18.947559 142.752971 0.000000 0.000000 0.000000 8.819041 -3.911012 30.160178 -13.253891 1.412102 -46.865618 -7.038861 -5.788131 24.668934 6.207006 -8.635496 16.197321 0.000000 0.000000 0.000000 -16.543609 -6.918037 4.354540 -0.716422 -12.257027 -1.102302 77.953819 -34.542677 -26.551961 0.000000 0.000000 0.000000 20.638201 1.237548 -1.924902 -0.516628 27.460026 -2.582106 -52.325747 55.576860 -27.743487 0.000000 0.000000 0.000000
-0.448892 0.676541 0.289123 3.623940 -1.174696 11.144863 38.317855 -2.541318 6.399380 -9.020961 4.155347 46.087596 7.673867 10.532638 -30.616433 0.000000 0.000000 0.000000 -37.857286 -16.049316 -68.272264 31.399731 -20.683922 59.341987 -28.174527 -19.751594 140.441758 0.000000 0.000000 0.000000 12.728288 -6.114408 36.155682 -10.139729 1.285741 -47.034352 -9.623332 -8.778466 21.813109 4.286452 -5.457543 17.180454 0.000000 0.000000 0.000000 -19.536306 -8.700744 6.562598 -1.027322 -9.263975 -0.946275 71.195441 -33.124092 -21.791410 0.000000 0.000000 0.000000 22.572836 1.657660 -3.278484 -1.388118 31.537690 -3.186926 -59.845103 52.119954 -29.820673 0.000000 0.000000 0.000000
-0.463364 0.627841 0.275736 2.728494 -3.852450 12.102526 35.606922 -1.571686 5.038717 -7.749745 5.000370 55.078043 6.773971 6.043746 -31.178487 0.000000 0.000000 0.000000 -39.828780 -17.292668 -73.302972 38.265023 -26.334569 60.202881 -29.720901 -19.490548 141.374610 0.000000 0.000000 0.000000 15.962057 -8.226692 43.501022 -10.816349 1.534197 -45.091189 -8.056318 -10.546342 19.722011 3.262306 -3.385376 8.209365 0.000000 0.000000 0.000000 -18.333122 -9.285320 7.446962 -11.061226 -7.581592 -2.076518 78.150003 -33.156598 -22.382514 0.000000 0.000000 0.000000 23.109827 0.938282 -5.035874 1.099137 35.141045 -2.880710 -68.960413 47.889929 -32.203233 0.000000 0.000000 0.000000
-0.467102 0.580809 0.257051 1.679196 -7.438422 11.333268 32.452217 -0.731639 5.017181 -5.268177 5.273568 62.931695 4.800621 1.785854 -23.762144 0.000000 0.000000 0.000000 -43.274681 -17.842210 -75.148637 45.751783 -31.364051 58.429814 -32.487625 -19.060442 142.455217 0.000000 0.000000 0.000000 17.640657 -9.412009 51.660200 -8.360261 1.653090 -41.005840 -7.725181 -6.407531 16.709015 5.332660 -4.671463 -1.729083 0.000000 0.000000 0.000000 -17.823647 -8.594524 5.859135 -20.063871 -9.434049 -2.491672 82.951671 -35.544404 -25.815655 0.000000 0.000000 0.000000 21.587605 2.345112 -2.951555 0.292268 38.253034 -3.215635 -73.881566 37.187492 -26.163991 0.000000 0.000000 0.000000
-0.464999 0.534796 0.231877 1.399892 -8.526239 10.997574 31.695316 0.401579 -0.096610 -3.592970 5.842415 75.150891 4.795417 7.672939 -9.170958 0.000000 0.000000 0.000000 -48.136884 -21.159000 -76.544392 54.196140 -36.425069 55.001018 -35.478368 -18.373808 143.251846 0.000000 0.000000 0.000000 18.798062 -10.552862 57.052402 -7.705815 1.703195 -36.870891 -7.581019 -3.681135 14.403723 7.849406 -5.099177 -11.930596 0.000000 0.000000 0.000000 -19.835054 -11.506952 6.810327 -26.233184 -9.858607 -2.424156 94.509815 -36.760166 -33.394983 0.000000 0.000000 0.000000 16.706748 5.600306 0.298000 -3.344809 39.950156 -4.298293 -73.374028 25.099362 -16.561599 0.000000 0.000000 0.000000
-0.460423 0.502066 0.198794 1.118048 -9.958933 10.346773 32.761328 1.790204 -5.180735 -1.886409 5.791178 84.080502 3.955679 8.847475 2.253869 0.000000 0.000000 0.000000 -49.803585 -22.300378 -78.817051 58.542699 -37.755139 51.409307 -41.147372 -16.294756 148.146255 0.000000 0.000000 0.000000 19.722338 -11.474214 62.625437 -9.762529 1.917358 -37.007735 -6.550125 -2.180440 15.854757 11.366942 -6.148200 -19.315516 0.000000 0.000000 0.000000 -17.661737 -12.662660 6.835968 -31.354084 -14.609497 -1.635024 103.345722 -37.055363 -38.758507 0.000000 0.000000 0.000000 11.573433 8.820110 2.636755 -9.912895 40.420869 -6.276438 -70.787584 14.960530 -8.942777 0.000000 0.000000 0.000000
-0.455416 0.480135 0.160796 0.592976 -8.172229 9.954694 36.069582 2.914354 -9.692318 -2.741176 5.939663 89.636979 3.855355 10.041438 7.857243 0.000000 0.000000 0.000000 -52.603922 -25.325646 -77.662732 63.631186 -40.532209 49.933020 -47.529117 -16.981400 143.258459 0.000000 0.000000 0.000000 17.520435 -11.535306 66.491524 -6.732755 1.589805 -36.020502 -6.339945 2.378846 15.968955 14.879366 -7.101847 -21.746563 0.000000 0.000000 0.000000 -14.029976 -15.383146 6.559516 -32.424514 -16.610212 -0.717881 105.492827 -34.270705 -39.355229 0.000000 0.000000 0.000000 7.990242 10.349065 4.168920 -14.023683 37.604283 -6.341252 -69.492455 9.969685 -4.823939 0.000000 0.000000 0.000000
-0.450021 0.470783 0.120030 -1.192829 -7.621667 8.543145 40.736528 4.637251 -13.255038 -3.507891 6.467602 95.229574 3.221032 9.225453 8.756593 0.000000 0.000000 0.000000 -51.107221 -24.817227 -78.224064 63.322173 -42.316664 53.198086 -56.005734 -20.378074 133.130101 0.000000 0.000000 0.000000 14.268287 -10.406059 71.700736 -6.164656 1.493647 -36.717357 -4.257442 5.295678 16.343437 18.791095 -8.767630 -23.442789 0.000000 0.000000 0.000000 -11.375532 -17.966197 6.914391 -31.088918 -18.592396 -0.155305 106.767396 -30.359114 -37.349491 0.000000 0.000000 0.000000 8.389943 11.704358 5.224070 -16.474446 33.410024 -5.580586 -67.954665 9.026481 -4.024501 0.000000 0.000000 0.000000
-0.445124 0.468972 0.078196 -1.715962 -4.493044 8.512241 43.161392 5.543515 -17.670598 -5.668980 7.613440 98.356990 4.600079 10.441712 3.463859 0.000000 0.000000 0.000000 -47.633126 -25.415070 -79.972652 57.790957 -40.765409 57.914101 -62.117657 -21.791469 130.853409 0.000000 0.000000 0.000000 11.279938 -10.091730 73.644379 -5.540226 1.429059 -37.765382 -3.163507 7.296953 17.205028 21.005161 -9.797613 -23.750873 0.000000 0.000000 0.000000 -11.911986 -20.561562 7.706951 -24.137657 -21.300248 0.082221 103.505452 -29.515218 -35.703298 0.000000 0.000000 0.000000 9.659989 12.800066 6.268928 -17.753091 29.822173 -4.782924 -65.309893 9.370573 -3.980458 0.000000 0.000000 0.000000
-0.441044 0.469850 0.036113 -2.969343 -1.934036 7.399517 45.658436 6.662817 -21.802209 -7.756388 9.229172 101.797495 4.611840 9.717723 0.322868 0.000000 0.000000 0.000000 -44.192371 -24.914581 -80.539704 54.197799 -37.706207 58.415321 -65.726311 -20.416099 134.589744 0.000000 0.000000 0.000000 7.989658 -8.839016 73.621405 -3.902444 1.315990 -36.403295 -2.570377 9.246069 17.602955 22.943862 -11.220180 -22.828288 0.000000 0.000000 0.000000 -11.199688 -24.699873 9.126827 -18.590329 -24.104335 0.051942 98.241648 -26.162158 -30.210955 0.000000 0.000000 0.000000 12.512845 14.105388 7.751425 -18.024194 26.628917 -3.916760 -61.955351 10.866334 -4.696920 0.000000 0.000000 0.000000
-0.438032 0.475779 -0.004896 -3.401084 1.824719 6.096045 47.355938 7.468170 -26.920798 -9.601276 10.069876 104.129149 4.779014 8.534610 -5.585930 0.000000 0.000000 0.000000 -41.801700 -25.443132 -79.287066 50.305173 -35.400190 60.536173 -71.423837 -22.883680 131.030239 0.000000 0.000000 0.000000 5.581176 -8.844659 73.497479 -3.395250 1.322772 -36.560825 -1.796507 9.213864 19.033649 22.338174 -11.092087 -22.433454 0.000000 0.000000 0.000000 -12.148574 -27.831492 10.612178 -12.028002 -28.542689 -0.481349 90.606989 -24.314607 -24.905221 0.000000 0.000000 0.000000 11.985942 15.279766 8.276199 -15.280059 25.135398 -3.241846 -57.912534 11.430994 -4.587216 0.000000 0.000000 0.000000
-0.436092 0.485058 -0.043963 -4.527949 4.956980 4.839796 49.601631 8.253762 -31.157512 -12.010579 12.496531 105.197994 5.131083 8.577672 -8.717584 0.000000 0.000000 0.000000 -37.861231 -24.329714 -78.389461 45.045570 -33.544384 65.081509 -80.049133 -32.418364 117.439381 0.000000 0.000000 0.000000 3.046372 -8.350162 72.878709 -2.376052 1.257765 -35.480247 -1.135109 10.377800 19.491098 22.826613 -10.957108 -23.574460 0.000000 0.000000 0.000000 -12.255829 -32.431839 12.453768 -5.769806 -31.711851 -1.464948 80.503999 -21.909170 -19.336754 0.000000 0.000000 0.000000 14.726445 17.101210 10.081255 -16.633430 22.934148 -2.830065 -51.893915 10.610875 -3.852720 0.000000 0.000000 0.000000
-0.434415 0.501539 -0.079605 -4.733345 8.237169 4.034834 49.722858 8.201937 -34.916050 -15.017746 15.125542 102.881482 6.418850 11.390434 -11.535900 0.000000 0.000000 0.000000 -35.773135 -23.993934 -75.532923 41.419724 -32.714494 69.001672 -71.769582 -49.293711 83.487279 0.000000 0.000000 0.000000 1.137579 -8.345532 72.195888 -2.954214 1.392923 -36.225391 -0.548938 9.633274 19.978674 21.094219 -10.416256 -22.212802 0.000000 0.000000 0.000000 -13.463350 -35.079720 13.987031 -2.067810 -35.756181 -2.415844 74.273509 -22.513080 -17.466867 0.000000 0.000000 0.000000 15.827995 17.884609 10.740915 -14.045961 21.943881 -2.446990 -49.488211 8.682321 -2.802376 0.000000 0.000000 0.000000
-0.431458 0.521375 -0.110391 -5.004394 8.735525 2.839857 49.934017 8.278432 -35.506132 -18.361076 18.567452 99.337200 7.939514 15.427146 -12.419283 0.000000 0.000000 0.000000 -33.349562 -21.618394 -73.437619 38.265397 -31.620995 71.617082 -46.378640 -53.856595 42.809987 0.000000 0.000000 0.000000 -0.508440 -7.144542 70.932539 -3.166576 1.426090 -36.837572 0.028668 9.689885 21.526685 20.004871 -10.199058 -21.298777 0.000000 0.000000 0.000000 -13.826732 -36.187876 14.507103 -1.695043 -38.266298 -2.731233 68.958952 -25.291107 -17.698350 0.000000 0.000000 0.000000 18.405648 18.068070 11.583875 -14.934003 22.129659 -2.531828 -48.250644 6.112295 -1.878407 0.000000 0.000000 0.000000
-0.426649 0.546666 -0.135391 -4.701624 10.046400 2.301320 48.250089 7.599798 -36.307876 -21.256911 20.077786 94.799972 9.002010 18.424867 -11.544633 0.000000 0.000000 0.000000 -32.997695 -20.616456 -69.130271 35.348484 -29.798016 72.203086 -26.099532 -46.425493 14.844519 0.000000 0.000000 0.000000 -0.882212 -7.055978 68.498890 -4.754221 1.652353 -35.994174 0.498263 8.362791 20.443596 18.784607 -9.697743 -20.373878 0.000000 0.000000 0.000000 -14.025820 -36.552597 14.880650 -4.217605 -39.174676 -2.073180 67.635316 -30.205694 -20.285375 0.000000 0.000000 0.000000 18.775359 17.881054 11.337587 -13.389354 22.415360 -2.513977 -49.125027 5.093997 -1.424755 0.000000 0.000000 0.000000
-0.420219 0.575106 -0.153930 -4.568115 10.395302 1.368418 46.000107 6.633358 -35.108709 -22.845944 19.809562 90.620841 9.069269 18.615442 -12.683786 0.000000 0.000000 0.000000 -32.971774 -19.116805 -64.526649 33.269821 -27.118033 69.317953 -19.444014 -39.496343 7.533905 0.000000 0.000000 0.000000 -0.620900 -6.807230 64.986089 -5.883114 1.737724 -37.147322 0.536652 7.431837 22.612365 17.852791 -9.517751 -19.850639 0.000000 0.000000 0.000000 -15.488224 -35.543728 14.750411 -8.501472 -39.156878 -1.053134 65.393943 -36.416254 -23.320251 0.000000 0.000000 0.000000 19.574599 17.503446 11.242216 -12.851949 23.958352 -2.797916 -50.452862 4.405598 -1.295362 0.000000 0.000000 0.000000
-0.412873 0.607708 -0.166386 -4.225018 10.120177 0.926720 42.892791 5.498151 -32.789869 -23.961101 18.910231 85.713245 9.786831 20.576758 -14.701189 0.000000 0.000000 0.000000 -32.905418 -17.044826 -59.447742 31.160791 -24.421188 66.060810 -13.553680 -31.125009 -0.521733 0.000000 0.000000 0.000000 0.636475 -6.823967 61.080303 -7.602528 1.959993 -36.697249 0.236271 6.752870 21.426891 18.479960 -10.769160 -17.484566 0.000000 0.000000 0.000000 -18.091412 -34.173319 14.637112 -14.813141 -35.903249 0.420771 65.364878 -44.805922 -28.643708 0.000000 0.000000 0.000000 20.879002 16.405035 10.811101 -10.954756 25.399204 -2.952167 -54.120965 6.485279 -2.326965 0.000000 0.000000 0.000000
-0.406093 0.642079 -0.173200 -3.988578 9.557414 -0.267146 39.398509 4.284040 -29.338471 -24.103465 16.951875 80.513699 11.027444 23.796278 -14.073135 0.000000 0.000000 0.000000 -31.769227 -14.358820 -54.364140 28.406285 -21.491529 63.375125 -10.473645 -24.982459 -4.841629 0.000000 0.000000 0.000000 2.072466 -6.680987 56.507847 -8.262830 2.032172 -36.603593 -0.161025 6.176244 22.465143 17.630778 -9.642089 -19.468163 0.000000 0.000000 0.000000 -20.174439 -31.241884 13.450442 -21.264228 -31.768772 1.202841 62.717869 -52.941975 -32.425130 0.000000 0.000000 0.000000 22.056152 14.822139 10.080011 -10.038237 29.465357 -3.648308 -58.857793 9.511784 -4.194608 0.000000 0.000000 0.000000
-0.400466 0.677966 -0.176475 -3.823719 8.583171 -0.982609 35.329158 3.431329 -26.988518 -21.645024 13.507076 76.804905 11.442982 24.383074 -11.890342 0.000000 0.000000 0.000000 -29.952702 -11.550774 -49.828139 25.306276 -18.027285 59.862151 -8.252981 -19.530346 -6.997567 0.000000 0.000000 0.000000 3.266313 -6.129368 51.239157 -9.020865 2.150339 -35.905711 -0.577254 5.369743 22.777082 17.201573 -9.347973 -19.698686 0.000000 0.000000 0.000000 -21.009625 -27.422934 11.595096 -26.878312 -27.012496 1.176960 58.375530 -59.055694 -33.439791 0.000000 0.000000 0.000000 21.045669 13.564947 8.933674 -6.095780 33.411292 -3.724253 -63.534539 11.325013 -5.296549 0.000000 0.000000 0.000000
-0.396603 0.711429 -0.177221 -3.634246 7.979883 -1.977633 32.294820 2.742360 -24.629850 -19.900838 10.969603 72.517680 10.997874 22.900002 -10.184403 0.000000 0.000000 0.000000 -28.251439 -9.318509 -45.328497 22.226873 -14.863663 56.524002 -6.489863 -14.776641 -7.345599 0.000000 0.000000 0.000000 4.149083 -5.706348 47.055177 -8.951589 2.157386 -35.224295 -1.107295 5.723403 23.810734 17.344392 -7.792959 -24.958878 0.000000 0.000000 0.000000 -19.203071 -23.727244 9.182649 -32.415668 -23.218490 0.806587 52.923711 -64.484767 -33.236992 0.000000 0.000000 0.000000 18.868341 10.800812 7.125113 -1.444447 39.283375 -3.470358 -70.510374 14.058418 -7.121612 0.000000 0.000000 0.000000
-0.394666 0.741482 -0.176433 -3.620401 7.260115 -2.930896 29.511495 2.228355 -22.577514 -17.876577 8.737059 68.814119 9.414266 18.653088 -12.448371 0.000000 0.000000 0.000000 -26.246959 -7.221943 -40.911677 19.564777 -12.068089 52.782323 -5.291663 -11.413467 -7.742898 0.000000 0.000000 0.000000 4.542970 -5.129620 43.391601 -8.532521 2.138670 -34.595594 -1.659810 6.770851 24.433577 17.311124 -7.453829 -25.566064 0.000000 0.000000 0.000000 -18.084453 -20.749600 7.261348 -36.219018 -19.680229 0.068989 45.177022 -67.591126 -29.752548 0.000000 0.000000 0.000000 17.366556 8.682737 5.934150 3.181153 43.299748 -2.512118 -75.793217 16.059853 -8.540352 0.000000 0.000000 0.000000
-0.394248 0.767444 -0.174202 -3.576018 8.361684 -3.359073 27.555237 1.683219 -21.646627 -16.078954 6.317180 65.140005 7.382432 12.041431 -15.812486 0.000000 0.000000 0.000000 -25.065751 -6.172647 -36.394335 17.359055 -10.204002 48.785389 -4.508088 -9.295321 -7.651620 0.000000 0.000000 0.000000 5.258594 -5.021951 39.856620 -8.819546 2.187842 -34.295342 -1.375290 6.672222 25.482134 17.255096 -7.164005 -26.288898 0.000000 0.000000 0.000000 -17.575383 -17.868068 5.619029 -38.739148 -17.034378 -0.723111 38.264825 -70.350910 -26.235076 0.000000 0.000000 0.000000 16.181363 6.755667 4.906921 6.247367 46.731855 -1.649282 -80.748024 18.463624 -10.575416 0.000000 0.000000 0.000000
-0.394543 0.788434 -0.171051 -3.304524 8.093573 -4.216217 26.216982 1.386098 -19.678416 -15.282281 5.437400 61.544322 6.379367 8.858784 -15.558228 0.000000 0.000000 0.000000 -23.848995 -5.063195 -32.911375 15.858997 -8.910761 46.848258 -4.104538 -7.958569 -8.433527 0.000000 0.000000 0.000000 5.497059 -4.589147 37.101029 -9.867654 2.377711 -34.074831 -0.656248 7.064999 26.190512 16.934457 -7.171294 -25.630153 0.000000 0.000000 0.000000 -18.308277 -15.834325 4.490898 -38.909982 -15.112411 -1.347237 30.408335 -70.860123 -20.715420 0.000000 0.000000 0.000000 16.554760 5.586036 4.436409 7.529538 49.200097 -1.267465 -81.383932 21.949098 -13.346611 0.000000 0.000000 0.000000
-0.394938 0.804927 -0.167221 -3.237863 7.839978 -4.793805 25.002620 1.131214 -17.917865 -14.253997 4.525250 57.944726 5.703865 7.109700 -14.450923 0.000000 0.000000 0.000000 -22.217338 -3.929229 -29.282682 14.230344 -7.472092 43.953238 -4.057591 -7.474061 -9.910292 0.000000 0.000000 0.000000 5.549587 -4.049580 33.859697 -9.791210 2.397321 -33.809759 -0.409120 7.649578 26.952709 16.733283 -7.229838 -24.823709 0.000000 0.000000 0.000000 -18.154712 -14.459368 3.652045 -39.674763 -13.382447 -1.945720 24.771770 -70.219116 -16.551376 0.000000 0.000000 0.000000 17.240944 5.315974 4.568032 8.539567 51.609911 -0.931731 -80.877000 25.387515 -15.735789 0.000000 0.000000 0.000000
-0.395352 0.815358 -0.163423 -3.145411 7.912431 -5.116125 24.745581 0.910716 -15.945821 -14.244236 4.301404 54.463472 5.689885 7.816880 -12.389478 0.000000 0.000000 0.000000 -21.426046 -3.420951 -27.166719 13.238933 -6.885782 43.459111 -3.948301 -6.677184 -11.408938 0.000000 0.000000 0.000000 6.256119 -3.937501 31.788728 -10.826397 2.621968 -33.191697 -0.096026 7.094625 26.867314 16.201593 -7.443675 -23.058861 0.000000 0.000000 0.000000 -18.341829 -13.572591 3.301502 -39.466384 -12.119989 -2.348176 22.554290 -68.547621 -14.383462 0.000000 0.000000 0.000000 17.343803 5.674052 4.694042 9.919144 53.279156 -0.366571 -80.756804 27.752222 -17.557753 0.000000 0.000000 0.000000
-0.395579 0.825788 -0.160381 -3.035781 7.256499 -5.453583 24.512360 0.764883 -13.829081 -14.435465 4.430908 51.098086 5.863121 9.257638 -9.745067 0.000000 0.000000 0.000000 -19.931332 -2.700067 -25.374300 11.998536 -5.945866 42.488229 -4.151998 -7.059400 -12.338194 0.000000 0.000000 0.000000 6.562981 -3.607625 29.549139 -10.558285 2.676503 -32.233806 -0.105076 7.734140 27.147354 16.525181 -7.864215 -22.322263 0.000000 0.000000 0.000000 -18.503805 -13.569633 3.200936 -39.618234 -11.780346 -2.463528 21.458744 -66.996903 -13.291660 0.000000 0.000000 0.000000 17.933365 5.555430 4.834893 11.215228 56.346022 0.296733 -80.729005 29.850857 -18.965837 0.000000 0.000000 0.000000
-0.395768 0.833888 -0.158235 -2.878459 6.863519 -5.628567 24.143182 0.623815 -12.203751 -14.385219 4.367565 48.482757 5.942996 10.005235 -8.047752 0.000000 0.000000 0.000000 -19.045297 -2.289515 -24.108256 11.497912 -5.543172 42.023710 -4.399409 -7.664886 -13.089528 0.000000 0.000000 0.000000 6.806043 -3.368607 27.798082 -10.361674 2.732849 -31.300365 -0.319831 7.456412 26.890644 16.375251 -8.026091 -21.528618 0.000000 0.000000 0.000000 -17.630605 -13.260634 3.207790 -40.108123 -11.519960 -2.622891 23.043000 -65.550845 -13.887148 0.000000 0.000000 0.000000 17.407564 5.710231 4.732197 14.969118 58.690697 2.304033 -81.395953 32.582280 -21.190803 0.000000 0.000000 0.000000
-0.395930 0.841355 -0.156507 -2.918148 6.254037 -5.736832 24.140837 0.513572 -10.545231 -14.736332 4.561247 45.827521 6.270176 11.230451 -6.586468 0.000000 0.000000 0.000000 -18.156452 -1.886992 -22.872829 11.292407 -5.193353 41.002127 -4.568209 -8.088275 -13.533683 0.000000 0.000000 0.000000 6.971689 -3.014439 25.389326 -9.692050 2.711251 -30.108616 -0.649512 7.300124 27.035131 16.272003 -8.172389 -20.959905 0.000000 0.000000 0.000000 -16.642183 -12.788480 3.145325 -40.367082 -11.538461 -2.723141 23.754441 -64.857815 -14.089698 0.000000 0.000000 0.000000 17.420723 5.917982 4.764850 18.557645 60.700871 4.356898 -81.406624 34.900358 -22.918915 0.000000 0.000000 0.000000
-0.396160 0.846841 -0.154681 -2.818546 5.188302 -5.752573 23.978089 0.458044 -9.056950 -15.463045 5.021247 43.253927 7.290277 14.078737 -4.458999 0.000000 0.000000 0.000000 -17.359951 -1.507380 -21.878272 11.193465 -4.831519 40.181117 -4.775085 -8.380536 -14.441707 0.000000 0.000000 0.000000 7.110253 -2.851603 24.476901 -9.355129 2.661583 -29.758749 -0.682073 6.885402 26.952083 15.407599 -7.883266 -20.235722 0.000000 0.000000 0.000000 -16.441872 -12.677018 3.341664 -40.459767 -11.718488 -2.741850 25.144533 -63.339446 -14.287618 0.000000 0.000000 0.000000 17.232597 6.289375 4.712229 24.843533 62.074367 7.924295 -82.481608 38.270058 -26.042106 0.000000 0.000000 0.000000
-0.396408 0.852553 -0.152573 -2.655753 4.219431 -5.412982 23.380491 0.394960 -7.885576 -16.017740 5.311057 40.599588 8.849329 17.696929 -2.382978 0.000000 0.000000 0.000000 -16.778767 -1.209201 -20.968645 11.541316 -4.706490 39.186461 -5.075599 -8.975182 -15.522316 0.000000 0.000000 0.000000 7.329504 -2.640990 22.940521 -8.941963 2.601288 -29.329330 -0.844243 6.565645 27.344586 15.125647 -7.956549 -19.817456 0.000000 0.000000 0.000000 -16.841442 -12.419817 3.424422 -40.077675 -11.917820 -2.752505 26.980837 -62.104136 -14.821223 0.000000 0.000000 0.000000 17.905964 6.357326 4.665108 30.696444 62.969917 11.245184 -82.764981 42.363927 -29.509867 0.000000 0.000000 0.000000
-0.396572 0.857623 -0.150753 -2.585402 3.892051 -5.161271 23.109547 0.296484 -6.840464 -16.222101 5.245298 37.974340 9.553553 19.225859 -0.736684 0.000000 0.000000 0.000000 -16.543900 -1.053394 -19.854382 11.936094 -4.708373 37.952603 -5.213512 -9.243169 -16.180328 0.000000 0.000000 0.000000 7.642511 -2.554287 21.889704 -8.587800 2.556924 -28.731227 -1.171966 6.049160 27.214403 15.192418 -8.105684 -19.803036 0.000000 0.000000 0.000000 -16.969845 -11.564007 3.152950 -39.901813 -12.779952 -2.517842 27.929850 -60.714858 -14.820115 0.000000 0.000000 0.000000 18.395922 6.063727 4.407754 36.855176 62.951837 14.660276 -83.506167 45.650072 -32.561320 0.000000 0.000000 0.000000
-0.396570 0.862260 -0.149552 -2.537820 3.330517 -4.777185 22.823402 0.275858 -6.347123 -16.446607 5.271916 35.941143 10.533507 21.169934 1.732379 0.000000 0.000000 0.000000 -16.359835 -0.904610 -18.974934 12.183574 -4.589616 36.684002 -5.216122 -8.936510 -16.732666 0.000000 0.000000 0.000000 7.732837 -2.446441 21.066050 -8.055580 2.418758 -28.980977 -1.463777 5.859605 27.629835 15.277019 -8.163866 -20.218206 0.000000 0.000000 0.000000 -17.257667 -10.958721 2.984168 -39.415735 -13.468680 -2.370590 29.478671 -60.389868 -15.506275 0.000000 0.000000 0.000000 19.035377 6.114827 4.399155 40.802660 63.155443 16.911935 -84.191693 47.639247 -34.581390 0.000000 0.000000 0.000000
-0.396421 0.866797 -0.148980 -2.492906 2.897758 -4.526619 22.430835 0.269928 -6.096711 -16.662364 5.315810 34.604610 11.728748 23.252893 4.083141 0.000000 0.000000 0.000000 -15.983813 -0.769679 -18.511499 12.281014 -4.458405 35.711520 -5.322636 -9.325563 -16.615765 0.000000 0.000000 0.000000 7.829497 -2.398960 20.667234 -7.567965 2.305663 -29.131051 -1.601074 5.855731 27.460850 14.818985 -7.864530 -20.164052 0.000000 0.000000 0.000000 -17.235374 -10.225965 2.675103 -39.471392 -13.748551 -2.297756 31.857694 -61.395611 -17.222999 0.000000 0.000000 0.000000 19.439124 5.929907 4.271179 43.657182 62.455167 18.202416 -85.344048 49.303883 -36.639866 0.000000 0.000000 0.000000
-0.396072 0.871286 -0.148535 -2.547282 2.348144 -4.198709 22.245371 0.290316 -5.969426 -16.870449 5.399055 33.551677 12.625078 24.641499 6.212620 0.000000 0.000000 0.000000 -15.734416 -0.643962 -17.933000 12.189952 -4.215225 34.627508 -5.202670 -8.701538 -16.649410 0.000000 0.000000 0.000000 8.180350 -2.397451 20.266517 -7.277665 2.212733 -29.510340 -1.719028 6.231172 27.583370 14.627073 -7.736196 -20.119785 0.000000 0.000000 0.000000 -17.101061 -9.527780 2.331256 -39.519293 -14.608762 -2.072071 35.930700 -62.402086 -20.144663 0.000000 0.000000 0.000000 20.314886 5.717753 4.254787 44.024343 61.113276 17.621412 -87.832465 50.737110 -39.426145 0.000000 0.000000 0.000000
-0.395590 0.874648 -0.147883 -2.345447 1.785842 -4.184942 21.903186 0.328846 -5.935109 -16.875685 5.443371 32.991409 13.351659 25.546906 9.320623 0.000000 0.000000 0.000000 -15.458885 -0.526889 -17.247529 11.678092 -3.828463 33.926040 -5.162129 -8.286762 -16.858205 0.000000 0.000000 0.000000 8.296658 -2.350232 19.943755 -7.342685 2.253187 -28.941688 -1.614843 6.453561 27.022871 13.966374 -7.361417 -19.677336 0.000000 0.000000 0.000000 -17.643288 -9.191275 2.137965 -39.162716 -15.558963 -1.724971 41.919887 -63.144651 -24.337077 0.000000 0.000000 0.000000 21.515272 5.362171 4.114814 45.400243 58.884928 17.156903 -91.579459 54.268038 -45.338363 0.000000 0.000000 0.000000
-0.394880 0.876600 -0.146984 -2.143275 1.284438 -4.300455 21.456288 0.378941 -6.083073 -16.611043 5.417472 32.908838 14.218501 26.486308 12.683664 0.000000 0.000000 0.000000 -15.148700 -0.427564 -16.752901 11.351067 -3.588276 33.797688 -5.274967 -8.406969 -17.276535 0.000000 0.000000 0.000000 8.138127 -2.317084 20.112238 -7.224043 2.196492 -29.504819 -1.497641 6.724076 27.249193 13.501137 -7.134837 -19.381075 0.000000 0.000000 0.000000 -17.742580 -8.878404 2.003684 -39.362498 -17.478496 -1.207470 48.145840 -63.508316 -28.603435 0.000000 0.000000 0.000000 23.116423 4.825467 3.943595 45.003477 55.531402 15.033706 -93.046913 59.258343 -51.399211 0.000000 0.000000 0.000000
-0.393842 0.876571 -0.146235 -2.171042 0.916620 -4.462721 21.144478 0.437141 -6.435375 -16.341383 5.434509 33.480890 15.317035 27.719516 14.992443 0.000000 0.000000 0.000000 -15.083962 -0.387188 -16.483022 11.138997 -3.458809 34.105297 -5.224086 -7.832776 -17.767006 0.000000 0.000000 0.000000 7.996984 -2.277965 20.159847 -7.235320 2.188094 -29.782081 -1.380796 6.482074 27.667962 12.822398 -6.734420 -19.409701 0.000000 0.000000 0.000000 -18.237234 -8.748673 2.044126 -39.250169 -20.222657 -0.456918 57.474132 -62.346098 -34.091081 0.000000 0.000000 0.000000 24.016367 4.503509 3.703123 45.696104 50.345204 12.649320 -96.573154 63.641502 -58.768669 0.000000 0.000000 0.000000
-0.392388 0.876075 -0.146069 -1.972587 0.710860 -4.695125 20.069645 0.432466 -6.622093 -15.648726 5.202033 33.666084 17.363816 30.012939 17.363727 0.000000 0.000000 0.000000 -15.201039 -0.386291 -16.237639 10.841737 -3.330718 34.709168 -5.238488 -7.476518 -18.416782 0.000000 0.000000 0.000000 7.691028 -2.225610 20.313815 -6.985074 2.150392 -29.497217 -1.719557 6.097497 27.508785 12.617880 -6.520536 -20.086483 0.000000 0.000000 0.000000 -18.270783 -9.461210 2.544194 -38.432163 -23.170285 0.364529 64.821988 -59.735761 -37.275417 0.000000 0.000000 0.000000 25.746518 4.030753 3.379786 46.271055 44.156114 9.813723 -99.504597 70.256647 -68.462283 0.000000 0.000000 0.000000
-0.390855 0.875039 -0.146572 -1.943542 1.078789 -4.775375 19.534324 0.429103 -7.225181 -14.859297 4.823187 33.891852 18.335573 30.829839 19.593784 0.000000 0.000000 0.000000 -15.185798 -0.408750 -16.072268 10.472870 -3.258899 35.118996 -5.271999 -7.540687 -18.835198 0.000000 0.000000 0.000000 7.447738 -2.224523 20.572841 -6.794037 2.144411 -28.995107 -2.008324 5.253367 27.002574 12.244567 -6.379440 -19.888277 0.000000 0.000000 0.000000 -17.961597 -10.647728 3.304528 -37.515958 -26.252378 1.222714 71.887248 -57.277120 -40.219940 0.000000 0.000000 0.000000 27.066028 3.251032 2.731039 47.038910 36.859856 6.735121 -104.416193 76.863996 -80.483024 0.000000 0.000000 0.000000
-0.389459 0.876051 -0.147587 -1.613091 1.365282 -4.975337 18.720306 0.396276 -7.507237 -14.150308 4.476801 33.911085 18.860578 31.059561 21.789102 0.000000 0.000000 0.000000 -15.205228 -0.415912 -15.466454 9.828598 -2.996390 34.852891 -5.295236 -7.680687 -18.950233 0.000000 0.000000 0.000000 7.340909 -2.203949 20.527125 -6.819986 2.188682 -28.201790 -2.483234 4.096597 26.828796 11.890402 -5.989889 -21.215330 0.000000 0.000000 0.000000 -16.805629 -11.102249 3.782008 -37.019442 -29.651338 2.114970 75.493618 -54.797561 -40.443692 0.000000 0.000000 0.000000 27.861222 2.287953 1.785809 48.522037 31.263618 4.655781 -112.184609 81.751992 -93.822133 0.000000 0.000000 0.000000
-0.388412 0.877605 -0.148797 -1.459823 1.220301 -4.902817 17.907677 0.356943 -7.440302 -13.350721 4.106375 33.153623 19.800570 31.796474 23.527582 0.000000 0.000000 0.000000 -14.985811 -0.371531 -15.353249 9.125068 -2.650334 34.643032 -5.258352 -7.495269 -18.890517 0.000000 0.000000 0.000000 7.153536 -2.167363 20.554909 -6.650605 2.176755 -27.549964 -2.953415 3.196994 26.305631 11.696630 -6.111905 -20.654915 0.000000 0.000000 0.000000 -15.700911 -11.998942 4.425125 -36.528305 -31.651617 2.640064 78.078483 -53.551942 -40.905397 0.000000 0.000000 0.000000 28.324983 1.673594 1.010798 49.755335 27.359446 3.283549 -136.427560 84.698895 -122.455397 0.000000 0.000000 0.000000
-0.387544 0.880030 -0.149734 -0.964291 0.697177 -4.880438 16.728284 0.326123 -7.418668 -12.685359 3.927944 33.150055 20.186656 31.981213 24.693750 0.000000 0.000000 0.000000 -15.025059 -0.333077 -15.178403 8.387675 -2.223764 34.379751 -5.214227 -7.074756 -18.887244 0.000000 0.000000 0.000000 6.997232 -2.171596 21.101457 -6.686116 2.174298 -27.595420 -3.652693 2.421521 26.101752 11.756221 -5.973472 -22.214704 0.000000 0.000000 0.000000 -14.813314 -12.115865 4.680535 -37.113714 -32.752619 3.054948 78.753334 -54.871736 -42.044697 0.000000 0.000000 0.000000 28.043064 1.181383 0.259218 51.125839 26.188043 3.134635 -153.438124 85.432321 -141.607897 0.000000 0.000000 0.000000
-0.387040 0.882343 -0.150733 -0.655016 -0.717742 -4.754436 15.969671 0.304533 -6.269249 -12.605898 4.033218 31.901912 20.527924 32.494119 23.834913 0.000000 0.000000 0.000000 -14.673565 -0.204115 -15.739150 7.983993 -1.832716 34.595620 -5.276656 -6.809008 -18.849348 0.000000 0.000000 0.000000 7.101736 -2.141284 21.238545 -6.523524 2.110644 -27.718063 -4.402461 2.390123 25.951392 11.993992 -6.223692 -22.331053 0.000000 0.000000 0.000000 -14.705324 -12.446357 5.015902 -37.679847 -32.115389 2.945270 77.702744 -55.991953 -41.877311 0.000000 0.000000 0.000000 27.881028 1.497291 0.129812 51.336846 26.548051 3.442218 -147.530337 84.830670 -135.340754 0.000000 0.000000 0.000000
-0.387187 0.884817 -0.151853 -0.330557 -1.212872 -4.602990 15.616164 0.308354 -6.278700 -12.470907 4.022877 31.433758 20.375860 31.993203 25.429680 0.000000 0.000000 0.000000 -14.792172 -0.192491 -16.245047 7.665847 -1.620873 34.782590 -5.169903 -7.604749 -16.211551 0.000000 0.000000 0.000000 7.402244 -2.244025 21.910504 -6.880322 2.193429 -27.247594 -5.256807 1.623430 25.134621 12.720576 -6.396373 -24.159955 0.000000 0.000000 0.000000 -13.711482 -12.753761 5.269367 -39.434983 -30.603050 2.817517 79.028670 -59.792174 -45.628716 0.000000 0.000000 0.000000 27.659111 1.350979 -0.381228 51.960948 26.666459 3.816989 -152.633756 83.707652 -140.745784 0.000000 0.000000 0.000000
-0.388369 0.886647 -0.153456 -0.410147 -1.506777 -4.327911 15.696724 0.334260 -6.572580 -12.833606 4.217397 31.392195 20.981672 32.602054 25.615780 0.000000 0.000000 0.000000 -13.858096 -0.056033 -16.527737 7.259595 -1.406095 34.784493 -5.435987 -9.805332 -13.395000 0.000000 0.000000 0.000000 7.312162 -2.235219 22.060838 -6.415582 2.098167 -26.707165 -5.555910 1.600749 24.723227 12.635339 -6.371971 -24.014115 0.000000 0.000000 0.000000 -14.589841 -13.049690 5.494368 -40.543993 -28.425392 2.261819 80.798325 -63.316238 -49.914536 0.000000 0.000000 0.000000 27.443046 1.975449 -0.053376 51.310812 27.253195 4.047842 -143.025169 82.403775 -129.475179 0.000000 0.000000 0.000000
-0.390483 0.890060 -0.154590 -0.312265 -1.795818 -3.836241 15.649292 0.365601 -7.280878 -13.006578 4.274147 30.692413 22.664324 33.458859 29.652084 0.000000 0.000000 0.000000 -13.658291 -0.001041 -16.682851 7.332487 -1.384050 33.895546 -5.553547 -11.812033 -8.395060 0.000000 0.000000 0.000000 7.297441 -2.289797 22.673998 -6.570370 2.129776 -26.566444 -5.819678 1.499003 23.778728 12.755907 -6.381509 -24.082007 0.000000 0.000000 0.000000 -14.655097 -12.578382 5.285022 -41.287900 -24.879778 1.243794 81.854249 -67.302717 -54.315483 0.000000 0.000000 0.000000 27.677990 1.285444 -0.662835 50.041347 25.320876 3.163533 -144.495214 81.995387 -131.249343 0.000000 0.000000 0.000000
