HIERARCHY
ROOT Hips
{
	OFFSET -0.001795 -0.223333 0.028219
	CHANNELS 6 Xposition Yposition Zposition Zrotation Yrotation Xrotation
	JOINT LeftUpLeg
	{
		OFFSET 0.069520 -0.091406 -0.006815
		CHANNELS 3 Zrotation Yrotation Xrotation
		JOINT LeftLeg
		{
			OFFSET 0.034277 -0.375199 -0.004496
			CHANNELS 3 Zrotation Yrotation Xrotation
			JOINT LeftFoot
			{
				OFFSET -0.013596 -0.397961 -0.043693
				CHANNELS 3 Zrotation Yrotation Xrotation
				JOINT LeftToe
				{
					OFFSET 0.026358 -0.055791 0.119288
					CHANNELS 3 Zrotation Yrotation Xrotation
					End Site
					{
						OFFSET 0.000000 0.000000 0.000000
					}
				}
			}
		}
	}
	JOINT RightUpLeg
	{
		OFFSET -0.067670 -0.090522 -0.004320
		CHANNELS 3 Zrotation Yrotation Xrotation
		JOINT RightLeg
		{
			OFFSET -0.038290 -0.382569 -0.008850
			CHANNELS 3 Zrotation Yrotation Xrotation
			JOINT RightFoot
			{
				OFFSET 0.015774 -0.398415 -0.042312
				CHANNELS 3 Zrotation Yrotation Xrotation
				JOINT RightToe
				{
					OFFSET -0.025372 -0.048144 0.123348
					CHANNELS 3 Zrotation Yrotation Xrotation
					End Site
					{
						OFFSET 0.000000 0.000000 0.000000
					}
				}
			}
		}
	}
	JOINT Spine
	{
		OFFSET -0.002533 0.108963 -0.026696
		CHANNELS 3 Zrotation Yrotation Xrotation
		JOINT Spine1
		{
			OFFSET 0.005487 0.135180 0.001092
			CHANNELS 3 Zrotation Yrotation Xrotation
			JOINT Spine2
			{
				OFFSET 0.001457 0.052922 0.025425
				CHANNELS 3 Zrotation Yrotation Xrotation
				JOINT Neck
				{
					OFFSET -0.002778 0.213870 -0.042857
					CHANNELS 3 Zrotation Yrotation Xrotation
					JOINT Head
					{
						OFFSET 0.005152 0.064970 0.051349
						CHANNELS 3 Zrotation Yrotation Xrotation
						End Site
						{
							OFFSET 0.000000 0.000000 0.000000
						}
					}
				}
				JOINT LeftShoulder
				{
					OFFSET 0.078845 0.121749 -0.034090
					CHANNELS 3 Zrotation Yrotation Xrotation
					JOINT LeftArm
					{
						OFFSET 0.090977 0.030469 -0.008868
						CHANNELS 3 Zrotation Yrotation Xrotation
						JOINT LeftForeArm
						{
							OFFSET 0.259612 -0.012772 -0.027456
							CHANNELS 3 Zrotation Yrotation Xrotation
							JOINT LeftHand
							{
								OFFSET 0.249234 0.008986 -0.001171
								CHANNELS 3 Zrotation Yrotation Xrotation
								End Site
								{
									OFFSET 0.000000 0.000000 0.000000
								}
							}
						}
					}
				}
				JOINT RightShoulder
				{
					OFFSET -0.081759 0.118833 -0.038615
					CHANNELS 3 Zrotation Yrotation Xrotation
					JOINT RightArm
					{
						OFFSET -0.096012 0.032551 -0.009143
						CHANNELS 3 Zrotation Yrotation Xrotation
						JOINT RightForeArm
						{
							OFFSET -0.253742 -0.013329 -0.021401
							CHANNELS 3 Zrotation Yrotation Xrotation
							JOINT RightHand
							{
								OFFSET -0.255298 0.007772 -0.005559
								CHANNELS 3 Zrotation Yrotation Xrotation
								End Site
								{
									OFFSET 0.000000 0.000000 0.000000
								}
							}
						}
					}
				}
			}
		}
	}
}
MOTION
Frames: 64
Frame Time: 0.050000
0.000000 0.921919 0.000000 0.377390 -9.963532 -3.488563 6.394337 -0.203073 -12.534395 -0.354555 -0.068934 6.094440 3.096680 9.257248 17.691708 0.000000 0.000000 0.000000 -1.074665 -0.489770 7.260361 4.533525 -0.288196 7.896190 -5.663052 -13.247953 -0.257829 0.000000 0.000000 0.000000 2.295131 -0.550580 10.275237 0.457166 0.486953 -29.421631 1.459436 7.640210 29.478946 6.237717 -2.850542 -19.186739 0.000000 0.000000 0.000000 -15.020788 -9.339417 3.950877 -45.698498 -18.371256 -1.336859 -142.571798 -74.620347 141.034623 0.000000 0.000000 0.000000 15.915534 2.151733 0.627210 43.042405 23.478846 1.083841 -80.400841 62.994949 -47.176992 0.000000 0.000000 0.000000
-0.000684 0.917519 0.004367 -0.294764 -7.474925 -2.408466 7.393941 -0.177980 -15.119264 -1.415443 0.085889 8.292888 2.170887 7.958508 15.711180 0.000000 0.000000 0.000000 0.907115 -0.636333 6.322158 3.334871 -0.130848 8.568017 -6.892779 -16.090471 -1.052481 0.000000 0.000000 0.000000 1.343251 -0.422458 8.504005 1.591357 0.264686 -28.889437 2.916002 7.165674 28.819191 3.021809 -0.914019 -14.255196 0.000000 0.000000 0.000000 -15.753612 -7.032308 2.523730 -42.808641 -18.638104 -1.217830 -129.834718 -72.173449 122.139403 0.000000 0.000000 0.000000 13.464242 1.181398 0.404407 42.360836 23.089237 0.904847 -78.531230 61.226568 -43.719829 0.000000 0.000000 0.000000
-0.001033 0.913372 0.008562 -0.409503 -7.509836 -2.061104 7.670573 -0.143173 -17.026164 -1.825217 0.172550 11.479149 2.761986 8.609111 14.187311 0.000000 0.000000 0.000000 0.887218 -0.601809 5.947397 3.611879 -0.158792 9.217385 -7.110384 -16.304891 -2.481991 0.000000 0.000000 0.000000 3.256361 -0.551035 8.247495 -0.903459 0.766751 -28.853643 2.743298 7.837831 28.256044 7.489649 -4.201072 -14.439844 0.000000 0.000000 0.000000 -13.528245 -6.945712 2.350877 -46.056665 -15.093993 -2.418782 -130.084316 -69.599173 119.969978 0.000000 0.000000 0.000000 14.971116 -0.886055 -0.556020 39.138245 22.529459 0.450995 -81.388161 62.259875 -46.946044 0.000000 0.000000 0.000000
-0.001214 0.910555 0.012792 -0.148773 -7.851636 -2.460993 9.026248 0.132367 -18.667860 -4.715494 0.984993 15.306436 3.310264 9.465665 14.288919 0.000000 0.000000 0.000000 0.400713 -0.553274 5.912994 4.088309 -0.186671 11.183748 -7.264363 -16.218246 -4.433993 0.000000 0.000000 0.000000 2.323400 -0.471294 8.101728 0.231640 0.513121 -28.257535 2.108173 8.637857 29.199102 5.558071 -2.735478 -13.738880 0.000000 0.000000 0.000000 -14.292151 -4.984800 1.291729 -45.605912 -14.415147 -2.733805 -128.646339 -70.190919 118.364097 0.000000 0.000000 0.000000 14.945868 -1.517253 -0.763092 38.507799 22.784903 0.389541 -83.736533 60.050928 -46.537117 0.000000 0.000000 0.000000
-0.001295 0.907541 0.016638 0.183552 -7.808555 -3.292283 9.187382 0.218462 -21.166581 -6.063498 1.629459 20.618038 5.024199 12.178970 14.901766 0.000000 0.000000 0.000000 -0.151985 -0.549045 6.454795 4.575938 -0.237683 13.042244 -7.392378 -16.114061 -6.385459 0.000000 0.000000 0.000000 1.564091 -0.469003 9.428696 0.367228 0.492029 -28.310362 1.788777 9.274794 29.763870 5.363681 -2.153681 -16.047635 0.000000 0.000000 0.000000 -12.974647 -3.186894 0.392442 -45.217231 -13.303142 -3.182835 -133.882799 -69.494836 123.814894 0.000000 0.000000 0.000000 14.729801 -1.165964 -0.453141 34.699794 22.768804 0.034213 -80.766087 59.956349 -44.479744 0.000000 0.000000 0.000000
-0.001322 0.906887 0.021316 0.451421 -7.970097 -1.730799 10.101559 0.507297 -24.580970 -8.814655 2.671647 22.266273 8.237962 16.966864 17.551653 0.000000 0.000000 0.000000 -0.709553 -0.387791 5.030347 5.027500 -0.285968 14.611159 -6.981023 -14.347680 -8.750882 0.000000 0.000000 0.000000 1.687173 -0.462007 8.874879 -0.420196 0.746556 -30.534101 1.931003 9.960160 30.915587 4.845306 -1.399385 -18.115753 0.000000 0.000000 0.000000 -13.304345 -2.455418 -0.065376 -42.878965 -10.200156 -4.166140 -136.755774 -68.937209 126.298495 0.000000 0.000000 0.000000 13.828631 -1.911534 -0.691688 31.835530 21.232393 -0.636514 -82.943755 61.815845 -47.901543 0.000000 0.000000 0.000000
-0.001923 0.906889 0.029249 0.950952 -9.049847 -2.094565 11.327789 0.971584 -25.714538 -11.392898 3.618444 21.869352 12.363969 22.392277 18.683389 0.000000 0.000000 0.000000 -0.322624 -0.440168 5.447246 4.004120 0.017493 15.921599 -7.727415 -15.964460 -9.528666 0.000000 0.000000 0.000000 1.682536 -0.510855 10.316289 -3.203310 1.282387 -31.607166 2.913794 9.688928 30.762020 4.799498 -1.785558 -16.153012 0.000000 0.000000 0.000000 -14.266656 -2.427946 0.051842 -39.207813 -8.496395 -4.458798 -135.552334 -71.277103 126.850060 0.000000 0.000000 0.000000 12.781527 -2.221407 -0.972205 28.196866 20.931069 -0.826880 -81.213596 62.819590 -48.462559 0.000000 0.000000 0.000000
-0.003838 0.904938 0.041578 1.142060 -8.439230 -2.343557 11.952143 1.155718 -27.124653 -11.141891 3.020915 17.780973 11.817686 21.506236 21.669376 0.000000 0.000000 0.000000 -0.065226 -0.599440 7.106616 2.553754 0.258602 14.653961 -7.324489 -14.972125 -9.326795 0.000000 0.000000 0.000000 0.981454 -0.451973 10.441017 -2.885729 1.289456 -33.491032 0.955307 10.152338 32.868494 6.075844 -2.447849 -17.612743 0.000000 0.000000 0.000000 -13.166278 -0.493412 -0.871441 -38.612476 -6.769642 -5.100544 -128.173042 -73.308265 119.291073 0.000000 0.000000 0.000000 11.612719 -4.035978 -1.655791 25.218325 21.368485 -1.050260 -78.013243 61.800630 -45.004189 0.000000 0.000000 0.000000
-0.006571 0.901225 0.058759 1.345557 -7.328946 -2.938194 11.624702 0.926797 -26.528039 -9.815003 2.072702 11.981254 11.333286 20.756679 27.747353 0.000000 0.000000 0.000000 -0.071159 -0.840275 9.994971 0.969056 0.474178 12.938091 -6.232420 -11.831085 -9.840881 0.000000 0.000000 0.000000 -0.195040 -0.346126 10.381620 -4.289926 1.519076 -32.439905 -0.149872 8.807457 31.521137 7.260756 -3.655028 -16.370027 0.000000 0.000000 0.000000 -13.631521 0.483020 -1.307422 -35.280729 -4.193964 -5.282210 -118.520574 -74.547135 108.986215 0.000000 0.000000 0.000000 9.650109 -4.138022 -1.739961 21.705489 18.078506 -1.473119 -75.740229 61.479670 -43.840661 0.000000 0.000000 0.000000
-0.009446 0.895575 0.080662 0.590373 -6.713780 -2.551618 12.452189 1.000429 -25.161544 -8.661299 1.511596 7.823496 11.025274 20.316585 35.511587 0.000000 0.000000 0.000000 0.745672 -1.120369 11.941025 0.388019 0.480767 11.171758 -5.788474 -10.726515 -9.631395 0.000000 0.000000 0.000000 -0.923613 -0.252361 8.834055 -4.294456 1.522211 -31.473813 -1.988488 9.866090 30.658805 9.678297 -5.426457 -15.395773 0.000000 0.000000 0.000000 -12.354727 -0.560575 -0.962986 -33.274424 -1.861105 -5.346885 -96.056016 -77.386607 86.713273 0.000000 0.000000 0.000000 9.302890 -6.710486 -2.810394 16.231709 13.388505 -1.792947 -62.269412 61.311612 -34.513009 0.000000 0.000000 0.000000
-0.010852 0.888816 0.107140 -0.241801 -4.808192 -2.105463 12.645761 0.834531 -24.799984 -8.261687 1.382363 8.134769 10.851614 20.411666 38.422645 0.000000 0.000000 0.000000 1.581122 -1.384811 12.930308 -1.026585 0.791603 12.147766 -4.017854 -5.808080 -9.532016 0.000000 0.000000 0.000000 -1.927828 -0.155397 7.275769 -5.653110 1.781455 -30.582480 -2.886516 9.259002 29.489375 12.701256 -8.051055 -13.941027 0.000000 0.000000 0.000000 -10.969060 -0.688224 -0.895462 -32.125420 -1.554464 -5.118853 -82.939028 -76.679564 72.471962 0.000000 0.000000 0.000000 7.726172 -8.303626 -3.431567 10.181060 8.760726 -1.573608 -47.421317 54.418675 -21.834828 0.000000 0.000000 0.000000
-0.009814 0.886552 0.134752 -0.701354 -3.066957 -1.491746 12.314357 0.558489 -24.070276 -8.326644 1.342012 8.233395 12.948395 22.514497 40.963051 0.000000 0.000000 0.000000 2.571222 -1.571921 12.890592 -2.011377 1.059137 13.437539 -3.250076 -5.776915 -5.641610 0.000000 0.000000 0.000000 -2.847537 -0.074334 5.697689 -6.512501 1.958023 -30.299586 -3.776846 9.205346 28.784076 14.593182 -9.246903 -14.406390 0.000000 0.000000 0.000000 -10.520695 -2.011243 -0.447732 -32.126710 -1.534465 -4.974698 -72.432926 -76.333620 61.655249 0.000000 0.000000 0.000000 5.495207 -8.958070 -3.571827 4.433675 3.186331 -0.865371 -33.561971 45.409788 -11.833138 0.000000 0.000000 0.000000
-0.006363 0.888691 0.161623 -0.869676 -2.102370 0.315816 12.132703 0.417212 -24.908289 -8.609836 1.400417 9.023076 13.363492 23.147532 38.860792 0.000000 0.000000 0.000000 1.682078 -1.336104 11.555519 -1.103578 0.965098 15.640839 -1.264579 -2.226592 -1.956726 0.000000 0.000000 0.000000 -3.998024 0.017190 4.159343 -6.455042 1.931871 -30.541645 -5.578082 8.814561 28.708831 16.845737 -9.935368 -17.645596 0.000000 0.000000 0.000000 -9.222808 -1.374494 -0.623719 -35.230991 -1.517943 -5.479676 -74.243652 -78.058290 65.098203 0.000000 0.000000 0.000000 1.119525 -9.983461 -3.817806 1.346620 -0.750084 -0.198777 -26.480631 36.999757 -6.964123 0.000000 0.000000 0.000000
-0.001503 0.894184 0.186527 -1.139166 -1.312072 0.618565 11.302272 0.146093 -23.799859 -7.709765 1.205507 9.263251 13.331475 23.337420 37.156837 0.000000 0.000000 0.000000 0.761459 -1.059760 9.866407 0.470178 0.772827 20.659807 0.606406 -0.783077 4.378098 0.000000 0.000000 0.000000 -4.149973 0.028412 3.451450 -7.541868 2.172644 -29.509688 -6.180935 8.104363 27.486569 17.194685 -10.692507 -15.977471 0.000000 0.000000 0.000000 -9.753850 -3.029423 0.028839 -36.844612 -4.185577 -4.945456 -57.976014 -83.295252 54.834678 0.000000 0.000000 0.000000 -1.427608 -11.099059 -4.107256 -5.884045 -2.277823 1.217034 -18.999598 31.800263 -4.048222 0.000000 0.000000 0.000000
0.004133 0.899567 0.210108 -1.009985 -1.390590 0.166774 10.606820 0.006288 -22.089989 -7.578250 1.212523 10.056817 13.547474 23.579986 36.180827 0.000000 0.000000 0.000000 -1.150268 -0.763634 8.989688 2.730415 0.232363 25.350032 1.937851 -0.586359 10.072468 0.000000 0.000000 0.000000 -3.883294 0.006326 4.336845 -7.637141 2.122313 -31.293147 -7.611011 8.727388 29.391303 17.720488 -10.354079 -18.521522 0.000000 0.000000 0.000000 -9.217219 -7.292025 1.901324 -40.219976 -6.715060 -4.831544 75.235459 -86.426051 -68.841056 0.000000 0.000000 0.000000 -4.927079 -12.098602 -4.354109 -9.541931 -1.492079 1.851828 -17.173502 27.764534 -3.033767 0.000000 0.000000 0.000000
0.010611 0.904068 0.231781 -0.497164 -1.398743 -1.798434 9.720887 -0.124489 -19.734420 -8.010715 1.397409 12.333019 13.484918 23.538605 35.532719 0.000000 0.000000 0.000000 -3.399663 -0.391588 6.828838 4.316170 -0.201868 33.657757 4.362743 -0.113007 19.314850 0.000000 0.000000 0.000000 -4.818742 0.026420 6.055022 -7.742358 2.106426 -32.608971 -8.146784 6.616046 30.032269 14.215443 -8.517796 -17.046814 0.000000 0.000000 0.000000 -9.247995 -8.045485 2.567173 -43.859590 -12.175690 -3.675164 112.613208 -78.657216 -96.324354 0.000000 0.000000 0.000000 -10.523055 -10.870468 -3.463358 -11.192436 0.819675 1.673729 -13.545761 25.844089 -2.149007 0.000000 0.000000 0.000000
0.017540 0.905242 0.250636 -0.852061 -1.501863 -2.930989 9.504414 -0.131937 -19.141624 -7.880326 1.514633 15.811002 13.663973 23.740638 34.676774 0.000000 0.000000 0.000000 -4.720080 -0.106193 3.512165 5.145286 -0.487542 40.959933 2.058824 -3.733023 18.634658 0.000000 0.000000 0.000000 -4.670578 0.000637 6.689696 -5.730245 1.757411 -33.184810 -10.392913 6.800821 29.974607 13.680537 -7.368028 -19.943150 0.000000 0.000000 0.000000 -8.990294 -12.121203 4.279678 -46.642479 -16.851849 -2.067644 121.053296 -72.117215 -98.106316 0.000000 0.000000 0.000000 -13.382522 -8.903537 -2.836051 -14.769374 1.610060 2.073332 -10.995359 24.471287 -1.539111 0.000000 0.000000 0.000000
0.024574 0.906486 0.267165 -1.280028 -4.378843 -3.552523 9.892467 0.099060 -17.366202 -7.674780 1.681541 16.929860 14.596706 24.202145 35.094189 0.000000 0.000000 0.000000 -5.998531 0.115169 1.026188 5.070810 0.123336 40.693056 -1.673672 -6.956082 6.845772 0.000000 0.000000 0.000000 -3.788623 -0.047374 6.552826 -6.920224 1.989932 -32.206688 -9.848567 7.397045 26.883585 10.860058 -5.860572 -17.422645 0.000000 0.000000 0.000000 -9.025976 -13.583048 4.993487 -52.301183 -22.080681 0.519444 133.608137 -75.617269 -114.556743 0.000000 0.000000 0.000000 -16.528709 -7.766812 -2.168708 -16.131978 4.572126 1.535679 -7.276332 22.309427 -0.706996 0.000000 0.000000 0.000000
0.031997 0.904400 0.282746 -1.645996 -3.754247 -4.416371 9.938503 0.083141 -16.585365 -7.771558 1.760271 18.823615 13.526752 23.334548 33.733657 0.000000 0.000000 0.000000 -6.657131 0.062332 2.406614 6.346569 -0.694009 34.400045 -4.640967 -9.083366 -7.465251 0.000000 0.000000 0.000000 -2.730978 -0.117062 6.306316 -5.351886 1.709695 -32.686756 -11.482657 9.879443 26.832613 14.189837 -7.279440 -19.729573 0.000000 0.000000 0.000000 -11.127976 -17.869336 6.420294 -55.494474 -24.823186 2.204215 155.741996 -82.748390 -146.865535 0.000000 0.000000 0.000000 -15.080439 -7.293980 -2.676826 -21.412589 8.865276 1.405350 -5.207874 20.416539 -0.238920 0.000000 0.000000 0.000000
0.040347 0.902348 0.299031 -1.018731 -4.897273 -5.316719 8.414028 -0.077958 -13.891056 -7.179184 1.645387 18.270745 14.565457 24.420319 31.239379 0.000000 0.000000 0.000000 -7.217855 0.136315 1.462504 5.103564 0.024067 34.744170 -4.855628 -7.091713 -12.805792 0.000000 0.000000 0.000000 -1.372935 -0.159161 5.135861 -7.298615 2.044051 -33.003015 -9.644989 11.875302 26.161437 14.605731 -7.557939 -18.882402 0.000000 0.000000 0.000000 -15.566617 -21.755781 8.149322 -57.906979 -20.059700 0.473073 -127.013482 -81.325199 124.498869 0.000000 0.000000 0.000000 -19.778285 -4.622166 -2.554666 -17.044812 9.771691 1.075509 -6.612948 19.898281 -0.291355 0.000000 0.000000 0.000000
0.049288 0.898942 0.317300 -0.481066 -6.778694 -5.679314 6.073257 -0.281332 -11.488160 -5.558670 1.314638 18.497232 15.828894 26.418973 24.170124 0.000000 0.000000 0.000000 -7.586032 0.198728 1.425903 2.142374 1.421608 33.003935 -4.268587 -4.516536 -12.649026 0.000000 0.000000 0.000000 0.770233 -0.132795 2.720186 -8.343902 2.222332 -33.422460 -8.679580 13.214702 25.982868 15.893530 -7.435805 -22.284559 0.000000 0.000000 0.000000 -22.555885 -20.893351 8.018112 -59.142544 -14.751322 -1.602021 -95.174261 -70.185601 79.249769 0.000000 0.000000 0.000000 -25.753525 -5.901350 -2.827584 -13.224426 15.843897 -0.323833 -8.515959 20.004388 -0.443647 0.000000 0.000000 0.000000
0.057735 0.901855 0.338051 -0.411532 -9.536173 -5.896921 4.035087 -0.353315 -8.555610 -3.542821 0.823137 16.994767 18.373328 29.248685 24.400504 0.000000 0.000000 0.000000 -7.620407 0.274332 0.956703 -1.048641 2.744042 30.557479 -2.278631 -2.593382 -5.246344 0.000000 0.000000 0.000000 4.226914 0.082445 -0.549706 -7.490750 2.095412 -33.030674 -7.818814 16.538173 25.753525 14.040755 -5.076267 -25.153266 0.000000 0.000000 0.000000 -28.592926 -20.226104 6.799245 -60.256664 -7.482630 -4.336755 -92.907045 -58.726209 63.079762 0.000000 0.000000 0.000000 -34.373897 -7.773427 -3.393463 -3.763412 21.913943 -0.845128 -15.004284 20.548362 -1.029004 0.000000 0.000000 0.000000
0.065019 0.908722 0.358717 -1.184065 -7.935666 -6.571834 2.952602 -0.259967 -4.880770 -1.708691 0.187606 15.225591 15.108631 26.533694 18.390733 0.000000 0.000000 0.000000 -6.520885 0.126720 2.358190 -2.563733 2.861314 28.203604 -0.689596 -4.690642 5.665639 0.000000 0.000000 0.000000 6.957230 0.354405 -2.390251 -7.080595 2.051180 -32.045138 -8.162214 15.130648 25.406278 14.937738 -5.446474 -25.899935 0.000000 0.000000 0.000000 -28.359987 -14.295328 2.805124 -64.784745 -3.031693 -7.158814 -93.779404 -44.719483 48.261580 0.000000 0.000000 0.000000 -37.834392 -11.855017 -3.003522 0.388699 28.141045 -0.717633 -19.199957 11.657994 -0.452185 0.000000 0.000000 0.000000
0.070914 0.916237 0.375897 -1.702136 -8.057581 -6.445771 1.864229 -0.158688 -2.564418 -0.430181 -0.150512 15.738316 11.928955 23.111081 10.828641 0.000000 0.000000 0.000000 -5.551257 0.148968 0.566609 -4.961250 3.676294 27.738041 2.649747 -5.398589 22.558712 0.000000 0.000000 0.000000 9.134257 0.542215 -3.099205 -7.435287 2.123694 -32.132654 -8.691260 12.809621 23.251462 14.651876 -5.846179 -24.357541 0.000000 0.000000 0.000000 -24.267259 -6.859511 -0.465797 -70.748683 -0.105055 -10.319230 -93.767096 -33.434367 37.100967 0.000000 0.000000 0.000000 -38.784912 -14.163007 -1.735610 3.998678 32.177645 -0.357807 -27.903412 4.388563 0.662056 0.000000 0.000000 0.000000
0.074796 0.923164 0.387453 -3.005211 -4.618891 -6.869469 3.351450 0.035022 -0.117041 -1.338653 -0.068273 17.271206 7.524627 15.739747 0.172306 0.000000 0.000000 0.000000 -3.744771 0.077714 -0.073910 -3.212820 2.849951 28.790123 -2.609266 -14.739226 38.173985 0.000000 0.000000 0.000000 8.944725 0.469855 -2.702439 -5.413374 1.740439 -33.102967 -9.162696 11.968829 22.499779 15.412061 -6.124760 -23.772603 0.000000 0.000000 0.000000 -20.533584 -3.959078 -2.426461 -73.203868 3.927285 -13.452058 -93.137564 -35.306280 36.561114 0.000000 0.000000 0.000000 -37.676593 -16.988313 -2.248033 3.485332 32.595256 -0.243486 -31.214457 0.200927 2.068043 0.000000 0.000000 0.000000
0.076798 0.928566 0.392362 -4.236036 2.627136 -7.105017 4.780980 -0.043153 -0.406389 -2.538052 -0.230329 22.155610 5.876083 9.587897 -8.843469 0.000000 0.000000 0.000000 -1.629705 0.087378 -0.983941 -1.804758 1.666728 30.794341 -4.760961 -16.139166 41.887472 0.000000 0.000000 0.000000 8.577327 0.298149 -1.750938 -7.336174 2.001400 -33.017407 -10.207497 10.405872 20.954371 17.113150 -6.480067 -24.281875 0.000000 0.000000 0.000000 -11.086658 0.127375 -3.114630 -77.003425 4.274364 -16.125721 -83.865285 -34.239138 28.133690 0.000000 0.000000 0.000000 -32.030133 -15.121581 -3.902975 -1.412044 27.250437 -0.780131 -32.011379 2.645424 1.881129 0.000000 0.000000 0.000000
0.075545 0.934703 0.392393 -4.439115 12.194649 -7.004442 6.628334 -0.222658 -1.054098 -3.277680 -0.708319 23.208291 3.415727 -0.851738 -12.653798 0.000000 0.000000 0.000000 -1.236718 0.141685 -1.849174 2.009881 -1.112491 30.749358 -9.624044 -19.832364 41.007805 0.000000 0.000000 0.000000 3.869239 0.045488 0.070596 -7.622048 1.758763 -34.915955 -9.693408 12.090221 21.724604 17.907197 -6.121734 -23.803140 0.000000 0.000000 0.000000 -4.515079 -2.267304 -1.101557 -73.190909 3.085419 -16.444396 -91.084861 -43.154759 37.603935 0.000000 0.000000 0.000000 -24.408744 -13.819852 -6.625078 -9.122009 23.602214 -0.551241 -34.256939 1.997722 2.860922 0.000000 0.000000 0.000000
0.070237 0.942125 0.390440 -4.696796 23.871273 -5.187588 9.012940 -0.617804 -4.723015 -3.001699 -1.649100 24.227118 0.421908 -14.161817 -14.364836 0.000000 0.000000 0.000000 -1.362791 0.228759 -3.442436 6.049497 -4.200765 28.205474 -11.938540 -21.516840 30.561019 0.000000 0.000000 0.000000 0.078886 -0.056646 1.894997 -12.365444 2.079804 -34.364866 -8.094993 12.284691 19.571118 19.429913 -7.462122 -20.391927 0.000000 0.000000 0.000000 -2.458016 -6.387438 0.469229 -67.251938 -3.209256 -11.925787 -83.532714 -47.776856 34.215302 0.000000 0.000000 0.000000 -19.407907 -10.119644 -7.206574 -22.216215 17.533339 1.861307 -25.423393 5.108137 1.101319 0.000000 0.000000 0.000000
0.062083 0.951097 0.388839 -4.186170 35.164355 -4.187208 9.554897 -0.948484 -6.757766 -4.179846 -1.553496 21.034898 -2.498655 -11.392903 -5.071362 0.000000 0.000000 0.000000 -1.281138 0.167439 -3.701748 6.769481 -5.386519 24.846995 -9.885316 -18.990194 17.790832 0.000000 0.000000 0.000000 -2.953871 -0.202989 6.595976 -16.126445 1.090997 -37.039781 -7.111037 16.790770 21.791376 23.033968 -7.653464 -23.591734 0.000000 0.000000 0.000000 -0.962221 -11.649169 1.770904 -62.418109 -10.355983 -8.262065 -83.608051 -54.141927 35.380398 0.000000 0.000000 0.000000 -17.182838 -6.318849 -7.550482 -29.250428 16.219767 4.628156 -17.829715 9.035155 0.367268 0.000000 0.000000 0.000000
0.053835 0.954540 0.389971 -3.797793 45.426093 -2.115919 11.154008 -1.495212 -10.266483 -5.311682 -1.697969 20.082865 -5.192378 -7.616339 3.180401 0.000000 0.000000 0.000000 -1.532404 0.140949 -6.600649 7.997285 -7.544014 24.859657 -8.566250 -19.009458 7.187020 0.000000 0.000000 0.000000 -3.201471 -0.540762 11.190440 -22.701661 -0.395735 -37.368125 -3.651314 18.847633 21.601175 24.966755 -8.662102 -23.126586 0.000000 0.000000 0.000000 -1.513574 -16.614228 2.286374 -59.604573 -15.005637 -5.487444 -80.602798 -56.808070 33.179218 0.000000 0.000000 0.000000 -20.117298 -0.639139 -6.973559 -30.202581 18.855614 3.868040 -6.117357 11.028352 0.506893 0.000000 0.000000 0.000000
0.047608 0.949695 0.393450 -3.948829 56.848782 -0.773433 11.809873 -2.258491 -14.390351 -6.689219 -2.224231 20.621576 -3.762524 2.394654 10.321491 0.000000 0.000000 0.000000 -1.122156 -0.037852 -7.552915 7.946524 -8.185863 21.894957 -9.124185 -19.867385 6.799027 0.000000 0.000000 0.000000 -1.791522 -1.082348 13.937775 -27.742218 -2.435639 -35.684081 -0.427580 20.638454 23.099665 25.176278 -7.297751 -24.277876 0.000000 0.000000 0.000000 -3.076755 -20.366034 1.643544 -56.831367 -16.451804 -4.057983 -88.038495 -58.337913 36.471435 0.000000 0.000000 0.000000 -21.662762 5.872322 -5.743200 -26.001123 19.077554 2.755799 1.721778 14.503588 1.297470 0.000000 0.000000 0.000000
0.043857 0.940718 0.397351 -4.552595 63.667169 -0.539175 14.163231 -3.235710 -17.782705 -10.485995 -2.600623 22.230550 -0.202675 13.550484 21.004588 0.000000 0.000000 0.000000 -1.556052 -0.466620 -10.091928 7.769305 -9.952565 23.603927 -8.240699 -19.619561 3.232733 0.000000 0.000000 0.000000 -0.442291 -1.884139 16.707777 -28.561379 -2.363569 -32.476791 -0.089917 23.092143 20.845956 27.538966 -10.928158 -20.462057 0.000000 0.000000 0.000000 -4.981777 -21.892785 -0.070354 -54.201958 -17.006064 -2.114966 -97.277853 -61.743813 43.766851 0.000000 0.000000 0.000000 -18.955064 10.591195 -2.710764 -20.915419 24.044988 1.213486 0.308265 9.289964 0.606523 0.000000 0.000000 0.000000
0.041020 0.929386 0.399681 -5.955099 70.715306 -0.374926 15.025908 -4.497909 -22.318612 -11.927260 -3.959114 26.573110 3.197687 18.580309 25.844210 0.000000 0.000000 0.000000 -2.318460 -1.339237 -12.896783 6.976946 -11.901705 25.837757 -7.429232 -19.442969 0.165210 0.000000 0.000000 0.000000 -0.830864 -2.594493 19.006365 -26.274792 -2.748933 -31.963489 1.352537 25.193598 23.039869 28.044831 -8.300868 -23.967065 0.000000 0.000000 0.000000 -4.253068 -20.563413 -1.838842 -54.260835 -18.173733 -2.159262 -111.602083 -57.337934 46.812792 0.000000 0.000000 0.000000 -15.250458 12.324653 0.267791 -12.865907 25.035450 0.657528 -8.589998 9.678221 0.392160 0.000000 0.000000 0.000000
0.038491 0.916146 0.399777 -9.388229 76.040069 -3.810972 16.591935 -5.753250 -25.440785 -15.282016 -4.927247 29.647366 9.464274 24.183295 32.735218 0.000000 0.000000 0.000000 -3.817943 -2.803621 -15.501884 5.475699 -15.000256 30.615993 -6.342976 -17.805922 -2.039993 0.000000 0.000000 0.000000 -2.371705 -3.351271 21.601646 -21.473067 -1.197412 -30.170980 1.458881 24.842858 22.062697 27.892675 -9.770251 -21.000487 0.000000 0.000000 0.000000 -5.744971 -19.511929 -4.656376 -53.095854 -15.412266 -1.849364 -125.215362 -54.628621 55.367697 0.000000 0.000000 0.000000 -8.415843 14.569477 6.005539 -6.254716 25.183833 0.202671 -18.543064 13.276251 -0.002463 0.000000 0.000000 0.000000
0.036650 0.904489 0.397462 -12.448247 79.361816 -6.254639 16.889640 -6.620829 -27.566664 -17.198623 -5.710705 31.841374 11.547393 24.972882 25.668556 0.000000 0.000000 0.000000 -5.274577 -4.542004 -18.059087 2.425741 -16.183660 34.816954 -5.311824 -17.104230 -5.126259 0.000000 0.000000 0.000000 -3.662170 -4.158147 24.025512 -18.363278 -0.844484 -30.718120 3.925215 25.665164 24.158175 26.824754 -8.902741 -20.239535 0.000000 0.000000 0.000000 -5.715578 -17.718502 -6.589832 -51.859744 -14.072734 -2.055588 -131.939955 -53.559842 61.875159 0.000000 0.000000 0.000000 -2.346896 13.640514 10.129079 -0.609626 27.018698 0.115145 -28.795058 14.459135 -0.401057 0.000000 0.000000 0.000000
0.034490 0.894053 0.391804 -17.111960 83.171613 -11.123882 15.590382 -7.087742 -28.613524 -17.220672 -6.935766 34.493099 11.656604 22.859563 16.153610 0.000000 0.000000 0.000000 -7.155275 -6.741794 -19.837781 -0.960820 -17.310422 39.098401 -4.233383 -12.912010 -4.051176 0.000000 0.000000 0.000000 -3.934789 -5.181199 26.157345 -15.264388 -0.047570 -30.005072 5.376582 24.336752 25.419199 26.754269 -8.497629 -20.456162 0.000000 0.000000 0.000000 -7.237084 -17.410553 -8.662684 -48.639063 -10.199732 -2.109595 -137.791654 -53.959521 72.696812 0.000000 0.000000 0.000000 4.652371 10.549519 13.689389 -0.472357 30.309009 -0.526830 -36.645709 16.512670 -1.480131 0.000000 0.000000 0.000000
0.029807 0.887626 0.382061 -16.959005 83.635389 -11.225340 15.007994 -7.431771 -29.690019 -18.503678 -7.415966 36.327250 12.611198 23.631946 14.282024 0.000000 0.000000 0.000000 -8.425446 -8.522835 -21.804804 -3.984206 -16.445950 41.714252 -3.187989 -8.274565 -1.009354 0.000000 0.000000 0.000000 -4.002113 -6.131016 28.262809 -13.320643 0.352126 -30.466065 6.922467 24.790898 25.597178 27.125293 -9.048754 -20.182203 0.000000 0.000000 0.000000 -8.630067 -17.849591 -9.950600 -46.359112 -7.528402 -1.839139 -138.425718 -57.132284 79.734431 0.000000 0.000000 0.000000 12.344911 7.574098 17.840925 -1.968629 34.650106 -1.866944 -45.861142 15.558842 -2.387576 0.000000 0.000000 0.000000
0.021483 0.880115 0.369232 -14.519462 83.722567 -8.715478 13.261529 -7.780841 -30.916249 -18.539027 -8.075660 38.334610 14.388499 25.039900 11.001479 0.000000 0.000000 0.000000 -9.576055 -10.351748 -23.758785 -6.265819 -15.687376 43.920206 -1.391900 -3.611230 0.672644 0.000000 0.000000 0.000000 -4.206009 -6.503254 29.133393 -10.148105 1.046902 -30.212724 8.082502 24.898930 27.007809 26.932892 -4.968735 -25.371044 0.000000 0.000000 0.000000 -10.743430 -19.549988 -11.866796 -45.219300 -4.965989 -1.450779 -139.674734 -57.776349 84.240902 0.000000 0.000000 0.000000 17.246866 5.721294 20.857942 -2.528204 36.825832 -2.943288 -56.840504 12.261720 -1.707880 0.000000 0.000000 0.000000
0.010555 0.873910 0.355743 -12.179758 83.210431 -7.074531 12.654527 -8.066370 -31.794372 -20.656710 -8.448661 40.915990 15.101104 25.831866 8.283047 0.000000 0.000000 0.000000 -10.532519 -12.019997 -25.626003 -8.902918 -14.815329 46.662380 0.784612 0.703758 0.766049 0.000000 0.000000 0.000000 -4.214854 -7.340148 30.933234 -7.985097 1.504277 -30.076035 8.425195 25.274769 27.046594 26.321526 -3.720705 -26.679890 0.000000 0.000000 0.000000 -11.739202 -20.617641 -12.090158 -44.906267 -3.064590 -1.571305 -145.249395 -58.850079 94.699069 0.000000 0.000000 0.000000 20.319882 4.557954 22.151829 -1.556492 38.376186 -3.428004 -65.315442 13.849954 -3.127125 0.000000 0.000000 0.000000
-0.000032 0.869842 0.344705 -11.841346 82.215533 -7.382545 12.408593 -8.081734 -32.043750 -21.807651 -8.504046 42.387816 15.544479 26.187199 6.043674 0.000000 0.000000 0.000000 -11.881553 -13.341368 -26.387296 -8.818136 -14.041466 46.595283 2.239792 3.183052 -0.465374 0.000000 0.000000 0.000000 -3.521030 -7.755627 31.603116 -6.237407 1.746399 -30.241304 8.588490 25.518567 28.112775 24.993459 -1.846194 -28.132312 0.000000 0.000000 0.000000 -13.482872 -21.545440 -13.077449 -43.498133 -1.018332 -1.385894 -148.779859 -59.203375 102.615688 0.000000 0.000000 0.000000 22.458235 3.817122 22.987859 0.790390 38.564195 -3.434824 -70.450994 14.833918 -4.048801 0.000000 0.000000 0.000000
-0.007603 0.870919 0.338058 -11.039371 81.157687 -7.559551 11.689921 -7.418794 -30.630661 -20.503279 -8.513946 41.898699 14.977752 24.419869 4.212084 0.000000 0.000000 0.000000 -12.417705 -13.289173 -26.036550 -8.839127 -12.569756 44.734257 1.844765 2.345339 -0.217458 0.000000 0.000000 0.000000 -2.510409 -8.156710 32.025905 -5.615393 2.143744 -29.036177 7.848987 24.822765 26.911456 24.132417 -1.967136 -27.225695 0.000000 0.000000 0.000000 -14.616859 -21.541076 -12.863582 -43.446035 0.955943 -1.898268 -151.562273 -60.071524 109.279980 0.000000 0.000000 0.000000 23.960191 3.703138 23.148763 4.299338 38.875973 -3.090514 -74.147759 18.199479 -6.472494 0.000000 0.000000 0.000000
-0.011878 0.873973 0.336371 -8.209877 80.243068 -5.751602 10.995237 -6.757984 -29.126687 -19.865386 -8.491164 41.709212 14.374429 22.938972 3.324892 0.000000 0.000000 0.000000 -13.297666 -13.037385 -24.878530 -7.658867 -11.281343 41.510723 0.591879 -0.007589 0.605796 0.000000 0.000000 0.000000 -1.789152 -8.303627 32.104006 -4.939220 2.238305 -28.994793 7.583084 24.136476 27.188592 23.184243 -0.909211 -28.358857 0.000000 0.000000 0.000000 -16.009365 -21.565466 -13.382620 -43.267181 2.521218 -2.104380 -151.275190 -61.101871 111.350025 0.000000 0.000000 0.000000 24.255105 2.813420 22.155933 8.875637 39.376283 -2.294967 -76.939570 22.770649 -9.089178 0.000000 0.000000 0.000000
-0.014172 0.878783 0.338420 -7.394108 79.487882 -5.564194 10.724033 -6.013975 -27.239651 -18.387849 -8.248518 40.217565 13.967515 21.330373 2.559725 0.000000 0.000000 0.000000 -13.563654 -12.362422 -23.695681 -6.652203 -10.586931 39.210503 -0.892821 -2.372000 2.758745 0.000000 0.000000 0.000000 -0.575327 -7.806805 30.610436 -5.186109 2.361320 -28.299379 6.719426 22.649214 26.542155 22.164479 -0.880096 -27.121547 0.000000 0.000000 0.000000 -15.610669 -20.209187 -12.863141 -44.074482 3.023550 -2.839693 -150.452444 -61.566324 110.464585 0.000000 0.000000 0.000000 25.082509 2.168887 21.789148 12.738808 38.613274 -1.798213 -79.957920 27.179014 -12.366378 0.000000 0.000000 0.000000
-0.016485 0.879645 0.342905 -7.290140 78.566526 -6.688927 11.310564 -5.510866 -25.851649 -18.925117 -7.853476 39.736351 14.390595 22.273607 4.128628 0.000000 0.000000 0.000000 -13.762409 -11.177577 -21.586211 -5.168794 -10.427331 37.133222 -1.796943 -4.143477 3.073782 0.000000 0.000000 0.000000 0.322696 -7.430574 29.499693 -5.490155 2.516718 -27.532435 6.361655 22.289204 26.681213 21.633325 -1.196143 -25.614959 0.000000 0.000000 0.000000 -15.352589 -19.892270 -12.462055 -43.667459 1.978882 -2.551632 -146.733329 -62.744946 105.621093 0.000000 0.000000 0.000000 25.224405 1.504410 21.161615 14.922879 38.123626 -1.474235 -82.476442 29.041930 -13.716012 0.000000 0.000000 0.000000
-0.019983 0.878202 0.348014 -5.502385 78.097594 -5.959836 11.641307 -5.071997 -24.419174 -19.319066 -7.512392 39.006377 14.753741 22.252325 3.894933 0.000000 0.000000 0.000000 -14.023771 -10.914437 -20.843544 -4.944022 -10.450214 36.998986 -2.065563 -4.724872 3.043106 0.000000 0.000000 0.000000 0.784236 -6.814537 28.117537 -5.977157 2.740043 -26.075537 6.014870 21.186551 26.024808 20.623642 -1.317840 -23.987414 0.000000 0.000000 0.000000 -13.945485 -19.775608 -10.890631 -44.305568 -0.737910 -2.230373 -144.950894 -64.546438 103.177546 0.000000 0.000000 0.000000 24.260240 1.455142 20.035231 16.295510 38.231160 -0.923919 -84.979171 29.331263 -13.663983 0.000000 0.000000 0.000000
-0.024600 0.874741 0.352636 -5.365117 77.360786 -7.023893 12.455402 -4.832958 -23.474223 -20.498209 -7.278996 39.390837 15.445784 23.123012 4.008677 0.000000 0.000000 0.000000 -13.847136 -10.456031 -20.427520 -4.912946 -10.514507 37.226828 -2.272759 -5.258009 2.755636 0.000000 0.000000 0.000000 1.421628 -6.662933 27.501287 -5.743487 2.799550 -25.688013 5.438069 20.557701 26.290903 20.237622 -1.975421 -22.136028 0.000000 0.000000 0.000000 -13.305934 -19.724516 -10.036547 -43.867431 -2.861272 -1.687428 -143.685037 -66.352541 102.597450 0.000000 0.000000 0.000000 23.319661 1.655494 19.184905 15.948450 39.170898 -0.587651 -87.984687 28.348209 -12.976869 0.000000 0.000000 0.000000
-0.029369 0.872297 0.356065 -4.196387 76.250781 -6.705535 12.767041 -4.594485 -22.698027 -20.783192 -7.029398 39.394063 15.756305 23.676579 4.351979 0.000000 0.000000 0.000000 -13.958325 -10.473091 -20.771152 -4.538526 -10.718842 37.805161 -2.559050 -5.748096 2.833484 0.000000 0.000000 0.000000 1.712472 -6.362238 26.872629 -5.885085 2.932067 -24.860468 4.936873 20.064926 25.484981 19.589754 -2.569830 -20.392618 0.000000 0.000000 0.000000 -12.482370 -19.662200 -8.854904 -44.103645 -5.242234 -1.232215 -141.700364 -68.371905 101.189502 0.000000 0.000000 0.000000 22.657835 1.826862 18.409454 15.674202 40.302044 -0.300221 -91.895111 27.513971 -12.549295 0.000000 0.000000 0.000000
-0.032834 0.871160 0.358508 -2.650350 74.874092 -6.126232 12.794790 -4.274892 -21.673376 -20.915780 -6.825941 39.586245 15.746449 23.855250 4.652875 0.000000 0.000000 0.000000 -13.963141 -10.322192 -21.014074 -4.236194 -10.855152 38.394220 -3.166340 -6.914317 2.889277 0.000000 0.000000 0.000000 1.893373 -6.304968 26.830735 -5.721526 2.938847 -24.871321 4.683152 19.578428 25.270342 18.813664 -3.174740 -18.412244 0.000000 0.000000 0.000000 -11.612904 -19.200722 -7.822811 -44.895068 -6.669000 -1.273668 -141.852322 -69.138168 101.595400 0.000000 0.000000 0.000000 21.886421 2.112752 17.635871 16.347677 40.961683 0.153308 -96.221774 27.074747 -12.425281 0.000000 0.000000 0.000000
-0.034511 0.871432 0.360465 -2.033526 74.022800 -6.060034 12.578729 -3.967090 -20.582095 -20.129645 -6.725869 39.177267 15.767159 23.534241 4.224322 0.000000 0.000000 0.000000 -14.403716 -10.356146 -20.821889 -3.634190 -10.872822 38.180672 -2.847781 -6.084232 3.529316 0.000000 0.000000 0.000000 2.609803 -5.925236 25.651379 -5.635879 3.008306 -24.145219 4.041456 18.422713 24.873356 17.989213 -3.892806 -16.201006 0.000000 0.000000 0.000000 -11.284133 -18.365774 -7.398402 -45.510940 -7.378380 -1.386748 -141.746847 -68.887125 101.240283 0.000000 0.000000 0.000000 21.247522 1.766587 16.581648 18.754348 40.761919 0.830600 -100.737640 27.657031 -12.828420 0.000000 0.000000 0.000000
-0.034705 0.872867 0.362533 -1.106204 72.936544 -5.963248 12.332333 -3.555562 -18.918085 -19.311912 -6.459228 38.223575 15.780345 23.306254 4.477425 0.000000 0.000000 0.000000 -15.069894 -10.291991 -20.145002 -3.398043 -10.810628 38.273401 -1.489866 -3.526468 3.402292 0.000000 0.000000 0.000000 2.986418 -5.610247 24.877555 -5.765007 3.099520 -23.546903 3.589222 17.617546 24.683008 17.550341 -5.508342 -13.281853 0.000000 0.000000 0.000000 -10.688352 -18.184495 -6.514020 -46.064760 -8.098717 -1.531333 -144.172563 -68.652001 103.941677 0.000000 0.000000 0.000000 21.594288 1.242191 16.050674 20.387438 39.982548 0.925918 -104.599383 28.307415 -14.110556 0.000000 0.000000 0.000000
-0.034401 0.873375 0.364894 -0.533320 72.939123 -5.739986 12.272277 -3.407757 -18.151136 -19.411292 -6.347038 37.851817 16.198038 23.489087 4.180912 0.000000 0.000000 0.000000 -15.607348 -10.358178 -19.461664 -3.059903 -10.860354 37.969166 -0.862294 -2.392823 3.271448 0.000000 0.000000 0.000000 3.480421 -5.401809 24.116075 -6.064672 3.135468 -23.365419 3.372427 16.204880 24.736293 16.808779 -5.528547 -12.345837 0.000000 0.000000 0.000000 -10.885580 -18.445085 -6.098422 -45.981412 -8.718078 -1.435568 -147.243291 -67.727273 107.661102 0.000000 0.000000 0.000000 22.531195 1.075424 16.228978 21.076352 38.729240 0.525674 -106.848877 28.940536 -15.878412 0.000000 0.000000 0.000000
-0.034187 0.873480 0.367168 0.109738 73.288377 -5.768249 12.418051 -3.332184 -17.489505 -19.961484 -6.259864 37.634350 16.323710 23.618154 4.734190 0.000000 0.000000 0.000000 -16.186660 -10.562884 -18.827567 -2.982375 -11.094859 38.181729 -0.652613 -1.889999 3.992954 0.000000 0.000000 0.000000 3.333269 -5.337352 24.105264 -5.388661 3.143241 -23.509522 2.955751 15.408401 24.831611 16.871559 -5.738147 -12.272836 0.000000 0.000000 0.000000 -11.189571 -18.820681 -5.979475 -45.882453 -9.043347 -1.246318 -151.687964 -66.379625 112.850113 0.000000 0.000000 0.000000 23.921266 0.506800 16.629461 20.749904 38.056308 -0.104935 -106.900540 28.427238 -15.897812 0.000000 0.000000 0.000000
-0.033911 0.872622 0.369055 0.897091 73.405663 -5.652955 12.500945 -3.223889 -16.708225 -20.619510 -6.150678 37.532046 16.765634 23.968555 4.718183 0.000000 0.000000 0.000000 -16.808860 -10.671694 -18.010824 -2.917360 -11.158203 38.177260 -0.054811 -0.864877 3.827223 0.000000 0.000000 0.000000 3.302050 -5.304427 24.101115 -5.298160 3.223648 -22.927565 2.857177 14.449566 24.748005 16.728458 -5.408310 -12.767038 0.000000 0.000000 0.000000 -11.455052 -19.247357 -5.633930 -46.286922 -10.011106 -1.014527 -154.863315 -65.039527 116.698008 0.000000 0.000000 0.000000 24.325484 0.609957 16.643261 21.366481 36.782548 -0.328097 -105.709957 26.655409 -13.746823 0.000000 0.000000 0.000000
-0.033279 0.871445 0.370440 1.153536 73.924215 -6.229414 12.645912 -3.153222 -15.933218 -21.159996 -6.165185 37.607042 17.010580 23.985295 4.602513 0.000000 0.000000 0.000000 -17.566382 -10.755987 -16.680407 -2.411990 -11.446351 37.804528 0.196075 -0.486660 3.851299 0.000000 0.000000 0.000000 3.424240 -5.441930 24.335314 -4.912329 3.262542 -22.693515 2.574327 14.094720 24.922549 16.949839 -5.657430 -12.766411 0.000000 0.000000 0.000000 -11.577547 -19.985390 -5.380852 -46.182655 -10.969460 -0.602829 -158.369826 -64.611163 121.481504 0.000000 0.000000 0.000000 25.165231 0.163681 16.852924 21.878959 35.756150 -0.697613 -103.976143 25.648835 -12.214847 0.000000 0.000000 0.000000
-0.032337 0.870237 0.371144 2.137239 74.342137 -5.776275 12.477800 -3.044534 -15.211345 -21.191997 -6.165971 37.338843 16.941452 23.438158 3.860171 0.000000 0.000000 0.000000 -18.528437 -11.118542 -15.729783 -1.539610 -11.706610 37.177655 0.013271 -0.827617 4.220905 0.000000 0.000000 0.000000 3.490876 -5.612042 24.666288 -4.734141 3.310761 -22.130445 2.359450 13.929097 24.588083 17.516434 -6.282218 -12.716414 0.000000 0.000000 0.000000 -11.823381 -20.171461 -5.431203 -46.670208 -10.968813 -0.533741 -160.150189 -63.466156 123.388639 0.000000 0.000000 0.000000 26.381500 -0.754400 16.955005 22.471334 35.108953 -1.073707 -103.035687 24.986120 -11.183727 0.000000 0.000000 0.000000
-0.031378 0.869244 0.371405 2.759254 74.732492 -5.428629 11.994988 -2.902704 -14.643483 -21.030290 -6.289995 37.473142 17.566279 23.512062 2.491361 0.000000 0.000000 0.000000 -19.504016 -11.447252 -14.656390 -0.644398 -11.982960 36.527480 0.569443 -0.008103 3.469779 0.000000 0.000000 0.000000 3.455665 -5.534378 24.529331 -4.872248 3.368436 -21.855871 2.647710 13.342472 24.692632 17.980912 -6.255075 -13.490068 0.000000 0.000000 0.000000 -12.527712 -20.992756 -5.442940 -46.539389 -11.171062 -0.261869 -160.789213 -63.206200 124.605465 0.000000 0.000000 0.000000 27.308818 -0.828942 17.405984 22.107448 34.520788 -1.518530 -102.191834 23.236418 -9.498866 0.000000 0.000000 0.000000
-0.030768 0.867687 0.371336 3.261222 74.721737 -5.158478 11.877917 -2.846012 -14.380268 -21.187181 -6.291064 37.578081 17.797918 23.626641 2.053844 0.000000 0.000000 0.000000 -20.082675 -11.738237 -14.336619 -0.162747 -12.161276 36.387430 0.635185 0.079604 3.390157 0.000000 0.000000 0.000000 3.493901 -5.631310 24.754110 -4.948456 3.402884 -21.684466 2.604922 12.957456 24.369382 18.246310 -6.151061 -14.176014 0.000000 0.000000 0.000000 -12.842545 -20.985365 -5.400433 -46.616391 -11.489653 -0.126310 -163.105780 -62.545008 128.389109 0.000000 0.000000 0.000000 28.281050 -0.898628 17.767135 21.638099 33.984661 -1.907426 -102.511680 22.228544 -9.048828 0.000000 0.000000 0.000000
-0.030505 0.867707 0.371133 4.704511 75.001772 -3.744007 11.413035 -2.790497 -14.466809 -20.471242 -6.403851 37.369675 16.808025 22.354826 1.986363 0.000000 0.000000 0.000000 -20.549282 -12.020780 -14.078684 0.417670 -11.952228 35.319658 -0.210291 -1.310740 4.500136 0.000000 0.000000 0.000000 3.067576 -5.576880 24.887008 -4.595322 3.350682 -22.207052 2.537962 12.036788 24.903063 18.616544 -4.650365 -17.338423 0.000000 0.000000 0.000000 -13.354587 -21.062917 -5.568661 -46.832270 -12.140027 0.131973 -163.945284 -61.995731 129.985933 0.000000 0.000000 0.000000 28.525886 -0.701922 17.994970 21.241379 34.153626 -2.054441 -102.794154 19.870870 -6.596639 0.000000 0.000000 0.000000
-0.030388 0.868469 0.371066 4.592567 74.583471 -3.731386 11.631287 -2.789035 -14.282628 -19.739456 -6.131246 36.196232 15.952098 21.522021 2.788506 0.000000 0.000000 0.000000 -20.228722 -11.755451 -14.218223 0.137874 -11.459203 34.895758 0.064440 -0.790587 4.678557 0.000000 0.000000 0.000000 2.680982 -5.395374 24.760708 -4.398808 3.342809 -21.728155 2.062885 11.544890 24.098432 18.592873 -4.664724 -17.636683 0.000000 0.000000 0.000000 -13.593076 -21.510916 -5.248228 -46.901032 -12.734660 0.433104 -165.952084 -62.216326 133.650201 0.000000 0.000000 0.000000 28.526979 -0.363394 17.933292 20.792115 33.584809 -2.136271 -102.093527 19.075819 -6.069324 0.000000 0.000000 0.000000
-0.030411 0.871001 0.371197 4.369804 74.231678 -3.745357 12.069425 -2.815421 -13.932776 -19.472800 -5.718560 34.627026 15.273157 20.994323 3.888721 0.000000 0.000000 0.000000 -19.665269 -11.187244 -14.014104 0.289594 -10.879175 33.636735 -0.423465 -1.621489 4.928071 0.000000 0.000000 0.000000 2.548021 -5.374121 24.844044 -4.946619 3.388777 -21.912579 1.820029 10.607558 24.049629 19.152680 -4.456849 -19.268549 0.000000 0.000000 0.000000 -13.539125 -21.255964 -4.888364 -46.777149 -13.997597 0.738134 -167.194579 -63.193255 136.672770 0.000000 0.000000 0.000000 28.983450 -0.270266 17.859111 19.802992 34.431856 -2.227323 -99.396698 18.138399 -5.107849 0.000000 0.000000 0.000000
-0.031270 0.873729 0.371174 3.833352 74.031955 -3.841129 12.222399 -2.770922 -13.201126 -18.272972 -5.231332 32.127186 15.025529 20.278007 4.026222 0.000000 0.000000 0.000000 -18.736472 -10.515949 -14.070009 0.096776 -10.239041 32.529992 -1.004797 -2.647969 4.973866 0.000000 0.000000 0.000000 2.066209 -5.217564 24.767429 -4.671477 3.308620 -22.467560 1.615185 10.551678 24.457460 19.477607 -4.339134 -20.093606 0.000000 0.000000 0.000000 -13.581032 -22.003673 -4.689959 -47.001993 -15.101193 1.125035 -168.499750 -64.543874 139.151572 0.000000 0.000000 0.000000 28.595291 -0.316518 17.645482 19.852214 34.535102 -2.139257 -97.061724 17.977885 -4.537988 0.000000 0.000000 0.000000
-0.033384 0.877310 0.370586 2.867264 73.980395 -4.614688 12.887242 -2.881021 -12.991621 -18.276970 -4.854247 30.524933 14.358993 20.012289 5.589092 0.000000 0.000000 0.000000 -17.598459 -9.874207 -14.456497 -0.468439 -9.590850 31.813735 -2.093707 -4.026587 7.135917 0.000000 0.000000 0.000000 1.738981 -5.599274 25.815067 -5.200185 3.268016 -23.356583 1.694284 10.219356 24.469882 19.468571 -3.657059 -21.705677 0.000000 0.000000 0.000000 -13.342719 -21.833036 -4.426491 -47.123613 -15.926360 1.284208 -170.731851 -65.807747 143.276427 0.000000 0.000000 0.000000 27.801160 -0.379799 16.846636 20.897896 34.591284 -1.788712 -95.680165 19.211934 -5.177191 0.000000 0.000000 0.000000
-0.036881 0.880387 0.369355 1.502479 73.974402 -5.265779 13.223119 -2.986672 -13.362911 -18.172124 -4.718755 29.916895 14.451354 19.963285 5.175230 0.000000 0.000000 0.000000 -16.297785 -9.107156 -14.778223 -0.263803 -9.318964 30.843738 -3.528475 -6.695695 6.740287 0.000000 0.000000 0.000000 1.152357 -5.553609 26.011995 -4.786399 3.158824 -24.084566 1.661462 10.178442 24.919273 19.638416 -3.318700 -22.775949 0.000000 0.000000 0.000000 -14.181792 -21.728842 -5.017686 -46.706876 -15.824864 1.543660 -168.914803 -66.959115 141.481533 0.000000 0.000000 0.000000 27.172585 -0.526479 16.375768 21.838108 34.676481 -1.521153 -94.504477 21.001648 -6.387683 0.000000 0.000000 0.000000
-0.040210 0.884880 0.367985 0.795137 73.196664 -5.129776 13.981920 -3.124102 -13.314066 -18.988975 -4.308299 28.491488 14.518839 20.186323 5.272096 0.000000 0.000000 0.000000 -15.532558 -8.772682 -15.668398 -0.039726 -8.421775 29.088931 -4.277292 -6.971030 9.705858 0.000000 0.000000 0.000000 0.743119 -5.612816 26.401561 -4.489258 3.032759 -24.775034 1.326498 10.666171 24.699632 18.633511 -2.549868 -22.700850 0.000000 0.000000 0.000000 -14.503681 -21.559313 -5.343611 -45.576360 -13.966322 1.296879 -168.795597 -68.549801 142.059824 0.000000 0.000000 0.000000 26.983295 -0.878433 15.999872 22.875409 33.688861 -1.498954 -94.412002 26.215376 -11.323078 0.000000 0.000000 0.000000
