HIERARCHY
ROOT Hips
{
	OFFSET -0.001795 -0.223333 0.028219
	CHANNELS 6 Xposition Yposition Zposition Zrotation Yrotation Xrotation
	JOINT LeftUpLeg
	{
		OFFSET 0.069520 -0.091406 -0.006815
		CHANNELS 3 Zrotation Yrotation Xrotation
		JOINT LeftLeg
		{
			OFFSET 0.034277 -0.375199 -0.004496
			CHANNELS 3 Zrotation Yrotation Xrotation
			JOINT LeftFoot
			{
				OFFSET -0.013596 -0.397961 -0.043693
				CHANNELS 3 Zrotation Yrotation Xrotation
				JOINT LeftToe
				{
					OFFSET 0.026358 -0.055791 0.119288
					CHANNELS 3 Zrotation Yrotation Xrotation
					End Site
					{
						OFFSET 0.000000 0.000000 0.000000
					}
				}
			}
		}
	}
	JOINT RightUpLeg
	{
		OFFSET -0.067670 -0.090522 -0.004320
		CHANNELS 3 Zrotation Yrotation Xrotation
		JOINT RightLeg
		{
			OFFSET -0.038290 -0.382569 -0.008850
			CHANNELS 3 Zrotation Yrotation Xrotation
			JOINT RightFoot
			{
				OFFSET 0.015774 -0.398415 -0.042312
				CHANNELS 3 Zrotation Yrotation Xrotation
				JOINT RightToe
				{
					OFFSET -0.025372 -0.048144 0.123348
					CHANNELS 3 Zrotation Yrotation Xrotation
					End Site
					{
						OFFSET 0.000000 0.000000 0.000000
					}
				}
			}
		}
	}
	JOINT Spine
	{
		OFFSET -0.002533 0.108963 -0.026696
		CHANNELS 3 Zrotation Yrotation Xrotation
		JOINT Spine1
		{
			OFFSET 0.005487 0.135180 0.001092
			CHANNELS 3 Zrotation Yrotation Xrotation
			JOINT Spine2
			{
				OFFSET 0.001457 0.052922 0.025425
				CHANNELS 3 Zrotation Yrotation Xrotation
				JOINT Neck
				{
					OFFSET -0.002778 0.213870 -0.042857
					CHANNELS 3 Zrotation Yrotation Xrotation
					JOINT Head
					{
						OFFSET 0.005152 0.064970 0.051349
						CHANNELS 3 Zrotation Yrotation Xrotation
						End Site
						{
							OFFSET 0.000000 0.000000 0.000000
						}
					}
				}
				JOINT LeftShoulder
				{
					OFFSET 0.078845 0.121749 -0.034090
					CHANNELS 3 Zrotation Yrotation Xrotation
					JOINT LeftArm
					{
						OFFSET 0.090977 0.030469 -0.008868
						CHANNELS 3 Zrotation Yrotation Xrotation
						JOINT LeftForeArm
						{
							OFFSET 0.259612 -0.012772 -0.027456
							CHANNELS 3 Zrotation Yrotation Xrotation
							JOINT LeftHand
							{
								OFFSET 0.249234 0.008986 -0.001171
								CHANNELS 3 Zrotation Yrotation Xrotation
								End Site
								{
									OFFSET 0.000000 0.000000 0.000000
								}
							}
						}
					}
				}
				JOINT RightShoulder
				{
					OFFSET -0.081759 0.118833 -0.038615
					CHANNELS 3 Zrotation Yrotation Xrotation
					JOINT RightArm
					{
						OFFSET -0.096012 0.032551 -0.009143
						CHANNELS 3 Zrotation Yrotation Xrotation
						JOINT RightForeArm
						{
							OFFSET -0.253742 -0.013329 -0.021401
							CHANNELS 3 Zrotation Yrotation Xrotation
							JOINT RightHand
							{
								OFFSET -0.255298 0.007772 -0.005559
								CHANNELS 3 Zrotation Yrotation Xrotation
								End Site
								{
									OFFSET 0.000000 0.000000 0.000000
								}
							}
						}
					}
				}
			}
		}
	}
}
MOTION
Frames: 64
Frame Time: 0.050000
0.000000 0.919860 0.000000 -3.806069 0.730925 -1.097430 10.930964 -0.138021 -0.668487 -6.808748 0.906235 6.996208 6.914852 14.472173 1.525587 0.000000 0.000000 0.000000 -6.174980 0.422461 -6.540913 6.162359 -0.860236 11.490215 -5.044318 -14.283612 11.551057 0.000000 0.000000 0.000000 -2.676570 -0.052712 3.476778 8.330594 -1.344001 -24.922599 -1.917400 -2.872991 24.898095 2.825030 -1.114073 -18.797544 0.000000 0.000000 0.000000 -16.844550 -9.921940 4.799911 -51.623841 -38.493059 8.799891 177.098990 -82.508666 -166.754318 0.000000 0.000000 0.000000 6.953932 11.692025 4.311954 44.136875 25.891459 2.721654 -78.905110 50.763416 -37.426325 0.000000 0.000000 0.000000
-0.000977 0.920821 -0.000164 -4.488877 -0.169922 -0.542520 11.947479 -0.136734 -0.056294 -7.335782 0.962318 5.148009 7.184413 15.086588 2.083552 0.000000 0.000000 0.000000 -5.698419 0.450212 -6.305688 6.708632 -0.905534 9.677545 -4.544787 -13.500304 11.900898 0.000000 0.000000 0.000000 -3.311970 -0.010640 2.424242 9.313964 -1.515599 -25.579316 -1.269814 -3.138478 25.319040 3.674357 -1.996526 -17.055657 0.000000 0.000000 0.000000 -17.549865 -9.588089 4.924922 -50.872493 -38.930637 8.699654 -175.288088 -83.568843 -174.954817 0.000000 0.000000 0.000000 5.880652 12.544788 4.522066 46.287539 24.457611 2.381997 -78.371012 51.171388 -37.668382 0.000000 0.000000 0.000000
-0.001246 0.920171 -0.000067 -4.311083 -1.920569 -0.990666 11.548927 -0.063390 0.605889 -7.252670 1.009172 5.614333 7.883537 16.478955 2.223170 0.000000 0.000000 0.000000 -6.046124 0.464382 -6.445221 6.877455 -0.893231 10.380925 -3.791546 -12.197598 11.309877 0.000000 0.000000 0.000000 -2.433555 -0.033709 2.221801 9.458877 -1.563065 -25.694828 -1.680182 -0.788145 26.052103 4.757202 -2.361443 -18.941294 0.000000 0.000000 0.000000 -18.603686 -9.711039 4.779670 -48.275744 -37.665193 7.311946 -169.470970 -80.232433 177.444472 0.000000 0.000000 0.000000 7.180901 10.836979 4.014657 45.986597 24.932763 2.466389 -79.707055 51.385815 -38.101887 0.000000 0.000000 0.000000
-0.001470 0.920522 0.000181 -4.801123 -2.298934 -0.777776 11.916397 -0.059143 0.666333 -6.999926 0.966615 5.323310 8.064798 16.836889 2.299562 0.000000 0.000000 0.000000 -5.335072 0.480397 -6.206006 6.585182 -0.812186 9.508613 -3.594236 -11.895232 11.439355 0.000000 0.000000 0.000000 -2.523762 -0.014660 1.491230 9.715866 -1.588655 -25.971345 -1.510509 -1.755518 26.250036 3.374983 -1.689742 -18.099572 0.000000 0.000000 0.000000 -18.176232 -8.582188 4.463182 -49.896530 -37.855283 7.802761 -163.112969 -80.562800 170.842877 0.000000 0.000000 0.000000 5.437297 11.382585 4.053780 46.787219 25.245339 2.629574 -77.971051 48.757029 -35.271063 0.000000 0.000000 0.000000
-0.001609 0.921241 0.000853 -4.632193 -2.518016 -1.315630 11.521602 -0.040014 1.223781 -6.633774 0.918123 5.531074 8.097211 16.923951 2.596714 0.000000 0.000000 0.000000 -5.552650 0.442454 -5.692507 6.637780 -0.818346 9.658898 -3.429151 -11.633163 11.545402 0.000000 0.000000 0.000000 -2.761336 -0.013594 1.461917 9.948700 -1.684381 -25.682519 -1.788731 -1.601281 25.948719 3.771865 -1.917672 -18.411966 0.000000 0.000000 0.000000 -17.558431 -8.606572 4.399914 -49.699120 -37.116624 7.482178 -160.112541 -78.962100 166.738852 0.000000 0.000000 0.000000 5.539211 11.429606 4.068686 46.979004 24.356654 2.349704 -78.262634 49.209926 -35.865399 0.000000 0.000000 0.000000
-0.001577 0.922150 0.001804 -4.838453 -2.444785 -1.013677 11.687717 -0.051725 1.149322 -6.532427 0.888782 5.156386 8.056445 16.859282 2.882401 0.000000 0.000000 0.000000 -5.005623 0.417734 -5.009477 6.079329 -0.701565 8.002659 -3.395629 -11.614555 11.793862 0.000000 0.000000 0.000000 -3.237521 0.006457 0.923618 10.845809 -1.805388 -26.273148 -1.955289 -2.197119 26.601099 3.221785 -1.563702 -19.296275 0.000000 0.000000 0.000000 -17.607916 -7.756589 4.123257 -50.524458 -37.213137 7.650385 -154.996826 -78.150305 160.871159 0.000000 0.000000 0.000000 4.310640 11.722005 4.107268 47.647942 25.020719 2.585093 -77.090080 47.728604 -34.055813 0.000000 0.000000 0.000000
-0.001590 0.922468 0.002847 -4.702890 -2.458024 -1.184748 11.207641 -0.043243 1.418296 -5.953122 0.794774 5.130468 8.071361 16.896526 2.982844 0.000000 0.000000 0.000000 -4.710780 0.397713 -4.629880 5.293923 -0.566948 7.795427 -3.403993 -11.607862 11.672655 0.000000 0.000000 0.000000 -3.662437 0.016747 0.447105 10.804034 -1.828466 -26.035788 -2.231389 -2.650269 26.475492 3.661975 -1.902412 -19.605498 0.000000 0.000000 0.000000 -17.142763 -7.648464 4.138915 -51.265960 -37.085154 7.819143 -151.831776 -77.438269 157.072552 0.000000 0.000000 0.000000 4.054394 11.897095 4.131207 48.142190 25.359844 2.764232 -76.492732 46.538687 -32.904031 0.000000 0.000000 0.000000
-0.001538 0.922771 0.003942 -4.699386 -2.793399 -1.398571 11.036940 -0.024818 1.554608 -5.723043 0.773561 5.578155 8.208122 17.167859 3.131003 0.000000 0.000000 0.000000 -4.404157 0.361208 -3.974838 4.706806 -0.463401 7.109510 -3.226757 -11.302162 11.594702 0.000000 0.000000 0.000000 -3.886589 0.020469 0.112943 10.993039 -1.882267 -25.978237 -2.567645 -2.379138 26.851936 4.171492 -2.174145 -20.284400 0.000000 0.000000 0.000000 -16.745337 -7.172410 3.875630 -52.130988 -36.914905 7.929543 -145.816262 -76.692694 149.532241 0.000000 0.000000 0.000000 4.185186 11.806323 4.108231 48.782224 26.016358 3.062381 -76.063425 45.094074 -31.346883 0.000000 0.000000 0.000000
-0.001353 0.922642 0.004710 -4.454450 -2.695751 -1.620885 10.641225 -0.017755 1.489480 -5.498397 0.745280 6.159014 8.185669 17.121506 3.078924 0.000000 0.000000 0.000000 -4.443513 0.331906 -3.562885 4.275458 -0.396707 6.920817 -3.290278 -11.364644 11.385510 0.000000 0.000000 0.000000 -4.421897 0.022280 -0.046056 10.856796 -1.856633 -25.947127 -2.697820 -2.669970 26.760791 4.482596 -2.312476 -21.296014 0.000000 0.000000 0.000000 -16.182191 -7.360739 3.985385 -52.402131 -37.159500 8.171895 -142.423524 -77.623141 146.107563 0.000000 0.000000 0.000000 3.873538 11.786892 4.075711 49.348444 26.367269 3.271642 -76.343809 44.147711 -30.799467 0.000000 0.000000 0.000000
-0.000820 0.922878 0.005077 -4.164739 -2.222900 -1.716260 10.496206 -0.029389 1.021073 -5.765375 0.798259 6.985239 7.973123 16.712557 3.120959 0.000000 0.000000 0.000000 -4.633107 0.328493 -3.608711 4.018436 -0.359908 7.334926 -3.518395 -11.745175 11.420527 0.000000 0.000000 0.000000 -4.683607 0.021775 -0.261455 10.651957 -1.792929 -26.079578 -3.139806 -2.759825 26.885298 4.467673 -2.238160 -21.658081 0.000000 0.000000 0.000000 -15.036542 -7.347920 3.857502 -53.607319 -37.397869 8.654175 -139.402074 -78.301199 143.021382 0.000000 0.000000 0.000000 3.981483 11.388931 3.950461 49.293273 26.645655 3.366609 -76.586020 43.138289 -29.970490 0.000000 0.000000 0.000000
0.000130 0.923232 0.005006 -3.797793 -1.587958 -1.866183 10.369398 -0.044778 0.822966 -6.231615 0.874077 7.313990 7.648845 16.102988 3.199755 0.000000 0.000000 0.000000 -4.905955 0.313693 -3.526700 3.722080 -0.318912 7.620702 -3.800078 -12.227030 11.553848 0.000000 0.000000 0.000000 -5.189760 0.018255 -0.450476 10.436791 -1.734446 -26.123392 -3.304632 -2.985400 27.025217 4.303756 -2.089943 -21.913747 0.000000 0.000000 0.000000 -14.265554 -7.536261 3.864488 -54.342309 -38.096692 9.263577 -138.862737 -79.835717 143.366104 0.000000 0.000000 0.000000 4.041126 11.516814 4.013904 49.079921 27.161365 3.559310 -77.517341 41.403044 -28.962366 0.000000 0.000000 0.000000
0.001348 0.923151 0.004659 -3.615569 -1.773240 -1.939007 10.289567 -0.036906 0.229030 -6.610810 0.981308 8.516499 7.730905 16.264356 3.299635 0.000000 0.000000 0.000000 -4.892039 0.312286 -3.477520 3.180281 -0.223701 7.580837 -3.731514 -12.103067 11.457138 0.000000 0.000000 0.000000 -5.498438 0.017879 -0.539368 10.530134 -1.768433 -26.042893 -3.197730 -2.657014 27.219086 4.073355 -1.965249 -21.471739 0.000000 0.000000 0.000000 -14.314565 -7.772788 3.966139 -55.305792 -39.032557 10.008815 -138.443866 -80.724894 143.526853 0.000000 0.000000 0.000000 4.492142 11.524054 4.047864 48.239959 26.943815 3.325945 -79.060146 39.988671 -28.494541 0.000000 0.000000 0.000000
0.002237 0.922339 0.004241 -3.425391 -1.244250 -1.900683 10.476802 -0.054759 -0.528846 -7.296946 1.129045 9.517255 7.527363 15.850610 3.025432 0.000000 0.000000 0.000000 -5.147866 0.306560 -3.503685 3.192538 -0.233321 7.654988 -4.014112 -12.538379 11.270758 0.000000 0.000000 0.000000 -5.549040 0.015937 -0.584867 10.199873 -1.722251 -25.763138 -3.254112 -3.025620 27.026346 3.793489 -1.804986 -21.324927 0.000000 0.000000 0.000000 -14.127394 -7.720414 3.922880 -56.479411 -39.507757 10.678873 -143.019977 -80.733092 148.886512 0.000000 0.000000 0.000000 5.219269 11.690118 4.132000 47.016004 25.697185 2.702370 -79.294389 39.844626 -28.613106 0.000000 0.000000 0.000000
0.002675 0.921108 0.003869 -3.556261 -0.879888 -1.930771 10.929181 -0.061126 -1.635174 -7.784776 1.280685 11.360593 7.443656 15.649175 2.663578 0.000000 0.000000 0.000000 -5.129420 0.314823 -3.722953 3.389729 -0.267557 8.186297 -4.243133 -12.881140 11.001213 0.000000 0.000000 0.000000 -5.955341 0.018800 -0.009154 11.043527 -1.811423 -26.566262 -3.474962 -3.213705 27.459856 3.377320 -1.587666 -20.885073 0.000000 0.000000 0.000000 -14.280293 -7.847971 4.005131 -56.963831 -40.160729 11.137214 -145.130040 -80.638203 151.385510 0.000000 0.000000 0.000000 5.257311 11.372244 4.023762 45.819699 23.601916 1.710337 -78.545913 41.698707 -29.827890 0.000000 0.000000 0.000000
0.002625 0.919825 0.003518 -3.445790 -0.975315 -1.907871 11.074970 -0.047799 -3.019002 -8.222245 1.478425 13.739093 7.539727 15.832381 2.715282 0.000000 0.000000 0.000000 -4.667993 0.353666 -4.261217 2.359095 -0.063731 9.078474 -4.357403 -13.008832 10.411208 0.000000 0.000000 0.000000 -6.055062 0.025392 0.526318 11.469063 -1.879673 -26.784291 -4.243667 -3.429222 27.930081 3.378764 -1.700093 -20.372010 0.000000 0.000000 0.000000 -14.771997 -7.540097 3.965730 -56.788939 -40.572896 11.237275 -144.110852 -80.413737 150.321898 0.000000 0.000000 0.000000 5.600881 11.223912 3.960545 44.934483 21.473068 0.784948 -76.510403 44.942393 -31.568549 0.000000 0.000000 0.000000
0.002845 0.917802 0.003432 -3.856750 -2.293983 -1.636801 11.440749 0.013649 -4.288231 -8.298077 1.673127 16.003006 8.215607 17.113379 2.703594 0.000000 0.000000 0.000000 -4.063571 0.473089 -5.716760 1.979775 0.078095 10.820819 -3.962469 -12.249098 9.682245 0.000000 0.000000 0.000000 -5.759347 0.042449 1.788432 12.101660 -1.917081 -27.522146 -4.689537 -3.425246 27.827682 3.096034 -1.749093 -19.082193 0.000000 0.000000 0.000000 -14.756410 -6.756130 3.740677 -56.574461 -39.743087 10.722483 -145.113810 -79.916027 151.701239 0.000000 0.000000 0.000000 4.852361 10.002399 3.407268 44.496131 19.651662 0.083006 -72.463237 49.654004 -33.489559 0.000000 0.000000 0.000000
0.003901 0.916690 0.003934 -4.223834 -3.530709 -1.442160 12.237419 0.138395 -6.924330 -9.144867 2.273753 20.702525 8.691680 18.032814 4.294470 0.000000 0.000000 0.000000 -3.300282 0.539762 -6.226962 1.128458 0.283010 11.130109 -3.517158 -11.407594 9.226880 0.000000 0.000000 0.000000 -5.261636 0.040813 2.430346 12.212472 -1.945343 -27.447123 -5.210087 -3.733966 27.709047 2.536564 -1.558711 -18.668640 0.000000 0.000000 0.000000 -14.333717 -6.717062 3.896869 -57.229663 -38.321078 10.215316 -141.282229 -80.227686 148.097929 0.000000 0.000000 0.000000 4.283638 10.622640 3.553374 42.782789 18.013681 -0.508512 -66.110599 53.847849 -33.486606 0.000000 0.000000 0.000000
0.006347 0.914922 0.004880 -4.601942 -5.904257 -0.852558 13.330745 0.431798 -10.426125 -11.625300 3.771813 25.353912 10.813603 21.650528 6.134955 0.000000 0.000000 0.000000 -2.529559 0.670103 -7.372734 0.029428 0.567627 11.568777 -2.632582 -9.714271 8.516204 0.000000 0.000000 0.000000 -4.895835 0.046769 3.954446 13.260106 -2.135977 -27.484104 -5.535199 -3.674587 26.934669 0.269417 -0.196165 -18.164070 0.000000 0.000000 0.000000 -14.236666 -5.292198 3.431274 -57.508918 -36.294429 9.297850 -132.476454 -80.347283 138.830857 0.000000 0.000000 0.000000 2.745855 10.088384 3.280489 41.715297 18.857672 -0.209310 -56.540657 58.291452 -31.303626 0.000000 0.000000 0.000000
0.009201 0.912092 0.007621 -5.277543 -7.584169 -0.213256 15.306400 1.078818 -15.872053 -14.800043 6.213609 32.021440 13.175589 24.993787 9.772747 0.000000 0.000000 0.000000 -1.556337 0.857172 -8.932310 0.347738 0.747200 14.974401 -3.488491 -10.209958 4.196416 0.000000 0.000000 0.000000 -4.467851 0.037638 4.727129 14.065334 -2.501571 -26.138212 -5.450131 -2.890597 25.450908 -0.734576 0.527359 -18.059587 0.000000 0.000000 0.000000 -14.407650 -5.726680 3.672162 -57.345703 -33.411284 7.700724 -121.975511 -79.909425 126.568366 0.000000 0.000000 0.000000 1.661422 10.004681 3.268369 39.698346 19.868841 0.132897 -44.969622 57.931275 -24.204213 0.000000 0.000000 0.000000
0.011501 0.907738 0.014804 -5.298926 -7.639611 -1.565350 16.756745 1.670001 -19.576770 -19.773932 9.025847 34.830841 16.622647 30.263711 9.170841 0.000000 0.000000 0.000000 -1.859886 0.809174 -8.609947 2.153976 0.609881 20.080549 -5.088173 -12.278288 -0.559529 0.000000 0.000000 0.000000 -5.616793 0.140798 8.880804 14.221356 -2.084662 -28.925499 -5.032595 -3.718707 26.548510 -2.029210 1.262585 -19.369985 0.000000 0.000000 0.000000 -15.993007 -4.402601 3.436675 -57.034114 -31.279136 6.065358 -104.620027 -78.858945 107.658000 0.000000 0.000000 0.000000 -0.624507 10.296700 3.419840 39.539499 20.338268 0.080458 -36.829837 59.024254 -20.164233 0.000000 0.000000 0.000000
0.012035 0.902040 0.029740 -5.866084 -7.940904 -2.301900 17.745089 2.142813 -21.836648 -24.437657 9.507007 27.823772 22.087439 38.971371 6.784356 0.000000 0.000000 0.000000 -0.982672 0.687564 -7.040686 3.796848 0.362677 24.121805 -6.826352 -14.838117 -6.983962 0.000000 0.000000 0.000000 -7.202412 0.311263 10.129403 15.507717 -2.163990 -29.867123 -4.371386 -2.973067 27.025318 -2.055177 1.387900 -19.525426 0.000000 0.000000 0.000000 -18.285975 -1.824579 2.153180 -54.787414 -26.814288 2.903783 -110.721164 -72.997908 108.409745 0.000000 0.000000 0.000000 -2.315782 10.708801 3.588875 40.801118 20.413248 0.040849 -32.436111 61.326508 -18.114542 0.000000 0.000000 0.000000
0.011773 0.899864 0.055855 -6.654282 -4.794429 -4.680342 17.084940 1.647143 -21.197111 -24.518712 7.225453 20.533606 23.838554 40.298465 9.727168 0.000000 0.000000 0.000000 -0.476914 0.282424 -2.828432 4.609013 -0.084289 27.022483 -7.012066 -15.489351 -9.186449 0.000000 0.000000 0.000000 -9.649939 0.438600 10.111748 11.818870 -1.752979 -28.758292 -1.131881 -3.044846 25.893191 -0.554838 0.469578 -13.671564 0.000000 0.000000 0.000000 -17.231479 -3.290704 2.342704 -51.658960 -21.270806 0.129110 -112.258919 -67.653311 102.708749 0.000000 0.000000 0.000000 -2.963703 9.849404 3.308794 43.668173 16.211389 -1.054918 -26.250825 63.614310 -14.344356 0.000000 0.000000 0.000000
0.013039 0.901586 0.091949 -10.235866 3.682596 -7.219308 15.574543 0.539502 -19.811950 -20.744636 4.776111 20.624231 20.235573 36.416178 5.318146 0.000000 0.000000 0.000000 0.750305 0.307204 -2.763004 8.950152 -3.292924 35.118800 -7.120768 -17.799828 -0.811340 0.000000 0.000000 0.000000 -14.845120 0.538373 10.255309 15.482311 -2.257664 -31.391789 -1.587116 -3.267628 29.346690 4.282817 -2.643823 -14.272925 0.000000 0.000000 0.000000 -15.591718 -1.159380 0.196684 -46.433174 -17.588217 -1.818992 -122.831158 -54.917521 97.754309 0.000000 0.000000 0.000000 -4.163359 6.158881 2.016552 42.597243 12.734567 -2.276181 -7.786362 66.184311 -1.333937 0.000000 0.000000 0.000000
0.014001 0.907337 0.128402 -16.524391 10.017876 -13.934401 19.620973 0.305497 -14.950829 -19.122938 3.719799 25.439243 18.448750 34.156952 -0.559154 0.000000 0.000000 0.000000 0.656725 1.006681 -9.492005 9.578116 -9.435094 57.535635 3.782358 -0.296599 20.538639 0.000000 0.000000 0.000000 -17.368170 0.176263 11.609901 14.647965 -2.650316 -28.842731 2.841190 -2.462822 29.580254 5.071968 -2.769966 -12.146352 0.000000 0.000000 0.000000 -11.210487 -2.308052 0.037925 -43.246793 -19.211619 -1.073342 -130.186380 -53.209002 100.800525 0.000000 0.000000 0.000000 -7.202933 6.363282 1.570448 41.358116 6.209522 -3.906684 0.500353 62.029433 4.884407 0.000000 0.000000 0.000000
0.011942 0.919158 0.159128 -26.030874 18.916664 -22.715093 25.840607 -0.918540 -12.223741 -15.585278 1.324253 29.242627 13.957815 24.734173 -6.135914 0.000000 0.000000 0.000000 -2.284914 0.639316 -22.310232 -5.473550 -8.825130 91.565417 26.445079 26.784265 30.939435 0.000000 0.000000 0.000000 -18.651018 -0.439174 16.507767 14.902073 -3.192195 -25.910570 5.404050 -4.528257 29.102797 6.449644 -3.382874 -11.771611 0.000000 0.000000 0.000000 -9.280619 -2.632517 -0.347333 -36.561819 -20.779894 -0.351801 -147.004971 -55.068412 122.805495 0.000000 0.000000 0.000000 -8.277914 5.522532 0.853598 39.222260 3.712674 -4.273199 5.214547 52.470941 6.866506 0.000000 0.000000 0.000000
0.009165 0.939366 0.186965 -42.797774 26.943273 -33.994189 37.111693 -4.386750 -14.018146 -12.747855 -0.721139 30.677859 11.926086 19.545159 -4.279530 0.000000 0.000000 0.000000 -5.890291 -4.881548 -38.315126 -26.966835 15.007687 108.969520 69.748365 45.646913 68.129210 0.000000 0.000000 0.000000 -15.200234 -1.805265 21.191607 14.535926 -2.963476 -26.599899 10.366403 -9.267980 30.412831 8.246108 -4.180438 -12.200223 0.000000 0.000000 0.000000 -10.141190 -4.936060 -0.336804 -30.084225 -22.171725 0.141235 -164.206611 -56.411616 149.014546 0.000000 0.000000 0.000000 -10.649175 5.076269 -0.224040 38.243768 -0.382031 -5.291400 7.074434 42.988394 6.534246 0.000000 0.000000 0.000000
0.007785 0.961185 0.213136 -55.988262 29.031882 -44.378625 48.566955 -9.859503 -14.059560 -12.866600 -0.141379 23.933750 10.151229 17.587636 0.968885 0.000000 0.000000 0.000000 -13.673415 -16.963813 -47.154577 -48.943529 29.204305 83.386924 94.680520 59.933240 79.655066 0.000000 0.000000 0.000000 -12.834018 -3.105765 23.521613 15.032903 -3.247583 -23.736716 13.978521 -7.890816 27.668172 8.668176 -3.208015 -11.978379 0.000000 0.000000 0.000000 -7.562320 -4.729248 -0.898935 -29.273171 -25.110633 1.150239 -177.722353 -59.259035 167.717276 0.000000 0.000000 0.000000 -9.675387 7.159502 -0.226944 39.852863 -6.814700 -6.963349 3.130999 36.522549 4.319404 0.000000 0.000000 0.000000
0.007475 0.979664 0.236752 -68.325278 30.729802 -51.448151 59.769832 -15.767562 -17.851012 -14.682583 0.503820 16.520350 11.204537 21.512675 9.328517 0.000000 0.000000 0.000000 -16.834806 -27.291851 -51.189881 -47.921959 20.807127 64.764603 20.499477 31.763052 8.238913 0.000000 0.000000 0.000000 -10.030151 -4.040541 23.662707 14.561363 -2.841566 -24.576839 16.544301 -8.602301 27.677624 12.016766 -3.662399 -15.329584 0.000000 0.000000 0.000000 -4.153697 -4.758736 -0.619696 -31.750320 -29.080409 1.668108 179.527612 -59.060067 167.386028 0.000000 0.000000 0.000000 -12.548602 5.676392 -2.275512 44.462965 -9.060001 -7.113663 3.664441 29.576240 3.366052 0.000000 0.000000 0.000000
0.008164 0.990151 0.256480 -74.911872 31.918230 -58.212407 65.122620 -19.778755 -19.427398 -17.739413 0.276634 9.380222 13.768783 25.371354 16.485907 0.000000 0.000000 0.000000 -13.620138 -35.099197 -59.933955 -54.349887 23.967598 57.457274 24.173150 29.875452 16.168747 0.000000 0.000000 0.000000 -10.388017 -5.156587 25.456813 12.087036 -1.862331 -23.253969 19.022986 -6.527906 25.821589 13.250709 -3.868682 -14.386467 0.000000 0.000000 0.000000 -0.983689 -6.296773 0.506697 -31.498553 -30.626305 1.523843 176.707286 -59.972586 167.082378 0.000000 0.000000 0.000000 -9.510272 7.894615 -1.178254 46.684824 -13.246782 -8.449671 2.950728 29.025480 2.853618 0.000000 0.000000 0.000000
0.011952 0.991313 0.269848 -80.115867 34.382933 -64.426164 66.940274 -23.081311 -19.583302 -18.067653 -0.275021 5.714762 16.683265 27.697552 21.295192 0.000000 0.000000 0.000000 -5.452983 -39.982324 -71.545233 -71.483394 29.737854 46.829773 31.971253 33.222713 26.422270 0.000000 0.000000 0.000000 -10.741171 -6.638410 28.239281 11.916979 -1.661957 -23.747798 18.558155 -3.201236 26.649332 14.671525 -2.542422 -17.564317 0.000000 0.000000 0.000000 -1.320848 -7.572345 0.064738 -28.609459 -32.699591 1.453490 179.845473 -60.209505 157.433143 0.000000 0.000000 0.000000 -7.828259 6.889622 -1.262231 48.081566 -13.674114 -8.052073 4.003868 30.279186 3.333456 0.000000 0.000000 0.000000
0.019801 0.985904 0.276490 -84.570452 37.879547 -70.301610 66.045941 -23.612443 -21.838424 -20.109045 -0.758301 6.455664 23.869066 32.581227 24.370891 0.000000 0.000000 0.000000 3.602018 -40.969900 -80.873589 -93.125049 28.484111 31.060188 47.192538 42.499399 40.379140 0.000000 0.000000 0.000000 -10.916271 -7.658638 29.718719 12.400099 -1.633577 -23.085483 17.655292 -0.183316 24.913641 15.095800 -2.016927 -17.259563 0.000000 0.000000 0.000000 -2.249948 -11.574376 -0.112794 -33.191198 -35.735789 2.605175 -169.808270 -65.105239 138.483250 0.000000 0.000000 0.000000 -8.281916 7.775419 -1.141257 52.136195 -13.390961 -7.201167 0.304615 31.719461 2.584800 0.000000 0.000000 0.000000
0.029745 0.974692 0.277697 -86.189738 40.829321 -74.256372 61.855729 -22.882115 -21.042352 -18.214616 -0.791730 8.136987 31.524132 35.591314 29.497642 0.000000 0.000000 0.000000 8.572913 -40.104991 -84.814871 -101.702121 26.443434 25.743950 58.203195 53.605189 47.638079 0.000000 0.000000 0.000000 -11.040381 -8.369667 31.051410 12.216151 -1.372788 -23.067924 16.583165 3.280696 24.540331 15.334372 -1.136791 -18.148002 0.000000 0.000000 0.000000 -6.110464 -17.060745 -1.663461 -36.270936 -31.900469 3.892723 -154.658921 -62.865803 111.267588 0.000000 0.000000 0.000000 -5.875155 8.201964 0.350712 54.630276 -8.883060 -5.347796 -9.169774 35.125101 0.755470 0.000000 0.000000 0.000000
0.040487 0.960778 0.274976 -86.901798 43.140852 -77.532174 57.284565 -21.690758 -19.587499 -15.494416 -0.631207 12.181224 36.387011 37.105558 27.139775 0.000000 0.000000 0.000000 12.051336 -38.834152 -86.966130 -98.045156 31.456972 32.344948 57.523446 61.792268 41.751491 0.000000 0.000000 0.000000 -9.471008 -8.579433 31.068470 11.252675 -0.796507 -23.592083 15.046184 4.320116 23.680033 16.178478 -1.571244 -18.155204 0.000000 0.000000 0.000000 -7.945603 -20.175443 -2.474639 -41.840220 -27.848224 4.406724 -139.322686 -60.949465 85.223893 0.000000 0.000000 0.000000 -4.538306 7.370301 0.896149 53.989491 -1.889325 -2.482194 -17.701428 40.237892 -0.522867 0.000000 0.000000 0.000000
0.050668 0.946773 0.269949 -85.879798 46.016865 -79.118982 52.750877 -19.753204 -18.553799 -12.172161 -0.811115 16.082855 36.573346 36.254717 24.633275 0.000000 0.000000 0.000000 12.387029 -37.217900 -85.046248 -85.664799 37.233432 48.096665 23.136608 63.896517 0.507777 0.000000 0.000000 0.000000 -8.961433 -8.005239 29.980191 11.697714 -0.784042 -22.195636 12.535200 5.912885 22.569120 15.961434 -1.918948 -17.160573 0.000000 0.000000 0.000000 -9.231006 -21.249438 -3.518215 -46.049613 -22.395932 3.724081 -129.215418 -56.643933 65.426878 0.000000 0.000000 0.000000 -2.370279 8.708179 3.098905 50.685093 6.037615 0.045428 -32.126159 43.053134 -4.316189 0.000000 0.000000 0.000000
0.059749 0.929327 0.263884 -84.894008 49.575483 -80.678956 47.473704 -17.387913 -17.394714 -9.987077 -1.514358 19.977066 37.978287 36.502136 20.823417 0.000000 0.000000 0.000000 9.788745 -35.942060 -79.407153 -66.145327 34.435386 66.958476 0.200074 51.164011 -29.326140 0.000000 0.000000 0.000000 -9.141424 -7.718531 29.667556 11.002810 -0.371337 -22.837664 11.129508 6.823325 21.284060 17.527789 -3.376224 -17.083993 0.000000 0.000000 0.000000 -9.157469 -21.996519 -3.621790 -49.406145 -16.566019 1.872156 -121.049704 -51.501597 47.532864 0.000000 0.000000 0.000000 -1.643842 9.992861 4.436259 45.124078 10.884963 0.981591 -38.569211 46.627698 -6.722586 0.000000 0.000000 0.000000
0.068152 0.907659 0.258430 -83.357508 53.389284 -81.244859 43.234202 -15.682242 -15.885469 -10.280838 -2.044187 21.697813 36.051513 35.118508 12.241972 0.000000 0.000000 0.000000 6.624535 -34.456611 -73.130181 -49.777994 24.472361 78.529564 -2.571396 36.775649 -34.802663 0.000000 0.000000 0.000000 -8.837103 -6.861253 28.065303 10.744625 -0.106403 -22.650325 8.780221 7.288435 21.251823 17.631722 -3.553404 -17.036309 0.000000 0.000000 0.000000 -9.910699 -22.123088 -4.426943 -49.578511 -11.007963 0.065515 -116.511140 -48.776796 40.053148 0.000000 0.000000 0.000000 -1.134427 11.809037 6.037375 39.587071 16.291884 2.195103 -45.774658 44.609382 -8.874811 0.000000 0.000000 0.000000
0.075574 0.887020 0.254372 -81.335794 56.843803 -81.333595 38.630314 -13.238206 -15.957596 -12.715770 -3.298758 26.999621 37.848519 37.531010 7.251853 0.000000 0.000000 0.000000 1.252624 -31.171781 -62.797449 -39.004489 10.468876 80.664965 -0.723116 29.173188 -34.742213 0.000000 0.000000 0.000000 -10.055179 -6.408851 27.553895 10.828449 -0.056841 -22.321146 8.218947 9.370036 20.830960 19.033202 -5.094632 -16.534723 0.000000 0.000000 0.000000 -10.772316 -20.861491 -6.256160 -49.253683 -6.604945 -0.879096 -111.535519 -44.883434 30.283227 0.000000 0.000000 0.000000 -3.139045 12.688870 5.655265 37.738811 18.745381 3.445921 -48.904261 40.963376 -8.287499 0.000000 0.000000 0.000000
0.082215 0.868590 0.252663 -79.600550 59.843230 -81.830345 35.119278 -11.604626 -16.171895 -16.264894 -4.628174 32.485437 39.543774 40.696723 4.276979 0.000000 0.000000 0.000000 -3.107673 -27.575123 -53.636890 -32.767154 -0.009627 80.101084 3.856560 29.748927 -27.887343 0.000000 0.000000 0.000000 -9.869920 -5.851037 26.248086 8.781022 0.663424 -22.293996 8.032857 8.414529 22.453032 18.326034 -3.114452 -18.360771 0.000000 0.000000 0.000000 -10.306702 -19.488003 -6.774438 -48.525898 -4.672208 -1.894986 -109.221605 -42.692118 26.241434 0.000000 0.000000 0.000000 -2.729601 13.468926 6.399070 33.302961 22.914931 4.132788 -48.975730 35.308552 -6.756823 0.000000 0.000000 0.000000
0.088056 0.856840 0.251963 -76.581113 62.897692 -80.102426 31.971127 -9.984878 -16.969725 -20.578773 -5.597329 37.128134 40.643369 44.082292 3.978375 0.000000 0.000000 0.000000 -4.971468 -22.903652 -46.766714 -30.495684 -6.036814 79.984232 7.668911 27.549056 -16.888588 0.000000 0.000000 0.000000 -10.665564 -5.550124 25.894557 7.805503 0.905134 -23.415358 8.129137 9.866710 24.938033 19.556621 -2.925667 -20.071676 0.000000 0.000000 0.000000 -9.994834 -19.161338 -7.531123 -47.955431 -3.255784 -2.331009 -105.217008 -40.493058 20.592131 0.000000 0.000000 0.000000 -3.913624 11.993500 5.153366 32.138144 25.032232 5.107337 -48.104931 29.109282 -3.965051 0.000000 0.000000 0.000000
0.093434 0.849793 0.250662 -72.552428 65.912139 -77.102534 29.384606 -8.784272 -16.902471 -25.159579 -5.734309 39.149976 41.503477 46.720568 4.311371 0.000000 0.000000 0.000000 -6.728439 -19.890382 -41.674484 -31.231654 -8.063014 80.951089 11.816587 27.292958 -4.594059 0.000000 0.000000 0.000000 -10.434914 -5.002308 24.775291 5.952237 1.391008 -22.636097 7.479738 8.286639 25.042974 17.615182 -1.277020 -20.649268 0.000000 0.000000 0.000000 -10.325419 -16.219210 -8.184320 -47.947967 -2.051300 -3.263028 -105.099661 -38.791654 20.277061 0.000000 0.000000 0.000000 -3.549434 12.555142 5.540411 29.438069 27.281884 5.114036 -48.560208 24.772357 -2.765855 0.000000 0.000000 0.000000
0.098161 0.848119 0.247212 -68.710719 69.005557 -73.328805 26.025842 -7.485446 -16.769892 -27.252718 -5.960060 39.279373 41.756239 47.482908 4.376111 0.000000 0.000000 0.000000 -8.849822 -17.219773 -35.993169 -30.597369 -10.732264 79.383857 11.866500 23.757589 -0.062817 0.000000 0.000000 0.000000 -10.166278 -4.766159 24.543488 5.779294 1.395999 -23.762514 6.468320 9.287373 25.304793 18.265120 -1.285530 -21.508763 0.000000 0.000000 0.000000 -10.704979 -16.644235 -8.717178 -49.645118 -0.942984 -3.929596 -104.022067 -36.995661 17.043217 0.000000 0.000000 0.000000 -2.667955 10.501165 5.340365 28.103323 27.915036 4.786749 -47.543505 20.740891 -1.000774 0.000000 0.000000 0.000000
0.102378 0.846877 0.241707 -60.342679 70.978815 -64.867268 23.935038 -6.565652 -17.117769 -31.415561 -5.636906 39.365124 43.070723 49.860840 7.150005 0.000000 0.000000 0.000000 -11.407375 -15.510689 -31.316208 -27.776170 -12.245048 74.856650 12.982026 17.854861 12.629504 0.000000 0.000000 0.000000 -9.228918 -4.222655 23.495814 4.803390 1.516565 -24.625306 6.009530 9.066656 25.570778 16.980779 -0.808656 -20.677385 0.000000 0.000000 0.000000 -12.112661 -15.476327 -9.740318 -49.976490 0.487861 -4.564289 -104.033576 -32.414774 12.458739 0.000000 0.000000 0.000000 -1.997438 10.994888 5.917847 26.126218 27.665577 4.203710 -48.762757 18.858670 -0.438753 0.000000 0.000000 0.000000
0.106060 0.843817 0.235285 -49.694847 71.900658 -52.996959 22.423219 -5.941746 -18.855711 -33.871790 -5.329582 40.788374 38.990508 49.006444 4.540675 0.000000 0.000000 0.000000 -13.935365 -13.906383 -26.694652 -20.497924 -14.791396 66.996572 8.840492 8.431047 22.986460 0.000000 0.000000 0.000000 -8.697757 -3.316231 21.330451 4.284907 1.523858 -25.755422 5.922526 8.322755 26.101967 16.137367 -0.799543 -19.681117 0.000000 0.000000 0.000000 -13.413933 -15.212146 -10.255091 -51.097106 2.295353 -5.532048 -106.189309 -30.193092 11.519791 0.000000 0.000000 0.000000 -0.246806 11.297351 7.081468 23.800091 27.246972 3.151347 -49.566289 17.078256 -0.093386 0.000000 0.000000 0.000000
0.109219 0.839371 0.229521 -35.257670 71.115573 -37.541250 20.902443 -5.376777 -20.374006 -35.346141 -4.677463 42.240605 33.533848 46.510915 1.201164 0.000000 0.000000 0.000000 -15.864217 -12.705293 -23.607316 -13.595089 -15.094712 59.056644 5.545594 3.459694 29.286762 0.000000 0.000000 0.000000 -8.912758 -2.440368 18.930272 4.569412 1.295208 -26.329874 5.572022 8.678887 25.438024 14.917126 -0.987833 -18.094151 0.000000 0.000000 0.000000 -13.915018 -14.780073 -9.961905 -53.176717 1.956194 -6.144769 -106.807933 -27.357795 8.392241 0.000000 0.000000 0.000000 3.129479 13.193042 10.042845 19.806056 24.125581 1.247581 -52.796728 16.276975 -0.433626 0.000000 0.000000 0.000000
0.111211 0.834610 0.225732 -24.925035 69.577023 -26.615431 20.224868 -5.268649 -22.485894 -35.805437 -4.160105 45.804183 24.512409 38.324215 -4.281081 0.000000 0.000000 0.000000 -17.976846 -11.723031 -20.014461 -6.103827 -15.239956 50.474311 -1.066945 -3.015493 27.287564 0.000000 0.000000 0.000000 -8.387281 -1.809475 16.933450 3.774270 1.503093 -25.655871 5.984702 7.572720 25.173758 13.410945 0.380162 -19.349599 0.000000 0.000000 0.000000 -15.661729 -13.999661 -10.477363 -53.690534 0.954384 -5.637137 -106.319042 -26.850394 9.420257 0.000000 0.000000 0.000000 4.462857 13.550616 10.699213 19.295638 23.640516 0.815428 -58.069062 15.468760 -0.078705 0.000000 0.000000 0.000000
0.112089 0.830849 0.224148 -17.715938 66.405666 -18.986596 19.908676 -5.018155 -23.635870 -34.238292 -3.630830 49.190737 16.726253 27.258106 -9.255585 0.000000 0.000000 0.000000 -19.472543 -11.555906 -19.343398 -2.312343 -13.861215 45.791825 -3.860649 -6.382731 27.637015 0.000000 0.000000 0.000000 -7.925079 -1.528534 16.141218 4.675811 1.111202 -26.393815 5.791319 8.086018 25.634477 12.250431 1.347246 -20.500291 0.000000 0.000000 0.000000 -16.705514 -14.260338 -10.020160 -54.102797 -0.583950 -5.061800 -106.238161 -27.791298 11.978426 0.000000 0.000000 0.000000 5.040563 13.213848 10.473147 20.549806 22.395221 0.609083 -63.725267 15.227972 0.398758 0.000000 0.000000 0.000000
0.112509 0.831171 0.224254 -15.307145 62.673841 -15.996884 21.487309 -4.946988 -24.033608 -33.535954 -2.674066 49.967485 12.448376 19.657121 -9.612192 0.000000 0.000000 0.000000 -19.818391 -10.876364 -19.219232 1.861376 -13.976406 42.528889 -5.814776 -9.204131 22.000602 0.000000 0.000000 0.000000 -8.019774 -1.162289 14.496700 6.653793 0.567856 -26.357240 5.690112 7.357106 26.044708 11.277167 1.976450 -21.856469 0.000000 0.000000 0.000000 -16.520006 -13.595416 -8.819684 -55.714484 -3.609798 -4.641982 -105.586093 -29.417481 15.375731 0.000000 0.000000 0.000000 5.386340 13.365161 10.250878 21.869872 21.282236 0.352814 -65.399481 16.648814 -0.507118 0.000000 0.000000 0.000000
0.112693 0.832720 0.224785 -13.333298 59.040847 -13.610984 22.322673 -4.648292 -23.888748 -33.417293 -1.593706 50.819703 10.273808 15.942470 -9.461473 0.000000 0.000000 0.000000 -19.764920 -10.254031 -19.887215 4.055199 -13.276522 40.423701 -5.943457 -9.851359 19.169506 0.000000 0.000000 0.000000 -7.954394 -0.930975 13.358469 7.934460 0.131238 -25.944105 5.103591 6.041842 25.784563 10.540903 1.780779 -21.859050 0.000000 0.000000 0.000000 -16.373871 -12.278975 -7.637537 -56.495344 -7.023733 -3.833397 -106.627804 -32.193236 21.822922 0.000000 0.000000 0.000000 6.638597 14.377939 10.869420 21.954761 19.207694 -0.296089 -65.008384 18.082598 -2.115913 0.000000 0.000000 0.000000
0.112896 0.835636 0.225118 -11.014935 54.450934 -11.157672 22.500984 -4.040954 -22.061445 -31.761244 -0.778530 49.540778 8.492484 11.778791 -9.873664 0.000000 0.000000 0.000000 -19.579129 -9.500553 -20.873917 5.374702 -12.194232 39.057471 -4.927176 -8.959420 15.246074 0.000000 0.000000 0.000000 -8.399375 -0.734879 12.355661 9.722465 -0.528228 -25.511749 3.803648 5.631112 26.186546 10.285243 1.364817 -22.331675 0.000000 0.000000 0.000000 -16.142373 -11.822127 -6.129261 -56.744559 -10.712418 -2.814647 -108.789424 -35.204536 29.744823 0.000000 0.000000 0.000000 8.159319 14.493218 11.171235 21.330042 19.190824 -0.588043 -62.550270 18.419022 -2.995225 0.000000 0.000000 0.000000
0.113254 0.838591 0.224858 -9.715429 50.164768 -9.584354 22.626576 -3.558476 -20.694637 -30.421956 -0.020860 48.720882 7.138033 8.923629 -9.726408 0.000000 0.000000 0.000000 -18.742237 -8.367254 -21.441007 5.789861 -10.830475 37.598587 -3.534897 -7.149706 10.546880 0.000000 0.000000 0.000000 -8.019780 -0.594846 11.701662 11.009621 -1.053667 -25.027280 2.162518 4.914271 25.790676 10.888598 0.268413 -22.403976 0.000000 0.000000 0.000000 -16.308699 -10.847029 -5.317464 -57.050307 -14.786699 -1.209204 -108.014337 -38.879908 36.609650 0.000000 0.000000 0.000000 8.388935 15.844394 11.395702 21.706350 18.564548 -0.757320 -60.521224 17.781330 -3.009739 0.000000 0.000000 0.000000
0.113712 0.841595 0.224353 -8.686378 46.595306 -8.985853 21.896173 -3.069229 -18.838697 -29.045086 0.351141 48.222066 6.861859 8.436756 -9.615455 0.000000 0.000000 0.000000 -18.286067 -7.584957 -21.710633 6.060192 -9.598030 36.008285 -2.888517 -6.133729 10.315768 0.000000 0.000000 0.000000 -7.776501 -0.522550 11.435196 11.938743 -1.450721 -24.985942 0.987335 4.132186 26.634126 11.038560 -0.194021 -23.061907 0.000000 0.000000 0.000000 -16.867262 -11.498973 -4.307009 -56.121389 -18.065356 0.370519 -109.688452 -41.878066 43.640116 0.000000 0.000000 0.000000 8.023755 16.020945 10.844539 22.970000 19.958910 -0.524352 -59.694764 17.197670 -2.722494 0.000000 0.000000 0.000000
0.114474 0.844429 0.223861 -8.423802 43.037921 -8.886537 22.255403 -2.769667 -17.354575 -28.910680 1.223477 47.061122 6.580260 9.129762 -7.760165 0.000000 0.000000 0.000000 -17.468454 -6.552521 -21.527746 6.375176 -8.245726 33.456816 -1.975536 -4.566123 10.486230 0.000000 0.000000 0.000000 -7.054630 -0.465964 11.177755 12.733602 -1.849260 -24.025740 -0.455807 2.828524 26.308433 11.348954 -1.235684 -22.336017 0.000000 0.000000 0.000000 -17.130219 -11.686772 -3.188545 -54.508232 -21.057750 1.739185 -110.533461 -46.159370 52.160923 0.000000 0.000000 0.000000 7.086487 16.828251 10.300369 24.660568 21.101485 -0.183137 -59.626019 16.886837 -2.648162 0.000000 0.000000 0.000000
0.115607 0.846264 0.223486 -8.049421 39.633320 -8.737973 22.320710 -2.470098 -15.844279 -28.824736 2.042851 46.727320 6.540700 9.468237 -7.430003 0.000000 0.000000 0.000000 -17.077034 -5.917400 -21.769264 6.975629 -7.474429 31.872811 -1.205712 -3.365765 11.049455 0.000000 0.000000 0.000000 -6.456791 -0.426056 10.993691 13.332124 -2.111364 -24.263725 -1.085795 2.404347 27.399776 10.910813 -1.518727 -21.704982 0.000000 0.000000 0.000000 -17.707386 -12.141598 -2.350592 -52.963589 -22.844051 2.419033 -111.286724 -47.416368 56.204391 0.000000 0.000000 0.000000 6.308654 16.729513 9.568495 26.158077 22.541278 0.186027 -59.537997 17.660973 -3.055694 0.000000 0.000000 0.000000
0.117205 0.848530 0.223097 -7.540875 36.171820 -8.509407 22.347137 -2.217718 -13.655479 -28.705136 2.853343 44.754298 6.522555 9.776685 -6.950414 0.000000 0.000000 0.000000 -16.653066 -5.250882 -21.875149 6.989242 -6.485308 30.368198 0.186169 -1.049217 11.097900 0.000000 0.000000 0.000000 -5.533839 -0.406185 10.838177 13.248479 -2.205190 -23.739437 -1.772756 1.898135 27.331604 10.418801 -1.918905 -20.494452 0.000000 0.000000 0.000000 -18.211593 -12.331159 -1.545175 -51.722501 -24.172130 2.904987 -111.281076 -49.676740 60.889050 0.000000 0.000000 0.000000 5.199027 17.234914 9.013879 27.900265 23.497907 0.589488 -60.694520 18.452197 -3.577919 0.000000 0.000000 0.000000
0.119051 0.850136 0.222601 -7.125850 33.792158 -8.465831 21.730590 -1.985628 -12.254633 -27.666822 3.047027 44.198097 6.114428 8.902281 -6.951597 0.000000 0.000000 0.000000 -16.769023 -4.934023 -21.748042 7.254410 -5.938622 29.190193 1.530079 1.113920 11.722824 0.000000 0.000000 0.000000 -5.080730 -0.427153 11.210788 13.299603 -2.292182 -23.615376 -2.235960 1.771709 27.502876 9.815283 -1.838157 -20.191051 0.000000 0.000000 0.000000 -18.753683 -12.585231 -1.009004 -51.292029 -24.941076 3.180292 -110.411211 -50.015537 61.652711 0.000000 0.000000 0.000000 4.796880 17.022055 8.573573 28.900969 24.325559 0.856327 -62.244072 19.838896 -4.477978 0.000000 0.000000 0.000000
0.120650 0.853446 0.222120 -6.474691 31.107611 -8.501026 20.672792 -1.754954 -9.859575 -25.719221 2.966427 42.377454 5.309640 6.803327 -7.306637 0.000000 0.000000 0.000000 -16.410555 -4.339942 -21.279526 6.856393 -5.184216 28.392776 2.376728 2.764775 10.433532 0.000000 0.000000 0.000000 -4.913336 -0.456576 11.930877 13.282980 -2.376243 -23.381538 -2.525967 1.914772 27.481131 9.047869 -1.917497 -18.727153 0.000000 0.000000 0.000000 -19.144388 -12.535916 -0.556338 -51.734205 -25.576244 3.410742 -109.840272 -51.216279 63.825836 0.000000 0.000000 0.000000 3.983097 16.868724 8.010577 29.416036 24.989655 1.090764 -63.244605 20.823557 -5.229888 0.000000 0.000000 0.000000
0.121723 0.857581 0.221846 -5.992379 28.850439 -8.336778 19.378091 -1.574708 -7.571572 -23.507457 2.694040 40.461261 5.061875 5.107747 -8.987646 0.000000 0.000000 0.000000 -15.883220 -3.847351 -21.246714 6.516258 -4.580152 27.696294 2.711522 3.351030 10.193660 0.000000 0.000000 0.000000 -4.677561 -0.455751 12.139626 13.047876 -2.415778 -22.750521 -3.033335 1.996452 27.385881 8.109079 -1.526423 -18.409330 0.000000 0.000000 0.000000 -19.508697 -12.205353 -0.326865 -52.114921 -26.503265 3.781879 -109.946013 -51.716739 65.577653 0.000000 0.000000 0.000000 3.728676 16.981527 7.829457 29.286483 25.726374 1.246943 -64.710005 20.928374 -5.643337 0.000000 0.000000 0.000000
0.122331 0.862389 0.222084 -5.503547 26.590872 -8.184082 18.016321 -1.444078 -4.877859 -21.176178 2.388121 37.977551 4.877876 3.145705 -11.081805 0.000000 0.000000 0.000000 -15.384745 -3.411608 -21.331972 6.463279 -4.088207 26.705793 2.822557 3.180043 11.272802 0.000000 0.000000 0.000000 -4.523778 -0.460720 12.516369 12.470264 -2.289230 -22.624133 -3.158350 1.692632 27.754819 7.392553 -1.402452 -17.829707 0.000000 0.000000 0.000000 -19.156508 -11.549471 -0.016993 -53.201243 -27.193976 3.945037 -111.478368 -52.146132 68.875753 0.000000 0.000000 0.000000 3.202815 16.982294 7.488179 29.795398 26.649357 1.526751 -66.574885 22.176669 -6.829664 0.000000 0.000000 0.000000
0.122739 0.867203 0.222777 -5.277756 24.958583 -7.597645 16.622437 -1.317258 -3.075612 -19.069997 2.049386 35.379882 5.378729 3.194370 -12.671812 0.000000 0.000000 0.000000 -14.867461 -3.049447 -21.443704 6.113572 -3.636587 26.049944 3.305403 4.223695 10.515180 0.000000 0.000000 0.000000 -4.144377 -0.427827 12.017647 11.973125 -2.248306 -21.746924 -3.701739 1.786007 26.731781 6.805040 -1.240492 -17.171681 0.000000 0.000000 0.000000 -19.022730 -11.499552 0.239378 -53.891966 -27.776804 4.321787 -113.243226 -52.664120 71.829838 0.000000 0.000000 0.000000 3.439401 17.240752 7.619408 29.836622 26.997977 1.626016 -66.807949 22.809839 -7.450226 0.000000 0.000000 0.000000
0.123178 0.871935 0.223812 -4.977513 24.132724 -7.405505 15.387231 -1.238486 -1.379241 -16.894749 1.568239 33.240253 5.083362 1.610328 -13.498678 0.000000 0.000000 0.000000 -14.309321 -2.692524 -20.846492 5.662242 -3.194680 24.946839 2.880051 3.502210 10.279854 0.000000 0.000000 0.000000 -3.891273 -0.427441 11.956494 11.185793 -2.013020 -21.584396 -4.014210 0.967989 26.751105 6.485586 -1.387508 -16.364673 0.000000 0.000000 0.000000 -19.216637 -11.095149 0.398612 -53.566387 -28.352242 4.494931 -116.053256 -53.437085 76.720961 0.000000 0.000000 0.000000 4.333600 17.225240 7.800910 29.173599 27.304166 1.491125 -65.660462 23.023800 -7.802698 0.000000 0.000000 0.000000
0.123508 0.875757 0.224320 -4.636146 24.281534 -7.224586 14.292530 -1.178482 -0.370077 -15.462445 1.179726 31.624894 5.127937 1.297011 -13.739778 0.000000 0.000000 0.000000 -13.901723 -2.522035 -20.428667 4.464300 -2.638058 24.342884 2.877710 3.467158 10.628777 0.000000 0.000000 0.000000 -3.976747 -0.409359 11.802026 10.822638 -1.812770 -22.331311 -4.320390 0.465758 27.642638 6.001842 -1.020220 -16.748579 0.000000 0.000000 0.000000 -19.009582 -11.244508 0.635877 -53.790646 -29.655842 4.986533 -119.445652 -55.909535 84.115083 0.000000 0.000000 0.000000 4.338114 16.964541 7.670874 29.585180 26.703456 1.307929 -65.596621 24.135151 -8.439861 0.000000 0.000000 0.000000
0.124022 0.879699 0.223689 -3.949659 24.139456 -6.900441 12.828073 -1.037459 0.355214 -13.661628 0.741022 30.293104 4.498846 -0.236748 -13.360285 0.000000 0.000000 0.000000 -13.613619 -2.361898 -19.995976 3.501894 -2.155023 23.647203 2.216152 2.299726 10.460086 0.000000 0.000000 0.000000 -4.499655 -0.380548 12.043574 10.601063 -1.740841 -22.418198 -4.262744 0.048939 27.562264 5.192869 -0.530680 -16.652543 0.000000 0.000000 0.000000 -18.397252 -11.027825 0.788452 -53.853200 -30.541695 5.310905 -123.697092 -58.602017 92.881434 0.000000 0.000000 0.000000 4.155547 16.651106 7.442968 30.216907 25.464573 1.064752 -66.841868 27.029598 -10.468705 0.000000 0.000000 0.000000
0.124397 0.882701 0.221801 -3.856746 24.089145 -6.408755 12.199209 -0.942658 -0.381334 -13.408047 0.663190 30.320305 4.758282 1.412681 -12.213854 0.000000 0.000000 0.000000 -12.740664 -2.081386 -19.947087 2.647593 -1.812797 23.481955 1.190883 0.698835 8.997427 0.000000 0.000000 0.000000 -4.182740 -0.379851 11.789821 10.348344 -1.641981 -22.526697 -4.387686 -0.237312 28.071180 4.852537 -0.203835 -17.372095 0.000000 0.000000 0.000000 -19.049689 -10.564830 0.548978 -52.006394 -29.568981 4.625683 -128.823942 -60.054184 101.238024 0.000000 0.000000 0.000000 4.126337 16.260961 7.258676 30.672723 24.354773 0.791530 -67.314906 29.303177 -11.990364 0.000000 0.000000 0.000000
0.124458 0.887324 0.219804 -3.712504 22.840657 -5.835025 11.560272 -0.831155 -0.674129 -13.215417 0.793907 29.495072 4.773598 3.234236 -10.114202 0.000000 0.000000 0.000000 -12.301069 -1.900376 -20.600321 2.232508 -1.513813 23.135536 1.636218 1.349679 9.680735 0.000000 0.000000 0.000000 -3.977104 -0.392825 12.055131 10.327881 -1.635428 -22.960027 -4.333559 0.795526 28.139921 4.547152 0.232171 -18.107963 0.000000 0.000000 0.000000 -17.831873 -10.573665 0.662923 -50.648006 -26.352281 3.006893 -136.291588 -61.521089 112.307882 0.000000 0.000000 0.000000 4.576178 15.458459 7.088571 32.247895 22.032984 0.318948 -69.752073 35.119700 -16.160108 0.000000 0.000000 0.000000
