HIERARCHY
ROOT Hips
{
	OFFSET -0.001795 -0.223333 0.028219
	CHANNELS 6 Xposition Yposition Zposition Zrotation Yrotation Xrotation
	JOINT LeftUpLeg
	{
		OFFSET 0.069520 -0.091406 -0.006815
		CHANNELS 3 Zrotation Yrotation Xrotation
		JOINT LeftLeg
		{
			OFFSET 0.034277 -0.375199 -0.004496
			CHANNELS 3 Zrotation Yrotation Xrotation
			JOINT LeftFoot
			{
				OFFSET -0.013596 -0.397961 -0.043693
				CHANNELS 3 Zrotation Yrotation Xrotation
				JOINT LeftToe
				{
					OFFSET 0.026358 -0.055791 0.119288
					CHANNELS 3 Zrotation Yrotation Xrotation
					End Site
					{
						OFFSET 0.000000 0.000000 0.000000
					}
				}
			}
		}
	}
	JOINT RightUpLeg
	{
		OFFSET -0.067670 -0.090522 -0.004320
		CHANNELS 3 Zrotation Yrotation Xrotation
		JOINT RightLeg
		{
			OFFSET -0.038290 -0.382569 -0.008850
			CHANNELS 3 Zrotation Yrotation Xrotation
			JOINT RightFoot
			{
				OFFSET 0.015774 -0.398415 -0.042312
				CHANNELS 3 Zrotation Yrotation Xrotation
				JOINT RightToe
				{
					OFFSET -0.025372 -0.048144 0.123348
					CHANNELS 3 Zrotation Yrotation Xrotation
					End Site
					{
						OFFSET 0.000000 0.000000 0.000000
					}
				}
			}
		}
	}
	JOINT Spine
	{
		OFFSET -0.002533 0.108963 -0.026696
		CHANNELS 3 Zrotation Yrotation Xrotation
		JOINT Spine1
		{
			OFFSET 0.005487 0.135180 0.001092
			CHANNELS 3 Zrotation Yrotation Xrotation
			JOINT Spine2
			{
				OFFSET 0.001457 0.052922 0.025425
				CHANNELS 3 Zrotation Yrotation Xrotation
				JOINT Neck
				{
					OFFSET -0.002778 0.213870 -0.042857
					CHANNELS 3 Zrotation Yrotation Xrotation
					JOINT Head
					{
						OFFSET 0.005152 0.064970 0.051349
						CHANNELS 3 Zrotation Yrotation Xrotation
						End Site
						{
							OFFSET 0.000000 0.000000 0.000000
						}
					}
				}
				JOINT LeftShoulder
				{
					OFFSET 0.078845 0.121749 -0.034090
					CHANNELS 3 Zrotation Yrotation Xrotation
					JOINT LeftArm
					{
						OFFSET 0.090977 0.030469 -0.008868
						CHANNELS 3 Zrotation Yrotation Xrotation
						JOINT LeftForeArm
						{
							OFFSET 0.259612 -0.012772 -0.027456
							CHANNELS 3 Zrotation Yrotation Xrotation
							JOINT LeftHand
							{
								OFFSET 0.249234 0.008986 -0.001171
								CHANNELS 3 Zrotation Yrotation Xrotation
								End Site
								{
									OFFSET 0.000000 0.000000 0.000000
								}
							}
						}
					}
				}
				JOINT RightShoulder
				{
					OFFSET -0.081759 0.118833 -0.038615
					CHANNELS 3 Zrotation Yrotation Xrotation
					JOINT RightArm
					{
						OFFSET -0.096012 0.032551 -0.009143
						CHANNELS 3 Zrotation Yrotation Xrotation
						JOINT RightForeArm
						{
							OFFSET -0.253742 -0.013329 -0.021401
							CHANNELS 3 Zrotation Yrotation Xrotation
							JOINT RightHand
							{
								OFFSET -0.255298 0.007772 -0.005559
								CHANNELS 3 Zrotation Yrotation Xrotation
								End Site
								{
									OFFSET 0.000000 0.000000 0.000000
								}
							}
						}
					}
				}
			}
		}
	}
}
MOTION
Frames: 68
Frame Time: 0.050000
0.000000 0.934035 0.000000 -26.119443 -5.752276 88.700993 -68.180064 19.848951 -1.579707 121.743076 -70.024437 24.174162 6.137170 29.869456 -92.299809 0.000000 0.000000 0.000000 4.662102 -2.939664 0.295591 41.357846 -15.201953 95.285856 -3.631108 -18.310543 -93.700000 0.000000 0.000000 0.000000 -5.819264 22.781244 85.260174 0.869918 0.522526 -28.322457 0.855085 4.885006 26.499479 10.137087 1.003672 -52.101090 0.000000 0.000000 0.000000 65.362759 6.786235 7.419259 11.094456 -16.075225 -1.193506 9.630756 18.851529 0.719418 0.000000 0.000000 0.000000 -66.464302 -6.038898 3.376389 -11.948743 21.687368 -1.434972 -24.102554 -31.103762 8.273646 0.000000 0.000000 0.000000
0.027353 0.956798 0.058940 -25.074292 -1.718046 93.335087 -56.763143 17.125708 -2.776365 15.891732 -49.171352 124.163505 1.185916 35.634349 -103.084892 0.000000 0.000000 0.000000 -8.841629 6.389914 38.603343 52.721255 -12.972161 42.748943 -8.489192 -19.927515 -87.925574 0.000000 0.000000 0.000000 -7.609388 19.345860 80.006758 0.335217 0.614291 -25.340192 2.372311 -0.689330 27.831321 7.324397 1.640330 -55.303628 0.000000 0.000000 0.000000 65.380054 6.167926 5.927129 4.974942 -10.184115 -0.249097 13.878444 13.934439 1.427550 0.000000 0.000000 0.000000 -67.996779 -4.459547 4.679457 -13.722042 18.414422 -1.548316 -24.160200 -36.520172 8.241017 0.000000 0.000000 0.000000
0.049646 0.971579 0.117066 -37.257694 -2.373706 98.428271 -55.561177 11.053360 -12.772291 -3.572158 -9.122030 105.378028 6.192721 26.619405 -104.187207 0.000000 0.000000 0.000000 -35.884086 31.852237 39.318432 55.869446 -25.852346 28.670409 -9.385149 -8.747903 -67.109035 0.000000 0.000000 0.000000 -18.546674 28.675081 73.250996 1.212901 0.576782 -27.291289 7.424134 10.382831 29.574448 3.781974 2.544461 -58.622500 0.000000 0.000000 0.000000 61.272228 5.894725 10.346848 10.525172 -13.854737 -1.190084 11.320853 18.952008 0.117143 0.000000 0.000000 0.000000 -60.411740 -8.570543 -1.116948 -16.842869 16.178181 0.091551 -27.509222 -28.428220 11.872423 0.000000 0.000000 0.000000
0.058753 0.982905 0.172653 -46.031911 4.497777 104.992353 -43.255442 7.987753 -24.214061 -30.770744 -3.018426 94.415842 2.954521 26.487421 -98.925367 0.000000 0.000000 0.000000 -64.724313 21.352270 20.155157 -4.985947 -31.459900 71.797195 -12.706185 20.857165 -59.625717 0.000000 0.000000 0.000000 -42.969301 22.472572 54.424013 3.446117 0.506734 -26.195878 17.867408 27.933292 34.577346 3.200418 1.133340 -62.910358 0.000000 0.000000 0.000000 60.301876 9.323720 18.856651 7.965484 -12.237557 -0.750393 13.536602 20.240289 -2.397259 0.000000 0.000000 0.000000 -61.794496 -5.786354 -6.744265 -17.507399 9.220622 2.503703 -28.901381 -25.938622 20.636211 0.000000 0.000000 0.000000
0.050208 0.973183 0.226395 -40.179395 9.864001 111.448425 -30.543108 8.094934 -31.327599 -57.632859 0.447811 96.638452 -7.686723 58.093782 -88.659571 0.000000 0.000000 0.000000 -86.656762 -19.659903 27.741134 -52.512589 -13.091440 56.168262 -24.998832 70.029886 -77.457358 0.000000 0.000000 0.000000 -76.058738 -12.745461 52.501857 2.828108 0.659833 -23.237853 64.712148 58.033380 70.559634 3.798004 -0.117117 -63.575631 0.000000 0.000000 0.000000 56.559070 4.776126 4.524700 6.848913 -11.143676 -0.982640 23.381613 15.731761 -9.758990 0.000000 0.000000 0.000000 -57.903670 -9.512615 10.042276 -18.454031 9.048894 3.240057 -24.384678 -41.395471 44.774914 0.000000 0.000000 0.000000
0.019570 0.964298 0.281697 -33.168244 26.101526 129.518673 143.928785 -48.178037 -120.432526 -79.070206 -11.955395 -41.289612 117.636907 5.425609 95.880607 0.000000 0.000000 0.000000 -59.814139 -5.942652 25.978164 36.523632 25.336670 42.167553 -114.450163 10.800000 26.191147 0.000000 0.000000 0.000000 -1.927612 28.978787 50.274653 2.428827 0.457599 -27.405149 0.057003 -3.132119 25.563861 3.174442 0.892129 -63.387768 0.000000 0.000000 0.000000 48.916603 4.085678 10.475836 11.553530 -9.716371 3.084707 29.899092 21.637772 19.052748 0.000000 0.000000 0.000000 -52.879861 -5.038471 8.843091 -22.840339 4.944760 -4.877261 -32.209447 -40.644625 -14.334502 0.000000 0.000000 0.000000
-0.028127 0.956851 0.339147 -24.471182 27.733207 166.146563 129.567974 -29.699254 -89.558585 -72.590059 -18.205365 -35.427815 71.855428 -5.310081 124.507297 0.000000 0.000000 0.000000 -47.219586 -19.702927 4.584661 25.359108 9.032478 29.491886 -99.625760 -2.308225 18.473519 0.000000 0.000000 0.000000 -20.274335 18.918359 2.000053 3.291069 0.068360 -24.417083 1.775037 -7.072235 29.174124 4.001683 1.958259 -62.914657 0.000000 0.000000 0.000000 45.007889 -1.625818 -0.482526 14.843992 -8.976317 1.330956 37.748394 9.094432 14.907622 0.000000 0.000000 0.000000 -45.086594 -2.690610 13.944417 -24.524903 7.516847 -4.317052 -33.520358 -49.667681 -6.931136 0.000000 0.000000 0.000000
-0.086767 0.944514 0.399332 -16.292743 18.332876 -125.683191 -158.110631 -32.807871 -62.350906 18.523294 14.390451 -76.325678 -71.072694 18.154120 105.365050 0.000000 0.000000 0.000000 -33.037576 -16.232359 -46.688245 28.201806 0.962361 10.384656 -78.528018 -23.322049 50.929998 0.000000 0.000000 0.000000 -38.122272 -6.507300 -72.266854 3.968069 -0.193201 -20.592064 -14.562127 -30.793397 42.255808 4.334981 2.051451 -55.307654 0.000000 0.000000 0.000000 50.856879 -3.394256 -5.510744 16.529149 -10.535816 1.127422 27.920486 4.653534 9.651342 0.000000 0.000000 0.000000 -47.005926 -2.632517 15.662644 -20.748263 12.411818 -3.663741 -15.425271 -45.462611 -8.540355 0.000000 0.000000 0.000000
-0.153128 0.931640 0.461485 -19.278877 23.337418 -123.449051 -7.680585 7.111123 -122.270906 17.160512 -12.361622 66.827713 4.327045 6.705485 10.050441 0.000000 0.000000 0.000000 -38.229228 -22.388263 -45.731406 24.976266 0.153010 9.720013 -66.930719 -32.759450 31.693286 0.000000 0.000000 0.000000 -36.561783 -15.191147 -72.108446 2.526661 -0.245798 -19.065295 -12.325600 -27.098162 43.207646 7.382683 3.849166 -57.349598 0.000000 0.000000 0.000000 53.181874 -0.297975 -7.776290 17.839857 -8.089951 1.435340 23.651681 2.129530 7.711450 0.000000 0.000000 0.000000 -48.514172 -3.710599 16.240175 -17.415132 15.547042 -3.836313 -5.552620 -43.791296 -11.010195 0.000000 0.000000 0.000000
-0.222313 0.906566 0.522952 -19.343267 16.761350 -111.694048 4.298095 6.143051 -125.794483 10.588097 -4.946843 69.405722 4.794246 9.603901 16.592142 0.000000 0.000000 0.000000 -33.840744 -21.395132 -50.766036 21.417618 -1.793766 12.369942 -67.503291 -44.947625 28.982672 0.000000 0.000000 0.000000 -32.570030 -22.221698 -76.080325 1.395074 -0.042405 -19.158924 -18.169634 -30.616933 46.526058 5.579607 4.036448 -58.134838 0.000000 0.000000 0.000000 55.119444 -0.773420 -8.249448 18.385920 -5.969040 1.779712 21.851960 3.745422 7.352058 0.000000 0.000000 0.000000 -50.129909 -6.516928 15.873123 -15.913622 17.840361 -4.277726 1.187436 -39.252008 -11.143693 0.000000 0.000000 0.000000
-0.290251 0.879599 0.580632 -22.664038 8.480628 -97.621727 2.446474 -5.121614 -137.285967 16.685376 -8.588291 67.742680 2.805081 6.269616 5.687435 0.000000 0.000000 0.000000 -29.352549 -19.976149 -55.847881 22.364223 -3.824560 18.987818 -57.321605 -59.575318 11.712369 0.000000 0.000000 0.000000 -36.144835 -30.731601 -77.210314 2.764228 -0.315686 -19.638931 -33.436519 -41.754286 57.406384 8.336102 7.384897 -61.181754 0.000000 0.000000 0.000000 56.478134 1.377853 -10.317016 20.148409 -4.426129 2.907223 22.394353 3.376608 9.025328 0.000000 0.000000 0.000000 -50.894357 -8.241370 16.833910 -15.824213 20.102108 -5.993475 3.213679 -37.096245 -12.131751 0.000000 0.000000 0.000000
-0.350718 0.842293 0.628749 -18.474980 2.605901 -98.400773 10.841583 -3.287305 -130.046953 7.796878 -2.472633 75.121168 8.621282 20.533397 -32.695254 0.000000 0.000000 0.000000 -16.425582 -9.494832 -51.249870 16.432907 -3.877531 21.369771 -45.974321 -55.867055 1.968546 0.000000 0.000000 0.000000 -27.550161 -25.452886 -73.410537 1.225082 0.007189 -18.167945 -25.885609 -36.834493 53.894087 3.871082 3.285698 -59.442827 0.000000 0.000000 0.000000 54.127145 2.408188 -10.705937 22.198515 -6.261526 3.325403 27.409089 16.266187 13.539855 0.000000 0.000000 0.000000 -48.217665 -9.346419 14.879900 -13.536322 16.579389 -4.001508 4.896358 -35.178699 -9.762400 0.000000 0.000000 0.000000
-0.402156 0.792569 0.666544 -13.066578 -4.344439 -94.202251 12.211898 -3.593807 -108.012362 -5.890216 3.464081 54.014268 8.024179 24.750297 -88.329317 0.000000 0.000000 0.000000 -6.020430 0.517347 -51.358014 18.362416 -4.870158 22.773740 -47.660068 -56.760289 16.407248 0.000000 0.000000 0.000000 -22.368013 -18.309478 -74.182056 1.519838 0.025723 -18.743805 -25.326321 -32.548468 56.647830 5.549637 4.392647 -65.304308 0.000000 0.000000 0.000000 55.019694 -0.044216 -10.269444 26.367417 1.511000 6.353618 30.839400 26.272390 17.598083 0.000000 0.000000 0.000000 -47.146376 -10.887889 12.980302 -9.828517 7.911863 -1.084602 9.383982 -28.223386 -7.002565 0.000000 0.000000 0.000000
-0.446441 0.739448 0.695604 -6.997480 -4.306230 -96.283572 10.100117 -2.927221 -79.511490 -30.740092 10.628676 28.351697 11.263168 18.605861 -104.079372 0.000000 0.000000 0.000000 0.563430 5.161858 -44.852019 18.167646 -6.295311 31.905804 -36.406171 -45.282056 26.824943 0.000000 0.000000 0.000000 -16.494755 -11.193573 -70.530097 0.861474 0.135288 -16.492922 -18.078565 -24.665789 54.968942 2.765402 -2.466629 -51.935465 0.000000 0.000000 0.000000 49.506310 0.387216 -9.404084 34.663156 5.824619 11.012267 42.901185 48.386929 31.173674 0.000000 0.000000 0.000000 -42.040874 -10.620679 8.851655 -9.387955 -2.142238 0.302515 9.448152 -30.922805 -7.120932 0.000000 0.000000 0.000000
-0.484845 0.669541 0.719695 0.000906 -2.732683 -94.772302 8.947829 -0.410752 -60.701730 -50.695721 10.515634 10.912079 -0.606001 36.064527 -112.621259 0.000000 0.000000 0.000000 6.964087 9.209549 -42.813880 14.054876 -5.517692 40.759962 -20.502384 -30.270021 36.011420 0.000000 0.000000 0.000000 -10.611294 -3.837304 -67.343108 -0.707423 0.561387 -15.224060 -14.001350 -18.846489 56.988158 -23.207035 8.105050 -26.208483 0.000000 0.000000 0.000000 41.443588 4.353672 -8.628895 40.911897 17.685587 18.376147 108.128583 69.600642 93.995790 0.000000 0.000000 0.000000 -26.988302 -12.565253 1.086448 -22.454533 -14.217684 2.952083 26.024750 -25.450673 -10.584850 0.000000 0.000000 0.000000
-0.518221 0.596322 0.745888 0.396970 -2.456952 -91.195129 8.652016 -0.536227 -58.834116 -61.357218 13.912449 14.112490 -150.584515 77.505902 136.952477 0.000000 0.000000 0.000000 8.062371 9.965670 -43.384647 21.539374 -11.400558 48.124945 -27.082670 -39.914955 25.882224 0.000000 0.000000 0.000000 -9.600788 -3.069809 -64.884465 0.209850 0.168335 -10.126160 -12.988413 -19.341688 58.768090 -10.031400 18.663961 20.264235 0.000000 0.000000 0.000000 34.778351 2.012767 -8.248325 39.440497 37.967560 26.465416 174.082393 33.306463 147.652073 0.000000 0.000000 0.000000 -22.424239 -9.489048 -0.214388 -8.742554 -32.388994 2.362356 24.854377 -1.414377 -3.581400 0.000000 0.000000 0.000000
-0.547902 0.501050 0.777194 -0.792946 -2.931128 -89.053693 5.029207 -2.617943 -53.385683 -61.650219 21.004296 26.767111 49.684035 84.348462 -11.465305 0.000000 0.000000 0.000000 8.695838 10.169816 -43.470619 27.001630 -17.978312 56.574939 -25.788210 -38.864721 28.086948 0.000000 0.000000 0.000000 -7.422495 -1.558236 -54.284608 -0.261678 0.291483 -7.712564 -9.925645 -17.784087 55.444879 -12.264006 8.489834 -6.173886 0.000000 0.000000 0.000000 39.464236 4.624052 -7.782045 5.801168 44.839746 8.737421 -176.381728 -5.762831 -144.921960 0.000000 0.000000 0.000000 -22.324724 -8.293929 0.716769 17.803359 -39.813311 -9.378936 56.850090 34.685801 5.085133 0.000000 0.000000 0.000000
-0.574032 0.400263 0.807982 -1.971509 -4.344243 -84.571285 4.075651 -2.734019 -51.604209 -70.863612 29.467278 33.335789 -15.913140 70.933480 -94.741421 0.000000 0.000000 0.000000 9.964442 11.181257 -44.319971 33.298596 -24.977816 61.729058 -32.199638 -52.500146 13.630831 0.000000 0.000000 0.000000 -6.096445 -0.324838 -52.600791 -1.127272 0.529559 -0.704515 -4.184307 -16.658762 51.121214 -12.256049 7.032625 -14.900655 0.000000 0.000000 0.000000 41.910289 1.314289 -6.149869 -33.607273 43.815808 -10.397256 -169.063530 -22.407634 -179.705711 0.000000 0.000000 0.000000 -31.209533 -9.292643 2.819641 54.708010 -32.381479 -28.474184 88.286900 57.751560 43.090562 0.000000 0.000000 0.000000
-0.593199 0.311587 0.832094 -5.369231 -5.175020 -81.942494 1.022915 -4.207672 -46.338782 -64.303586 39.568317 54.139645 -3.630476 60.228652 -83.356838 0.000000 0.000000 0.000000 6.814521 9.044727 -43.128648 34.375047 -27.503830 64.791039 -25.243349 -52.505869 -3.751584 0.000000 0.000000 0.000000 -6.088945 -0.796348 -47.895157 -0.264631 0.135559 -0.470569 -3.453092 -15.901990 49.012743 -8.092130 3.354462 -24.396484 0.000000 0.000000 0.000000 42.620588 5.568376 -4.872283 -47.912168 37.188271 -13.733123 -168.593765 -27.252667 179.242475 0.000000 0.000000 0.000000 -34.628753 -8.110615 3.605882 67.701371 -19.696734 -29.898474 87.291470 52.071066 44.504287 0.000000 0.000000 0.000000
-0.607073 0.261653 0.849971 -3.995968 -9.413192 -78.272092 1.586537 -2.415269 -44.035204 -33.150408 38.992704 93.993888 6.938176 50.112910 -64.816928 0.000000 0.000000 0.000000 7.628581 11.381147 -46.893081 36.756484 -27.407896 65.392837 -19.582636 -54.275642 -17.963657 0.000000 0.000000 0.000000 -3.335159 2.651820 -49.421190 1.623592 -0.811552 1.234016 -2.231584 -13.855832 46.900749 -5.963376 2.123206 -25.045547 0.000000 0.000000 0.000000 36.708106 5.938249 -4.626501 -61.815939 33.556934 -17.866674 -161.365528 -29.569345 154.664062 0.000000 0.000000 0.000000 -32.057309 -9.940943 2.858540 65.046396 -14.759704 -25.271267 85.015376 56.251909 47.762972 0.000000 0.000000 0.000000
-0.620110 0.236027 0.866535 -4.050529 -13.123700 -78.342396 2.329256 -1.092006 -41.334520 -19.227853 25.938483 101.539908 11.856426 41.939522 -50.057478 0.000000 0.000000 0.000000 4.143887 11.007268 -49.215054 37.411322 -27.823645 68.968790 -25.685724 -50.220492 4.428814 0.000000 0.000000 0.000000 -0.670542 5.005538 -46.014696 0.553359 -0.282449 1.458056 0.149332 -10.896705 44.740152 -6.624667 3.060318 -23.863139 0.000000 0.000000 0.000000 37.180257 5.937822 -3.700786 -70.027625 38.242848 -25.209176 -154.997055 -26.870813 125.958477 0.000000 0.000000 0.000000 -28.891102 -9.457711 2.079183 65.952557 -15.522120 -24.591461 67.377600 56.391702 36.941331 0.000000 0.000000 0.000000
-0.634858 0.224805 0.881918 -3.420808 -15.404301 -77.643299 1.715607 -0.926560 -44.146125 -10.268575 14.649905 101.544843 12.925570 28.311621 -32.770445 0.000000 0.000000 0.000000 -2.868319 8.180496 -51.074550 39.668868 -27.355707 69.666077 -22.849300 -40.236571 18.038654 0.000000 0.000000 0.000000 -0.740173 5.634151 -45.591541 0.957580 -0.491225 3.794523 0.600964 -9.269316 43.464235 -5.479712 2.432647 -24.598487 0.000000 0.000000 0.000000 36.333917 9.851001 -3.763586 -78.114759 42.578129 -32.091264 -150.368030 -23.201185 100.618713 0.000000 0.000000 0.000000 -27.766493 -6.925415 2.402129 66.309241 -11.734055 -22.333416 55.951876 53.434677 28.075806 0.000000 0.000000 0.000000
-0.649777 0.228343 0.894617 -5.283253 -16.814291 -78.292666 -1.743396 -2.813361 -43.096699 -4.486795 7.065926 100.327709 11.651022 22.179918 -32.259355 0.000000 0.000000 0.000000 -6.569926 5.402399 -47.407175 42.653761 -27.426957 67.509574 -22.785387 -38.917627 21.504110 0.000000 0.000000 0.000000 -2.771485 4.157436 -44.035876 1.265596 -0.641508 3.926233 3.318200 -5.823976 43.074808 -3.965137 2.057939 -25.198485 0.000000 0.000000 0.000000 38.191465 7.268268 -2.589630 -74.561092 44.308189 -33.605447 -149.123521 -22.477034 95.023611 0.000000 0.000000 0.000000 -24.894405 -7.012270 1.497242 64.195053 -13.425644 -20.942675 48.898846 52.764045 24.229106 0.000000 0.000000 0.000000
-0.663262 0.223703 0.903189 -5.604972 -19.015816 -78.655651 -3.032413 -3.017388 -41.258516 3.145994 -3.431206 108.183759 10.445864 10.285685 -45.334933 0.000000 0.000000 0.000000 -9.726534 4.004423 -45.821288 43.800163 -27.539859 69.040701 -20.828998 -36.171859 23.424192 0.000000 0.000000 0.000000 -3.315098 4.022311 -42.100981 0.814272 -0.385535 3.442412 4.867003 -2.389810 44.065388 -3.455422 2.215038 -24.911414 0.000000 0.000000 0.000000 37.572118 8.163482 -2.038898 -77.491333 41.690726 -35.654560 -146.744656 -20.629250 82.543869 0.000000 0.000000 0.000000 -18.018265 -5.712846 0.330682 61.036269 -13.642399 -18.728651 44.157327 56.707215 24.316267 0.000000 0.000000 0.000000
-0.674530 0.220149 0.907410 -5.751600 -22.512115 -78.523382 -3.637245 -2.546208 -38.434506 11.142608 -14.788410 109.388371 10.727227 -0.768573 -50.248158 0.000000 0.000000 0.000000 -10.541138 4.329627 -45.217814 44.315668 -27.938901 71.843427 -20.138594 -36.132932 21.524147 0.000000 0.000000 0.000000 -2.949584 5.030239 -41.748283 1.192761 -0.530350 5.312711 5.035852 -1.699297 42.827094 -3.603381 2.259765 -24.604727 0.000000 0.000000 0.000000 35.515070 7.616144 -1.988680 -78.318116 36.857723 -32.681484 -142.974157 -25.771527 85.772707 0.000000 0.000000 0.000000 -15.135923 -5.041841 0.222750 57.937778 -11.087153 -16.188045 42.187405 62.624984 25.897315 0.000000 0.000000 0.000000
-0.684520 0.216086 0.908405 -7.499760 -24.623668 -78.591693 -3.615158 -2.361337 -37.477946 16.269142 -21.663492 106.982085 11.056435 -7.003864 -52.233944 0.000000 0.000000 0.000000 -12.832755 3.066203 -42.676418 42.442812 -26.123252 73.723386 -16.875404 -32.876629 17.790078 0.000000 0.000000 0.000000 -4.627030 4.002637 -40.149654 2.098207 -0.990515 4.081365 5.261680 -0.751751 45.277746 -1.962757 1.264447 -24.496786 0.000000 0.000000 0.000000 33.985368 7.377434 -2.221697 -75.960508 27.766683 -25.368261 -138.285769 -31.889250 89.694900 0.000000 0.000000 0.000000 -15.655852 -2.747708 0.781311 55.154523 -10.945063 -15.336669 45.250361 70.212999 32.107795 0.000000 0.000000 0.000000
-0.692588 0.217147 0.906941 -8.418149 -27.962015 -76.634974 -2.811675 -1.425388 -38.224636 28.506691 -33.546797 99.672809 11.984976 -26.983339 -55.086705 0.000000 0.000000 0.000000 -13.855545 3.624108 -44.420600 43.349989 -26.668055 75.704510 -18.402264 -35.317537 17.619248 0.000000 0.000000 0.000000 -4.951547 4.478039 -39.947343 4.463211 -2.156230 6.567344 3.706179 1.592665 43.710150 2.275669 -1.252146 -23.299915 0.000000 0.000000 0.000000 31.105037 4.658015 -1.929457 -79.692945 16.517831 -19.662630 -128.697098 -42.765156 91.773067 0.000000 0.000000 0.000000 -16.741490 -4.122085 0.479470 54.537790 -8.353514 -13.688914 37.086495 79.482304 31.534556 0.000000 0.000000 0.000000
-0.698801 0.212341 0.904679 -7.764639 -31.525742 -76.466659 0.776738 1.114162 -38.124106 32.766396 -35.630427 96.531014 12.059375 -30.162834 -55.067149 0.000000 0.000000 0.000000 -11.280662 5.169077 -42.644726 36.178746 -19.626202 79.267533 -13.633838 -29.609597 11.586889 0.000000 0.000000 0.000000 -2.360881 6.429974 -38.954074 2.912484 -1.204704 7.562209 2.716156 0.127032 43.572906 2.043874 -1.901709 -19.585830 0.000000 0.000000 0.000000 24.295622 2.858810 -2.284564 -80.565588 12.381276 -16.196966 -120.607408 -51.469237 93.824025 0.000000 0.000000 0.000000 -17.370572 -0.674186 1.625111 50.770406 -5.439972 -11.920734 -17.311116 87.294329 -17.443423 0.000000 0.000000 0.000000
-0.702912 0.206626 0.901578 -7.784687 -33.032362 -75.013395 2.683439 2.513209 -39.150360 32.506274 -31.945132 92.261628 10.349285 -35.792213 -52.605067 0.000000 0.000000 0.000000 -9.892059 6.241147 -43.452389 29.793948 -13.219822 80.781183 -7.133699 -18.206015 12.004880 0.000000 0.000000 0.000000 -4.995479 5.961584 -40.717806 4.958790 -2.174565 10.016673 1.489856 1.254407 43.427594 4.747506 -3.699953 -19.274124 0.000000 0.000000 0.000000 20.527429 0.972407 -1.749398 -78.142771 8.853397 -14.296380 -101.679880 -60.417736 81.986718 0.000000 0.000000 0.000000 -19.913781 -0.390965 1.773306 49.400830 -0.266237 -9.595477 -114.476905 82.233091 -107.548406 0.000000 0.000000 0.000000
-0.704788 0.201489 0.897938 -6.754862 -36.805159 -75.034260 6.163511 5.137909 -38.076059 32.712673 -29.508518 90.957385 9.936820 -35.548137 -52.046194 0.000000 0.000000 0.000000 -5.265793 9.237331 -44.061055 27.599761 -9.598970 79.915812 -2.970365 -12.087166 20.025853 0.000000 0.000000 0.000000 -3.131008 7.689341 -40.070890 4.344450 -1.697818 8.947036 0.112010 0.276655 45.057365 6.184745 -5.517973 -17.999128 0.000000 0.000000 0.000000 17.189793 -1.571314 -1.538932 -79.036649 9.710765 -14.404735 -83.487815 -67.798310 72.228617 0.000000 0.000000 0.000000 -19.483338 0.719023 2.327359 45.588920 4.162878 -7.898912 -110.587961 78.380038 -101.679636 0.000000 0.000000 0.000000
-0.705169 0.199084 0.894828 -5.545875 -38.388387 -75.379425 8.002270 6.748646 -38.220247 32.553855 -29.010169 91.097776 8.217655 -39.559733 -49.232778 0.000000 0.000000 0.000000 -4.830956 10.657720 -46.077875 27.971986 -9.673325 79.804368 -0.289619 -9.417605 27.598525 0.000000 0.000000 0.000000 -2.621809 8.529497 -40.073979 4.337765 -1.482227 10.911853 -0.906333 0.566609 44.852895 7.104351 -6.453592 -16.463004 0.000000 0.000000 0.000000 12.291083 -2.842942 -0.634286 -76.534587 9.201421 -14.864620 -64.336815 -67.627545 55.079843 0.000000 0.000000 0.000000 -20.477270 1.179623 2.385036 43.023791 7.854117 -6.306362 -126.477220 75.290672 -116.109539 0.000000 0.000000 0.000000
-0.705004 0.200983 0.893437 -4.761373 -39.295115 -75.967802 8.704115 7.436231 -38.233436 31.573222 -27.157483 90.375629 4.217106 -40.234475 -41.916626 0.000000 0.000000 0.000000 -4.011427 11.330051 -46.093725 28.096518 -9.368504 79.340988 -0.254790 -10.237506 31.806071 0.000000 0.000000 0.000000 -2.589274 9.216591 -40.979401 4.208070 -1.283589 11.960031 -1.873475 -0.939126 44.545666 7.290865 -7.228389 -13.763754 0.000000 0.000000 0.000000 8.860633 -4.020536 0.117508 -75.447593 10.885908 -16.063040 -57.163366 -69.448162 50.820946 0.000000 0.000000 0.000000 -20.615121 2.177308 2.787353 41.943064 10.920605 -5.554781 -143.499052 74.407428 -136.696267 0.000000 0.000000 0.000000
-0.704722 0.208784 0.894661 -4.611351 -39.270369 -75.679486 8.079538 7.612916 -40.231523 30.021035 -27.250687 93.076019 -1.169565 -39.172691 -30.962633 0.000000 0.000000 0.000000 -5.580078 10.412873 -45.593134 31.573584 -12.085052 78.959288 -4.134008 -14.989468 31.176219 0.000000 0.000000 0.000000 -2.549051 9.726098 -42.176320 3.428284 -0.893806 11.500325 -1.675122 -0.548583 45.041794 7.191379 -7.200209 -13.395576 0.000000 0.000000 0.000000 7.553957 -3.708764 0.291923 -73.318148 12.193928 -17.219127 -61.908308 -67.655497 53.175933 0.000000 0.000000 0.000000 -19.581301 2.189138 2.539590 41.494579 10.251012 -5.604043 -158.878491 70.967082 -153.924938 0.000000 0.000000 0.000000
-0.704652 0.215409 0.898375 -4.440804 -39.437998 -76.441805 6.997960 7.299755 -41.273174 29.679835 -28.382262 95.418711 -7.005564 -39.913379 -20.169677 0.000000 0.000000 0.000000 -7.027224 9.248942 -44.117564 34.185570 -13.995389 79.466958 -5.467771 -16.248454 27.542967 0.000000 0.000000 0.000000 -3.308596 9.789449 -43.286151 3.340380 -0.858143 11.553937 -0.646145 0.103673 45.352328 7.633681 -7.286402 -14.054438 0.000000 0.000000 0.000000 8.088493 -2.680819 -0.032661 -72.470561 13.816539 -18.481745 -71.019334 -64.931796 58.151373 0.000000 0.000000 0.000000 -17.577882 1.424487 2.081761 41.516059 9.563666 -5.663654 -169.964573 69.783226 -168.242791 0.000000 0.000000 0.000000
-0.704937 0.219695 0.903807 -6.012614 -39.617297 -76.729342 5.224480 6.108695 -41.652932 29.741503 -28.429166 94.750554 -11.030731 -37.386683 -11.445325 0.000000 0.000000 0.000000 -7.928820 7.866019 -41.614348 35.800681 -15.290772 79.469167 -7.086605 -18.238496 24.911451 0.000000 0.000000 0.000000 -3.715415 9.159115 -42.925540 2.929992 -0.937145 7.943910 0.172757 -1.677605 46.309707 4.940238 -5.373443 -15.897691 0.000000 0.000000 0.000000 12.209824 -0.418649 -1.461485 -75.660503 17.178379 -19.637590 -86.276288 -60.406768 67.712234 0.000000 0.000000 0.000000 -17.197610 1.243520 2.405490 45.912203 8.291356 -7.212949 171.369264 66.228751 162.584990 0.000000 0.000000 0.000000
-0.705331 0.221426 0.909989 -6.771143 -38.938901 -76.949169 3.806712 5.107448 -42.210164 28.699639 -27.842623 95.094301 -13.155129 -35.894730 -6.681766 0.000000 0.000000 0.000000 -10.099702 6.334809 -39.964546 36.091030 -16.256727 81.945415 -6.590144 -17.115758 17.783343 0.000000 0.000000 0.000000 -4.622983 8.334842 -42.920066 2.784462 -0.992882 6.192556 0.856234 -1.802098 46.900344 4.435213 -4.743257 -18.354811 0.000000 0.000000 0.000000 15.134415 -0.267999 -1.830687 -77.832187 16.352507 -18.910339 -89.504528 -61.441884 71.469099 0.000000 0.000000 0.000000 -16.866374 -0.692438 2.012250 51.236881 8.533175 -8.253971 159.685593 65.602613 145.628403 0.000000 0.000000 0.000000
-0.705567 0.221359 0.915945 -7.572541 -39.228595 -76.826491 2.518680 4.406199 -42.862604 29.021612 -28.311590 95.588634 -13.781713 -34.049434 -3.986463 0.000000 0.000000 0.000000 -10.760966 5.597914 -38.350348 36.299187 -16.242964 82.697835 -7.289187 -18.229785 15.118533 0.000000 0.000000 0.000000 -4.810884 8.257334 -43.303279 2.775057 -1.045215 5.196173 1.070590 -4.286513 46.235829 1.350101 -2.874984 -20.406446 0.000000 0.000000 0.000000 17.606940 0.504061 -2.608718 -82.743105 16.727038 -18.092629 -95.523934 -61.506615 77.675679 0.000000 0.000000 0.000000 -16.489587 -1.282577 2.274309 55.767337 5.949167 -10.954492 146.835160 62.567378 122.423964 0.000000 0.000000 0.000000
-0.705417 0.222436 0.921342 -8.422004 -39.241072 -76.383290 2.018045 4.040193 -42.899544 27.465747 -27.037666 96.693586 -12.715406 -32.356335 -4.601251 0.000000 0.000000 0.000000 -11.698149 5.086105 -37.761836 36.420670 -16.704350 83.650473 -7.853486 -19.155039 14.656298 0.000000 0.000000 0.000000 -6.012310 7.540441 -43.395679 3.116145 -1.271300 3.677906 1.234233 -5.529412 46.717575 -0.660109 -1.740557 -22.429607 0.000000 0.000000 0.000000 19.056020 0.764369 -3.081593 -86.396380 13.448900 -14.573813 -98.784181 -66.439491 86.453124 0.000000 0.000000 0.000000 -15.707609 -1.641753 2.279610 60.453767 3.691684 -13.808128 137.180741 61.834277 107.920639 0.000000 0.000000 0.000000
-0.705089 0.223788 0.925354 -8.865100 -38.926308 -76.036927 1.781068 3.848947 -43.300380 26.362712 -26.580111 98.090357 -10.801779 -30.081275 -6.340225 0.000000 0.000000 0.000000 -10.956347 4.922518 -36.485513 35.837602 -16.561678 85.037089 -9.152956 -21.855462 9.707495 0.000000 0.000000 0.000000 -7.025478 6.892030 -43.518758 2.865365 -1.198475 2.363650 1.406587 -6.574427 46.925779 -1.602858 -1.290608 -23.973979 0.000000 0.000000 0.000000 21.137972 0.929858 -3.544992 -89.836509 12.005832 -12.192084 -109.343535 -69.470402 100.896006 0.000000 0.000000 0.000000 -15.887445 -2.010108 2.414889 63.359166 0.024076 -17.069890 127.032398 59.097701 90.833297 0.000000 0.000000 0.000000
-0.704284 0.231985 0.927822 -10.912993 -38.717048 -74.639680 3.342708 4.473056 -42.899117 23.735707 -25.520923 99.934399 -9.301813 -28.361115 -8.003625 0.000000 0.000000 0.000000 -10.386389 4.691010 -35.261391 36.918716 -17.918120 83.634819 -10.272420 -23.761669 11.072284 0.000000 0.000000 0.000000 -8.653307 5.715544 -43.037059 3.738334 -1.628747 2.040731 1.175089 -7.770351 45.572034 -1.800268 -1.212481 -25.927541 0.000000 0.000000 0.000000 23.765556 2.202715 -4.210590 -93.571186 12.014037 -10.687145 -115.303738 -70.556838 107.977578 0.000000 0.000000 0.000000 -16.533314 -1.992328 2.730648 64.747535 -2.228916 -19.046715 119.590809 57.637825 79.625853 0.000000 0.000000 0.000000
-0.702351 0.236766 0.928774 -12.291032 -38.135330 -73.843625 4.883010 4.871888 -41.714106 20.085093 -22.076341 100.805621 -6.206249 -25.488374 -12.522420 0.000000 0.000000 0.000000 -9.480501 4.603161 -34.338198 35.441296 -17.730997 85.044422 -10.246984 -24.006072 8.755406 0.000000 0.000000 0.000000 -10.472819 4.266232 -41.822922 4.049589 -1.794833 1.053108 1.970645 -8.157587 45.341598 -2.694986 -0.689217 -25.828327 0.000000 0.000000 0.000000 24.311211 2.695324 -4.330552 -92.554864 12.687239 -10.690995 -126.339168 -70.419982 120.940134 0.000000 0.000000 0.000000 -14.833096 -2.420055 2.309913 64.541406 -4.238183 -19.955673 120.798718 57.040144 79.856166 0.000000 0.000000 0.000000
-0.698069 0.244588 0.928700 -13.416383 -37.847452 -72.865705 7.013161 5.610662 -40.004366 16.888286 -18.373318 100.785428 -4.032209 -23.066620 -15.787530 0.000000 0.000000 0.000000 -8.569786 4.447881 -32.812454 35.010235 -17.373883 84.301823 -10.598624 -24.576218 9.357027 0.000000 0.000000 0.000000 -12.120132 3.399879 -41.928798 5.047428 -2.260032 2.077241 2.000644 -8.648676 43.802437 -2.774562 -0.608609 -25.374869 0.000000 0.000000 0.000000 25.676299 4.036713 -4.561289 -89.860101 15.086091 -11.773567 -130.789764 -67.218944 123.436994 0.000000 0.000000 0.000000 -14.039677 -2.338971 2.194236 64.344078 -4.255115 -19.697021 122.586345 60.052643 85.648175 0.000000 0.000000 0.000000
-0.691029 0.249031 0.928686 -14.488411 -37.392892 -71.872114 8.315464 5.867466 -38.368750 13.189215 -13.887243 101.111647 -0.591273 -18.602909 -20.993556 0.000000 0.000000 0.000000 -7.998627 4.221749 -31.358707 32.583821 -15.334304 84.343522 -9.071237 -21.873777 7.478962 0.000000 0.000000 0.000000 -13.668271 2.577080 -41.978242 5.393325 -2.431268 2.507576 2.689433 -8.999637 43.361479 -3.926643 0.097453 -24.310977 0.000000 0.000000 0.000000 26.405351 5.343698 -4.792289 -87.097462 18.880411 -14.416032 -131.316410 -62.103648 119.672480 0.000000 0.000000 0.000000 -12.128770 -1.675211 1.890191 63.019971 -2.513683 -17.758578 130.277950 60.773541 95.510405 0.000000 0.000000 0.000000
-0.681980 0.253847 0.929687 -13.979832 -37.015464 -71.673943 8.902076 5.799361 -36.376938 11.038558 -9.803390 99.755147 0.645312 -15.647303 -22.190813 0.000000 0.000000 0.000000 -7.736044 4.117598 -30.526034 29.473161 -12.020584 84.822704 -7.716090 -19.172623 9.005065 0.000000 0.000000 0.000000 -14.180405 2.739110 -43.775531 5.503276 -2.498822 4.467088 2.899572 -8.043986 43.083564 -4.074514 0.451918 -23.453934 0.000000 0.000000 0.000000 28.032383 6.878813 -4.806287 -83.499855 23.861083 -18.449340 -133.033989 -53.089786 113.170555 0.000000 0.000000 0.000000 -10.736187 -0.689007 1.692124 63.765880 0.101025 -15.938054 142.113930 62.484810 114.954442 0.000000 0.000000 0.000000
-0.673839 0.259278 0.931957 -14.839066 -36.118605 -70.442889 8.736296 5.092456 -34.202361 9.677790 -7.502944 97.406292 2.284065 -13.574023 -25.685392 0.000000 0.000000 0.000000 -8.241648 3.726992 -29.850463 27.136666 -10.001668 84.167073 -5.361455 -14.741234 10.823105 0.000000 0.000000 0.000000 -15.088588 2.045649 -43.699438 5.569106 -2.552024 4.332916 3.228032 -7.043515 42.738266 -4.254316 0.832765 -22.015575 0.000000 0.000000 0.000000 29.980477 8.205856 -4.738137 -82.616667 30.678789 -23.995263 -134.214679 -44.198901 103.610567 0.000000 0.000000 0.000000 -10.023362 0.233850 1.692234 65.644532 2.945506 -14.360810 149.221738 64.867083 129.022005 0.000000 0.000000 0.000000
-0.668974 0.266072 0.935376 -14.821234 -35.865802 -69.673059 9.630762 5.255689 -32.720732 9.232393 -6.490224 96.749681 3.027111 -13.944768 -28.333054 0.000000 0.000000 0.000000 -7.511134 3.652863 -28.647745 24.918850 -7.347585 83.275166 -4.356300 -13.003245 11.369323 0.000000 0.000000 0.000000 -16.143428 1.771281 -44.935387 5.925676 -2.735888 5.500636 4.034394 -5.969047 41.869044 -3.323740 0.445693 -22.824412 0.000000 0.000000 0.000000 31.271926 7.471943 -4.304059 -79.288239 35.959925 -27.553073 -137.623466 -36.676918 98.595463 0.000000 0.000000 0.000000 -11.039095 0.796495 1.957769 69.562247 5.764673 -13.487199 158.053124 64.678287 144.741948 0.000000 0.000000 0.000000
-0.667342 0.273248 0.939577 -16.317156 -35.297828 -68.410026 10.624938 5.247473 -31.085075 7.767326 -4.951805 95.685008 2.828313 -15.219106 -28.903799 0.000000 0.000000 0.000000 -6.616677 3.554720 -27.545469 23.541547 -6.478724 82.978869 -2.402993 -9.607764 12.776687 0.000000 0.000000 0.000000 -17.608145 0.573940 -43.306695 6.206106 -2.873998 4.075271 4.698278 -4.982387 41.824302 -2.103020 -0.141546 -24.160266 0.000000 0.000000 0.000000 33.533664 8.895148 -4.184968 -77.307739 41.513990 -30.482305 -139.075605 -29.604014 88.687985 0.000000 0.000000 0.000000 -11.562150 1.129220 2.112332 74.398525 8.685274 -12.531427 164.677340 63.549194 156.852012 0.000000 0.000000 0.000000
-0.666882 0.278700 0.944246 -16.323159 -35.268639 -68.489965 11.649071 5.324167 -28.988683 7.966858 -4.663486 93.780909 2.583160 -17.866392 -30.269946 0.000000 0.000000 0.000000 -5.187217 3.558018 -26.057650 23.170417 -5.810818 82.610340 -2.988128 -10.882352 13.499166 0.000000 0.000000 0.000000 -17.636667 0.408179 -42.964457 6.180960 -2.853123 3.756069 4.908126 -3.748661 41.933052 0.029026 -1.212489 -24.573984 0.000000 0.000000 0.000000 34.309677 7.976325 -3.836630 -74.970167 45.150820 -32.320358 -140.674192 -24.457684 81.232482 0.000000 0.000000 0.000000 -14.089991 1.628212 2.566938 79.626733 10.718926 -12.126237 164.526238 61.119494 158.392728 0.000000 0.000000 0.000000
-0.666197 0.283979 0.948975 -16.807732 -34.868221 -68.358493 13.018009 5.633916 -27.512629 6.654934 -3.518477 92.657708 1.914637 -19.548645 -29.750760 0.000000 0.000000 0.000000 -4.423447 3.633978 -25.710877 21.774431 -4.831070 82.518536 -2.510590 -10.448965 15.549911 0.000000 0.000000 0.000000 -17.908614 0.017875 -42.387554 6.002802 -2.785264 4.164062 5.369734 -2.861689 41.546349 0.532521 -1.233088 -26.003003 0.000000 0.000000 0.000000 33.252265 7.709467 -3.550121 -72.854846 44.588518 -31.707539 -139.785042 -24.423499 79.048286 0.000000 0.000000 0.000000 -14.042835 2.039292 2.530048 79.032112 13.576405 -9.307332 169.723851 62.808674 168.730691 0.000000 0.000000 0.000000
-0.664126 0.285346 0.953542 -16.482302 -34.630944 -68.729642 12.398510 5.298122 -27.288273 7.484223 -4.490365 93.180548 1.892882 -20.550498 -30.219861 0.000000 0.000000 0.000000 -3.585805 3.761441 -25.322124 20.319438 -3.485107 83.059353 -2.401767 -10.142983 14.886998 0.000000 0.000000 0.000000 -17.674726 0.115778 -42.721561 5.477555 -2.525164 3.846042 5.381357 -1.953223 43.173143 1.255758 -1.578349 -24.495544 0.000000 0.000000 0.000000 31.784968 6.334513 -3.299283 -72.402032 42.914849 -31.516088 -138.983001 -24.155060 76.897038 0.000000 0.000000 0.000000 -14.832502 3.589074 2.780445 75.352435 17.166350 -5.934223 -179.908400 62.775751 -173.539022 0.000000 0.000000 0.000000
-0.660838 0.286492 0.957530 -15.261890 -34.428327 -69.391821 11.978922 5.211008 -27.371759 6.866846 -3.375825 93.087123 0.987101 -21.531777 -28.415210 0.000000 0.000000 0.000000 -3.514643 3.892881 -25.684068 19.498147 -2.488138 83.732139 -2.971042 -10.822814 13.140183 0.000000 0.000000 0.000000 -17.368137 0.514391 -43.963221 4.988512 -2.283135 6.052453 5.452928 -1.282585 42.758999 1.154594 -1.433501 -23.024591 0.000000 0.000000 0.000000 28.736164 5.148110 -3.018031 -74.088260 37.881206 -30.441332 -136.209894 -27.128181 77.973958 0.000000 0.000000 0.000000 -14.779085 4.263084 2.725881 71.251895 19.146235 -3.812258 -172.023114 61.312209 -159.654488 0.000000 0.000000 0.000000
-0.657390 0.283345 0.961174 -13.737633 -34.654029 -70.203335 11.420353 5.316155 -28.411455 6.655698 -2.651858 94.090692 0.145959 -21.455002 -25.981450 0.000000 0.000000 0.000000 -3.601100 4.111049 -26.294420 18.871921 -1.418072 83.729457 -3.146010 -10.715701 10.702552 0.000000 0.000000 0.000000 -16.499898 1.391798 -44.836876 4.373349 -1.945844 6.779052 4.979531 -2.055009 43.272954 0.089401 -1.040900 -19.919574 0.000000 0.000000 0.000000 24.840936 5.178247 -3.230413 -76.694514 34.763562 -30.003628 -134.225192 -30.489928 81.556698 0.000000 0.000000 0.000000 -14.859120 5.202104 2.951801 67.009845 20.051691 -3.445460 -164.889615 61.727735 -149.148155 0.000000 0.000000 0.000000
-0.654554 0.280736 0.965027 -12.397838 -35.171501 -71.182060 11.045566 5.581417 -29.993162 6.401161 -1.877749 94.906121 -2.578746 -21.871422 -19.199572 0.000000 0.000000 0.000000 -4.398196 4.158319 -27.083768 19.580842 -1.493724 83.817655 -2.971033 -10.460108 11.031547 0.000000 0.000000 0.000000 -15.441975 2.355164 -45.777872 3.435430 -1.413061 7.787012 4.664851 -3.231520 42.889086 -1.458620 -0.244589 -18.415792 0.000000 0.000000 0.000000 22.433021 3.673972 -3.096593 -78.638829 29.161441 -26.812411 -133.026287 -35.254644 89.105697 0.000000 0.000000 0.000000 -15.244825 5.034524 3.075196 63.825865 20.219726 -3.718091 -159.073342 59.059291 -139.328940 0.000000 0.000000 0.000000
-0.652966 0.274399 0.969601 -10.695904 -35.800713 -72.374742 10.530403 5.748629 -30.862121 6.251035 -0.911551 94.654586 -2.910945 -20.259040 -17.024111 0.000000 0.000000 0.000000 -5.287971 4.332561 -28.270543 20.189902 -1.475168 83.633823 -2.093607 -8.891191 11.511998 0.000000 0.000000 0.000000 -14.472655 3.411397 -46.548672 2.747892 -1.001022 8.272622 3.740396 -5.438055 43.036831 -4.087492 1.210198 -16.583644 0.000000 0.000000 0.000000 17.748203 4.380064 -3.392020 -79.768934 24.547413 -23.516732 -130.689192 -41.726264 97.072969 0.000000 0.000000 0.000000 -15.122231 4.363136 3.165248 61.752119 20.045921 -4.627051 -158.866461 58.597560 -140.937057 0.000000 0.000000 0.000000
-0.652444 0.268560 0.975083 -9.345573 -36.741960 -73.365762 8.823466 5.339156 -31.776583 8.986161 -3.195358 95.844901 -2.980016 -20.641007 -17.018457 0.000000 0.000000 0.000000 -5.619777 4.723663 -29.654087 21.970050 -2.574199 83.428077 -2.468491 -9.658804 11.647153 0.000000 0.000000 0.000000 -13.487629 4.647416 -47.737796 2.387347 -0.715671 9.590549 2.769378 -7.830186 42.741189 -5.748026 2.078700 -15.053689 0.000000 0.000000 0.000000 15.369793 2.476886 -3.013832 -82.913955 18.552258 -19.240255 -129.445155 -50.476075 108.457687 0.000000 0.000000 0.000000 -15.761537 4.669896 3.592567 60.880168 18.336281 -6.248641 -156.929450 59.019817 -140.725897 0.000000 0.000000 0.000000
-0.653256 0.264145 0.981049 -7.716597 -38.245092 -74.415957 7.297023 5.183316 -32.635669 11.327200 -4.795525 96.443405 -2.409104 -19.771590 -17.631261 0.000000 0.000000 0.000000 -5.943866 5.432527 -31.660197 23.820370 -3.641532 82.826960 -1.606989 -9.056931 16.033434 0.000000 0.000000 0.000000 -12.602546 5.988154 -48.220944 2.557050 -0.734155 9.714036 1.841695 -10.224732 42.851759 -8.943224 4.254718 -13.527139 0.000000 0.000000 0.000000 9.778975 2.165729 -2.364814 -82.635145 12.994546 -14.875319 -127.639523 -58.709443 117.345600 0.000000 0.000000 0.000000 -15.445948 3.953046 3.684928 59.289077 16.429677 -7.827200 -162.604183 60.597167 -154.349086 0.000000 0.000000 0.000000
-0.655105 0.260631 0.987216 -5.761258 -39.919900 -75.798957 6.512476 5.381382 -33.395730 15.015236 -7.793298 96.926978 -2.679950 -21.138949 -17.893693 0.000000 0.000000 0.000000 -5.951919 6.120743 -33.133827 26.666547 -5.201988 82.731167 -3.369220 -12.623629 19.314175 0.000000 0.000000 0.000000 -11.501893 7.665809 -49.290172 3.017876 -0.907389 9.749162 0.311831 -12.406706 43.517588 -8.921370 3.713874 -13.372406 0.000000 0.000000 0.000000 7.869091 1.047044 -1.812989 -81.752096 9.257703 -11.211998 -130.457979 -64.015962 128.239017 0.000000 0.000000 0.000000 -17.236324 3.053440 4.121298 59.344755 16.186102 -9.192941 -171.211866 62.499988 -172.042211 0.000000 0.000000 0.000000
-0.658195 0.260719 0.992971 -4.818895 -41.110774 -76.134966 5.846274 5.572940 -34.257113 17.253722 -9.706708 96.912781 -3.575925 -22.390842 -16.744165 0.000000 0.000000 0.000000 -6.647481 6.558977 -34.516599 29.577602 -7.395918 82.616665 -3.859752 -13.486109 20.789642 0.000000 0.000000 0.000000 -11.777937 8.283900 -49.795773 3.931332 -1.329547 9.855751 -0.304733 -14.563315 42.740520 -11.252592 5.254855 -13.040070 0.000000 0.000000 0.000000 5.353003 1.512406 -1.476666 -82.116527 6.504006 -8.538246 -130.787310 -68.698541 134.196409 0.000000 0.000000 0.000000 -15.742011 2.763912 4.048412 57.776406 14.155903 -10.118248 -176.408443 64.092169 175.597121 0.000000 0.000000 0.000000
-0.662304 0.261403 0.998645 -4.068410 -42.466403 -76.201346 6.334264 6.318712 -34.866880 18.024727 -9.964825 97.103658 -3.177820 -21.558259 -16.880227 0.000000 0.000000 0.000000 -6.842806 6.909393 -35.104642 31.117464 -8.040046 82.461801 -5.402803 -15.883905 20.464845 0.000000 0.000000 0.000000 -12.245827 8.990506 -50.828190 5.191711 -1.922142 10.179867 -1.067283 -15.897990 42.389063 -11.404246 5.385390 -11.740866 0.000000 0.000000 0.000000 2.206409 0.660705 -0.265163 -78.631108 3.522868 -7.057432 -133.891161 -69.302161 140.435601 0.000000 0.000000 0.000000 -13.766854 2.532760 3.626251 55.664471 13.498109 -9.988134 -177.594968 66.487492 171.510405 0.000000 0.000000 0.000000
-0.666708 0.263072 1.004704 -3.410602 -43.352840 -76.040134 6.273255 6.482879 -34.792505 19.484278 -10.270691 94.976369 -3.959459 -22.365222 -16.014597 0.000000 0.000000 0.000000 -6.968401 7.152590 -35.528277 33.278292 -9.364011 82.112236 -8.145901 -20.209821 19.082173 0.000000 0.000000 0.000000 -12.545583 9.423682 -51.316860 5.789938 -2.175875 10.151266 -1.868955 -16.727899 42.104435 -10.877486 4.910656 -10.887860 0.000000 0.000000 0.000000 1.807107 1.528811 -0.516787 -78.567129 1.982080 -5.419620 -133.736311 -68.406853 140.680444 0.000000 0.000000 0.000000 -11.859529 2.474945 3.141467 55.089336 13.127199 -9.922854 -175.072749 68.651137 174.039556 0.000000 0.000000 0.000000
-0.670588 0.266364 1.011925 -3.727198 -44.339968 -75.533457 6.979812 6.547160 -32.838934 20.081079 -9.368160 92.229648 -2.884035 -23.607699 -20.153717 0.000000 0.000000 0.000000 -6.813234 6.751977 -33.869823 35.316264 -9.816634 79.244001 -10.394329 -24.242074 16.367823 0.000000 0.000000 0.000000 -12.574767 9.817587 -51.516800 6.481547 -2.521960 9.486811 -3.015909 -18.756564 42.021141 -11.024819 4.021286 -13.362029 0.000000 0.000000 0.000000 0.831544 2.254054 -0.487723 -80.450076 2.134749 -4.579875 -135.433284 -67.353704 143.327391 0.000000 0.000000 0.000000 -11.424618 3.118981 3.267035 54.879830 13.490780 -10.099740 -168.241936 69.553503 -178.073314 0.000000 0.000000 0.000000
-0.673985 0.266195 1.020275 -1.976500 -45.249658 -75.796244 7.357124 6.861013 -32.197904 21.016282 -8.150374 89.436482 -2.684106 -25.460659 -22.827077 0.000000 0.000000 0.000000 -7.560859 7.214830 -35.352740 37.700315 -10.838417 78.802856 -12.382741 -27.643149 16.388073 0.000000 0.000000 0.000000 -12.429931 10.968355 -52.699318 6.707103 -2.545199 9.965283 -3.739614 -19.331598 41.499785 -11.573764 4.135451 -14.244574 0.000000 0.000000 0.000000 0.099880 2.077289 -0.140170 -82.859327 2.117219 -4.036278 -135.845556 -65.616549 142.827359 0.000000 0.000000 0.000000 -10.618277 3.574575 3.146456 55.542987 15.056395 -9.675169 -156.033508 69.982493 -161.230816 0.000000 0.000000 0.000000
-0.677189 0.266292 1.028810 -1.495210 -46.286338 -75.720316 6.938079 6.425144 -30.676671 22.889671 -7.911065 85.350941 -3.069239 -27.638619 -24.678763 0.000000 0.000000 0.000000 -7.791234 7.063652 -34.687044 38.976143 -10.256064 75.938377 -14.572908 -31.633368 15.944443 0.000000 0.000000 0.000000 -12.435443 11.741419 -53.472729 6.624650 -2.494775 9.057645 -4.639668 -21.122197 42.337155 -11.749411 3.448386 -16.122172 0.000000 0.000000 0.000000 -1.080624 2.927189 -0.049707 -87.752433 2.973931 -3.186893 -129.672525 -67.949016 135.975577 0.000000 0.000000 0.000000 -10.933642 3.288875 3.164960 57.427446 15.147722 -10.693676 -138.858688 67.422747 -137.242452 0.000000 0.000000 0.000000
-0.681026 0.267476 1.036059 -0.128989 -46.946886 -75.867326 6.732464 6.277555 -29.659257 23.790210 -7.061598 82.783140 -2.155544 -27.879390 -28.137709 0.000000 0.000000 0.000000 -9.213790 6.896345 -34.792395 40.977378 -10.647427 74.942336 -14.204246 -32.396490 11.978811 0.000000 0.000000 0.000000 -11.986013 12.830623 -54.186736 6.589676 -2.447015 8.688012 -5.394678 -21.530976 42.922196 -10.090574 1.710517 -17.779874 0.000000 0.000000 0.000000 -4.127750 3.840161 0.639518 -88.013840 1.908412 -2.982908 -118.284043 -70.527891 124.611681 0.000000 0.000000 0.000000 -11.453502 1.981022 2.954440 59.853497 15.155746 -11.743055 -131.080740 64.484788 -123.702790 0.000000 0.000000 0.000000
-0.685625 0.270890 1.041325 0.353526 -47.085171 -76.065622 6.229975 5.612631 -28.178715 24.576326 -6.440259 78.559067 -4.375295 -31.214489 -26.945617 0.000000 0.000000 0.000000 -10.035129 6.814773 -35.230475 42.679310 -11.306009 73.642268 -13.107833 -30.352754 12.711646 0.000000 0.000000 0.000000 -11.037412 12.660420 -52.550000 4.976989 -1.691191 7.174459 -4.848869 -20.627404 43.035662 -8.710753 0.602098 -18.525990 0.000000 0.000000 0.000000 -2.550671 5.698038 -0.961551 -91.480784 4.650833 -3.327930 -100.559310 -70.547176 102.008837 0.000000 0.000000 0.000000 -11.576535 2.191652 3.147235 61.324884 13.320987 -13.242211 -120.869510 62.646579 -108.301438 0.000000 0.000000 0.000000
-0.690686 0.277842 1.044641 0.435797 -47.399143 -76.386196 6.433541 5.272226 -26.285275 26.173936 -7.057983 76.997701 -3.233134 -32.987551 -30.825420 0.000000 0.000000 0.000000 -10.044190 5.639499 -31.502453 42.830615 -9.893784 71.665076 -10.782233 -27.242306 5.844190 0.000000 0.000000 0.000000 -11.527750 12.082793 -51.486069 5.883974 -2.056719 7.562107 -5.223939 -20.781976 42.250896 -2.546042 -3.520991 -16.295624 0.000000 0.000000 0.000000 -7.236401 1.409309 3.433247 -88.180714 -3.696243 0.576548 -81.449070 -76.936607 91.387975 0.000000 0.000000 0.000000 -10.849873 2.797199 3.026315 63.158715 10.828497 -14.775619 -123.824970 60.731776 -109.799759 0.000000 0.000000 0.000000
-0.695252 0.279022 1.046704 0.609183 -48.692736 -76.346933 9.129716 6.526586 -24.890790 27.824657 -7.758252 74.247500 -5.361022 -36.881049 -30.714391 0.000000 0.000000 0.000000 -9.222592 6.066799 -31.786978 45.934037 -10.325237 67.622164 -13.145202 -32.379335 6.013217 0.000000 0.000000 0.000000 -13.070304 11.694796 -51.375537 7.874465 -2.984723 3.873744 -7.953086 -21.831274 47.957823 -5.342994 -2.534469 -16.675585 0.000000 0.000000 0.000000 -10.873267 7.527826 1.950844 -92.486130 -3.735371 3.615852 -83.660811 -73.406857 94.326031 0.000000 0.000000 0.000000 -8.156134 5.499855 2.305746 64.903892 11.524196 -15.339799 -115.402546 46.481582 -84.520389 0.000000 0.000000 0.000000
-0.699265 0.286664 1.048086 -1.298521 -46.296238 -73.729692 7.723858 5.395032 -25.181088 27.513562 -7.919647 67.386770 -2.750093 -35.719478 -37.571721 0.000000 0.000000 0.000000 -13.115061 3.840119 -26.963972 46.365863 -9.415108 62.456655 -12.981834 -38.191171 -11.483909 0.000000 0.000000 0.000000 -15.236265 10.363079 -53.255671 7.794285 -3.014116 7.812774 -5.901620 -21.012425 43.991352 0.873898 -5.941770 -20.100158 0.000000 0.000000 0.000000 -3.856269 -8.628757 7.432542 -98.840764 -14.619692 15.772670 76.323401 -77.557268 -43.996847 0.000000 0.000000 0.000000 -16.135360 2.590123 4.993845 76.309347 5.496117 -25.588603 -140.755393 53.320661 -117.206657 0.000000 0.000000 0.000000
