HIERARCHY
ROOT Hips
{
	OFFSET -0.001795 -0.223333 0.028219
	CHANNELS 6 Xposition Yposition Zposition Zrotation Yrotation Xrotation
	JOINT LeftUpLeg
	{
		OFFSET 0.069520 -0.091406 -0.006815
		CHANNELS 3 Zrotation Yrotation Xrotation
		JOINT LeftLeg
		{
			OFFSET 0.034277 -0.375199 -0.004496
			CHANNELS 3 Zrotation Yrotation Xrotation
			JOINT LeftFoot
			{
				OFFSET -0.013596 -0.397961 -0.043693
				CHANNELS 3 Zrotation Yrotation Xrotation
				JOINT LeftToe
				{
					OFFSET 0.026358 -0.055791 0.119288
					CHANNELS 3 Zrotation Yrotation Xrotation
					End Site
					{
						OFFSET 0.000000 0.000000 0.000000
					}
				}
			}
		}
	}
	JOINT RightUpLeg
	{
		OFFSET -0.067670 -0.090522 -0.004320
		CHANNELS 3 Zrotation Yrotation Xrotation
		JOINT RightLeg
		{
			OFFSET -0.038290 -0.382569 -0.008850
			CHANNELS 3 Zrotation Yrotation Xrotation
			JOINT RightFoot
			{
				OFFSET 0.015774 -0.398415 -0.042312
				CHANNELS 3 Zrotation Yrotation Xrotation
				JOINT RightToe
				{
					OFFSET -0.025372 -0.048144 0.123348
					CHANNELS 3 Zrotation Yrotation Xrotation
					End Site
					{
						OFFSET 0.000000 0.000000 0.000000
					}
				}
			}
		}
	}
	JOINT Spine
	{
		OFFSET -0.002533 0.108963 -0.026696
		CHANNELS 3 Zrotation Yrotation Xrotation
		JOINT Spine1
		{
			OFFSET 0.005487 0.135180 0.001092
			CHANNELS 3 Zrotation Yrotation Xrotation
			JOINT Spine2
			{
				OFFSET 0.001457 0.052922 0.025425
				CHANNELS 3 Zrotation Yrotation Xrotation
				JOINT Neck
				{
					OFFSET -0.002778 0.213870 -0.042857
					CHANNELS 3 Zrotation Yrotation Xrotation
					JOINT Head
					{
						OFFSET 0.005152 0.064970 0.051349
						CHANNELS 3 Zrotation Yrotation Xrotation
						End Site
						{
							OFFSET 0.000000 0.000000 0.000000
						}
					}
				}
				JOINT LeftShoulder
				{
					OFFSET 0.078845 0.121749 -0.034090
					CHANNELS 3 Zrotation Yrotation Xrotation
					JOINT LeftArm
					{
						OFFSET 0.090977 0.030469 -0.008868
						CHANNELS 3 Zrotation Yrotation Xrotation
						JOINT LeftForeArm
						{
							OFFSET 0.259612 -0.012772 -0.027456
							CHANNELS 3 Zrotation Yrotation Xrotation
							JOINT LeftHand
							{
								OFFSET 0.249234 0.008986 -0.001171
								CHANNELS 3 Zrotation Yrotation Xrotation
								End Site
								{
									OFFSET 0.000000 0.000000 0.000000
								}
							}
						}
					}
				}
				JOINT RightShoulder
				{
					OFFSET -0.081759 0.118833 -0.038615
					CHANNELS 3 Zrotation Yrotation Xrotation
					JOINT RightArm
					{
						OFFSET -0.096012 0.032551 -0.009143
						CHANNELS 3 Zrotation Yrotation Xrotation
						JOINT RightForeArm
						{
							OFFSET -0.253742 -0.013329 -0.021401
							CHANNELS 3 Zrotation Yrotation Xrotation
							JOINT RightHand
							{
								OFFSET -0.255298 0.007772 -0.005559
								CHANNELS 3 Zrotation Yrotation Xrotation
								End Site
								{
									OFFSET 0.000000 0.000000 0.000000
								}
							}
						}
					}
				}
			}
		}
	}
}
MOTION
Frames: 68
Frame Time: 0.050000
0.000000 0.651035 0.000000 -9.994616 -25.870229 44.729459 20.552599 27.560654 -68.344183 -15.331467 30.189072 104.609458 10.776780 29.407455 -63.196041 0.000000 0.000000 0.000000 -1.897878 4.463659 -26.769919 4.310503 7.567824 48.014945 -3.934444 -12.684409 3.988909 0.000000 0.000000 0.000000 3.915519 12.438168 87.593234 -26.802256 -23.236347 -125.240414 -2.332622 -13.186260 75.300647 11.715610 -26.842378 20.992997 0.000000 0.000000 0.000000 -42.437695 -19.428462 22.162217 -18.626307 -13.251436 -5.787750 31.525640 -52.147120 -14.906507 0.000000 0.000000 0.000000 40.500535 19.998852 6.257650 -7.707932 29.868784 -3.252262 -100.323839 62.690551 -75.399732 0.000000 0.000000 0.000000
-0.020611 0.635227 0.069500 -13.566707 -24.411343 49.507093 24.393558 33.214226 -71.145341 -17.329869 33.621984 111.775937 10.449889 31.878217 -60.838727 0.000000 0.000000 0.000000 2.374221 4.053517 -23.834578 1.718556 8.078055 44.611276 -4.423496 -11.925319 0.900946 0.000000 0.000000 0.000000 4.975322 11.161455 87.953070 -27.934310 -30.060183 -140.984481 -4.013673 -13.877347 92.063498 13.380391 -33.554106 17.712510 0.000000 0.000000 0.000000 -42.675855 -13.157856 19.220509 -14.259970 -13.760313 -6.398138 28.256086 -49.087765 -13.578219 0.000000 0.000000 0.000000 37.562551 18.245975 5.513978 -16.369893 28.676387 -3.612066 -118.558326 50.968315 -88.140380 0.000000 0.000000 0.000000
-0.043488 0.629184 0.146766 -11.344507 -21.964427 59.691699 26.421505 36.655682 -74.757076 -21.631984 35.788226 106.529821 10.367522 30.492914 -57.771072 0.000000 0.000000 0.000000 -1.586475 4.407620 -26.059621 -1.709621 5.740489 32.955158 0.061830 -6.768792 7.886932 0.000000 0.000000 0.000000 4.139775 11.527051 89.775563 -34.689187 -36.150102 -135.582062 -13.411529 -16.785236 82.948937 5.945796 -46.649000 65.160200 0.000000 0.000000 0.000000 -41.739922 -11.869188 19.562900 -14.371326 -10.895555 -5.614452 33.439689 -47.504189 -15.830314 0.000000 0.000000 0.000000 40.242523 18.851695 1.063377 -16.765476 19.234034 -1.409225 -124.515342 48.629103 -87.913639 0.000000 0.000000 0.000000
-0.069467 0.624465 0.224687 -5.199816 -16.161565 63.412081 31.022774 28.356559 -66.347321 -23.326393 37.107117 96.857297 11.508973 24.951075 -51.532311 0.000000 0.000000 0.000000 -6.167831 3.402130 -23.523734 3.441453 2.068963 28.113256 2.513126 -7.812465 21.982127 0.000000 0.000000 0.000000 2.704568 6.962333 84.142646 -46.318673 -34.353133 -116.708850 -17.549200 -29.226875 80.879511 -6.451949 -61.409569 97.638994 0.000000 0.000000 0.000000 -50.206484 -11.175376 23.134759 -4.603953 -11.805787 -3.044510 32.558119 -43.087741 -17.152062 0.000000 0.000000 0.000000 40.776570 17.207170 -6.045624 -16.689070 16.966847 -1.963627 -123.374725 46.810150 -80.699307 0.000000 0.000000 0.000000
-0.099683 0.612106 0.294586 -3.204526 -12.671340 69.774733 35.846622 21.956178 -54.982700 -26.567039 37.697882 83.585537 10.437732 26.651669 -62.664807 0.000000 0.000000 0.000000 -7.158604 3.244380 -22.884158 6.106356 1.029596 30.921133 0.065161 -7.400595 12.635011 0.000000 0.000000 0.000000 2.128017 4.962251 83.321746 -35.118016 -20.425186 -105.378292 -24.192274 -20.386405 62.574032 -4.527531 -47.110184 111.108406 0.000000 0.000000 0.000000 -50.147012 -10.548995 19.426268 0.499642 -8.322606 -0.720000 39.558959 -42.941797 -20.087637 0.000000 0.000000 0.000000 52.559439 16.485775 -8.067377 -21.874974 16.575023 -3.209502 -114.415395 51.786469 -66.456739 0.000000 0.000000 0.000000
-0.131908 0.586428 0.354789 2.238044 -9.369064 74.518590 35.444158 13.690374 -47.105082 -24.822373 30.205354 70.471814 9.450553 20.574328 -66.931854 0.000000 0.000000 0.000000 -10.485883 3.239764 -22.723376 17.743199 -4.274728 38.314277 -5.295037 -12.304190 -10.319322 0.000000 0.000000 0.000000 4.986504 -2.178798 83.385072 -35.480235 -12.111602 -84.725122 -22.141159 -29.247663 33.357074 32.917458 -67.727204 78.550729 0.000000 0.000000 0.000000 -53.287830 -8.274284 22.389837 -0.540798 -6.033221 -0.300432 49.372718 -46.085906 -23.491789 0.000000 0.000000 0.000000 49.437428 15.254550 -11.614658 -20.258108 9.128042 -2.807675 -114.101391 51.491625 -49.431709 0.000000 0.000000 0.000000
-0.161855 0.538854 0.405088 7.837484 -8.350814 76.881729 31.701589 8.912277 -43.883362 -22.990835 26.907881 68.501199 9.352083 16.042430 -58.612743 0.000000 0.000000 0.000000 -15.371799 3.453621 -20.607996 29.434529 -11.413250 42.857017 -6.017208 -21.986321 -50.547316 0.000000 0.000000 0.000000 7.264510 -7.070080 81.312750 -24.147174 -3.314730 -67.504938 -22.421952 -24.317239 9.803555 116.915086 -27.788989 -4.653266 0.000000 0.000000 0.000000 -55.327486 -5.520636 18.710889 2.612886 -6.924757 -0.300224 64.406748 -56.586879 -33.808527 0.000000 0.000000 0.000000 47.257606 12.219984 -11.555778 -19.441832 3.771735 -2.159072 -107.632157 41.727031 -25.833432 0.000000 0.000000 0.000000
-0.189209 0.468222 0.447491 11.452186 -9.804897 77.715254 31.717573 8.583232 -42.144757 -17.246021 26.107645 76.501052 9.342131 11.848116 -48.790100 0.000000 0.000000 0.000000 -24.468711 4.668509 -22.671841 38.588652 -21.612163 54.398746 -6.252674 -17.556766 -76.585670 0.000000 0.000000 0.000000 12.627354 -12.276494 81.241890 -26.719914 -3.545553 -68.231205 -24.708561 -20.747965 9.869999 132.466141 23.475971 -12.950292 0.000000 0.000000 0.000000 -58.296707 -3.977662 17.322881 6.074704 -5.581489 0.103421 91.261681 -60.218878 -57.007029 0.000000 0.000000 0.000000 40.127682 3.951176 -17.043585 -20.980212 1.798198 -2.059849 -109.306320 38.412586 -25.437724 0.000000 0.000000 0.000000
-0.216636 0.379486 0.484595 25.875319 -10.223714 73.508776 22.645749 4.777041 -42.875377 -8.058085 14.851276 82.157512 8.577965 8.769749 -41.314730 0.000000 0.000000 0.000000 -34.073119 8.463316 -7.792577 55.876132 -26.171144 40.624212 -10.434756 -9.125347 -90.478329 0.000000 0.000000 0.000000 21.625209 -22.072745 72.806859 -30.858982 -0.918082 -55.376578 -24.790115 -25.789303 1.048129 107.697963 14.129336 -7.948398 0.000000 0.000000 0.000000 -63.324528 0.343283 19.485350 9.596610 -2.832277 1.081699 116.669958 -61.684305 -86.096103 0.000000 0.000000 0.000000 34.548353 -5.085548 -24.464718 -24.684295 -0.944837 -1.949720 -128.402576 40.386444 -40.746095 0.000000 0.000000 0.000000
-0.243086 0.287978 0.514394 29.102305 -11.736070 70.749024 21.548510 4.572700 -39.210443 -4.481012 13.917818 84.290335 11.248439 2.848976 -58.783249 0.000000 0.000000 0.000000 -33.386571 10.866186 -5.675137 57.592513 -27.201069 50.751536 -9.120010 -11.607041 -96.185104 0.000000 0.000000 0.000000 25.399577 -23.464659 71.131312 -27.281057 -1.080637 -57.069969 -27.926126 -17.989770 -4.888825 88.458468 -7.486095 4.950660 0.000000 0.000000 0.000000 -61.116131 3.881838 8.878670 9.435632 1.248850 1.461752 153.856124 -58.768692 -126.491691 0.000000 0.000000 0.000000 23.962305 -13.054333 -20.367619 -23.630299 -8.324948 0.723317 -135.407650 37.244003 -51.031702 0.000000 0.000000 0.000000
-0.264556 0.210889 0.537337 35.383478 -15.023420 64.039487 21.900523 3.613683 -32.917080 -6.362341 19.058391 79.814725 13.677636 -2.425933 -70.272835 0.000000 0.000000 0.000000 -30.266532 13.998925 7.623774 74.760974 -14.481595 40.765026 -10.383570 -11.127485 -97.750342 0.000000 0.000000 0.000000 32.121005 -24.619865 67.034307 -33.606747 -0.513175 -55.445781 -28.483783 -19.265445 5.896384 66.972448 -3.473400 -5.534156 0.000000 0.000000 0.000000 -65.297813 4.883418 15.222920 12.142590 1.355467 2.721894 148.537428 -47.340747 -115.479196 0.000000 0.000000 0.000000 11.952574 -24.978104 -19.797952 -16.906156 -6.682351 0.665409 -136.479476 33.768603 -62.113451 0.000000 0.000000 0.000000
-0.280183 0.159015 0.556345 39.273791 -15.119231 59.739331 25.715754 2.507896 -27.803028 -15.239702 25.722341 70.687310 14.280231 -6.931062 -72.234444 0.000000 0.000000 0.000000 -22.361541 11.215829 18.370996 75.697014 -7.569277 46.523173 -10.393929 -15.563652 -99.856067 0.000000 0.000000 0.000000 35.707385 -26.027450 63.266468 -35.380736 -0.330122 -55.995611 -25.928532 -16.769655 12.017677 43.827225 0.077442 -25.216499 0.000000 0.000000 0.000000 -65.126280 6.959435 13.605191 12.715325 -1.869253 2.528682 141.932304 -43.007348 -101.006576 0.000000 0.000000 0.000000 -0.700188 -36.020625 -15.654385 -4.718944 4.890981 -0.791046 -132.143697 34.976044 -70.502720 0.000000 0.000000 0.000000
-0.290841 0.131835 0.572664 43.047606 -15.978414 55.599366 24.669451 0.888230 -23.264349 -18.326026 26.511708 65.110665 15.540439 -11.458334 -75.294302 0.000000 0.000000 0.000000 -23.113240 14.875820 31.167076 91.818549 21.380285 19.054083 -10.533471 -18.493806 -95.151685 0.000000 0.000000 0.000000 36.383152 -25.002554 60.806557 -28.545959 1.096023 -50.041003 -25.971210 -20.895023 10.881606 34.630970 0.006223 -27.502098 0.000000 0.000000 0.000000 -63.927158 14.379937 8.053373 7.558347 -8.879234 -0.072095 137.923232 -44.659817 -93.716621 0.000000 0.000000 0.000000 -14.840141 -32.441866 -4.415948 4.668783 9.176677 -0.409817 -119.833863 30.259305 -62.888519 0.000000 0.000000 0.000000
-0.299163 0.116351 0.585572 43.425439 -19.090860 55.821429 27.827728 1.093161 -20.846323 -28.030935 32.934892 55.934876 15.150040 -15.385697 -72.716186 0.000000 0.000000 0.000000 -28.278078 23.289839 29.453394 101.493302 58.534567 4.704210 -7.037132 -21.969479 -94.752156 0.000000 0.000000 0.000000 34.962766 -21.873102 58.455518 -26.394698 1.473866 -49.926360 -25.442252 -13.333870 11.885902 28.214719 0.141618 -33.896726 0.000000 0.000000 0.000000 -58.158760 8.620955 10.686928 2.147382 -5.796592 -0.507682 131.785042 -42.979104 -78.247264 0.000000 0.000000 0.000000 -26.043010 -37.626547 0.355000 8.657126 14.597542 -0.402931 -111.198335 29.652162 -55.247274 0.000000 0.000000 0.000000
-0.306304 0.108861 0.595100 47.906075 -16.266057 49.929505 27.939419 0.029694 -19.429922 -26.413885 31.032903 58.530256 16.366570 -20.584544 -72.993517 0.000000 0.000000 0.000000 -24.438296 28.583786 53.016454 46.365608 52.044902 -64.342186 -2.047762 -25.013971 -89.028057 0.000000 0.000000 0.000000 38.423152 -24.295787 56.292828 -27.693598 1.911156 -47.664883 -26.953479 -16.851353 15.701785 24.343915 0.562805 -39.179334 0.000000 0.000000 0.000000 -53.069227 9.451643 11.507147 -1.653029 -10.192565 -2.160649 127.388926 -42.886332 -68.260250 0.000000 0.000000 0.000000 -27.042889 -36.164503 1.003560 4.797281 20.311897 -0.907176 -98.584793 22.842011 -42.322193 0.000000 0.000000 0.000000
-0.314943 0.100630 0.602573 49.492923 -16.520963 47.848313 29.197341 -0.002404 -18.959823 -27.234893 32.955745 58.714939 17.135072 -24.629453 -72.746965 0.000000 0.000000 0.000000 -21.729642 51.310014 79.456897 48.609138 46.783265 -84.876302 9.840896 -29.599542 -63.250519 0.000000 0.000000 0.000000 38.789663 -23.987598 55.625036 -32.341398 1.431739 -50.384398 -27.317332 -17.174009 18.965016 28.530519 -0.828806 -36.083488 0.000000 0.000000 0.000000 -48.198384 8.019832 11.715353 -5.058745 -10.127800 -2.624737 126.205665 -44.055899 -65.502278 0.000000 0.000000 0.000000 -22.225330 -32.921527 -1.253551 -0.360789 21.823564 -2.035335 -90.063982 21.448853 -35.090751 0.000000 0.000000 0.000000
-0.324650 0.088753 0.608079 51.618677 -15.663544 45.389937 30.999638 0.007744 -18.927795 -26.174072 33.558886 61.465295 19.195569 -28.785392 -75.050446 0.000000 0.000000 0.000000 -9.958063 52.790157 105.417563 56.783714 45.645166 -89.178350 8.610597 -32.747145 6.959830 0.000000 0.000000 0.000000 38.392571 -24.077618 54.653501 -39.086815 0.394266 -53.069979 -26.920634 -18.603234 22.504835 31.033052 -4.814217 -27.374130 0.000000 0.000000 0.000000 -44.167610 3.697083 14.699504 -8.552276 -6.809467 -2.519259 129.885226 -40.010890 -63.350399 0.000000 0.000000 0.000000 -14.363364 -29.165957 -5.243540 -4.704927 23.407924 -3.592688 -85.922498 22.581217 -31.545789 0.000000 0.000000 0.000000
-0.335122 0.082105 0.611231 57.452675 -10.574752 39.745178 31.423139 -0.257071 -22.108512 -20.424328 28.834069 69.753258 21.055654 -33.707159 -75.682752 0.000000 0.000000 0.000000 -2.510270 14.221363 144.408652 21.419066 27.895651 -134.125794 11.442402 -31.883236 46.167506 0.000000 0.000000 0.000000 42.075897 -27.121526 51.126673 -44.296809 0.428662 -51.442870 -30.017154 -25.403852 26.565362 35.743425 -6.293467 -23.974846 0.000000 0.000000 0.000000 -41.255635 4.002517 15.774295 -10.147632 -8.744948 -2.932419 127.114237 -41.381075 -60.796012 0.000000 0.000000 0.000000 -8.215179 -25.247605 -8.245042 -6.787632 24.683707 -4.636989 -86.129529 24.638374 -33.529935 0.000000 0.000000 0.000000
-0.345554 0.082900 0.612393 62.461668 -2.755470 33.635214 28.676881 -0.646084 -29.211086 -10.895880 18.363909 83.256317 25.482472 -37.050109 -80.995291 0.000000 0.000000 0.000000 -7.509026 -0.575083 162.582679 12.679858 24.399042 -144.311518 8.883123 -17.233525 57.283652 0.000000 0.000000 0.000000 47.538828 -31.579115 47.372785 -48.566700 0.768377 -48.686515 -33.950482 -31.824067 29.721842 37.520513 -7.717608 -17.684712 0.000000 0.000000 0.000000 -41.350196 1.805924 19.766101 -11.820975 -7.865259 -3.045265 130.099523 -40.291504 -64.093767 0.000000 0.000000 0.000000 -3.883447 -20.554755 -10.026114 -7.052881 21.918545 -4.413640 -87.065045 30.437606 -39.151559 0.000000 0.000000 0.000000
-0.354798 0.083012 0.611779 66.488991 5.921527 25.404232 25.500404 -1.625663 -34.687821 -3.816342 5.622037 93.783221 30.192356 -38.733397 -87.950098 0.000000 0.000000 0.000000 169.883706 -9.943273 -15.791776 0.894966 34.143584 151.144456 16.453325 -8.457894 83.806978 0.000000 0.000000 0.000000 54.599859 -34.867378 41.933538 -49.382929 2.937118 -42.009618 -40.306663 -38.554444 32.089464 37.271744 -7.614490 -13.881189 0.000000 0.000000 0.000000 -41.982176 0.157448 23.583822 -12.898379 -7.292222 -3.208773 131.581082 -41.987078 -70.290436 0.000000 0.000000 0.000000 -2.738726 -17.917613 -10.425524 -4.545741 22.148412 -3.750913 -91.740532 34.248430 -47.895529 0.000000 0.000000 0.000000
-0.362819 0.086974 0.610184 67.982403 12.344702 18.483883 21.729786 -2.783394 -37.843051 0.789961 -5.096551 97.593208 34.511724 -39.731302 -95.086642 0.000000 0.000000 0.000000 77.521892 58.072886 -81.955925 120.236203 -62.311463 34.087018 22.258842 -5.981870 79.153001 0.000000 0.000000 0.000000 61.982467 -36.138988 35.775079 -50.056473 4.761753 -37.424323 -47.748903 -42.434030 36.187895 36.462289 -7.829076 -7.839968 0.000000 0.000000 0.000000 -44.178236 -0.198113 26.782961 -12.827477 -8.021172 -3.474768 132.937485 -44.138605 -77.377224 0.000000 0.000000 0.000000 -1.565319 -16.221952 -11.531277 -4.625409 22.598496 -3.858909 -96.013583 40.701259 -58.333927 0.000000 0.000000 0.000000
-0.370593 0.090151 0.607376 67.538754 16.402961 12.957422 18.827567 -3.526505 -40.608001 3.732437 -12.594347 100.068423 35.259516 -39.311702 -97.321632 0.000000 0.000000 0.000000 50.778741 36.527278 -85.033870 101.968272 -67.186155 51.862611 13.853443 -13.309383 85.493294 0.000000 0.000000 0.000000 67.442907 -35.949779 30.970279 -49.205344 6.196053 -33.762974 -54.120499 -44.009056 38.472914 36.156027 -8.968964 0.080240 0.000000 0.000000 0.000000 -45.807731 -1.255797 29.096659 -12.331517 -7.250294 -3.461935 133.121036 -44.280324 -80.403117 0.000000 0.000000 0.000000 0.571366 -14.113907 -12.426100 -3.215085 23.934555 -3.390458 -108.912273 43.794696 -73.269985 0.000000 0.000000 0.000000
-0.378577 0.092681 0.603040 66.863919 19.433328 7.846868 16.171683 -4.174514 -41.215711 7.522426 -20.017887 99.205191 36.523103 -35.953345 -102.421023 0.000000 0.000000 0.000000 46.081856 20.988064 -63.711509 49.145209 -61.079059 101.797581 -3.570466 -21.140684 89.628232 0.000000 0.000000 0.000000 72.997576 -35.300219 26.427955 -52.954380 8.192847 -30.613079 -57.737001 -46.577170 41.300036 35.003012 -10.444882 9.619763 0.000000 0.000000 0.000000 -48.254362 -1.363303 31.095095 -9.487438 -6.500667 -3.041072 135.471246 -45.653355 -90.093626 0.000000 0.000000 0.000000 -1.839912 -14.088914 -10.112985 2.081495 26.328158 -1.974046 -115.753240 43.246802 -85.360137 0.000000 0.000000 0.000000
-0.386590 0.093700 0.597250 61.761638 26.537894 -4.126450 12.785104 -4.756920 -38.732689 15.547815 -34.037756 93.150959 36.568029 -32.165728 -105.649616 0.000000 0.000000 0.000000 37.936956 13.691692 -49.846980 52.019136 -60.261034 92.216789 -24.485860 -25.987582 94.396693 0.000000 0.000000 0.000000 83.639341 -34.853850 19.272743 -52.522413 11.026773 -25.344834 -67.247802 -49.837099 49.832481 31.195420 -9.848426 14.235239 0.000000 0.000000 0.000000 -48.579701 -0.447287 32.515885 -7.936594 -10.478502 -3.545180 131.798512 -48.441438 -90.943100 0.000000 0.000000 0.000000 -4.352727 -14.425373 -8.204334 8.233305 35.964387 -1.142968 -120.835729 38.338434 -91.954220 0.000000 0.000000 0.000000
-0.393449 0.097951 0.590252 54.810495 30.963903 -15.805783 9.716638 -4.932008 -36.967265 22.855159 -42.748221 86.459780 40.368767 -37.006652 -108.591929 0.000000 0.000000 0.000000 29.535135 10.807129 -46.880989 65.243414 -63.619340 76.204592 -38.661748 -27.933039 97.859013 0.000000 0.000000 0.000000 93.354024 -30.944199 11.155518 -50.964963 13.156479 -20.873474 -72.717199 -46.893826 53.539146 28.142907 -11.420539 15.993696 0.000000 0.000000 0.000000 -47.294488 -1.597440 31.474033 -6.701388 -12.146782 -3.557927 135.183337 -55.880424 -104.628747 0.000000 0.000000 0.000000 -8.570677 -11.828317 -3.438358 13.676684 42.465463 -1.375605 -123.823035 31.102119 -89.311585 0.000000 0.000000 0.000000
-0.397449 0.102587 0.583422 50.164884 31.439192 -23.746277 6.436720 -4.976291 -35.265005 30.383630 -47.744971 80.282548 46.791793 -47.760838 -110.465072 0.000000 0.000000 0.000000 27.808149 10.067710 -41.568643 58.363892 -62.646588 80.728520 -71.731409 -38.826642 96.195404 0.000000 0.000000 0.000000 94.138970 -27.325292 9.277684 -44.708755 14.996706 -12.776986 -72.675807 -49.712423 48.805470 21.511716 -7.307704 23.030380 0.000000 0.000000 0.000000 -48.406449 -5.387024 35.789933 -8.144884 -15.537406 -4.322991 125.362941 -58.259460 -94.285030 0.000000 0.000000 0.000000 -15.253916 -6.324327 4.448477 12.784767 45.184513 -4.264274 -126.699405 21.789539 -77.916413 0.000000 0.000000 0.000000
-0.398769 0.107784 0.578185 42.057034 32.079524 -34.519189 3.446538 -4.806843 -32.358542 41.401711 -52.166083 69.500010 49.202026 -54.865626 -109.336716 0.000000 0.000000 0.000000 21.449432 8.540965 -40.122579 54.125716 -61.706305 82.315813 -110.020944 -80.439552 68.656902 0.000000 0.000000 0.000000 97.348112 -19.618536 3.387925 -42.161678 15.436951 -9.432435 -69.734106 -44.670024 52.168348 21.243084 -12.032643 16.716640 0.000000 0.000000 0.000000 -46.408466 -9.200660 34.635258 -10.324851 -19.163272 -4.680987 121.853885 -65.077751 -95.599476 0.000000 0.000000 0.000000 -20.774589 -0.549069 8.637397 7.677798 47.235826 -10.065941 -128.425534 15.903255 -64.414526 0.000000 0.000000 0.000000
-0.398423 0.117808 0.575740 38.483067 29.995688 -40.216503 1.347417 -4.921221 -31.821228 51.824074 -54.033077 61.602462 61.177999 -66.781421 -116.711275 0.000000 0.000000 0.000000 18.326399 7.629544 -36.894087 49.871106 -59.158046 84.517348 -3.392797 -66.624892 -57.418917 0.000000 0.000000 0.000000 95.574013 -11.398560 -0.430022 -37.867456 17.072951 0.225381 -64.135571 -45.187995 49.995307 20.417438 -12.607915 18.388279 0.000000 0.000000 0.000000 -43.811676 -11.380352 34.067064 -13.716656 -26.555686 -5.259575 98.455241 -73.358676 -76.008980 0.000000 0.000000 0.000000 -20.402444 8.892856 10.016150 4.912975 42.776508 -10.279974 -127.393867 12.493566 -56.087815 0.000000 0.000000 0.000000
-0.397036 0.129232 0.574950 36.915770 28.909105 -44.144412 -1.117739 -5.237074 -30.896846 56.281640 -52.344153 56.144754 64.838085 -74.263374 -116.285577 0.000000 0.000000 0.000000 11.303399 5.057922 -32.025228 44.176818 -53.737473 84.860032 -2.213100 -43.573678 -77.436165 0.000000 0.000000 0.000000 87.366177 -1.174318 -6.588223 -28.405479 13.680817 4.600715 -58.638785 -39.080411 49.039731 14.002399 -11.710640 9.211185 0.000000 0.000000 0.000000 -37.336274 -13.386601 27.662100 -24.638520 -27.985222 -3.897892 79.003917 -79.466283 -58.134556 0.000000 0.000000 0.000000 -21.820787 13.410597 9.814657 5.689528 45.392759 -11.020840 -122.272779 16.335260 -51.816695 0.000000 0.000000 0.000000
-0.395180 0.140433 0.574975 37.167947 26.843226 -45.941752 -2.180810 -5.333646 -30.972337 56.901676 -49.093258 54.436299 62.509354 -79.259713 -110.821064 0.000000 0.000000 0.000000 6.274411 3.521769 -29.684600 46.329562 -49.635138 78.812189 -4.626599 -36.184757 -76.692859 0.000000 0.000000 0.000000 81.028924 3.455671 -8.508157 -24.619206 11.815469 4.336654 -51.749738 -36.030189 46.999838 9.788172 -10.278167 0.958563 0.000000 0.000000 0.000000 -29.819815 -14.378681 22.146824 -38.944268 -29.946180 -0.818083 36.792275 -79.538739 -16.957935 0.000000 0.000000 0.000000 -24.369897 19.170950 10.097178 13.315558 46.625041 -8.607923 -119.190271 21.700961 -54.567698 0.000000 0.000000 0.000000
-0.393737 0.150378 0.575778 36.846310 27.735445 -47.503902 -5.358977 -6.054715 -29.428040 56.875222 -44.198206 48.077655 47.852814 -74.118409 -97.128254 0.000000 0.000000 0.000000 1.987371 1.958444 -25.863493 44.488028 -44.380134 72.816176 -6.751169 -29.650693 -77.107638 0.000000 0.000000 0.000000 73.223515 7.307251 -13.463143 -20.164676 9.305920 2.412376 -48.020303 -30.937766 47.799953 4.911696 -7.633140 -9.060356 0.000000 0.000000 0.000000 -22.792444 -13.698865 16.148454 -48.713220 -28.196225 1.483487 -3.494539 -78.080735 17.840131 0.000000 0.000000 0.000000 -27.401627 20.262342 9.145389 25.325668 50.949743 -5.132779 -118.983024 30.549800 -60.016496 0.000000 0.000000 0.000000
-0.392861 0.158004 0.577713 38.149720 25.423989 -48.626981 -5.874543 -5.821834 -28.805519 56.191886 -39.469919 45.796139 37.299426 -76.733697 -84.015031 0.000000 0.000000 0.000000 -0.417416 1.367020 -22.920999 50.490717 -40.244195 62.203311 -5.892544 -31.041315 -76.004173 0.000000 0.000000 0.000000 70.889408 9.578414 -13.858871 -21.208880 9.482633 -0.235064 -44.336167 -28.540281 49.500450 0.584680 -4.959151 -16.539114 0.000000 0.000000 0.000000 -15.733678 -13.808470 12.307507 -57.393170 -26.922690 4.246112 -6.646459 -75.858218 20.467359 0.000000 0.000000 0.000000 -30.489284 21.563173 8.752948 36.066361 53.655632 -2.080573 -113.359132 35.600984 -58.236024 0.000000 0.000000 0.000000
-0.392549 0.163391 0.579913 36.832686 25.055933 -51.139639 -8.261477 -6.111841 -26.797209 55.994338 -35.508478 41.343633 5.122436 -75.087861 -46.346766 0.000000 0.000000 0.000000 -0.711238 1.114490 -19.022079 48.190914 -34.001972 55.189723 -6.253593 -29.053318 -76.654884 0.000000 0.000000 0.000000 66.296289 12.042276 -17.384520 -18.747564 8.716180 2.071643 -43.140735 -29.208444 50.424720 -2.723504 -2.884993 -22.349886 0.000000 0.000000 0.000000 -11.363327 -10.767029 8.887751 -61.025655 -25.109569 5.264666 -16.378036 -73.871331 28.095442 0.000000 0.000000 0.000000 -29.909782 20.824715 8.817775 47.710787 53.964793 1.077249 -117.403754 42.662379 -69.384765 0.000000 0.000000 0.000000
-0.392639 0.163215 0.582123 36.141611 23.689824 -52.959440 -7.744746 -5.856009 -26.795868 51.577374 -30.694946 39.884063 -35.121531 -68.350670 4.499352 0.000000 0.000000 0.000000 -0.601859 1.136987 -17.711206 46.127539 -27.089990 46.900608 -5.918342 -29.880965 -74.879660 0.000000 0.000000 0.000000 64.240735 13.766241 -18.886811 -18.810102 8.887042 2.650366 -41.855320 -29.890525 51.413267 -4.319256 -2.011850 -26.079167 0.000000 0.000000 0.000000 -7.221326 -9.895321 6.700763 -63.871890 -22.589947 5.917920 -18.477083 -70.560923 27.901056 0.000000 0.000000 0.000000 -30.800950 20.267807 9.027110 59.705685 52.043392 2.855688 -121.256752 51.186406 -82.909142 0.000000 0.000000 0.000000
-0.392971 0.161486 0.583920 34.818784 23.254946 -55.360846 -7.399801 -5.384378 -25.134347 47.487114 -27.237264 38.531947 -35.133322 -62.780001 7.905220 0.000000 0.000000 0.000000 0.738418 1.325885 -16.003310 41.569813 -21.702684 41.509361 -6.066245 -29.320419 -73.739480 0.000000 0.000000 0.000000 61.289030 15.360712 -21.629336 -18.386962 8.746067 3.176057 -40.964433 -29.931922 52.444102 -5.243812 -1.491474 -28.300395 0.000000 0.000000 0.000000 -7.110288 -8.040400 5.896060 -64.384599 -18.806952 3.532383 -31.228206 -69.299308 37.800309 0.000000 0.000000 0.000000 -31.464953 19.082866 8.967881 66.194431 46.875102 1.441768 -127.332415 56.425114 -95.888687 0.000000 0.000000 0.000000
-0.393062 0.161173 0.584742 33.210192 22.879585 -56.723030 -6.865524 -5.315129 -25.403525 43.673945 -24.521265 37.561025 -37.607380 -55.024961 16.394176 0.000000 0.000000 0.000000 1.304840 1.387633 -15.388464 39.455761 -18.468982 36.239097 -5.760620 -30.321783 -73.110613 0.000000 0.000000 0.000000 59.237620 16.351062 -23.957353 -18.887966 9.118003 4.461708 -38.509447 -29.213921 52.224814 -5.021736 -1.471197 -29.168047 0.000000 0.000000 0.000000 -8.194693 -7.042749 5.842786 -62.175244 -17.974001 1.798416 -36.571584 -65.651264 39.339052 0.000000 0.000000 0.000000 -30.192322 18.041681 8.510183 70.666596 41.359000 -0.015391 -128.929717 61.645017 -102.751271 0.000000 0.000000 0.000000
-0.392805 0.159916 0.584419 31.404755 22.179539 -58.549497 -6.449528 -5.075420 -24.811913 41.192103 -22.429816 36.262402 -38.133402 -49.167059 21.563977 0.000000 0.000000 0.000000 1.300336 1.486093 -16.299503 34.649763 -15.318384 34.507195 -6.439109 -29.032765 -69.409781 0.000000 0.000000 0.000000 57.789416 17.343917 -25.776455 -19.075059 9.447302 6.343212 -36.750089 -28.908981 51.325232 -5.007502 -1.446870 -26.678706 0.000000 0.000000 0.000000 -10.071099 -7.412573 6.865811 -58.676828 -15.593665 -1.004362 -43.926738 -64.005164 43.579646 0.000000 0.000000 0.000000 -28.037929 19.170090 8.327092 72.097412 35.830264 -2.085902 -126.156175 65.497636 -104.058941 0.000000 0.000000 0.000000
-0.392241 0.157127 0.583557 29.928211 22.086314 -60.404973 -5.748159 -4.864574 -24.635916 38.252032 -20.914878 36.100360 -37.969517 -43.223542 26.296433 0.000000 0.000000 0.000000 0.123979 1.307089 -17.128068 33.888810 -14.839711 34.207828 -6.909971 -29.110794 -65.056809 0.000000 0.000000 0.000000 54.094873 17.324536 -27.234083 -18.262502 9.173009 7.766040 -33.908318 -27.937147 50.342105 -5.559854 -0.878778 -25.152268 0.000000 0.000000 0.000000 -10.866021 -7.396681 7.020114 -57.529494 -15.457097 -1.802110 -47.282484 -64.004017 45.813258 0.000000 0.000000 0.000000 -24.196627 19.004341 7.704610 72.552804 31.089042 -3.051208 -118.630520 69.113987 -98.780260 0.000000 0.000000 0.000000
-0.391286 0.157084 0.582436 28.525354 21.466559 -61.527309 -4.926677 -4.621504 -24.764274 36.207009 -20.157030 36.754133 -37.936345 -39.449049 29.714286 0.000000 0.000000 0.000000 -0.795276 1.212634 -18.432920 33.480289 -14.062253 32.858077 -7.227794 -30.624867 -60.134492 0.000000 0.000000 0.000000 51.972815 17.644287 -28.846535 -17.770378 9.065642 8.908174 -31.630801 -26.882124 49.598273 -6.105798 -0.246077 -22.156887 0.000000 0.000000 0.000000 -11.077493 -8.333185 7.457489 -56.889713 -14.294282 -2.760478 -53.725367 -63.627727 50.412622 0.000000 0.000000 0.000000 -21.890322 20.590538 7.556827 71.996396 28.696544 -3.306643 -113.034297 67.411319 -90.557796 0.000000 0.000000 0.000000
-0.390238 0.156058 0.581304 27.273238 21.422142 -62.174141 -4.069578 -4.464684 -25.155514 33.602873 -19.210566 37.293335 -37.049973 -38.427857 29.497773 0.000000 0.000000 0.000000 -2.590806 0.892907 -20.908034 33.291236 -15.036871 36.143375 -7.816586 -28.882512 -57.234377 0.000000 0.000000 0.000000 49.277730 17.188983 -29.840504 -18.104847 9.109596 8.288468 -28.085600 -24.144149 49.227957 -6.412438 0.587550 -19.713254 0.000000 0.000000 0.000000 -11.673258 -8.829850 7.543271 -56.926842 -14.032383 -3.550782 -58.899071 -62.369821 52.957191 0.000000 0.000000 0.000000 -16.919585 21.694134 7.092179 69.281936 25.177841 -2.938543 -108.654952 66.498346 -83.876611 0.000000 0.000000 0.000000
-0.388655 0.156810 0.580298 25.785590 21.131581 -62.964919 -3.332571 -4.260265 -25.209023 31.678325 -18.763122 38.267082 -35.271808 -36.076638 29.365025 0.000000 0.000000 0.000000 -4.140197 0.524957 -22.476159 33.619820 -15.450316 36.926711 -8.423154 -29.506187 -51.030013 0.000000 0.000000 0.000000 46.874296 17.140310 -31.678545 -18.630998 9.440241 9.108051 -24.340109 -22.218530 48.196318 -8.061953 2.533141 -16.618484 0.000000 0.000000 0.000000 -11.154853 -9.672958 7.457483 -58.106181 -13.824000 -3.762941 -59.027653 -61.463586 51.596657 0.000000 0.000000 0.000000 -14.029580 23.462677 7.188586 68.322118 22.933149 -2.787343 -107.076539 63.542983 -77.697926 0.000000 0.000000 0.000000
-0.387076 0.156063 0.579510 24.486493 20.890706 -63.552360 -2.344471 -3.968828 -25.174204 30.917815 -18.717700 38.655982 -35.271797 -37.076614 28.339076 0.000000 0.000000 0.000000 -5.647456 0.106092 -23.925845 33.241170 -15.555722 37.958829 -8.720846 -28.715991 -48.764643 0.000000 0.000000 0.000000 44.299336 16.688731 -32.633243 -18.402364 9.242308 8.722453 -21.565237 -20.103591 48.198818 -8.982339 3.866708 -15.294145 0.000000 0.000000 0.000000 -14.661243 -9.237380 8.002709 -56.463178 -14.400823 -4.603456 -56.539421 -60.020378 47.536561 0.000000 0.000000 0.000000 -10.404974 23.052312 7.031972 65.578794 21.361622 -2.611072 -106.960887 63.450462 -75.955484 0.000000 0.000000 0.000000
-0.385616 0.156139 0.579002 23.295061 20.941969 -64.186162 -2.138245 -3.905907 -25.078946 30.178073 -18.945494 39.593693 -32.518398 -33.907724 27.540456 0.000000 0.000000 0.000000 -7.176611 -0.390177 -24.774265 32.972944 -15.737245 38.652706 -9.023087 -27.557711 -45.336823 0.000000 0.000000 0.000000 42.422121 16.571953 -34.333506 -19.288935 9.851643 10.676026 -19.065758 -19.116581 47.460181 -10.935510 6.327743 -12.182613 0.000000 0.000000 0.000000 -16.336030 -9.974226 8.607155 -56.443055 -15.568117 -4.464202 -50.866393 -59.658869 42.367469 0.000000 0.000000 0.000000 -6.953216 23.557069 7.326526 62.403873 19.148759 -3.087607 -107.938793 62.661421 -75.409269 0.000000 0.000000 0.000000
-0.384414 0.155048 0.578624 21.533908 21.023486 -65.405747 -1.492067 -3.848305 -25.663668 28.810475 -19.060970 40.915826 -31.187350 -30.163498 29.378635 0.000000 0.000000 0.000000 -8.273795 -0.823873 -25.021305 32.506872 -15.930785 39.427247 -9.152225 -26.552428 -43.328265 0.000000 0.000000 0.000000 39.483415 15.970093 -35.852631 -19.726638 10.143990 11.926851 -15.822268 -18.414275 46.532655 -13.139717 8.689347 -12.020493 0.000000 0.000000 0.000000 -17.191856 -9.462006 8.336326 -58.759278 -16.363888 -4.300060 -43.814191 -58.418696 36.360452 0.000000 0.000000 0.000000 -2.924494 21.844628 7.107250 59.028559 15.430250 -4.346668 -112.053242 65.765399 -82.753279 0.000000 0.000000 0.000000
-0.383349 0.155738 0.578296 20.148511 21.380795 -66.127837 -1.061638 -3.927497 -26.517790 26.995005 -19.113688 42.826113 -28.498897 -26.146122 29.649912 0.000000 0.000000 0.000000 -9.251911 -1.263818 -25.364541 31.866141 -15.918202 39.767087 -9.097729 -24.613165 -42.047513 0.000000 0.000000 0.000000 37.222808 15.712570 -38.562119 -19.877148 10.337602 13.899570 -13.919145 -17.208632 46.099817 -13.423714 9.927638 -8.848327 0.000000 0.000000 0.000000 -20.094537 -9.043608 8.615853 -55.789511 -17.615270 -4.603165 -38.737483 -56.725247 31.416246 0.000000 0.000000 0.000000 -1.966016 20.619720 6.844233 57.350184 14.788744 -4.523105 -115.213296 64.971957 -84.019431 0.000000 0.000000 0.000000
-0.381970 0.156352 0.577949 18.289716 21.694790 -66.804137 -1.184666 -4.150570 -27.062926 26.457719 -19.163248 42.792584 -27.455737 -24.861382 29.407372 0.000000 0.000000 0.000000 -10.298394 -1.751897 -25.074688 31.508043 -15.470974 37.948089 -9.149522 -23.117383 -37.380632 0.000000 0.000000 0.000000 35.245369 15.167334 -40.909790 -19.615432 10.203601 15.258220 -12.124394 -16.107409 45.429999 -14.326205 11.540748 -6.854694 0.000000 0.000000 0.000000 -20.422503 -9.870204 8.816292 -57.096362 -18.859058 -4.064467 -29.667389 -56.870198 25.499397 0.000000 0.000000 0.000000 -2.788625 17.951545 5.918661 56.443721 13.107580 -5.166490 -112.274236 67.309721 -83.034257 0.000000 0.000000 0.000000
-0.380307 0.155773 0.577633 17.921823 21.393636 -67.120311 -0.992162 -4.020238 -26.763438 25.124096 -18.058182 42.145110 -26.512982 -24.573867 28.099927 0.000000 0.000000 0.000000 -10.383156 -1.782848 -25.180806 30.824266 -14.864359 37.222762 -9.169246 -22.593391 -36.069261 0.000000 0.000000 0.000000 34.917833 15.277947 -41.446278 -19.622994 10.184175 15.082599 -11.630339 -15.045644 45.576739 -13.533212 11.088961 -6.291333 0.000000 0.000000 0.000000 -21.212331 -10.742167 9.143781 -56.180761 -19.467345 -3.939010 -22.908907 -55.181263 20.126400 0.000000 0.000000 0.000000 -3.700443 16.396120 5.349932 56.968756 10.240568 -6.425686 -110.123799 68.618459 -81.818158 0.000000 0.000000 0.000000
-0.378234 0.156773 0.577388 17.278935 21.564211 -67.626458 -1.529835 -4.189398 -26.451775 24.023273 -17.308773 41.775834 -25.035042 -23.021961 27.419090 0.000000 0.000000 0.000000 -10.570531 -1.910145 -24.810621 29.901999 -13.937937 35.359032 -9.037436 -20.573127 -29.573346 0.000000 0.000000 0.000000 33.927038 14.922988 -42.247362 -18.537479 9.586676 15.423617 -12.140202 -14.448934 45.222311 -13.846676 11.091168 -8.046759 0.000000 0.000000 0.000000 -22.344646 -11.242814 9.659666 -56.344518 -20.643496 -3.484284 -17.710097 -53.122582 16.378967 0.000000 0.000000 0.000000 -3.649376 15.356049 5.003484 56.709540 9.099446 -6.786231 -94.297916 69.691812 -67.747770 0.000000 0.000000 0.000000
-0.376421 0.155578 0.577117 17.311856 21.669542 -67.589864 -2.259881 -4.472702 -26.567790 23.310492 -16.559216 41.099633 -23.986881 -21.545957 27.370042 0.000000 0.000000 0.000000 -10.630574 -1.968622 -25.079863 28.801334 -13.135350 34.401582 -9.076660 -20.288465 -26.717956 0.000000 0.000000 0.000000 33.486825 14.709836 -42.410884 -17.810577 9.036685 13.990433 -12.578835 -12.910896 45.728554 -13.223639 10.380426 -10.256797 0.000000 0.000000 0.000000 -21.635665 -11.505436 9.181280 -57.737944 -20.701513 -3.304404 -15.564371 -50.818777 14.175483 0.000000 0.000000 0.000000 -4.435150 14.385198 4.630462 57.336828 9.408731 -6.569271 -74.692906 67.599747 -48.175829 0.000000 0.000000 0.000000
-0.375006 0.154972 0.576689 17.230421 21.197286 -67.635814 -2.988257 -4.561855 -25.882482 23.419816 -15.693735 39.112017 -22.477497 -19.571206 27.163502 0.000000 0.000000 0.000000 -10.287801 -1.801527 -24.660616 28.241341 -12.244883 32.422328 -8.812045 -18.993715 -23.518855 0.000000 0.000000 0.000000 33.181743 14.683540 -42.270629 -16.356918 8.318012 14.437676 -13.471957 -12.246242 44.718668 -12.649361 10.224994 -8.203008 0.000000 0.000000 0.000000 -21.095968 -12.826448 9.706736 -59.371835 -21.583100 -2.430460 -10.528004 -47.581418 10.574363 0.000000 0.000000 0.000000 -3.910149 14.374900 4.679380 57.467352 10.543058 -5.858913 -60.550114 61.780723 -33.283926 0.000000 0.000000 0.000000
-0.374236 0.154372 0.575982 17.812721 20.175980 -67.793575 -3.689955 -4.548011 -25.016018 24.763187 -15.243667 36.887897 -22.653992 -18.344774 29.166331 0.000000 0.000000 0.000000 -8.961164 -1.208174 -24.181491 27.094123 -10.987881 30.678867 -8.648540 -18.189622 -20.058991 0.000000 0.000000 0.000000 34.204544 15.506536 -41.722235 -16.354646 8.338375 13.415216 -14.117243 -11.791784 45.424594 -11.972193 9.421745 -9.349124 0.000000 0.000000 0.000000 -21.945528 -14.068790 10.639448 -59.453987 -21.944945 -2.271353 -7.512176 -47.156659 9.083581 0.000000 0.000000 0.000000 -5.411225 13.878486 4.392985 59.401625 13.092001 -4.791244 -54.135405 53.820799 -24.259754 0.000000 0.000000 0.000000
-0.373729 0.153925 0.575139 17.815139 19.280387 -67.946553 -4.191791 -4.579422 -24.662235 25.694378 -14.676557 34.618054 -22.068721 -15.966779 31.438121 0.000000 0.000000 0.000000 -8.371901 -0.916043 -24.263789 25.303425 -9.716042 29.342787 -7.534208 -14.918092 -13.742849 0.000000 0.000000 0.000000 34.163486 15.882867 -41.716604 -15.442308 7.888617 13.332899 -15.521758 -12.285099 45.482051 -12.232604 9.827312 -7.082316 0.000000 0.000000 0.000000 -23.136758 -12.929717 10.643459 -60.416007 -22.430179 -2.029821 -3.423327 -44.760434 7.025696 0.000000 0.000000 0.000000 -4.963544 15.145625 4.846445 59.009434 14.855216 -4.042380 -51.621040 47.545922 -19.926466 0.000000 0.000000 0.000000
-0.373087 0.153861 0.574386 18.274566 18.227659 -68.345266 -4.520541 -4.473568 -23.925821 26.465163 -14.501124 33.839292 -21.491695 -14.643261 32.468936 0.000000 0.000000 0.000000 -7.211805 -0.414754 -24.115916 23.866466 -8.732976 28.737125 -6.329365 -12.637107 -6.323121 0.000000 0.000000 0.000000 34.272026 16.347875 -41.042120 -15.280209 7.869430 13.029556 -15.708619 -12.623382 45.166026 -11.154107 8.247196 -10.083513 0.000000 0.000000 0.000000 -22.835423 -13.342790 11.025823 -62.512321 -21.795920 -1.939570 0.325281 -43.557821 5.345978 0.000000 0.000000 0.000000 -6.701355 15.140700 4.722731 60.165058 15.753243 -3.624084 -46.840939 44.327614 -16.488212 0.000000 0.000000 0.000000
-0.371937 0.154652 0.573958 18.588312 17.081159 -68.409188 -4.087059 -4.317586 -24.204723 26.438334 -14.422549 34.333675 -20.445371 -13.477762 32.400360 0.000000 0.000000 0.000000 -6.715922 -0.126203 -24.871128 23.494821 -8.428284 29.223162 -4.648430 -9.490961 -2.361880 0.000000 0.000000 0.000000 34.634346 16.987242 -40.770519 -15.007669 7.743809 12.286219 -16.630425 -12.967932 45.598921 -11.910180 8.450712 -12.260956 0.000000 0.000000 0.000000 -24.915205 -10.632622 10.209846 -63.054212 -20.865618 -2.708663 0.155110 -42.854243 5.599575 0.000000 0.000000 0.000000 -7.034943 14.846031 4.624446 59.565277 16.057394 -3.623753 -43.032764 42.857917 -14.612248 0.000000 0.000000 0.000000
-0.370592 0.156751 0.573883 18.406749 16.415593 -68.842435 -3.854059 -4.278694 -24.617665 25.648120 -14.630584 36.379050 -18.860102 -12.269660 31.258954 0.000000 0.000000 0.000000 -6.783271 -0.087392 -25.027566 22.892897 -8.233029 30.115034 -4.545186 -9.536144 -1.181149 0.000000 0.000000 0.000000 33.664731 17.051918 -41.418587 -14.740396 7.613630 12.029208 -16.451931 -13.506016 45.912851 -12.769657 9.026625 -12.619724 0.000000 0.000000 0.000000 -26.148602 -9.301327 10.033985 -64.203573 -19.783613 -3.404711 1.601145 -42.827680 5.281982 0.000000 0.000000 0.000000 -7.178125 14.746860 4.602507 57.554942 15.858511 -3.854227 -38.839402 40.760092 -12.585931 0.000000 0.000000 0.000000
-0.369359 0.158627 0.573937 18.029222 16.087506 -69.212867 -3.673548 -4.260334 -24.936076 24.415362 -14.735303 38.557151 -16.988849 -11.811059 28.102811 0.000000 0.000000 0.000000 -6.917305 -0.097886 -25.489842 22.624571 -8.306167 31.264945 -4.130488 -8.283286 -2.650759 0.000000 0.000000 0.000000 32.631150 16.702748 -41.531108 -14.820444 7.663481 11.902500 -15.695290 -13.581966 45.234941 -14.748628 10.576647 -13.650753 0.000000 0.000000 0.000000 -25.860335 -7.272523 8.593700 -65.547500 -17.901444 -4.279708 0.520269 -43.274239 5.850570 0.000000 0.000000 0.000000 -7.302955 13.188568 4.125141 55.287039 13.557127 -4.691169 -31.584097 42.475358 -10.700463 0.000000 0.000000 0.000000
-0.368289 0.161702 0.574046 16.722871 15.817797 -69.691825 -3.724233 -4.351544 -25.353837 23.944002 -15.320084 40.545223 -16.000198 -12.542294 24.668880 0.000000 0.000000 0.000000 -6.913810 -0.117700 -25.423916 22.492362 -8.566168 32.155981 -3.855502 -6.901068 -5.600991 0.000000 0.000000 0.000000 30.861510 16.340438 -43.591578 -15.176520 7.977197 13.706900 -13.622286 -13.643061 44.628421 -15.915307 12.305460 -10.654152 0.000000 0.000000 0.000000 -26.051990 -5.697518 7.597042 -66.254921 -16.426786 -5.251737 -0.969926 -44.626051 6.854257 0.000000 0.000000 0.000000 -6.287658 11.545724 3.620444 52.860876 10.415969 -5.825107 -28.264945 43.704235 -9.911971 0.000000 0.000000 0.000000
-0.367639 0.164880 0.573960 15.803317 15.590790 -70.401791 -3.536221 -4.220593 -24.906413 23.433600 -15.531048 41.624106 -15.078596 -13.177768 21.555209 0.000000 0.000000 0.000000 -7.119382 -0.204664 -25.345862 22.205458 -8.806393 33.779397 -3.693549 -6.285961 -6.428544 0.000000 0.000000 0.000000 29.322629 15.920949 -44.816716 -15.352614 8.156174 14.910347 -11.906503 -13.228705 43.827061 -15.575265 12.465057 -9.036782 0.000000 0.000000 0.000000 -26.593702 -5.344109 7.177013 -65.716393 -14.425412 -6.495735 -2.295733 -45.727667 7.469088 0.000000 0.000000 0.000000 -6.412052 9.506870 2.938094 52.279199 6.847233 -7.083110 -24.741467 46.478433 -9.179752 0.000000 0.000000 0.000000
-0.367018 0.169652 0.574049 15.063312 15.008285 -70.825270 -3.527752 -4.199138 -24.836290 23.767821 -16.336647 43.368046 -14.425752 -15.753360 16.283226 0.000000 0.000000 0.000000 -7.007753 -0.152090 -25.345158 21.691668 -8.894454 35.642610 -4.340188 -6.076472 -12.023931 0.000000 0.000000 0.000000 28.334791 15.792758 -45.673807 -15.469948 8.351549 16.178205 -10.931575 -12.739793 43.183618 -15.636734 13.252198 -6.425479 0.000000 0.000000 0.000000 -26.504820 -3.932685 5.938178 -64.882861 -12.959516 -7.415299 -6.150899 -46.121656 9.090658 0.000000 0.000000 0.000000 -3.962188 8.438766 2.582532 50.516214 4.230309 -7.808429 -23.622529 50.268935 -9.523598 0.000000 0.000000 0.000000
-0.366216 0.175316 0.574118 14.084740 13.928736 -70.886685 -3.292447 -4.092083 -24.893146 24.472069 -16.870334 43.836291 -14.599872 -18.019070 13.523504 0.000000 0.000000 0.000000 -6.636378 0.025516 -25.395147 22.237807 -9.317039 36.791528 -5.894066 -9.637665 -15.026984 0.000000 0.000000 0.000000 27.962549 15.973348 -46.160349 -16.055346 8.835571 17.305476 -9.430605 -12.547866 42.005909 -16.472259 14.834570 -3.799296 0.000000 0.000000 0.000000 -28.098522 -3.269471 5.237784 -62.447332 -11.179240 -8.376594 -9.553892 -46.306936 10.249015 0.000000 0.000000 0.000000 -1.899319 7.153636 2.135320 48.750463 2.367603 -8.173405 -23.421494 53.639714 -10.130190 0.000000 0.000000 0.000000
-0.365371 0.181235 0.574344 13.110499 12.653240 -71.126693 -2.314586 -3.689907 -24.824299 23.741525 -16.712177 44.669702 -14.963840 -19.869918 11.831980 0.000000 0.000000 0.000000 -6.533951 0.139532 -25.384544 22.627618 -9.584725 37.711794 -6.454835 -11.519852 -14.158108 0.000000 0.000000 0.000000 27.212237 16.205920 -47.040330 -16.199709 9.241272 20.106802 -7.955270 -11.758884 39.150066 -14.946301 14.781733 2.051934 0.000000 0.000000 0.000000 -28.264484 -2.745735 4.234339 -61.146604 -8.882582 -9.195281 -9.799323 -45.582759 9.696992 0.000000 0.000000 0.000000 0.030914 6.128998 1.790591 48.203521 0.883103 -8.400423 -24.205133 55.869089 -10.742180 0.000000 0.000000 0.000000
-0.364260 0.184235 0.574773 12.784097 11.312262 -71.226847 -0.933664 -3.137362 -24.600282 21.745460 -16.065881 46.794380 -13.250050 -21.267129 6.382128 0.000000 0.000000 0.000000 -6.190447 0.313658 -24.791869 23.990375 -10.239828 38.779229 -8.300508 -16.185472 -21.772916 0.000000 0.000000 0.000000 26.255963 16.406178 -47.818289 -15.483558 9.118301 22.396602 -7.130755 -10.958156 37.207931 -15.149724 14.882725 1.450151 0.000000 0.000000 0.000000 -30.127790 -2.313606 3.706608 -59.873497 -6.724102 -10.055379 -13.602627 -45.533859 11.142444 0.000000 0.000000 0.000000 1.328346 4.265912 1.066506 46.520028 1.282930 -7.904443 -23.908029 55.730170 -10.406979 0.000000 0.000000 0.000000
-0.363144 0.186514 0.575443 12.481346 10.225277 -71.368193 1.404114 -2.209378 -24.038269 18.633215 -14.189754 46.821811 -11.743313 -20.442285 3.868247 0.000000 0.000000 0.000000 -6.254500 0.349419 -23.871974 23.114668 -9.670156 38.743352 -8.129796 -14.425986 -26.712041 0.000000 0.000000 0.000000 25.376229 16.596512 -48.867719 -15.719962 9.360170 22.727887 -6.063549 -10.142933 36.437445 -15.112263 15.137584 2.507350 0.000000 0.000000 0.000000 -31.273968 -2.872790 3.672058 -59.067594 -4.883419 -10.715515 -13.911679 -44.802450 10.728805 0.000000 0.000000 0.000000 0.987460 3.425829 0.799069 46.260975 -0.409101 -8.334920 -23.837577 57.046891 -10.637039 0.000000 0.000000 0.000000
-0.362292 0.188040 0.576372 11.782608 8.984282 -72.083901 3.506052 -1.292315 -22.072393 15.836391 -11.899577 44.752294 -10.419598 -17.074301 4.747520 0.000000 0.000000 0.000000 -4.942694 0.756428 -22.756337 21.945576 -9.156777 39.645583 -8.773402 -16.634999 -31.935160 0.000000 0.000000 0.000000 22.464504 15.649991 -50.010858 -11.956759 6.961473 23.819615 -6.929020 -9.094527 36.161200 -11.657050 10.917183 -0.083170 0.000000 0.000000 0.000000 -32.766876 -2.159732 3.228019 -57.927156 -4.142675 -10.994038 -12.611054 -45.163458 10.255883 0.000000 0.000000 0.000000 -2.721645 2.194707 0.401233 49.136034 0.569879 -8.450910 -21.741674 55.158999 -8.976449 0.000000 0.000000 0.000000
-0.361730 0.190842 0.576803 11.996362 8.121977 -72.518683 5.134701 -0.616295 -20.630389 13.629142 -9.795738 41.606253 -11.697065 -16.881119 7.878300 0.000000 0.000000 0.000000 -3.947591 1.202355 -23.430638 19.335512 -7.920351 41.089796 -8.086169 -13.463519 -28.302643 0.000000 0.000000 0.000000 21.001003 15.176691 -49.725195 -13.045424 7.798693 22.516063 -4.822553 -6.834889 36.924284 -10.249077 9.365886 -3.054053 0.000000 0.000000 0.000000 -28.115198 -2.467833 2.181934 -61.430060 -2.243963 -12.120957 -16.723971 -42.606262 10.856531 0.000000 0.000000 0.000000 -2.736839 3.241328 0.886671 49.776386 2.077700 -7.946303 -22.227562 49.867754 -7.702817 0.000000 0.000000 0.000000
-0.361705 0.191654 0.577188 10.420920 7.389361 -73.248177 6.128319 -0.246029 -19.056160 10.635686 -7.762286 39.133183 -6.178634 -11.506984 1.066299 0.000000 0.000000 0.000000 -4.902656 0.801162 -22.527140 19.024896 -7.729271 41.317360 -7.743637 -12.140683 -26.315602 0.000000 0.000000 0.000000 18.756188 14.293755 -51.589111 -12.781014 8.101323 28.629090 -2.639146 -7.623222 31.302254 -5.078859 4.698706 7.422399 0.000000 0.000000 0.000000 -31.734800 -7.489257 6.253464 -55.444129 -3.241847 -10.376324 -12.985836 -42.970623 9.023556 0.000000 0.000000 0.000000 -0.602307 5.560670 1.799054 48.229058 1.654195 -7.685824 -22.899386 50.068729 -8.287710 0.000000 0.000000 0.000000
-0.362043 0.189950 0.577505 10.744643 5.830401 -73.136255 10.305191 1.111361 -15.108713 6.854832 -4.667284 31.553466 -4.376272 -9.388095 -1.240739 0.000000 0.000000 0.000000 -2.103976 2.134230 -25.352374 18.259182 -7.799963 45.112086 -7.137405 -10.280243 -24.579620 0.000000 0.000000 0.000000 16.542068 14.149791 -53.409415 -9.885527 6.172302 30.400008 -5.284714 -9.039904 34.820502 -7.312893 6.554969 0.354171 0.000000 0.000000 0.000000 -32.964595 -6.452760 6.981522 -56.383921 -5.292097 -10.564339 -13.901283 -46.572620 11.199847 0.000000 0.000000 0.000000 0.008987 9.285942 3.180466 49.979631 8.656601 -6.072864 -37.528621 34.991908 -9.682186 0.000000 0.000000 0.000000
-0.362488 0.191283 0.578213 8.362936 9.287555 -72.147920 9.291589 0.509165 -16.351707 4.946944 -3.767371 28.218092 -5.184541 -9.495976 1.499122 0.000000 0.000000 0.000000 -7.146720 -0.021158 -24.585678 19.482684 -9.106993 43.103334 -8.471404 -16.081374 -26.494219 0.000000 0.000000 0.000000 13.270293 9.825310 -54.439223 -12.187718 7.750127 32.288910 -0.739138 -4.203085 29.871190 2.773684 -3.013121 -0.866049 0.000000 0.000000 0.000000 -31.584709 -14.922619 10.454773 -56.953224 -5.030485 -9.159736 0.360157 -45.148429 3.639891 0.000000 0.000000 0.000000 -3.486447 5.874505 1.886939 59.602320 7.083360 -6.246749 -52.811395 39.843506 -14.663115 0.000000 0.000000 0.000000
