HIERARCHY
ROOT Hips
{
	OFFSET -0.001795 -0.223333 0.028219
	CHANNELS 6 Xposition Yposition Zposition Zrotation Yrotation Xrotation
	JOINT LeftUpLeg
	{
		OFFSET 0.069520 -0.091406 -0.006815
		CHANNELS 3 Zrotation Yrotation Xrotation
		JOINT LeftLeg
		{
			OFFSET 0.034277 -0.375199 -0.004496
			CHANNELS 3 Zrotation Yrotation Xrotation
			JOINT LeftFoot
			{
				OFFSET -0.013596 -0.397961 -0.043693
				CHANNELS 3 Zrotation Yrotation Xrotation
				JOINT LeftToe
				{
					OFFSET 0.026358 -0.055791 0.119288
					CHANNELS 3 Zrotation Yrotation Xrotation
					End Site
					{
						OFFSET 0.000000 0.000000 0.000000
					}
				}
			}
		}
	}
	JOINT RightUpLeg
	{
		OFFSET -0.067670 -0.090522 -0.004320
		CHANNELS 3 Zrotation Yrotation Xrotation
		JOINT RightLeg
		{
			OFFSET -0.038290 -0.382569 -0.008850
			CHANNELS 3 Zrotation Yrotation Xrotation
			JOINT RightFoot
			{
				OFFSET 0.015774 -0.398415 -0.042312
				CHANNELS 3 Zrotation Yrotation Xrotation
				JOINT RightToe
				{
					OFFSET -0.025372 -0.048144 0.123348
					CHANNELS 3 Zrotation Yrotation Xrotation
					End Site
					{
						OFFSET 0.000000 0.000000 0.000000
					}
				}
			}
		}
	}
	JOINT Spine
	{
		OFFSET -0.002533 0.108963 -0.026696
		CHANNELS 3 Zrotation Yrotation Xrotation
		JOINT Spine1
		{
			OFFSET 0.005487 0.135180 0.001092
			CHANNELS 3 Zrotation Yrotation Xrotation
			JOINT Spine2
			{
				OFFSET 0.001457 0.052922 0.025425
				CHANNELS 3 Zrotation Yrotation Xrotation
				JOINT Neck
				{
					OFFSET -0.002778 0.213870 -0.042857
					CHANNELS 3 Zrotation Yrotation Xrotation
					JOINT Head
					{
						OFFSET 0.005152 0.064970 0.051349
						CHANNELS 3 Zrotation Yrotation Xrotation
						End Site
						{
							OFFSET 0.000000 0.000000 0.000000
						}
					}
				}
				JOINT LeftShoulder
				{
					OFFSET 0.078845 0.121749 -0.034090
					CHANNELS 3 Zrotation Yrotation Xrotation
					JOINT LeftArm
					{
						OFFSET 0.090977 0.030469 -0.008868
						CHANNELS 3 Zrotation Yrotation Xrotation
						JOINT LeftForeArm
						{
							OFFSET 0.259612 -0.012772 -0.027456
							CHANNELS 3 Zrotation Yrotation Xrotation
							JOINT LeftHand
							{
								OFFSET 0.249234 0.008986 -0.001171
								CHANNELS 3 Zrotation Yrotation Xrotation
								End Site
								{
									OFFSET 0.000000 0.000000 0.000000
								}
							}
						}
					}
				}
				JOINT RightShoulder
				{
					OFFSET -0.081759 0.118833 -0.038615
					CHANNELS 3 Zrotation Yrotation Xrotation
					JOINT RightArm
					{
						OFFSET -0.096012 0.032551 -0.009143
						CHANNELS 3 Zrotation Yrotation Xrotation
						JOINT RightForeArm
						{
							OFFSET -0.253742 -0.013329 -0.021401
							CHANNELS 3 Zrotation Yrotation Xrotation
							JOINT RightHand
							{
								OFFSET -0.255298 0.007772 -0.005559
								CHANNELS 3 Zrotation Yrotation Xrotation
								End Site
								{
									OFFSET 0.000000 0.000000 0.000000
								}
							}
						}
					}
				}
			}
		}
	}
}
MOTION
Frames: 68
Frame Time: 0.050000
0.000000 0.774197 0.000000 -19.534314 -9.680599 78.818942 5.825491 14.893512 -79.416357 -12.835274 8.804969 51.467396 9.143865 29.824717 -51.131770 0.000000 0.000000 0.000000 -3.138790 10.473408 -52.361398 28.397168 -36.222308 118.638695 -0.542399 -16.156595 64.601116 0.000000 0.000000 0.000000 -3.878872 16.430185 77.723966 1.618913 0.424300 -30.038201 -1.045400 -2.880218 21.044545 4.864758 0.775482 -45.547009 0.000000 0.000000 0.000000 46.096968 -10.873078 2.170909 5.263681 -39.322040 -2.270428 49.448770 18.442909 9.908476 0.000000 0.000000 0.000000 -34.767207 7.952710 4.248629 54.137043 54.645650 19.577100 -72.903671 0.473880 4.158514 0.000000 0.000000 0.000000
-0.037214 0.773030 0.128012 -18.740124 -4.897255 83.219240 16.721231 17.193171 -66.321608 -18.839940 10.287802 36.040085 7.681672 31.315646 -50.541616 0.000000 0.000000 0.000000 4.284289 4.079224 -30.331473 31.392936 -24.847854 109.591082 2.451385 -19.688066 59.127290 0.000000 0.000000 0.000000 -5.851478 16.842730 78.525234 3.063642 0.183823 -29.029804 1.148757 -1.314039 23.052354 4.086755 1.287205 -48.917806 0.000000 0.000000 0.000000 48.786127 -12.682763 2.520339 10.379378 -30.448419 -2.915004 44.773601 14.792862 6.842455 0.000000 0.000000 0.000000 -36.022184 14.554142 4.405414 45.216060 60.285817 18.901107 -72.395922 -13.296806 14.278842 0.000000 0.000000 0.000000
-0.077763 0.769061 0.263977 -14.626601 -1.317986 86.214917 25.130605 14.968172 -58.158349 -25.737524 12.869216 30.908851 7.309947 39.010009 -45.967811 0.000000 0.000000 0.000000 4.481264 1.126246 -18.696300 36.822464 -22.480186 92.054046 12.758208 -35.561417 -3.238066 0.000000 0.000000 0.000000 -7.566377 14.163195 78.788440 3.034423 0.253322 -29.624638 1.706588 0.243662 23.763585 -1.037457 2.465118 -44.919336 0.000000 0.000000 0.000000 47.706219 -10.312729 3.357302 10.651310 -34.543770 -3.968813 43.302758 15.749508 6.369512 0.000000 0.000000 0.000000 -38.493906 13.289912 3.657092 46.603796 61.323997 22.252845 -68.419069 -11.974980 12.673541 0.000000 0.000000 0.000000
-0.115262 0.747271 0.395777 -11.935925 2.530173 90.220702 35.865535 13.593313 -47.815067 -32.387944 18.493756 32.134382 7.479377 38.623067 -41.337600 0.000000 0.000000 0.000000 10.336315 -1.241239 -11.853993 39.794163 -16.051388 71.303561 -8.236927 -7.976142 -74.751726 0.000000 0.000000 0.000000 -8.173228 11.954525 79.390637 1.413620 0.532022 -29.440391 0.827173 -2.764152 28.003277 -3.255196 2.913592 -49.957875 0.000000 0.000000 0.000000 45.032125 -10.546196 2.714126 9.033911 -24.894575 -2.161818 46.337454 10.495378 5.359049 0.000000 0.000000 0.000000 -35.431962 15.414445 4.568981 35.801433 61.823715 14.125207 -75.939370 -13.888223 16.105939 0.000000 0.000000 0.000000
-0.145101 0.686530 0.520004 -5.179039 5.574269 93.655005 46.313193 11.178357 -39.905418 -38.700474 31.045917 44.063077 8.220130 35.263076 -42.989632 0.000000 0.000000 0.000000 18.121291 -2.716271 -11.605576 31.609486 -8.236620 58.912594 -12.929028 -2.614097 -80.291889 0.000000 0.000000 0.000000 -7.135887 6.779396 81.123314 -0.639453 0.865814 -29.361980 -2.002429 -8.607440 29.761452 -4.166461 2.626759 -48.654542 0.000000 0.000000 0.000000 41.641644 -9.731686 1.348617 3.717436 -21.853008 -0.932228 49.139156 3.855561 4.847188 0.000000 0.000000 0.000000 -33.425674 16.141589 6.227664 37.288931 72.001002 14.567066 -87.200180 -5.875034 13.387427 0.000000 0.000000 0.000000
-0.159768 0.608476 0.642539 -3.077698 8.230542 96.295620 52.209493 10.962742 -35.312939 -30.479447 39.736669 62.559374 8.980656 21.328192 -53.286693 0.000000 0.000000 0.000000 17.626444 -3.404397 -11.599275 37.685857 -6.813323 49.720305 -13.928459 -0.296207 -83.355809 0.000000 0.000000 0.000000 -3.760394 4.180447 84.070373 -1.214784 0.884739 -28.665373 -3.065731 -9.834204 27.502733 -10.373225 3.037190 -46.838821 0.000000 0.000000 0.000000 32.807534 -11.996512 2.060361 -3.804987 -24.450327 -0.096296 68.138606 -2.592041 5.016800 0.000000 0.000000 0.000000 -25.523446 13.706239 7.105074 56.825340 73.555702 26.699880 -99.621045 13.652322 -0.306833 0.000000 0.000000 0.000000
-0.162075 0.503715 0.764889 -0.159464 8.872937 98.071223 54.548801 8.759213 -31.922768 -33.545914 41.539193 59.710151 8.634759 21.910818 -60.878053 0.000000 0.000000 0.000000 19.375277 -5.066508 -8.465003 33.430229 -2.701693 37.247843 -14.897842 -1.962550 -87.401434 0.000000 0.000000 0.000000 -0.887873 0.359568 89.259799 -2.086828 1.072894 -31.448670 -5.113789 -16.267742 27.071460 -18.987282 2.358243 -53.930995 0.000000 0.000000 0.000000 18.166725 -12.007110 3.843853 -8.518986 -25.328042 0.073905 89.570740 -13.613519 1.470337 0.000000 0.000000 0.000000 -6.284188 24.677826 9.845980 38.530463 60.324725 4.149042 -111.837233 41.894151 -41.287706 0.000000 0.000000 0.000000
-0.155428 0.389504 0.878252 -3.362975 10.138101 97.688751 55.857684 3.813625 -18.875463 -45.373289 42.913607 40.583821 8.053075 17.901764 -67.583618 0.000000 0.000000 0.000000 17.179734 -11.083344 4.284508 31.949222 5.907050 15.389444 -15.858116 -2.343079 -90.495602 0.000000 0.000000 0.000000 5.248749 -0.202784 95.097958 -3.500160 1.091795 -31.096541 -6.165458 -17.016779 27.701391 -134.777071 -1.039620 -43.231852 0.000000 0.000000 0.000000 -6.271408 -19.263978 16.170937 8.888483 -20.753023 -3.717248 111.058778 -12.175147 -2.565712 0.000000 0.000000 0.000000 41.674726 31.456780 8.881624 6.047881 33.593327 -9.057137 -166.030854 68.476289 -138.270421 0.000000 0.000000 0.000000
-0.143392 0.270316 0.975166 0.274327 10.887737 93.117164 49.905372 -1.150047 -7.824483 -38.630576 32.439520 28.745200 6.498610 13.318051 -75.062960 0.000000 0.000000 0.000000 15.705594 -19.538514 23.594928 26.519081 16.048202 -22.753510 -17.277558 -3.073857 -92.526578 0.000000 0.000000 0.000000 25.619599 -15.364962 103.474805 -4.863555 1.125651 -32.388569 -15.159184 -30.276413 40.840948 2.425492 37.748204 140.604823 0.000000 0.000000 0.000000 -34.847947 -19.554072 38.644292 31.061376 -5.568051 1.071690 133.442509 15.188959 14.775640 0.000000 0.000000 0.000000 67.454991 36.765219 -9.096402 -16.193993 27.211960 -5.800263 123.038946 61.774109 133.217911 0.000000 0.000000 0.000000
-0.129299 0.175694 1.043108 4.944175 7.051432 94.052950 35.201586 -18.144657 3.262866 -43.303169 25.835182 -9.570883 -4.570362 3.022355 -85.539592 0.000000 0.000000 0.000000 24.979284 -13.376917 45.535536 -35.610872 5.141658 -90.499602 -16.045227 -22.386343 -88.317908 0.000000 0.000000 0.000000 110.758571 -23.930151 66.838334 -4.727331 1.109577 -23.689534 -152.243703 -65.822956 -146.473758 -10.687963 12.371646 126.665259 0.000000 0.000000 0.000000 -50.387403 -10.199044 73.199694 48.253427 29.426775 10.776730 -152.698941 17.639061 103.011714 0.000000 0.000000 0.000000 30.931027 43.446106 -56.732379 -28.668617 57.884013 -4.849315 145.209460 69.459601 168.730422 0.000000 0.000000 0.000000
-0.113140 0.099497 1.080053 5.125143 35.850277 -73.196293 131.857850 -31.210321 -16.784931 14.018225 -6.513590 20.180768 49.724769 -33.251838 -122.343587 0.000000 0.000000 0.000000 141.638090 29.484382 -37.027323 -13.638422 17.765740 47.669141 -11.810329 -15.457431 -111.923525 0.000000 0.000000 0.000000 136.805276 29.645010 -36.710419 -6.056574 4.816971 82.429231 -140.453983 15.249260 48.140198 -16.222042 17.856779 115.661510 0.000000 0.000000 0.000000 -27.590629 -38.777186 -17.530386 39.515753 -1.115205 6.359645 -178.692069 23.692255 96.929248 0.000000 0.000000 0.000000 53.123165 39.357845 -19.498287 -54.810415 36.009526 -8.242679 -165.586482 64.509110 129.477876 0.000000 0.000000 0.000000
-0.094695 0.064623 1.091889 8.510969 37.276185 -69.846293 116.868885 -0.898496 -31.809418 31.676312 -24.172009 49.619873 39.991128 -23.552062 -123.222172 0.000000 0.000000 0.000000 38.690068 32.949487 -104.147211 97.939219 -18.534372 11.429727 -17.646958 -6.430749 -104.426959 0.000000 0.000000 0.000000 131.632575 28.849375 -30.470989 -1.123184 -7.722416 126.927178 -158.981649 -27.737975 137.118781 6.401821 -36.368991 97.007554 0.000000 0.000000 0.000000 -49.521455 -13.261731 73.920151 23.031926 19.168206 5.475860 169.954182 -41.333371 129.905188 0.000000 0.000000 0.000000 17.809679 31.947917 -30.405281 -63.227608 23.332680 -19.550636 -165.896962 71.402032 -111.683323 0.000000 0.000000 0.000000
-0.074416 0.051669 1.093486 7.975506 33.264974 -71.356929 94.361538 14.836840 -48.063182 83.627440 -42.085889 25.652851 34.871702 -10.337425 -130.890870 0.000000 0.000000 0.000000 15.388416 7.943501 -96.746194 130.052183 -6.549943 -7.434638 -16.766644 -10.362806 -108.329744 0.000000 0.000000 0.000000 123.614757 28.523210 -29.133004 -4.637258 8.432928 126.216758 -155.289125 -52.551876 142.348433 42.117761 -41.177844 63.743103 0.000000 0.000000 0.000000 -46.709538 -19.481049 59.862812 22.198278 1.934874 3.576404 153.193395 -41.662260 -161.120451 0.000000 0.000000 0.000000 -0.200910 20.752827 -1.707352 -37.500271 2.632351 -12.270581 -120.298874 55.091991 -93.834629 0.000000 0.000000 0.000000
-0.054681 0.049680 1.094927 8.624823 30.691978 -70.115749 70.596868 16.825416 -63.064554 119.388659 -38.416297 2.609860 39.099676 -6.592509 -145.119058 0.000000 0.000000 0.000000 8.732116 1.620642 -85.811412 128.641847 -47.546448 12.371069 -6.841230 -22.064166 -111.910526 0.000000 0.000000 0.000000 118.018767 19.224205 -21.646625 -7.512119 28.337864 124.592241 -167.464687 -68.704256 161.459563 62.746453 -25.280434 38.307106 0.000000 0.000000 0.000000 -31.258252 -22.616706 49.451410 8.640459 -17.465620 -1.966869 144.962987 -49.149389 -118.734339 0.000000 0.000000 0.000000 -11.575347 21.751571 6.165677 -14.889521 2.460839 -4.621725 -117.831137 39.117831 -103.956237 0.000000 0.000000 0.000000
-0.038116 0.054950 1.096327 10.075174 26.776145 -71.318029 42.812335 9.463655 -71.530980 148.005069 -24.961187 -11.305863 158.990396 -11.002442 138.576252 0.000000 0.000000 0.000000 0.690230 -1.610958 -72.868174 47.628250 -58.608554 92.939180 5.155139 -39.417830 -99.865234 0.000000 0.000000 0.000000 95.357505 25.906265 -27.539763 -11.948070 36.602319 122.194061 24.955314 -78.211826 -21.601176 34.104900 -12.319207 41.400094 0.000000 0.000000 0.000000 -21.982710 -25.896269 31.707048 -4.376875 -31.783590 -1.963213 140.420011 -58.373050 -102.096417 0.000000 0.000000 0.000000 -11.268792 14.251510 8.299589 -10.015505 17.073811 -5.188976 -115.456793 30.551924 -87.957543 0.000000 0.000000 0.000000
-0.026509 0.062839 1.096387 11.291136 25.550980 -71.837306 32.711403 4.788559 -71.508185 151.807138 -53.495014 -4.967172 164.942195 -36.219483 142.150576 0.000000 0.000000 0.000000 -4.734140 -3.768123 -61.553113 28.279966 -46.961393 108.971935 1.357820 -41.049819 -85.043154 0.000000 0.000000 0.000000 76.989310 25.594539 -31.711215 -17.832818 41.899801 113.225170 22.767860 -57.764746 -15.672348 25.595383 -12.134304 36.928442 0.000000 0.000000 0.000000 -15.994138 -31.909476 26.201264 -17.525132 -34.341875 1.079989 130.336102 -58.568277 -83.665731 0.000000 0.000000 0.000000 -6.391797 22.744100 7.270086 -8.218502 14.045733 -3.833547 -120.882997 28.480193 -80.981091 0.000000 0.000000 0.000000
-0.017902 0.074468 1.093132 13.948314 25.338382 -71.036315 22.734013 -0.449098 -69.263174 16.086960 -72.760027 135.759492 99.501182 -76.195558 -149.204169 0.000000 0.000000 0.000000 -11.334554 -6.492134 -52.018164 21.364018 -31.805958 105.098288 -3.919585 -35.880714 -75.670437 0.000000 0.000000 0.000000 58.709094 23.458804 -38.036693 -25.312936 41.955030 98.796836 19.352951 -40.781875 -10.900894 15.379523 -9.924553 37.049333 0.000000 0.000000 0.000000 -28.471897 -25.355096 26.941914 -10.593356 -41.424401 -1.823832 132.668073 -62.196057 -94.936461 0.000000 0.000000 0.000000 -7.284724 22.230156 8.478220 -4.571902 28.651032 -5.258844 -122.937750 24.170806 -72.682937 0.000000 0.000000 0.000000
-0.012121 0.085775 1.087623 14.295870 23.963797 -71.596444 15.260150 -4.460944 -67.932712 0.553736 -38.563489 147.586943 10.892418 -59.379520 -52.345565 0.000000 0.000000 0.000000 -14.779747 -6.642894 -42.774993 25.091891 -30.784920 93.859802 -4.921835 -34.984256 -74.245136 0.000000 0.000000 0.000000 50.056137 21.182468 -39.396914 -34.457779 41.189375 79.190255 16.013985 -27.615151 -2.141511 10.928718 -12.620347 40.374427 0.000000 0.000000 0.000000 -34.173616 -28.628048 28.153781 -16.180289 -39.173724 -0.925651 128.780884 -61.507415 -91.217242 0.000000 0.000000 0.000000 0.197363 24.823902 7.719193 1.948218 29.659348 -1.402897 -127.107987 28.140783 -70.138017 0.000000 0.000000 0.000000
-0.009821 0.102814 1.082914 14.406044 21.688106 -73.568816 12.080873 -4.835422 -64.463134 -0.381312 -25.704241 140.278634 3.405579 -47.956819 -39.552241 0.000000 0.000000 0.000000 -15.458576 -5.712481 -38.393501 20.772187 -22.009500 88.696155 -6.659044 -31.005376 -69.851931 0.000000 0.000000 0.000000 42.228038 19.377355 -39.582087 -35.801572 30.686158 57.678533 5.834448 -20.393811 12.712353 6.209263 -12.075148 41.589194 0.000000 0.000000 0.000000 -39.645512 -23.251588 23.735206 -20.257177 -35.055393 -1.467200 147.603835 -66.701375 -119.349040 0.000000 0.000000 0.000000 5.107793 22.848756 8.212568 12.739516 37.855103 -0.624363 -124.818891 38.051629 -65.182229 0.000000 0.000000 0.000000
-0.010163 0.110325 1.081526 15.371972 20.600732 -75.403544 9.576900 -5.084017 -60.950073 -0.651690 -20.101141 133.914222 -3.420323 -40.453493 -24.722484 0.000000 0.000000 0.000000 -17.360892 -5.689291 -33.324105 21.285544 -19.508643 84.015055 -5.902545 -32.391497 -72.556373 0.000000 0.000000 0.000000 39.134680 19.350022 -41.213553 -30.847877 22.094266 45.602541 -5.867446 -14.304051 26.898876 4.471073 -13.413312 38.028660 0.000000 0.000000 0.000000 -37.599969 -23.890459 19.994483 -23.910320 -27.307449 -2.117214 163.273776 -69.128773 -143.209611 0.000000 0.000000 0.000000 6.139831 20.135644 8.473831 22.836186 40.123242 -0.099391 -126.255078 45.085874 -65.393710 0.000000 0.000000 0.000000
-0.011281 0.112591 1.082113 15.527307 20.167952 -78.115731 8.270738 -4.624755 -55.767554 -2.328807 -14.318360 125.598296 -3.729647 -30.665948 -19.929699 0.000000 0.000000 0.000000 -17.819229 -5.517138 -30.491951 19.213976 -15.927491 80.817701 -6.617211 -31.467065 -70.035033 0.000000 0.000000 0.000000 34.566956 17.459838 -39.529427 -23.885045 13.589793 29.396178 -15.104273 -9.402524 41.079664 4.641984 -11.821364 22.361056 0.000000 0.000000 0.000000 -30.543994 -20.093725 13.348233 -27.787065 -23.343247 -3.086332 -177.769834 -67.504453 -171.292951 0.000000 0.000000 0.000000 -0.441617 17.206197 6.404027 39.044319 44.044194 4.625925 -119.491439 50.528936 -59.778622 0.000000 0.000000 0.000000
-0.011577 0.117262 1.083625 16.137191 19.835624 -79.067218 7.942356 -4.193661 -53.918392 -2.884233 -11.511843 119.082413 -8.954242 -32.206841 -9.731787 0.000000 0.000000 0.000000 -17.024711 -4.846712 -28.437683 17.643978 -13.198167 76.308748 -6.954868 -31.678795 -67.848450 0.000000 0.000000 0.000000 32.983643 17.103007 -40.215722 -19.768503 10.421656 21.660559 -18.869389 -5.275280 46.845470 5.353898 -8.630239 6.967983 0.000000 0.000000 0.000000 -19.811486 -20.793374 10.782973 -35.234536 -22.246699 -3.297607 177.310135 -65.688882 -164.093741 0.000000 0.000000 0.000000 -9.506095 14.997284 3.541543 56.856366 43.201781 11.976741 -111.530180 51.949600 -53.093803 0.000000 0.000000 0.000000
-0.009737 0.118889 1.085344 16.842066 18.943009 -80.874118 8.383754 -3.179066 -52.571950 -4.718771 -6.481971 114.660860 -2.916152 -20.739314 -15.527745 0.000000 0.000000 0.000000 -15.388224 -3.846769 -25.238402 13.456809 -7.752069 70.153142 -7.297716 -31.984534 -65.873748 0.000000 0.000000 0.000000 32.614106 17.359411 -38.727625 -16.407480 8.269834 17.318727 -22.035184 -7.038493 49.459126 5.392469 -7.224241 -0.224283 0.000000 0.000000 0.000000 -11.854632 -19.926548 9.586142 -37.952317 -23.775076 -2.979150 164.125759 -64.201489 -140.771998 0.000000 0.000000 0.000000 -16.609675 13.430806 1.966034 71.353160 43.922891 18.811636 -109.095270 53.381166 -53.919795 0.000000 0.000000 0.000000
-0.005334 0.123004 1.086978 16.857040 16.879787 -81.341490 8.500180 -2.354782 -51.502837 -3.544425 -6.810924 109.224862 -1.431109 -24.394960 -22.342650 0.000000 0.000000 0.000000 -13.875667 -2.967374 -23.169725 12.618318 -5.637303 60.677225 -8.003730 -33.729838 -60.914696 0.000000 0.000000 0.000000 33.781948 18.800294 -39.693548 -12.134991 5.886031 16.058216 -26.601710 -7.135804 49.814240 6.849155 -7.695620 -5.165083 0.000000 0.000000 0.000000 -3.651470 -25.726812 9.918134 -37.906254 -21.662062 -2.556588 139.580766 -60.000901 -101.432678 0.000000 0.000000 0.000000 -22.110928 11.679344 1.139963 85.313299 43.903237 25.891068 -101.753710 52.702463 -47.946985 0.000000 0.000000 0.000000
0.002693 0.126045 1.089502 17.678563 15.161747 -82.079535 8.790336 -1.345522 -50.099912 -3.743491 -4.744945 105.859284 5.121034 -15.317627 -36.672238 0.000000 0.000000 0.000000 -12.652524 -2.315653 -21.015494 10.791201 -3.279069 52.627055 -8.744336 -33.980944 -58.068755 0.000000 0.000000 0.000000 36.102681 20.236786 -38.034640 -10.380009 4.964488 13.888529 -29.076180 -9.349171 51.023297 6.908775 -7.075790 -10.985847 0.000000 0.000000 0.000000 2.168183 -27.972382 8.758147 -39.234201 -22.097489 -1.491865 115.276410 -50.971921 -60.540772 0.000000 0.000000 0.000000 -28.732531 9.770224 0.905575 93.711706 45.099656 29.935461 -94.549368 53.259332 -44.282717 0.000000 0.000000 0.000000
0.013118 0.123646 1.093420 18.632590 14.243817 -82.091739 10.637389 0.114396 -50.986927 -4.320511 -2.591146 100.928064 9.540235 -10.199919 -50.933964 0.000000 0.000000 0.000000 -13.368432 -2.469898 -21.421997 13.788948 -4.492128 50.232478 -8.753686 -39.011255 -57.333729 0.000000 0.000000 0.000000 38.663207 21.842542 -37.648913 -9.450864 4.469559 12.292172 -32.014145 -10.201474 52.564374 6.007692 -6.225877 -13.596056 0.000000 0.000000 0.000000 5.990947 -30.009510 7.787723 -39.738519 -20.233966 -1.349215 105.385721 -50.084958 -50.328787 0.000000 0.000000 0.000000 -33.701902 9.770225 1.062921 99.835779 45.793192 32.653681 -90.718066 52.225089 -40.856802 0.000000 0.000000 0.000000
0.023415 0.121414 1.099110 19.011117 14.166144 -81.957231 11.835695 0.895872 -52.625440 -7.767587 2.022657 92.942513 8.188377 -5.017277 -45.872051 0.000000 0.000000 0.000000 -13.683216 -2.503590 -23.881214 12.464876 -3.607334 49.882856 -10.806488 -39.221628 -48.928551 0.000000 0.000000 0.000000 39.892859 22.122799 -36.587578 -8.602907 4.023901 11.070237 -34.994595 -11.138392 52.446901 6.506215 -6.286203 -15.540581 0.000000 0.000000 0.000000 10.590623 -29.584405 5.842081 -41.615598 -16.416381 -1.694351 104.917251 -57.527913 -58.192353 0.000000 0.000000 0.000000 -36.988458 12.411729 1.638834 102.874643 46.766178 34.205471 -80.420471 50.231863 -33.277055 0.000000 0.000000 0.000000
0.032150 0.123258 1.106506 20.807757 13.242720 -81.385150 13.868355 2.816223 -53.476059 -10.097779 5.209491 87.148881 6.356458 8.187497 -13.630513 0.000000 0.000000 0.000000 -13.217331 -2.064888 -30.103931 12.177618 -2.916884 57.688252 -13.914629 -39.013653 -34.202607 0.000000 0.000000 0.000000 42.044471 23.032080 -33.897303 -10.280898 5.095654 12.767209 -33.795453 -13.537545 49.471912 5.040446 -5.260891 -16.191175 0.000000 0.000000 0.000000 9.641467 -30.187000 6.578751 -41.163241 -13.129543 -2.567408 114.476718 -62.795888 -73.303785 0.000000 0.000000 0.000000 -38.368826 12.409613 1.947715 104.991549 45.768239 33.515722 -70.442322 51.914841 -28.812173 0.000000 0.000000 0.000000
0.038779 0.121736 1.115033 18.779911 13.011130 -81.565820 11.633783 1.024053 -54.024344 -7.460459 1.501765 87.075177 5.173896 10.049095 4.579080 0.000000 0.000000 0.000000 -13.703162 -2.260899 -34.132859 13.129603 -4.410690 63.643792 -16.592721 -39.246129 -20.700640 0.000000 0.000000 0.000000 37.899199 22.297269 -37.847620 -9.015681 4.327391 14.467981 -33.436399 -14.819948 50.878435 3.467004 -4.434654 -16.735081 0.000000 0.000000 0.000000 13.498477 -26.378523 3.948355 -46.944837 -15.419895 -1.356551 104.659142 -65.669812 -65.671574 0.000000 0.000000 0.000000 -35.477395 13.737603 2.520845 100.659776 43.758820 26.404817 -61.692274 57.931886 -27.928121 0.000000 0.000000 0.000000
0.043755 0.122157 1.121081 18.499957 11.171965 -83.185944 9.920596 0.623906 -50.294867 -3.550043 -1.960433 87.657283 -4.296275 -5.991537 3.737853 0.000000 0.000000 0.000000 -11.487459 -1.045871 -35.326093 11.701290 -2.826343 67.155239 -18.301291 -38.440368 -12.200724 0.000000 0.000000 0.000000 36.872712 21.649897 -34.830156 -7.481288 3.520053 11.912614 -31.681050 -14.063786 50.101822 2.851011 -4.483528 -12.640088 0.000000 0.000000 0.000000 8.294801 -25.305844 5.892514 -51.198685 -16.599060 -1.334697 124.214564 -72.281526 -92.687714 0.000000 0.000000 0.000000 -29.416857 11.056754 2.326758 93.580048 38.178275 17.703112 -49.983877 69.777431 -27.127189 0.000000 0.000000 0.000000
0.046774 0.121611 1.124273 15.108646 9.697649 -83.965806 8.558863 -0.457050 -50.127629 -2.281486 -4.810855 92.970540 -6.375483 -14.838937 -3.228420 0.000000 0.000000 0.000000 -11.609184 -1.171957 -36.475323 10.613090 -2.700136 70.712912 -15.039568 -30.983619 -10.216284 0.000000 0.000000 0.000000 32.867508 21.636994 -40.178723 -9.800666 4.896006 19.331703 -25.863802 -17.699611 47.348248 1.987659 -4.250152 -11.675971 0.000000 0.000000 0.000000 -11.041836 -20.297737 12.021607 -43.894051 -16.743672 -4.297790 156.590828 -74.498832 -131.870488 0.000000 0.000000 0.000000 -21.297913 13.424455 3.123691 78.305995 33.315074 7.304093 -71.763236 79.404096 -52.879034 0.000000 0.000000 0.000000
0.049087 0.112133 1.124026 13.299233 6.029434 -83.925280 9.342243 0.786873 -46.772700 -0.432367 -7.169640 93.199328 3.415460 -8.597638 -27.572555 0.000000 0.000000 0.000000 -7.278783 1.610916 -39.318062 9.118805 -1.913022 72.150085 -12.551041 -25.462429 -9.432954 0.000000 0.000000 0.000000 29.942200 22.414590 -43.559605 -9.510627 4.965715 30.420692 -19.867293 -20.070200 39.193158 -0.159524 -2.549902 -1.361186 0.000000 0.000000 0.000000 -23.757100 -17.362982 15.463900 -40.744064 -15.610770 -5.487282 173.781947 -77.182075 -155.498987 0.000000 0.000000 0.000000 -13.916096 9.849878 2.545924 66.512433 30.104889 3.236321 -143.163784 81.148638 -128.127685 0.000000 0.000000 0.000000
0.051700 0.106075 1.121304 9.937483 2.233026 -84.691696 8.700273 0.806311 -45.604094 3.376739 -11.400744 92.359140 1.109077 -13.467106 -24.094645 0.000000 0.000000 0.000000 -6.514636 2.722979 -42.877401 11.576150 -4.198572 72.872813 -12.762024 -25.287900 1.387799 0.000000 0.000000 0.000000 25.385474 21.668228 -46.179171 -6.954340 2.992301 48.276444 -13.357048 -22.753886 21.574810 0.697289 -2.142022 10.958008 0.000000 0.000000 0.000000 -33.546947 -16.153241 18.527724 -39.107957 -14.237022 -5.604165 -172.353971 -77.976567 -173.211245 0.000000 0.000000 0.000000 -4.940742 10.922731 3.080565 50.658142 26.219144 1.024656 -154.966916 70.774130 -139.429916 0.000000 0.000000 0.000000
0.055114 0.098000 1.118330 7.442141 -2.012869 -83.855912 10.396860 2.381067 -47.375523 3.277061 -10.381192 89.038381 0.598562 -8.549720 -17.094416 0.000000 0.000000 0.000000 -6.096470 4.643912 -50.574364 15.062805 -7.719482 74.542938 -15.368767 -28.346673 16.964350 0.000000 0.000000 0.000000 20.618615 20.476486 -48.225161 -3.728550 -0.395827 62.046205 -7.720191 -23.046034 8.062347 -0.536620 0.010319 14.856843 0.000000 0.000000 0.000000 -37.975217 -13.863003 17.691541 -37.472094 -16.074668 -4.722639 -148.733817 -74.428621 155.791978 0.000000 0.000000 0.000000 -2.754703 9.879464 3.142713 36.616253 26.301767 0.793619 -140.564487 59.062546 -113.237723 0.000000 0.000000 0.000000
0.057396 0.088699 1.117575 6.083027 -5.295800 -83.214252 12.153499 4.070789 -48.989130 2.700800 -8.311476 83.515260 -0.490576 -2.150241 -2.742555 0.000000 0.000000 0.000000 -7.269197 5.291933 -54.854274 21.286338 -12.024999 69.654527 -17.867541 -29.131288 32.939473 0.000000 0.000000 0.000000 18.106933 18.119234 -43.320888 1.950371 -8.044771 72.855808 -13.776720 -20.520656 -7.249159 4.699254 -6.086062 24.869683 0.000000 0.000000 0.000000 -34.796649 -19.537911 17.354143 -42.888605 -15.557080 -2.165956 -136.263132 -74.926592 138.352935 0.000000 0.000000 0.000000 6.944742 10.318149 3.182455 22.581161 21.074248 0.811773 -135.278626 45.354581 -86.520411 0.000000 0.000000 0.000000
0.057873 0.080361 1.121961 5.210372 -7.701352 -84.614591 13.118973 5.118542 -48.516733 1.514456 -6.168286 77.189293 -2.854977 2.420183 17.977503 0.000000 0.000000 0.000000 -10.474044 4.494508 -58.584399 26.243479 -15.191075 68.361946 -17.644929 -28.141187 41.117718 0.000000 0.000000 0.000000 17.759206 16.176868 -35.583851 2.198426 -7.498891 76.978726 -10.420205 -19.312846 -15.610774 3.047766 -3.591678 25.532916 0.000000 0.000000 0.000000 -34.390658 -18.823556 15.560751 -45.525913 -20.897650 1.129796 -126.808058 -80.075205 129.790961 0.000000 0.000000 0.000000 8.007263 11.893187 3.704185 18.134902 19.417167 0.977448 -130.765397 38.907417 -70.879356 0.000000 0.000000 0.000000
0.056484 0.078011 1.133442 4.548249 -9.759717 -82.540583 13.640154 5.974235 -50.516131 2.590153 -6.036545 73.642063 -7.164317 1.647653 31.025853 0.000000 0.000000 0.000000 -14.170320 3.182772 -61.647806 30.273924 -16.283299 64.050861 -18.486978 -28.599123 44.709470 0.000000 0.000000 0.000000 15.916885 13.870431 -32.088494 2.462235 -4.760988 79.412700 -8.864107 -16.490589 -19.782868 5.042176 -5.994659 23.238406 0.000000 0.000000 0.000000 -32.432495 -20.219064 14.454009 -47.767455 -27.872643 5.541264 -87.288612 -87.861018 93.561620 0.000000 0.000000 0.000000 8.318018 11.611391 3.604872 17.378528 19.976325 1.180435 -127.053830 35.676506 -59.985381 0.000000 0.000000 0.000000
0.053969 0.074030 1.153383 3.532318 -12.900671 -81.554526 14.010997 7.119406 -51.990805 5.470417 -7.950704 71.892102 -7.989443 2.141791 35.004831 0.000000 0.000000 0.000000 -17.344902 2.362606 -63.462247 33.498975 -16.933767 60.630921 -18.820447 -28.368848 49.597162 0.000000 0.000000 0.000000 15.405132 12.382953 -27.560186 4.283776 -5.963863 79.832437 -12.033089 -14.996104 -21.381101 4.998928 -6.053234 22.103159 0.000000 0.000000 0.000000 -27.729462 -23.447683 14.164432 -52.935967 -35.543345 11.521671 34.806637 -78.549394 -23.502203 0.000000 0.000000 0.000000 11.584764 11.050043 3.397141 16.831784 21.512733 1.377283 -122.160508 38.310780 -57.282447 0.000000 0.000000 0.000000
0.050854 0.072205 1.181055 3.215892 -14.664568 -80.736917 14.316536 8.090015 -53.798690 7.139420 -9.048635 71.642265 -10.293439 1.209200 39.120069 0.000000 0.000000 0.000000 -19.826650 1.707386 -65.282796 33.891658 -16.580527 60.056963 -18.409996 -27.734696 52.809760 0.000000 0.000000 0.000000 16.138719 11.729583 -24.127641 5.241946 -5.184770 75.622936 -12.887357 -15.156826 -18.883822 5.473228 -6.409843 22.792011 0.000000 0.000000 0.000000 -28.903222 -24.925275 15.940018 -50.272787 -41.289203 13.654498 40.196453 -70.659342 -24.005831 0.000000 0.000000 0.000000 15.068579 11.575328 3.450801 18.190877 23.411073 1.795080 -120.139742 46.585773 -66.369841 0.000000 0.000000 0.000000
0.047417 0.067833 1.214909 3.474905 -15.740195 -80.707473 16.417367 9.961750 -53.506666 7.591985 -9.611079 70.838398 -11.403549 0.183819 39.153259 0.000000 0.000000 0.000000 -21.719280 1.238460 -66.827970 30.014364 -14.357024 62.207456 -13.296903 -23.993122 51.240952 0.000000 0.000000 0.000000 16.941910 10.724415 -19.489648 4.292596 -2.052560 77.169436 -11.494175 -14.053258 -20.262147 8.078369 -10.042895 26.190131 0.000000 0.000000 0.000000 -31.088704 -30.865408 20.272089 -43.651674 -44.711057 13.176141 48.851715 -62.888401 -27.194898 0.000000 0.000000 0.000000 16.772012 11.885894 3.782989 23.100159 22.088157 2.399334 -125.515633 51.312996 -78.214543 0.000000 0.000000 0.000000
0.044767 0.072126 1.252603 2.554787 -16.512570 -78.633505 18.879571 12.097392 -55.316424 6.519997 -9.383804 71.244224 -13.676900 -1.801610 39.462101 0.000000 0.000000 0.000000 -25.803465 -1.107376 -67.597257 28.110014 -12.980439 62.725948 -7.160574 -19.039762 49.994199 0.000000 0.000000 0.000000 16.893705 10.727591 -19.710196 4.011687 -2.120033 84.641786 -7.958183 -14.436031 -23.563848 5.928405 -6.486516 21.269364 0.000000 0.000000 0.000000 -30.607635 -30.428580 19.902822 -43.100370 -50.365491 15.526480 45.949567 -58.066878 -23.198030 0.000000 0.000000 0.000000 17.812030 12.322677 3.633439 27.142159 26.378286 4.132672 -127.139112 55.761913 -87.573423 0.000000 0.000000 0.000000
0.042863 0.076336 1.292541 0.948299 -16.610224 -76.387185 20.434304 13.356057 -58.116365 4.696692 -8.472429 71.429080 -12.254242 -0.655764 38.529496 0.000000 0.000000 0.000000 -31.644100 -4.980366 -65.861426 30.673679 -14.291734 61.452735 -6.685451 -18.620700 47.626605 0.000000 0.000000 0.000000 14.881801 8.326428 -15.884535 5.107039 -5.438768 89.488745 -11.294387 -14.606576 -30.373211 9.296426 -9.268419 20.920724 0.000000 0.000000 0.000000 -26.712416 -34.894503 21.191712 -39.406240 -52.887580 16.133810 44.821805 -48.137278 -18.731560 0.000000 0.000000 0.000000 20.637556 15.259030 5.542091 29.647469 25.409223 5.045499 -114.769863 58.635580 -76.611969 0.000000 0.000000 0.000000
0.041191 0.083786 1.332151 1.335083 -16.166392 -74.843952 24.857454 16.961970 -60.313835 -2.128656 -3.842026 75.562218 -9.625925 1.304865 36.815663 0.000000 0.000000 0.000000 -36.575308 -7.594870 -64.691737 32.216681 -15.338980 61.924676 -5.155759 -17.302861 49.061011 0.000000 0.000000 0.000000 16.856460 7.996834 -11.208646 3.634560 -4.816523 102.690293 -8.126033 -15.978883 -39.798382 10.649354 -7.128251 12.232618 0.000000 0.000000 0.000000 -21.172217 -37.498107 21.684827 -34.243174 -57.569108 16.147320 43.862456 -39.992977 -14.678126 0.000000 0.000000 0.000000 21.108537 17.297536 6.543539 30.068967 27.493130 6.308811 -83.770789 60.369386 -50.287386 0.000000 0.000000 0.000000
0.039723 0.099229 1.368654 1.120200 -16.571104 -71.001829 28.203076 20.573133 -63.634024 -6.553261 -0.509264 79.021064 -4.937747 4.522572 31.871428 0.000000 0.000000 0.000000 -42.491407 -10.008096 -62.610701 36.631277 -18.575777 62.698736 -4.026475 -16.099424 46.597492 0.000000 0.000000 0.000000 23.135255 8.043286 -0.990624 2.756072 -3.473613 113.040942 -0.471362 -20.528999 -52.725632 15.228373 -4.815554 8.185787 0.000000 0.000000 0.000000 -17.522383 -39.848822 26.162891 -18.615437 -59.643912 9.437841 42.171381 -30.734661 -8.831435 0.000000 0.000000 0.000000 22.880147 20.002103 6.569406 23.112193 31.054209 6.522160 -33.211657 51.266784 -11.716010 0.000000 0.000000 0.000000
0.039607 0.117934 1.400538 1.920650 -16.044306 -66.910881 32.748395 23.521979 -62.549407 -11.813960 4.117789 77.767648 -1.266998 7.667534 28.889295 0.000000 0.000000 0.000000 -47.663255 -12.181567 -61.640058 39.920850 -21.958001 63.597501 -8.761548 -20.399020 45.413517 0.000000 0.000000 0.000000 42.963327 6.393987 22.984708 0.857216 -1.730965 123.286695 27.161612 -27.819258 -81.366397 36.669955 5.041588 7.533869 0.000000 0.000000 0.000000 -7.546713 -34.565121 32.814949 -1.707140 -65.222260 3.066376 50.057871 -20.325695 -5.087095 0.000000 0.000000 0.000000 25.222126 30.626809 2.106950 18.743001 26.430449 8.679510 -17.777429 40.564877 -2.394717 0.000000 0.000000 0.000000
0.040964 0.145953 1.428599 3.889607 -16.646562 -61.761170 33.454959 23.384934 -57.636016 -7.538757 1.649263 70.800131 -4.187547 3.073483 24.174406 0.000000 0.000000 0.000000 -50.306030 -11.797235 -59.734977 39.754159 -21.377267 62.454647 -7.853808 -19.685740 42.383883 0.000000 0.000000 0.000000 55.518510 -13.358614 56.352771 -3.416414 35.419971 124.034585 73.824761 -4.839805 -102.588253 45.638156 15.191598 17.928113 0.000000 0.000000 0.000000 -12.312209 -29.203928 60.567603 38.766404 -62.989834 -25.243406 54.255999 -3.174359 -4.716119 0.000000 0.000000 0.000000 13.128020 31.244813 4.724585 17.706749 32.205182 7.551598 -13.503497 30.022426 -8.157886 0.000000 0.000000 0.000000
0.041352 0.182105 1.455515 5.779422 -18.657113 -54.558239 38.490890 25.746297 -50.706905 -6.966426 2.488417 61.761470 -6.760332 -4.532586 12.821570 0.000000 0.000000 0.000000 -52.259626 -10.571715 -58.463292 41.637039 -19.883517 55.029783 -12.936289 -25.358688 38.833067 0.000000 0.000000 0.000000 38.119797 -27.636734 90.657562 -121.386090 32.411031 -36.117625 122.948189 -58.116745 -60.887842 24.052350 6.602390 6.286203 0.000000 0.000000 0.000000 -18.121352 -28.630797 75.654632 60.309774 -46.040289 -32.399703 51.392511 14.168686 -0.506159 0.000000 0.000000 0.000000 0.295266 34.740090 -0.652385 4.943951 36.258601 -9.892546 -9.259124 25.822753 -8.682260 0.000000 0.000000 0.000000
0.038309 0.221123 1.488445 4.706999 -19.914414 -47.436702 41.188858 25.433451 -45.469374 -4.053051 1.248392 49.887370 -7.501243 -12.248340 -1.240326 0.000000 0.000000 0.000000 -52.427782 -9.052883 -54.549055 39.620170 -17.482189 52.526741 -17.927327 -33.258471 26.673737 0.000000 0.000000 0.000000 26.591009 -25.182798 106.272191 -51.951374 0.510422 -52.819782 -10.888886 -34.655124 45.063539 12.417736 -16.599888 23.479450 0.000000 0.000000 0.000000 -39.380411 -37.745260 43.158960 2.166073 -44.001846 -6.244106 29.173413 -25.031216 -7.751238 0.000000 0.000000 0.000000 27.222025 39.060237 9.502666 -8.535494 30.900539 -6.721630 -7.952050 24.193788 -1.114738 0.000000 0.000000 0.000000
0.031148 0.265445 1.529640 4.231721 -21.769508 -40.034097 42.857890 24.297532 -39.447541 -1.584350 0.563590 45.947321 6.104300 -13.573147 -46.964848 0.000000 0.000000 0.000000 -53.550377 -7.623269 -51.484081 42.348358 -17.971836 50.403708 -18.576230 -49.137516 -7.884535 0.000000 0.000000 0.000000 21.705139 -22.915604 115.712770 -28.630991 -1.217234 -49.689107 -19.468500 -21.256372 32.856964 9.303365 -15.568802 14.641488 0.000000 0.000000 0.000000 -30.441161 -41.107431 29.913586 -8.995929 -42.339031 -1.217337 19.673564 -20.377213 -3.757792 0.000000 0.000000 0.000000 22.257818 38.849272 15.834796 -9.971082 32.013982 -3.831989 -15.963132 21.851124 -2.903119 0.000000 0.000000 0.000000
0.020198 0.307864 1.578171 3.596047 -21.226105 -32.905513 44.181841 22.983925 -36.618561 -1.661984 0.907502 50.776521 13.784344 -10.893296 -72.268240 0.000000 0.000000 0.000000 -53.098673 -7.128097 -49.327415 36.580979 -16.830117 57.242868 -8.413487 -44.957622 -40.482835 0.000000 0.000000 0.000000 16.015818 -16.065478 119.586179 -12.912655 0.304641 -41.887530 -18.991590 -15.935578 19.413811 10.748894 -12.562620 2.210262 0.000000 0.000000 0.000000 -25.581098 -44.307739 26.426512 -10.572310 -40.122002 0.165935 14.268704 -16.277913 -1.825946 0.000000 0.000000 0.000000 17.380714 39.020570 16.431752 -4.181584 36.113174 -2.837509 -20.376825 16.597189 -2.583058 0.000000 0.000000 0.000000
0.008010 0.348496 1.626820 1.894498 -21.003052 -27.168526 42.807407 21.901945 -37.211136 1.945822 -1.326156 57.814365 16.505884 -4.880850 -85.377677 0.000000 0.000000 0.000000 -52.598956 -6.346065 -46.164184 33.132586 -16.767567 64.997313 -6.489904 -37.043360 -50.500280 0.000000 0.000000 0.000000 12.358351 -12.483299 124.260627 -9.896504 -0.362937 -44.366879 -16.573319 -14.455952 20.815930 8.209589 -7.995040 -7.500554 0.000000 0.000000 0.000000 -22.094370 -43.844687 24.384869 -5.726397 -38.345465 -0.981802 8.140474 -16.844159 -0.863899 0.000000 0.000000 0.000000 16.229554 40.081994 17.157486 -2.320746 38.703374 -2.884790 -19.143982 13.009324 -1.759420 0.000000 0.000000 0.000000
-0.003541 0.385169 1.670155 1.181011 -20.398956 -23.105463 43.674569 21.090177 -35.768382 0.686568 -0.341306 60.558831 16.413674 4.424619 -97.949531 0.000000 0.000000 0.000000 -49.518942 -5.981941 -46.822448 28.241498 -15.319025 73.561511 -6.280553 -42.271179 -49.025364 0.000000 0.000000 0.000000 9.454377 -8.422451 126.662889 -4.708926 -0.159438 -41.079177 -14.441028 -11.574305 18.242879 7.658701 -5.564455 -14.048239 0.000000 0.000000 0.000000 -19.170026 -48.545687 25.068438 -1.962832 -35.504442 -1.494411 7.114006 -17.293386 -0.644258 0.000000 0.000000 0.000000 17.562729 41.514578 19.315391 -1.348496 40.192568 -2.691194 -18.607913 11.099405 -1.340531 0.000000 0.000000 0.000000
-0.012623 0.417609 1.704287 1.076113 -18.396420 -19.839438 43.126137 20.240023 -37.285168 -2.848732 2.202828 64.250664 14.925562 6.968996 -93.064174 0.000000 0.000000 0.000000 -49.242389 -6.238952 -44.632584 24.241847 -13.424102 78.558002 -7.639252 -34.845665 -43.461446 0.000000 0.000000 0.000000 7.383880 -6.644074 128.200327 -2.814700 -0.034907 -40.212055 -13.009273 -10.264515 18.407108 7.576084 -4.042371 -21.435441 0.000000 0.000000 0.000000 -12.449353 -49.953012 22.619390 -1.106949 -34.922260 -1.603777 7.612823 -20.161801 -0.805766 0.000000 0.000000 0.000000 16.150427 42.426917 19.598509 -0.921444 41.999935 -2.787099 -17.541159 9.937597 -1.055387 0.000000 0.000000 0.000000
-0.018932 0.447298 1.728076 0.648719 -17.852667 -16.906723 43.425454 20.401555 -38.353569 -6.560262 5.429281 68.393508 12.388015 11.431687 -79.121051 0.000000 0.000000 0.000000 -47.986696 -5.924238 -43.708096 21.349160 -11.139755 80.594291 -8.040657 -27.193199 -39.013224 0.000000 0.000000 0.000000 6.165145 -5.417287 130.494416 -2.384222 0.066347 -39.503656 -11.524669 -9.408036 18.718137 7.440711 -2.519977 -29.229357 0.000000 0.000000 0.000000 -3.863449 -50.894157 19.015237 0.948937 -35.094514 -1.999633 10.762329 -20.069640 -1.331699 0.000000 0.000000 0.000000 7.520365 42.077623 16.546068 -0.894528 43.398141 -2.961169 -18.888685 12.938827 -1.567537 0.000000 0.000000 0.000000
-0.022721 0.469090 1.743406 0.616675 -17.558284 -14.588431 43.287201 19.777013 -37.761951 -9.280138 8.308979 70.525417 11.171815 13.903289 -66.150947 0.000000 0.000000 0.000000 -48.133734 -5.776423 -42.685630 21.778300 -11.390445 78.601216 -8.204437 -26.331126 -36.566766 0.000000 0.000000 0.000000 5.752373 -4.688170 130.655162 -2.015124 0.114210 -39.100107 -11.144123 -8.529710 19.444839 7.443169 -1.557208 -35.029322 0.000000 0.000000 0.000000 4.805674 -50.225854 14.772674 2.030817 -35.863243 -2.304393 14.305192 -19.443009 -1.886420 0.000000 0.000000 0.000000 2.828211 41.294215 14.715332 -2.648793 44.186114 -3.591551 -20.940292 13.001918 -1.780115 0.000000 0.000000 0.000000
-0.025580 0.484990 1.753816 0.422374 -17.481232 -11.895421 43.355519 19.731009 -37.857571 -11.957148 11.708118 74.524211 10.669367 14.448866 -55.409122 0.000000 0.000000 0.000000 -49.006593 -5.818861 -42.343220 24.470811 -13.519796 75.118574 -8.537484 -29.068622 -34.516858 0.000000 0.000000 0.000000 5.547194 -3.879068 130.103787 -1.841431 0.159112 -38.626656 -10.775233 -6.925682 18.723713 7.409628 -0.988662 -36.738533 0.000000 0.000000 0.000000 9.518829 -50.496903 12.870037 4.231916 -36.093554 -2.920374 16.340597 -17.159104 -1.970977 0.000000 0.000000 0.000000 -1.675674 39.943229 12.919619 -2.249421 44.078192 -3.320548 -23.125397 13.969251 -2.136134 0.000000 0.000000 0.000000
-0.028443 0.489907 1.761890 -0.086735 -17.510777 -11.492919 43.522422 20.088842 -38.389039 -11.868182 12.600424 80.023024 10.499065 13.927340 -50.261506 0.000000 0.000000 0.000000 -49.612574 -5.579480 -40.970351 26.444206 -14.944744 73.812424 -8.498572 -29.029121 -34.716806 0.000000 0.000000 0.000000 5.013201 -2.583921 129.946747 -2.167640 0.166510 -39.002014 -10.404372 -5.061167 19.473678 8.191150 -1.121493 -36.580629 0.000000 0.000000 0.000000 9.941085 -51.022454 12.724415 5.849700 -35.424644 -3.318981 17.563554 -15.224289 -1.941971 0.000000 0.000000 0.000000 -4.314163 39.930399 12.070282 -2.448398 43.879694 -3.179648 -24.112934 12.671251 -1.975260 0.000000 0.000000 0.000000
-0.031807 0.490160 1.769029 -0.715702 -17.679226 -10.485837 43.962877 20.491683 -38.534477 -11.792752 13.154673 83.003765 10.542066 14.317852 -49.443243 0.000000 0.000000 0.000000 -50.102062 -5.295390 -39.921744 28.654782 -16.425421 72.178720 -8.269048 -29.578524 -37.131441 0.000000 0.000000 0.000000 4.678431 -1.185231 128.541423 -2.517547 0.160369 -39.591197 -10.081234 -3.031250 19.283325 9.612968 -1.793918 -34.605262 0.000000 0.000000 0.000000 7.999868 -52.781522 13.979245 6.419603 -33.565832 -3.296850 18.426000 -15.412738 -2.113933 0.000000 0.000000 0.000000 -4.061229 39.915611 12.278337 -1.801490 43.998335 -2.831602 -24.865710 13.247429 -2.134749 0.000000 0.000000 0.000000
-0.035106 0.485522 1.774879 -1.094317 -17.944877 -11.932264 44.764348 21.236278 -38.742800 -11.595012 13.209613 86.447927 10.559155 16.155958 -46.455030 0.000000 0.000000 0.000000 -50.401731 -4.994096 -38.701351 30.823223 -18.057957 72.298751 -8.389801 -32.726842 -37.283693 0.000000 0.000000 0.000000 4.124023 0.474564 127.520084 -2.531157 0.107513 -40.061162 -9.602547 -0.907955 19.323004 11.003434 -2.437498 -33.223592 0.000000 0.000000 0.000000 4.993740 -53.681214 15.368518 5.269934 -32.596848 -3.016322 18.807333 -16.785077 -2.395190 0.000000 0.000000 0.000000 -1.510668 40.996893 13.694324 -0.646109 43.680088 -2.324944 -23.696201 13.333958 -2.035402 0.000000 0.000000 0.000000
-0.037708 0.483977 1.779802 -1.409146 -18.392623 -11.127373 45.222854 22.408745 -40.000612 -12.319921 14.472017 89.086649 10.736039 18.649610 -43.681291 0.000000 0.000000 0.000000 -51.111039 -4.472391 -37.242396 34.349742 -20.252059 70.292570 -7.816172 -33.713369 -41.114993 0.000000 0.000000 0.000000 4.309942 1.219344 125.213122 -3.523782 0.130575 -40.821336 -9.370796 -0.803749 19.357845 11.399605 -3.212490 -30.184663 0.000000 0.000000 0.000000 1.527473 -54.382446 17.187811 5.189619 -30.724427 -2.724404 17.600394 -17.326608 -2.265424 0.000000 0.000000 0.000000 0.788929 42.094451 15.023227 -0.158537 43.199100 -2.246961 -22.103037 12.994120 -1.832244 0.000000 0.000000 0.000000
-0.039336 0.483951 1.783411 -1.041967 -18.164465 -11.777677 45.593349 22.741010 -40.381210 -13.367663 15.849823 90.847376 10.811197 19.625743 -40.997786 0.000000 0.000000 0.000000 -53.149390 -4.612365 -36.220897 37.751796 -22.691421 68.615528 -8.060821 -36.051932 -39.627871 0.000000 0.000000 0.000000 4.546277 0.782947 124.253974 -4.019312 0.201336 -40.676362 -9.978562 -0.788550 18.739343 12.171149 -3.889761 -28.826828 0.000000 0.000000 0.000000 1.040624 -55.307337 17.752999 4.597332 -30.018095 -2.511533 18.290425 -18.651963 -2.555705 0.000000 0.000000 0.000000 2.354994 42.882793 15.967301 1.506431 42.651240 -1.746920 -21.079265 13.384461 -1.795972 0.000000 0.000000 0.000000
-0.040522 0.486427 1.786047 -1.125864 -17.243008 -12.423127 45.903802 22.389521 -40.330302 -14.066194 16.323596 90.768589 10.741398 19.425053 -39.987165 0.000000 0.000000 0.000000 -53.866707 -4.762265 -34.889042 40.435338 -24.400027 66.974314 -8.726439 -40.584031 -37.384287 0.000000 0.000000 0.000000 4.534122 0.093647 123.376943 -4.635682 0.326334 -40.859973 -9.438818 -0.522994 18.964683 12.983283 -4.390400 -28.888448 0.000000 0.000000 0.000000 1.590947 -55.168903 17.405289 4.098934 -30.589339 -2.478601 17.268187 -18.274588 -2.328874 0.000000 0.000000 0.000000 1.335949 42.739732 15.383271 3.276963 43.281683 -1.222410 -19.394243 13.152257 -1.587666 0.000000 0.000000 0.000000
-0.041430 0.489651 1.787780 -0.707563 -17.218279 -11.859602 46.693964 22.565290 -39.775604 -15.724832 18.165815 89.938210 10.726665 19.232409 -39.499090 0.000000 0.000000 0.000000 -55.252758 -5.112277 -35.514709 43.987220 -26.694663 65.021948 -9.757232 -44.452782 -34.144680 0.000000 0.000000 0.000000 5.111438 -0.491384 121.568421 -4.930355 0.342786 -41.080164 -9.834544 -0.446388 18.867418 13.763353 -5.004464 -28.067194 0.000000 0.000000 0.000000 -0.296353 -55.975380 18.622492 4.019559 -30.497297 -2.436402 16.446455 -17.747617 -2.111719 0.000000 0.000000 0.000000 2.833231 42.695720 16.000930 4.712435 42.642559 -0.837161 -17.571546 13.281574 -1.425551 0.000000 0.000000 0.000000
-0.042405 0.496031 1.789058 -0.859425 -16.832326 -10.386373 47.613320 22.433186 -38.955435 -17.773332 19.504904 85.921784 10.744626 19.363933 -40.429894 0.000000 0.000000 0.000000 -56.436922 -5.216530 -35.033820 45.924290 -27.428925 62.664256 -9.761992 -42.677553 -33.334099 0.000000 0.000000 0.000000 5.399397 -0.742188 119.235678 -4.631297 0.391624 -40.965753 -9.482303 0.302289 17.882295 14.386193 -4.923568 -29.496969 0.000000 0.000000 0.000000 -2.476036 -56.698953 20.040915 3.589067 -29.857316 -2.295356 14.588577 -17.175313 -1.727274 0.000000 0.000000 0.000000 2.755806 41.938717 15.804946 7.607642 42.687486 0.044213 -16.187116 13.486338 -1.296655 0.000000 0.000000 0.000000
-0.042957 0.503653 1.789859 -0.694905 -16.518307 -9.241075 48.237892 22.237934 -38.339418 -19.459391 20.551344 83.073905 10.566569 18.130631 -40.397014 0.000000 0.000000 0.000000 -58.586188 -5.808323 -35.474667 49.120309 -28.671634 59.182073 -11.427474 -43.967342 -27.477558 0.000000 0.000000 0.000000 5.117933 -0.020656 116.839875 -3.894594 0.357856 -41.510255 -8.343329 1.937727 18.312568 15.327153 -4.944740 -31.018671 0.000000 0.000000 0.000000 -4.118994 -57.762757 21.206602 2.307845 -30.590801 -2.192510 13.652510 -16.347515 -1.491492 0.000000 0.000000 0.000000 3.721469 41.669881 16.266472 8.769709 42.451163 0.393345 -15.039212 12.520115 -1.079775 0.000000 0.000000 0.000000
-0.043181 0.512879 1.790225 -1.171185 -16.643244 -7.684964 47.498770 21.921788 -38.480920 -19.903214 20.846448 81.382233 10.804102 20.324494 -40.471185 0.000000 0.000000 0.000000 -56.759531 -5.575766 -36.033539 49.733922 -28.547492 58.361252 -11.679618 -45.798674 -27.673265 0.000000 0.000000 0.000000 4.556751 1.115935 116.601430 -2.518179 0.231278 -41.513490 -8.566506 2.670709 16.711396 15.444686 -4.207054 -33.744173 0.000000 0.000000 0.000000 -4.413647 -56.786889 20.975108 0.802678 -29.620542 -1.896804 14.031406 -16.423962 -1.547889 0.000000 0.000000 0.000000 5.410622 41.851691 17.359765 8.645556 41.479431 0.322434 -16.070576 13.040117 -1.230061 0.000000 0.000000 0.000000
-0.042945 0.519634 1.790030 0.251367 -15.811439 -7.466294 44.599799 19.254382 -37.241582 -19.038743 19.162742 76.292576 10.692131 20.465189 -44.415012 0.000000 0.000000 0.000000 -56.616902 -6.178732 -36.838132 49.769339 -28.819107 58.225007 -14.029913 -51.707498 -24.311248 0.000000 0.000000 0.000000 5.227241 -0.635091 116.310186 -3.703070 0.381466 -41.476824 -9.538885 -0.746965 16.832377 16.561505 -5.447319 -32.943890 0.000000 0.000000 0.000000 -6.144391 -55.996678 22.045655 -0.431003 -29.587422 -1.620296 13.646637 -15.587519 -1.393976 0.000000 0.000000 0.000000 7.316198 42.430089 17.898504 7.728220 40.950258 -0.158237 -16.860159 15.636424 -1.626874 0.000000 0.000000 0.000000
-0.042157 0.526035 1.789384 -0.205771 -13.145309 -8.473534 43.292226 17.869000 -38.759919 -18.514434 17.162718 74.053029 10.541162 20.584876 -43.367916 0.000000 0.000000 0.000000 -53.083934 -6.657758 -36.181940 44.339019 -25.731856 59.772918 -21.217272 -60.233600 -14.240852 0.000000 0.000000 0.000000 5.506320 -4.236344 118.237305 -5.324732 0.690043 -40.936600 -9.902128 -3.888327 13.985538 15.078306 -5.406915 -31.519385 0.000000 0.000000 0.000000 -11.682882 -51.629842 23.320323 2.139975 -29.290752 -1.908022 9.533254 -16.090606 -0.840368 0.000000 0.000000 0.000000 9.475747 43.108474 18.544531 7.717087 41.191208 -0.217505 -14.027513 14.819901 -1.193327 0.000000 0.000000 0.000000
