HIERARCHY
ROOT Hips
{
	OFFSET -0.001795 -0.223333 0.028219
	CHANNELS 6 Xposition Yposition Zposition Zrotation Yrotation Xrotation
	JOINT LeftUpLeg
	{
		OFFSET 0.069520 -0.091406 -0.006815
		CHANNELS 3 Zrotation Yrotation Xrotation
		JOINT LeftLeg
		{
			OFFSET 0.034277 -0.375199 -0.004496
			CHANNELS 3 Zrotation Yrotation Xrotation
			JOINT LeftFoot
			{
				OFFSET -0.013596 -0.397961 -0.043693
				CHANNELS 3 Zrotation Yrotation Xrotation
				JOINT LeftToe
				{
					OFFSET 0.026358 -0.055791 0.119288
					CHANNELS 3 Zrotation Yrotation Xrotation
					End Site
					{
						OFFSET 0.000000 0.000000 0.000000
					}
				}
			}
		}
	}
	JOINT RightUpLeg
	{
		OFFSET -0.067670 -0.090522 -0.004320
		CHANNELS 3 Zrotation Yrotation Xrotation
		JOINT RightLeg
		{
			OFFSET -0.038290 -0.382569 -0.008850
			CHANNELS 3 Zrotation Yrotation Xrotation
			JOINT RightFoot
			{
				OFFSET 0.015774 -0.398415 -0.042312
				CHANNELS 3 Zrotation Yrotation Xrotation
				JOINT RightToe
				{
					OFFSET -0.025372 -0.048144 0.123348
					CHANNELS 3 Zrotation Yrotation Xrotation
					End Site
					{
						OFFSET 0.000000 0.000000 0.000000
					}
				}
			}
		}
	}
	JOINT Spine
	{
		OFFSET -0.002533 0.108963 -0.026696
		CHANNELS 3 Zrotation Yrotation Xrotation
		JOINT Spine1
		{
			OFFSET 0.005487 0.135180 0.001092
			CHANNELS 3 Zrotation Yrotation Xrotation
			JOINT Spine2
			{
				OFFSET 0.001457 0.052922 0.025425
				CHANNELS 3 Zrotation Yrotation Xrotation
				JOINT Neck
				{
					OFFSET -0.002778 0.213870 -0.042857
					CHANNELS 3 Zrotation Yrotation Xrotation
					JOINT Head
					{
						OFFSET 0.005152 0.064970 0.051349
						CHANNELS 3 Zrotation Yrotation Xrotation
						End Site
						{
							OFFSET 0.000000 0.000000 0.000000
						}
					}
				}
				JOINT LeftShoulder
				{
					OFFSET 0.078845 0.121749 -0.034090
					CHANNELS 3 Zrotation Yrotation Xrotation
					JOINT LeftArm
					{
						OFFSET 0.090977 0.030469 -0.008868
						CHANNELS 3 Zrotation Yrotation Xrotation
						JOINT LeftForeArm
						{
							OFFSET 0.259612 -0.012772 -0.027456
							CHANNELS 3 Zrotation Yrotation Xrotation
							JOINT LeftHand
							{
								OFFSET 0.249234 0.008986 -0.001171
								CHANNELS 3 Zrotation Yrotation Xrotation
								End Site
								{
									OFFSET 0.000000 0.000000 0.000000
								}
							}
						}
					}
				}
				JOINT RightShoulder
				{
					OFFSET -0.081759 0.118833 -0.038615
					CHANNELS 3 Zrotation Yrotation Xrotation
					JOINT RightArm
					{
						OFFSET -0.096012 0.032551 -0.009143
						CHANNELS 3 Zrotation Yrotation Xrotation
						JOINT RightForeArm
						{
							OFFSET -0.253742 -0.013329 -0.021401
							CHANNELS 3 Zrotation Yrotation Xrotation
							JOINT RightHand
							{
								OFFSET -0.255298 0.007772 -0.005559
								CHANNELS 3 Zrotation Yrotation Xrotation
								End Site
								{
									OFFSET 0.000000 0.000000 0.000000
								}
							}
						}
					}
				}
			}
		}
	}
}
MOTION
Frames: 68
Frame Time: 0.050000
0.000000 0.942231 0.000000 -51.076678 -16.264677 82.036648 -50.966734 42.658535 -121.928855 75.839499 -37.430034 19.712693 20.872233 -6.922877 -87.460345 0.000000 0.000000 0.000000 68.220253 61.238051 176.872722 76.963797 21.116879 -42.792815 -10.772045 -25.635324 -9.200509 0.000000 0.000000 0.000000 50.543175 11.552998 135.703377 -2.284050 0.774920 -26.849210 -42.346580 -52.154977 47.764824 5.119888 2.381330 -58.051749 0.000000 0.000000 0.000000 61.340985 7.641573 -4.793287 19.814280 -11.680666 2.929404 8.439669 17.455879 4.377924 0.000000 0.000000 0.000000 -55.230936 -20.027906 15.557079 -17.949039 2.823423 0.082013 -3.260350 -19.065671 -2.385858 0.000000 0.000000 0.000000
-0.048897 0.958412 0.062903 -113.269091 -43.069898 68.374596 7.504286 -10.192416 70.148308 -42.410090 49.969981 14.994598 -2.431100 15.412509 -79.942049 0.000000 0.000000 0.000000 -67.217017 -4.297435 -80.887766 -123.543478 -41.317227 40.284958 -129.347298 -27.670215 148.344012 0.000000 0.000000 0.000000 32.358337 -38.317537 -150.549837 1.411147 0.328248 -24.650335 -146.430608 -47.627511 141.178205 1.775879 0.239123 -56.319349 0.000000 0.000000 0.000000 55.094869 7.004300 -2.571185 21.712600 -9.471904 0.089470 16.820565 15.984195 3.789172 0.000000 0.000000 0.000000 -55.348058 -15.278739 8.973166 -20.475658 -3.992991 0.600642 -7.766965 -20.191192 -1.278662 0.000000 0.000000 0.000000
-0.101841 0.980082 0.125205 -122.516515 -46.144197 73.254518 26.113137 10.551784 79.956010 -18.091884 46.877808 43.399934 3.491458 18.268072 -70.634177 0.000000 0.000000 0.000000 -74.765501 3.174454 -100.316260 -127.741355 -25.635102 47.046013 160.753444 -18.777104 -173.128330 0.000000 0.000000 0.000000 -33.593368 -57.719258 -97.069413 1.489292 0.068705 -25.269234 -176.232520 -4.818354 158.993243 -2.932899 0.500595 -59.616551 0.000000 0.000000 0.000000 56.610802 4.990149 -7.192467 19.231269 -8.980745 1.775340 15.841117 17.268669 8.357162 0.000000 0.000000 0.000000 -54.062212 -18.345113 11.992147 -14.661592 -2.243080 0.598570 -11.752117 -21.033751 -4.204004 0.000000 0.000000 0.000000
-0.155768 0.990997 0.183923 -92.798823 -56.851611 35.560813 41.904980 7.148719 96.907035 13.069746 12.888994 67.813407 11.140000 13.517991 -69.154672 0.000000 0.000000 0.000000 -63.923236 13.598069 -84.816532 -110.332587 -38.515532 17.044471 44.858032 3.445459 158.080221 0.000000 0.000000 0.000000 -87.045650 -47.764244 -57.257845 1.671399 0.207300 -25.513008 178.097450 9.578477 162.196625 -5.055314 -1.934065 -57.804247 0.000000 0.000000 0.000000 56.462912 7.821310 0.045306 18.484671 -8.851678 3.048873 18.142660 17.377902 15.089438 0.000000 0.000000 0.000000 -54.543991 -13.982713 4.563828 -13.926714 -0.987571 1.201695 -12.361537 -20.597646 -6.427176 0.000000 0.000000 0.000000
-0.209713 0.983816 0.237662 -72.414704 -55.998754 10.768550 46.476805 0.314291 110.429055 17.457946 -9.288388 82.097570 15.270340 8.887279 -73.268942 0.000000 0.000000 0.000000 -33.801204 22.314639 -77.313437 -103.204618 -35.350612 -12.753560 -16.580589 -6.673720 148.661811 0.000000 0.000000 0.000000 -101.292941 -34.363604 -47.916780 2.266887 0.136062 -26.043312 172.771444 19.813840 162.482863 -1.614935 -4.733321 -57.343455 0.000000 0.000000 0.000000 60.241453 0.594685 -27.381460 11.650417 -7.787458 -0.374131 24.206373 -3.294153 -24.124342 0.000000 0.000000 0.000000 -55.413701 -20.842252 34.185739 -14.462584 8.805499 2.492389 1.105915 -29.661209 19.599176 0.000000 0.000000 0.000000
-0.261057 0.972797 0.287119 -56.169123 -53.977213 -9.825976 47.283748 -10.290523 121.088564 4.594691 -18.604730 99.871241 12.808060 11.623335 -72.175785 0.000000 0.000000 0.000000 -0.771756 22.364439 -52.155590 -110.875864 -28.973336 -38.790821 50.975520 -7.538105 136.716025 0.000000 0.000000 0.000000 -102.383557 -28.740014 -50.141803 2.795516 0.033556 -26.189245 175.272335 17.122573 163.514714 -1.458825 -4.316319 -56.001947 0.000000 0.000000 0.000000 58.378495 0.547892 -21.369509 12.436838 -8.544844 -0.058712 26.725185 -2.431637 -25.545238 0.000000 0.000000 0.000000 -54.274416 -19.227398 29.629709 -14.142358 11.035651 3.355658 -1.542019 -26.409871 16.102819 0.000000 0.000000 0.000000
-0.310497 0.943100 0.334966 -59.738108 -51.819741 -6.087825 40.147436 -1.177793 127.097161 -18.696961 13.265327 112.862382 12.819072 39.442222 -36.580397 0.000000 0.000000 0.000000 27.411095 18.500132 -35.260146 -136.177131 -23.598190 -40.416434 56.664170 -16.221744 109.455339 0.000000 0.000000 0.000000 -106.632885 -19.272818 -44.512582 2.841661 -0.008586 -27.136768 168.026732 29.534627 161.597068 -0.257243 -2.256521 -56.484218 0.000000 0.000000 0.000000 54.738098 2.324127 -13.253812 11.349487 -10.370046 -0.318914 28.539576 -0.517912 -23.405085 0.000000 0.000000 0.000000 -53.307792 -15.310149 20.026409 -11.983017 14.344218 5.297665 -5.805015 -26.212541 16.418833 0.000000 0.000000 0.000000
-0.357937 0.900541 0.383828 -62.336663 -58.087357 -4.772216 35.891086 11.037827 135.868435 -43.295315 39.546341 102.544747 17.187974 25.512832 60.242209 0.000000 0.000000 0.000000 43.988259 4.481221 -14.025442 -178.026460 8.878668 -35.014714 51.215098 11.118969 66.944241 0.000000 0.000000 0.000000 -102.761383 -15.250510 -52.057601 3.792928 -0.185467 -27.230521 166.349650 33.806508 161.099519 -0.454530 -2.811609 -57.680852 0.000000 0.000000 0.000000 53.518239 1.868368 -9.228227 11.146268 -12.340461 -0.943012 29.726718 -0.321456 -24.250875 0.000000 0.000000 0.000000 -52.637711 -14.603503 18.753589 -5.938749 20.341574 10.036331 -10.420941 -28.257594 19.590089 0.000000 0.000000 0.000000
-0.399531 0.840107 0.437903 -68.705928 -63.689374 0.526928 19.050353 48.297681 133.753288 -124.381646 21.541730 17.202219 -2.454680 18.148632 77.737354 0.000000 0.000000 0.000000 45.020160 -5.465828 -2.173393 59.019192 61.853016 -127.692389 3.860351 -1.875939 49.498812 0.000000 0.000000 0.000000 -101.178169 -10.720054 -57.732777 4.394512 -0.303659 -27.472894 161.082004 41.323766 159.168373 1.035088 -1.178646 -58.622544 0.000000 0.000000 0.000000 52.624318 4.118570 -3.664048 7.525167 -14.250664 -2.013244 32.445488 -3.251439 -28.025197 0.000000 0.000000 0.000000 -52.329279 -11.916927 15.246875 0.503768 25.797934 16.509226 -14.845091 -32.924988 24.223590 0.000000 0.000000 0.000000
-0.431514 0.767290 0.500390 -74.769134 -75.299022 4.616491 -40.658398 70.434158 67.999282 -129.672532 -33.460532 -16.030775 -13.376832 6.417535 69.414958 0.000000 0.000000 0.000000 25.043629 -11.484023 14.142331 46.799073 56.745222 -147.035317 1.685981 -5.213915 57.174531 0.000000 0.000000 0.000000 -96.266513 -10.740702 -72.593005 5.098039 -0.437594 -27.204917 161.697423 41.435384 159.444912 1.031146 -1.191487 -58.675978 0.000000 0.000000 0.000000 50.070209 0.212011 -7.811284 3.120723 -14.363250 -3.681400 37.992545 -6.554933 -36.425608 0.000000 0.000000 0.000000 -50.136686 -12.305326 22.805393 1.911954 38.277755 27.565564 -5.102297 -56.474027 36.293911 0.000000 0.000000 0.000000
-0.455773 0.681340 0.571752 -85.736941 -76.507956 16.026984 -62.121004 60.891213 32.534514 -108.004178 -44.756690 -44.622546 -10.013112 8.344292 66.591345 0.000000 0.000000 0.000000 11.730078 -6.209979 13.438946 90.633529 68.169641 -123.241264 2.446178 -4.659512 47.341758 0.000000 0.000000 0.000000 -97.830128 -9.818569 -75.166787 5.990669 -0.625318 -27.782589 156.970049 46.444421 157.390302 2.395192 0.325517 -59.668061 0.000000 0.000000 0.000000 46.599861 -0.482539 -8.249734 -2.349321 -15.763676 -6.020810 50.865779 -11.747864 -53.405260 0.000000 0.000000 0.000000 -45.576349 -9.719798 29.877762 3.186974 56.364513 42.390004 60.605474 -71.189734 -5.784840 0.000000 0.000000 0.000000
-0.476522 0.575254 0.646495 -71.004873 -71.910394 0.550288 -71.427392 53.967572 19.927054 -72.749708 -42.727282 -72.594126 -28.221152 43.557773 -91.397660 0.000000 0.000000 0.000000 -3.375941 0.925946 6.490708 -176.137616 72.953304 -50.106837 -5.064951 34.086529 -1.621061 0.000000 0.000000 0.000000 -93.604194 -11.215196 -72.736158 5.865794 -0.580480 -27.251969 167.606650 39.210059 164.115720 1.418464 -1.976477 -64.254147 0.000000 0.000000 0.000000 43.498350 -9.123787 -18.455230 -8.476827 -8.994571 -7.646011 72.621119 -24.437795 -93.391419 0.000000 0.000000 0.000000 -41.195122 -10.868089 62.636768 -87.113923 67.218893 -2.981426 122.209439 -22.753788 -3.482269 0.000000 0.000000 0.000000
-0.496847 0.455042 0.711983 -44.947193 -59.528278 -26.642536 -59.654698 61.725084 43.903370 -71.161729 -36.494117 -59.533499 -12.286613 49.154165 -100.097514 0.000000 0.000000 0.000000 -30.414848 17.215879 12.672581 -103.807854 57.735039 14.252913 -25.670641 5.789879 -92.534461 0.000000 0.000000 0.000000 -88.831458 -15.740210 -65.030743 8.548121 -1.130243 -27.017899 -175.759462 16.684980 169.870058 20.064231 -45.306318 -108.329830 0.000000 0.000000 0.000000 47.428461 -21.859138 -53.162279 -10.496763 6.509258 -11.468356 129.777386 -56.774768 125.117829 0.000000 0.000000 0.000000 -0.318024 53.726898 -121.353983 -7.162623 -30.704365 4.020763 -178.945922 50.203653 145.425611 0.000000 0.000000 0.000000
-0.518918 0.337904 0.751561 -39.501016 -53.316844 -33.875966 -70.036266 65.520927 45.974394 -44.246065 -33.409187 -75.975411 -3.674731 37.716855 -111.966846 0.000000 0.000000 0.000000 -44.754194 19.789901 -0.981743 -86.946875 58.836926 44.105891 -21.462159 -6.924240 -102.786553 0.000000 0.000000 0.000000 -88.757540 -20.052815 -59.511422 11.459260 -1.717556 -26.461835 -162.656647 7.139158 172.052753 17.703066 -13.265165 144.201014 0.000000 0.000000 0.000000 38.843765 6.156846 93.142490 36.777152 -14.531189 3.041708 167.992459 25.392257 -96.368247 0.000000 0.000000 0.000000 92.452890 50.425887 -57.708436 -8.092219 14.594628 14.544179 -156.020787 49.367404 86.738542 0.000000 0.000000 0.000000
-0.542221 0.254188 0.766292 -22.506111 -38.690620 -53.884980 -24.776341 73.403075 115.430854 -65.824794 -43.483883 -66.792671 7.140604 23.244906 -102.573322 0.000000 0.000000 0.000000 -78.887020 7.396196 -35.324846 -2.242925 25.492213 135.181878 -30.374983 6.283353 -107.357838 0.000000 0.000000 0.000000 -82.411608 -29.601941 -61.688691 11.723421 -2.665327 -16.472572 139.764933 -72.853347 -49.794243 14.426038 6.665170 117.810451 0.000000 0.000000 0.000000 15.371281 -4.916161 40.322193 50.984958 31.667801 16.125913 -178.959291 17.916255 56.709063 0.000000 0.000000 0.000000 95.101309 31.809849 -13.935785 -74.658864 39.239554 -10.965646 -177.526556 -27.700274 -138.223859 0.000000 0.000000 0.000000
-0.564865 0.197230 0.767535 -15.559551 -30.425496 -61.519189 14.746152 39.862166 177.894838 -119.861072 -36.021633 -26.134081 16.349226 -0.243398 -98.002652 0.000000 0.000000 0.000000 -26.479582 7.044112 -89.749622 -146.995795 68.239925 13.518144 -179.830505 48.839624 147.151236 0.000000 0.000000 0.000000 -76.237729 -37.001047 -69.087270 8.939515 -3.355841 -3.729935 126.827257 -54.846107 39.493918 0.312687 -6.206015 107.413195 0.000000 0.000000 0.000000 -15.499285 6.656042 3.270239 32.837655 36.665209 -5.499361 -168.388976 2.955872 -69.326221 0.000000 0.000000 0.000000 62.134787 8.413033 -6.271724 -83.853071 0.600713 11.765569 178.836340 28.541265 20.926878 0.000000 0.000000 0.000000
-0.584353 0.174770 0.767105 -9.663327 -16.958252 -68.013334 69.645886 63.535877 -91.582906 -10.104656 -27.402469 -157.924776 9.446352 -3.837132 -71.115271 0.000000 0.000000 0.000000 -9.544241 10.876233 -83.429930 -15.889660 65.144964 143.247425 -25.049437 54.699696 -65.770970 0.000000 0.000000 0.000000 -49.994516 -39.725529 -93.259330 -2.644165 0.618849 8.150653 79.290397 -67.016404 106.735004 -3.235910 -1.462953 95.632967 0.000000 0.000000 0.000000 -30.286173 6.077706 8.643317 20.006045 37.003678 -29.735107 -167.874837 1.016901 165.740890 0.000000 0.000000 0.000000 26.975908 7.519190 -16.950737 -44.454028 18.174528 11.598074 -156.886205 39.807863 112.050497 0.000000 0.000000 0.000000
-0.599520 0.167313 0.771646 -7.266688 -13.168808 -69.857041 46.348554 41.259183 -89.003258 -168.507513 -27.358889 -16.333778 96.101962 -44.180466 -166.052665 0.000000 0.000000 0.000000 -4.121776 12.995956 -81.254887 -6.907301 35.715275 145.237202 -14.061990 11.412648 -59.426112 0.000000 0.000000 0.000000 -34.337821 -32.697346 -107.320569 -6.536111 1.750633 52.839855 58.179336 -37.464814 119.675881 6.896446 0.448472 97.602354 0.000000 0.000000 0.000000 -63.296556 6.664714 34.570361 11.772772 31.043869 -36.902513 -176.565982 -13.300334 66.071444 0.000000 0.000000 0.000000 -8.884306 12.176873 -32.291071 -5.096255 18.886884 1.771084 -144.618198 50.507531 -168.704225 0.000000 0.000000 0.000000
-0.611389 0.169040 0.783490 -5.462778 -4.501444 -72.080685 35.850716 21.973328 -78.403117 -149.192121 68.311420 14.173187 -146.254839 72.404433 147.657604 0.000000 0.000000 0.000000 -2.033979 9.528550 -80.388917 -0.776060 7.468810 140.516749 -8.844647 -19.814054 -62.856354 0.000000 0.000000 0.000000 -15.082914 -16.498317 -113.824714 -2.891553 -0.691417 68.514252 33.188066 -13.235771 109.872743 -2.238226 -3.338472 104.511921 0.000000 0.000000 0.000000 -54.289815 4.664383 28.951272 15.339288 17.636685 -3.352003 166.009628 -12.908597 147.052468 0.000000 0.000000 0.000000 19.882174 10.176596 -3.885592 -27.678482 34.919117 -1.593847 -116.053961 25.606399 -88.506709 0.000000 0.000000 0.000000
-0.618492 0.171417 0.800774 -4.915226 1.747995 -73.166991 30.378568 12.420285 -74.670442 -67.935929 70.466571 88.062743 -9.291086 71.157115 -77.586083 0.000000 0.000000 0.000000 -0.582961 7.121763 -81.762958 3.166896 -3.731591 132.855396 -7.433679 -22.789881 -76.457101 0.000000 0.000000 0.000000 -5.820771 -7.715815 -108.049868 -0.962146 0.081741 60.527748 18.394537 -12.966498 97.325890 -0.049513 -9.741144 82.407709 0.000000 0.000000 0.000000 -47.652823 0.425186 26.042083 16.042831 12.911794 8.547418 155.010107 -13.740370 -144.191075 0.000000 0.000000 0.000000 19.603887 13.180198 8.365453 -18.410862 35.984084 -7.390099 -110.976540 28.083697 -59.600417 0.000000 0.000000 0.000000
-0.619074 0.178473 0.819805 -5.309520 7.463967 -75.265108 25.337030 4.608643 -74.170583 -62.635558 58.483144 82.337998 -4.396648 68.006417 -73.591137 0.000000 0.000000 0.000000 1.266868 4.702288 -80.381927 2.644112 -2.860625 120.676070 -7.813421 -21.568385 -80.413456 0.000000 0.000000 0.000000 1.740227 -3.641488 -97.587614 -3.881874 2.477061 33.612367 11.173704 -10.506448 96.668839 1.065996 -9.015752 53.568000 0.000000 0.000000 0.000000 -20.056789 -11.563032 13.416309 -10.791634 11.845551 -7.384814 154.290515 -31.261485 -116.956166 0.000000 0.000000 0.000000 13.491222 15.697427 9.340608 15.102276 30.853442 -12.035867 -124.286636 47.652949 -65.278311 0.000000 0.000000 0.000000
-0.614264 0.195567 0.834323 -4.808692 11.058023 -75.528842 21.899862 -0.103738 -76.762486 -50.602073 51.117228 87.852086 16.257355 57.085998 -32.918086 0.000000 0.000000 0.000000 -0.289094 1.170281 -78.452717 3.809355 -3.359187 110.194306 -8.240572 -20.583885 -78.230274 0.000000 0.000000 0.000000 5.728011 -1.833936 -92.892856 -3.284465 1.732612 20.830170 2.243543 -7.361199 93.341866 2.265081 -10.026561 31.651379 0.000000 0.000000 0.000000 -7.823007 -10.317361 6.318236 -26.521192 11.895160 -14.128564 157.384699 -44.459824 -115.564135 0.000000 0.000000 0.000000 -0.881267 13.570771 4.558842 43.726671 29.400776 -13.032764 -131.748169 62.653680 -78.889133 0.000000 0.000000 0.000000
-0.608093 0.209774 0.842610 -4.037644 13.190784 -76.117875 15.503859 -5.021221 -70.477633 -42.818922 42.163000 89.632406 14.265358 51.418088 -35.635089 0.000000 0.000000 0.000000 -1.281668 -0.458834 -71.163346 5.757881 -6.868091 98.906494 -7.300891 -25.549044 -71.268099 0.000000 0.000000 0.000000 8.627505 0.014684 -85.523594 -3.711914 1.670502 11.528566 -0.503518 -5.197171 83.833704 0.135374 -2.805701 17.131044 0.000000 0.000000 0.000000 7.336232 -9.886566 0.682151 -46.109146 13.137547 -18.779361 165.910369 -60.308496 -135.367933 0.000000 0.000000 0.000000 -8.387215 11.357341 2.468612 59.377905 21.433455 -9.473501 -123.386300 73.882559 -89.293480 0.000000 0.000000 0.000000
-0.603397 0.221063 0.847118 -3.104821 12.720306 -75.138508 9.645867 -9.115229 -72.392547 -25.388105 29.899391 104.097957 14.359659 37.676939 -23.324314 0.000000 0.000000 0.000000 -5.314646 -2.770458 -66.040756 12.046715 -14.719965 95.164738 -8.814666 -21.554584 -53.222257 0.000000 0.000000 0.000000 9.526279 1.679576 -83.326581 -4.009023 1.788367 10.367164 -0.053369 -5.514055 77.422076 1.739368 -4.379884 4.382961 0.000000 0.000000 0.000000 13.690854 -5.105769 -1.761933 -52.698047 13.330701 -19.101991 179.497383 -69.414887 -159.558528 0.000000 0.000000 0.000000 -14.416027 6.000664 0.435066 68.917732 21.894083 -5.803625 -61.635572 77.478133 -37.431568 0.000000 0.000000 0.000000
-0.599928 0.226389 0.850088 -1.438504 11.893118 -74.146375 0.399601 -12.453288 -62.930832 -9.851657 5.178316 106.531251 9.140802 17.725177 -33.056067 0.000000 0.000000 0.000000 -8.779487 -3.636260 -57.322707 17.537483 -18.986954 85.690039 -10.302115 -24.595005 -23.451617 0.000000 0.000000 0.000000 10.957663 4.346481 -81.464501 -3.365430 1.437751 6.714204 -0.238394 -2.670031 75.977041 4.568656 -6.511661 0.105351 0.000000 0.000000 0.000000 20.514294 -3.082349 -2.461625 -57.374898 8.303356 -17.582619 -142.245613 -76.058536 147.782713 0.000000 0.000000 0.000000 -16.243500 5.643135 -0.115295 73.038303 18.384136 -4.685352 -36.848652 71.264814 -15.905197 0.000000 0.000000 0.000000
-0.597309 0.226210 0.852637 -0.160309 11.047921 -73.007859 -3.186663 -12.555921 -57.466050 -1.112719 -9.075531 102.670236 7.971098 8.617728 -35.598906 0.000000 0.000000 0.000000 -11.462605 -3.877061 -48.695882 20.305353 -19.654831 78.163383 -11.105861 -26.168236 -22.563934 0.000000 0.000000 0.000000 12.067585 6.408130 -79.631844 -5.523354 2.526723 5.966250 1.811622 -1.909729 71.187868 0.783560 -0.914828 -3.147560 0.000000 0.000000 0.000000 15.105990 -1.058539 -0.969754 -56.157638 5.315441 -16.151655 -121.138144 -75.032001 118.011535 0.000000 0.000000 0.000000 -18.379470 3.128096 -0.871507 77.429547 19.903689 -0.295283 -22.930456 66.203113 -6.198612 0.000000 0.000000 0.000000
-0.596587 0.227756 0.855418 -0.457195 10.006214 -73.192448 -5.948703 -12.053631 -51.397218 5.829353 -19.470313 99.717735 7.005791 -1.319528 -38.301298 0.000000 0.000000 0.000000 -11.603870 -3.166673 -42.987078 21.246790 -19.765147 74.516677 -9.821353 -21.489700 -32.638840 0.000000 0.000000 0.000000 10.630579 5.802677 -79.997932 -6.176763 2.864196 5.845684 3.311376 -1.626304 70.106816 2.635382 -2.524927 -4.552979 0.000000 0.000000 0.000000 17.745988 -3.509013 -0.363096 -57.712647 3.994644 -15.734686 -89.500342 -75.171396 82.846817 0.000000 0.000000 0.000000 -17.559512 4.533751 -0.532477 74.113935 24.183077 2.765045 -23.565116 60.527750 -6.399584 0.000000 0.000000 0.000000
-0.597778 0.230858 0.858408 -0.729161 6.590194 -72.958781 -2.362287 -8.089413 -47.689608 3.976127 -18.224160 104.445609 7.748294 3.005086 -40.203444 0.000000 0.000000 0.000000 -9.506919 -1.221410 -43.577296 23.988983 -21.408466 74.458139 -10.225902 -27.041219 -36.208314 0.000000 0.000000 0.000000 7.515975 5.636224 -81.589102 -3.619085 1.571257 8.818814 3.523610 -3.596116 68.904631 0.934006 -1.014574 -7.224196 0.000000 0.000000 0.000000 13.432096 -4.167532 -0.014668 -57.016559 2.379528 -14.828248 -87.236091 -72.799625 79.607317 0.000000 0.000000 0.000000 -15.378148 4.318616 0.055097 68.617386 26.157603 1.543364 -24.157269 62.966550 -7.808555 0.000000 0.000000 0.000000
-0.601118 0.235178 0.861627 -2.076257 3.792515 -73.370603 2.362451 -3.826145 -40.801946 0.375320 -14.211438 106.533058 8.564867 0.774443 -47.239150 0.000000 0.000000 0.000000 -9.211663 -0.481989 -45.392929 25.653403 -24.151997 78.915012 -9.700685 -23.390464 -31.747992 0.000000 0.000000 0.000000 3.200324 3.162987 -81.366602 -2.215917 0.850864 7.486779 6.561279 -5.546044 69.005566 0.814754 -1.141242 -6.706302 0.000000 0.000000 0.000000 10.119405 -6.478833 1.060872 -55.405178 0.736333 -14.026590 -78.726947 -75.242190 73.606705 0.000000 0.000000 0.000000 -10.237786 2.090413 0.041282 57.716525 29.043632 0.391758 -21.636769 61.941253 -7.144316 0.000000 0.000000 0.000000
-0.605005 0.240198 0.864647 -2.691593 3.468685 -73.196377 5.607992 -1.949592 -37.541732 -4.231069 -8.069563 109.425502 8.805612 1.661641 -49.391674 0.000000 0.000000 0.000000 -10.114110 -0.969575 -46.442800 25.659865 -27.018522 86.092771 -8.229448 -14.385367 -29.775782 0.000000 0.000000 0.000000 1.138423 1.194760 -82.462151 -1.777049 0.617893 8.011903 5.704201 -5.824742 68.895071 -1.239899 0.733920 -1.510721 0.000000 0.000000 0.000000 11.198662 -4.115765 0.079940 -60.802864 0.582324 -14.790471 -67.520745 -76.226445 65.757014 0.000000 0.000000 0.000000 -8.214886 7.215189 1.801124 52.241200 27.502864 -1.356283 -39.883175 64.100228 -19.935417 0.000000 0.000000 0.000000
-0.607486 0.242832 0.866698 -2.920126 1.075484 -72.817197 6.919569 -0.752993 -36.841364 -3.402240 -9.984552 114.580550 8.946796 -0.817553 -50.822963 0.000000 0.000000 0.000000 -11.283285 -0.813588 -49.712224 23.617791 -30.221117 99.525517 -6.643480 -10.420319 -21.389716 0.000000 0.000000 0.000000 -1.104882 0.732499 -83.071810 0.265767 -0.506833 8.446974 5.237685 -7.719502 70.809092 -0.489096 -0.720716 2.445888 0.000000 0.000000 0.000000 6.639035 -6.324692 1.306526 -62.044469 -2.290582 -14.629764 -78.905761 -79.379488 82.782940 0.000000 0.000000 0.000000 -3.765891 8.606377 2.698745 46.330009 27.039976 -3.309895 -65.637351 62.562928 -36.133447 0.000000 0.000000 0.000000
-0.607596 0.246924 0.867293 -1.136379 0.346516 -73.013667 6.620609 -0.467717 -35.327320 -3.329142 -8.741204 114.332906 9.338558 3.034947 -51.744306 0.000000 0.000000 0.000000 -10.506479 0.261845 -52.583891 17.710963 -27.956055 114.221417 -5.625511 -11.935613 -8.023029 0.000000 0.000000 0.000000 0.287018 3.482227 -83.415085 -0.304446 -0.293656 9.917046 2.886648 -7.941213 70.757267 -1.307930 0.114515 1.063828 0.000000 0.000000 0.000000 -0.029079 -8.476423 3.537897 -63.185910 -4.692879 -14.562209 -83.439448 -81.306571 90.948744 0.000000 0.000000 0.000000 -2.984268 8.822637 2.866940 44.822449 27.695224 -3.600310 -79.994625 60.194375 -44.019256 0.000000 0.000000 0.000000
-0.605767 0.245860 0.866919 -0.046672 -0.518302 -72.900857 4.257776 -1.427419 -38.096894 -0.831077 -12.169206 116.549827 9.844345 -0.372981 -54.161640 0.000000 0.000000 0.000000 -12.422845 -0.286648 -55.715502 17.021324 -31.233378 123.515573 -4.918190 -13.755306 6.476266 0.000000 0.000000 0.000000 2.020784 6.395044 -83.653689 -0.282534 -0.361244 10.612906 -1.920558 -9.350538 73.024185 -2.643169 1.021873 2.259099 0.000000 0.000000 0.000000 -3.806862 -8.136729 4.366171 -65.871142 -6.641257 -14.189638 -115.141411 -77.290480 125.763269 0.000000 0.000000 0.000000 0.225285 12.153131 4.399712 40.479023 28.605498 -4.537997 -90.933573 52.830146 -46.230330 0.000000 0.000000 0.000000
-0.603218 0.248275 0.865473 1.305826 -2.090955 -72.677761 0.013518 -2.777422 -35.917878 4.483445 -17.275985 111.048811 11.398267 -2.378741 -60.205588 0.000000 0.000000 0.000000 -13.889644 -0.276573 -54.959080 21.568988 -39.507094 123.479581 -9.585250 -23.192129 8.958316 0.000000 0.000000 0.000000 2.946199 9.287586 -84.117067 0.469961 -0.796988 10.717204 -5.815272 -10.344010 73.849755 -3.003856 1.001941 4.077992 0.000000 0.000000 0.000000 -9.047210 -8.208657 6.002956 -66.511496 -9.485393 -13.112848 -123.971906 -76.831397 138.247831 0.000000 0.000000 0.000000 3.168070 12.726455 4.808278 38.849505 28.521878 -5.067777 -93.237817 51.395144 -47.500326 0.000000 0.000000 0.000000
-0.601949 0.252889 0.865394 2.893997 -2.334108 -71.818694 -1.339512 -2.906221 -32.520992 5.853470 -16.113669 105.335415 12.009980 -2.781080 -62.447186 0.000000 0.000000 0.000000 -12.947016 0.547123 -51.186933 37.291105 -51.915564 107.255328 -19.369633 -39.671701 9.783603 0.000000 0.000000 0.000000 5.149397 12.435823 -84.345246 0.718226 -0.984696 11.154670 -10.670268 -11.284349 73.328992 -3.364137 0.882373 4.858582 0.000000 0.000000 0.000000 -16.937119 -7.951679 8.628419 -63.079103 -9.915439 -13.448751 -133.230603 -74.495303 148.558811 0.000000 0.000000 0.000000 1.616485 12.067762 4.226858 43.299731 29.326075 -4.904089 -96.045707 57.131854 -55.445110 0.000000 0.000000 0.000000
-0.603105 0.254466 0.867742 3.656461 -2.000769 -71.202054 -1.832151 -2.872701 -29.670509 6.804696 -15.025781 98.726785 12.538894 -3.184799 -64.796335 0.000000 0.000000 0.000000 -13.449249 0.083372 -46.743614 65.980637 -56.739275 74.621797 -27.653953 -52.734827 8.452218 0.000000 0.000000 0.000000 6.652198 13.964789 -84.268753 0.263948 -0.719126 11.026408 -12.714201 -12.579959 71.971043 -2.994670 -0.276641 2.131096 0.000000 0.000000 0.000000 -20.331787 -6.582195 9.315369 -61.674599 -7.954731 -14.307522 -136.854031 -70.957086 150.757685 0.000000 0.000000 0.000000 -1.492715 9.240247 2.884022 47.892143 28.397702 -4.757437 -110.038248 61.954269 -74.399823 0.000000 0.000000 0.000000
-0.606000 0.257427 0.872009 3.792908 -2.572923 -71.108563 -2.485711 -2.987322 -28.115026 7.012710 -13.219175 94.972178 12.041149 -4.057032 -62.159460 0.000000 0.000000 0.000000 -10.218041 1.418948 -42.214207 83.667580 -49.455286 48.833137 -34.745473 -65.910526 2.949780 0.000000 0.000000 0.000000 6.568797 14.109783 -82.707579 1.920738 -1.413794 8.169872 -16.999089 -15.520706 70.712432 -4.442557 0.215305 -3.391728 0.000000 0.000000 0.000000 -16.626215 -1.107457 6.236301 -66.790640 -4.296315 -14.576368 -121.827179 -66.019309 130.467188 0.000000 0.000000 0.000000 -12.693244 7.288486 2.723965 58.643163 25.637288 -6.313497 -127.673706 64.202263 -99.169173 0.000000 0.000000 0.000000
-0.609472 0.261979 0.876469 4.050016 -3.514847 -71.264876 -3.425996 -2.783993 -24.619961 11.127650 -16.004163 88.385296 11.872155 -8.625636 -60.549132 0.000000 0.000000 0.000000 -6.449161 2.748766 -35.947262 87.782101 -41.856191 37.077731 -42.191339 -70.193544 7.975510 0.000000 0.000000 0.000000 6.417730 14.623258 -81.782206 1.503163 -0.949710 4.391092 -16.291149 -17.404714 72.550640 -2.982955 -2.240810 -7.533312 0.000000 0.000000 0.000000 -19.808197 -5.562936 10.391625 -63.858227 -2.962809 -15.507559 -132.172050 -63.048347 140.599451 0.000000 0.000000 0.000000 -13.686781 1.470005 1.227190 56.426841 26.363702 -5.979041 -130.569747 63.274177 -104.591989 0.000000 0.000000 0.000000
-0.611626 0.270225 0.879644 4.702759 -0.982650 -70.605786 -8.588764 -4.291786 -22.085992 20.497461 -24.691728 82.642836 12.601201 -13.004826 -62.796573 0.000000 0.000000 0.000000 -7.451119 1.475228 -31.720025 90.926639 -38.334388 30.956757 -38.012233 -66.993464 6.191293 0.000000 0.000000 0.000000 7.037919 13.737272 -83.364100 0.062723 -0.320695 6.385029 -16.665529 -17.799077 70.529726 -6.246798 1.054103 -9.228060 0.000000 0.000000 0.000000 -18.826866 2.509233 5.963304 -66.787507 -0.580608 -16.253933 -123.507191 -57.651818 127.777744 0.000000 0.000000 0.000000 -21.619132 1.297082 2.567577 64.428812 24.336772 -8.151999 -139.603204 59.952864 -111.602611 0.000000 0.000000 0.000000
-0.610735 0.276003 0.880745 5.113329 -1.610530 -70.113414 -11.098506 -4.792405 -21.614065 36.562164 -32.414657 68.123220 15.990227 -22.540719 -70.507701 0.000000 0.000000 0.000000 -4.826207 2.144354 -27.605928 85.697504 -34.962647 30.661596 -27.228303 -68.410104 -13.232714 0.000000 0.000000 0.000000 8.659709 15.727933 -82.756851 -0.053001 -0.123048 3.175628 -17.722462 -17.382866 70.851587 -3.749195 -1.344021 -8.493126 0.000000 0.000000 0.000000 -22.268124 -2.122192 9.939285 -64.128448 -2.820744 -15.590212 -129.011670 -59.188492 135.049337 0.000000 0.000000 0.000000 -24.541793 -2.772219 1.978803 67.822260 19.471234 -10.768401 -145.713833 57.340544 -116.216079 0.000000 0.000000 0.000000
-0.606937 0.280131 0.880398 6.848758 -0.617708 -69.904608 -13.234607 -5.639623 -22.738885 49.946172 -35.356659 55.792237 19.671604 -27.654123 -77.696140 0.000000 0.000000 0.000000 -7.033719 1.095295 -24.093564 80.237428 -32.205138 31.953252 -23.766796 -64.519930 -15.877534 0.000000 0.000000 0.000000 12.990068 18.818366 -79.547773 -1.067234 0.451132 0.800743 -21.950851 -18.399850 71.357746 -5.963312 -0.198780 -13.375030 0.000000 0.000000 0.000000 -27.338303 -0.388519 11.932932 -63.464835 -7.937787 -13.727557 -129.901613 -59.953161 140.912871 0.000000 0.000000 0.000000 -30.567324 -4.153431 3.130293 65.317955 16.572602 -13.254199 -149.297124 54.618846 -122.284997 0.000000 0.000000 0.000000
-0.601546 0.283585 0.880543 7.851130 0.895211 -69.244749 -15.083610 -6.791386 -25.422954 55.639809 -35.436046 49.373715 23.120342 -31.102209 -83.540226 0.000000 0.000000 0.000000 -10.230822 -0.058628 -20.315071 76.453983 -31.095600 33.356218 -19.733788 -58.988329 -19.725822 0.000000 0.000000 0.000000 16.058773 20.104075 -77.385402 -1.206885 0.541506 0.042081 -25.686387 -19.876430 71.459332 -7.100195 -0.001252 -16.735990 0.000000 0.000000 0.000000 -32.114347 -3.363529 18.037249 -61.859170 -16.784983 -10.274889 -137.362838 -70.446441 162.013048 0.000000 0.000000 0.000000 -34.054273 -5.089582 4.224755 62.987029 17.437562 -13.720699 -145.009771 56.564936 -121.228298 0.000000 0.000000 0.000000
-0.597390 0.280968 0.881483 8.423121 1.642977 -68.786245 -14.450714 -7.314058 -28.505743 56.558119 -33.895027 45.957950 24.208887 -29.936466 -86.443765 0.000000 0.000000 0.000000 -12.965542 -0.782912 -18.330389 73.469320 -29.256675 33.451780 -15.832347 -54.682580 -25.953697 0.000000 0.000000 0.000000 18.312844 21.006505 -75.306215 -0.865341 0.437686 -1.520722 -30.154951 -21.996116 73.754188 -8.468093 -0.152482 -20.242339 0.000000 0.000000 0.000000 -31.572638 -5.316542 20.702234 -64.909856 -25.469147 -4.482982 -145.200889 -79.867666 178.915790 0.000000 0.000000 0.000000 -35.957232 -4.968838 5.501351 59.713994 20.196678 -13.940641 -138.502945 60.132266 -120.611790 0.000000 0.000000 0.000000
-0.596169 0.280916 0.882561 7.608141 3.792800 -68.381411 -13.995132 -8.064489 -31.168594 56.748646 -33.001795 42.633715 26.475140 -31.701622 -89.765668 0.000000 0.000000 0.000000 -14.227141 -1.259411 -16.642095 68.435883 -27.539327 32.845625 -13.829082 -54.787475 -32.092138 0.000000 0.000000 0.000000 19.332498 19.507541 -73.956590 -0.524020 0.317259 -2.443628 -36.270759 -24.125458 76.227479 -11.289928 0.858082 -21.227308 0.000000 0.000000 0.000000 -27.200465 -1.260179 16.909146 -71.694572 -29.875326 2.758157 -120.783974 -87.430207 159.602479 0.000000 0.000000 0.000000 -36.635910 -1.479579 7.209831 59.946722 25.315537 -14.886596 -127.816465 62.895314 -112.245829 0.000000 0.000000 0.000000
-0.597408 0.279329 0.883935 7.417694 4.369740 -68.681540 -10.047716 -6.794636 -31.515533 55.664404 -31.310118 39.867119 27.672052 -32.737454 -91.550094 0.000000 0.000000 0.000000 -12.685230 -0.981665 -16.600941 62.418066 -26.929326 35.983507 -11.284554 -49.905121 -37.861478 0.000000 0.000000 0.000000 19.665043 18.763589 -72.061088 -0.969454 0.544017 -3.652585 -36.073597 -25.281949 77.308986 -11.853258 0.857507 -24.531228 0.000000 0.000000 0.000000 -15.499703 -11.059032 14.284221 -85.228730 -29.454874 15.694962 72.210196 -74.735865 -27.987297 0.000000 0.000000 0.000000 -36.154832 -2.983148 7.313074 60.608694 27.260543 -14.736158 -106.219676 73.196926 -99.468966 0.000000 0.000000 0.000000
-0.599997 0.277290 0.885028 8.053047 5.511910 -68.946335 -8.792383 -6.207487 -30.041228 56.740738 -28.663401 34.513080 28.576533 -34.345247 -92.132992 0.000000 0.000000 0.000000 -11.311238 -0.783830 -15.131122 58.057400 -24.220444 34.462361 -10.940140 -50.310895 -39.479262 0.000000 0.000000 0.000000 20.244538 18.270603 -70.507971 -1.346499 0.694955 -3.334228 -40.782875 -28.579000 78.969137 -15.227815 1.898602 -30.970327 0.000000 0.000000 0.000000 -7.170041 -5.284894 6.082611 -96.607184 -23.870195 26.053642 66.209073 -65.703979 -20.216220 0.000000 0.000000 0.000000 -39.871650 -0.902464 9.616874 65.385068 32.317244 -18.540345 -82.877115 80.807599 -82.448628 0.000000 0.000000 0.000000
-0.602358 0.274447 0.886208 7.420343 6.876095 -68.990322 -8.973294 -5.454333 -25.215977 64.832551 -24.414669 21.077347 33.249421 -41.058328 -96.199772 0.000000 0.000000 0.000000 -11.759017 -0.982505 -12.202963 56.753546 -22.285210 30.358936 -9.670197 -47.950147 -43.740493 0.000000 0.000000 0.000000 21.089352 17.522761 -69.789779 -2.349296 1.130165 -3.936960 -39.912309 -27.821037 78.313473 -15.241264 2.194023 -32.858015 0.000000 0.000000 0.000000 -1.605477 -4.167438 2.050923 -106.783033 -18.426995 32.606864 65.916412 -60.776726 -19.654604 0.000000 0.000000 0.000000 -39.599018 -0.456236 9.432290 69.717487 30.013650 -19.900705 -12.709239 82.104713 -16.944313 0.000000 0.000000 0.000000
-0.604025 0.273950 0.887564 7.899212 7.662867 -68.777743 -10.225450 -5.004866 -20.980477 68.902673 -19.636397 12.364023 38.130111 -48.775615 -99.238287 0.000000 0.000000 0.000000 -11.770691 -1.029752 -11.111273 55.696256 -20.449753 27.385300 -8.795428 -52.374989 -46.620900 0.000000 0.000000 0.000000 21.746212 17.581155 -69.476959 -3.560606 1.631143 -2.797034 -36.631884 -26.893721 75.756421 -16.089162 3.333923 -32.450504 0.000000 0.000000 0.000000 1.908150 -7.369287 1.492080 -110.658383 -14.253013 30.652444 67.652786 -58.781431 -22.738923 0.000000 0.000000 0.000000 -40.258087 -0.495199 9.109414 75.760226 28.267074 -20.623832 7.877516 76.509979 3.948375 0.000000 0.000000 0.000000
-0.604514 0.273772 0.889193 7.617228 8.457897 -68.473789 -12.888474 -4.828463 -16.951332 74.342089 -17.709145 7.305450 38.353616 -61.452170 -92.588361 0.000000 0.000000 0.000000 -12.260282 -1.155216 -10.029597 54.527011 -18.960810 24.539925 -9.745481 -53.643875 -44.062604 0.000000 0.000000 0.000000 22.408892 17.363296 -69.269849 -4.583168 2.062612 -3.253902 -32.050904 -23.958966 74.951351 -15.152571 3.690188 -30.964487 0.000000 0.000000 0.000000 5.048789 -6.305361 -0.700987 -115.472173 -10.063751 28.913450 63.113846 -60.340516 -22.267095 0.000000 0.000000 0.000000 -37.390086 -2.582836 7.235761 78.978521 25.530654 -18.986496 2.463901 74.722815 1.784786 0.000000 0.000000 0.000000
-0.603953 0.276524 0.890333 7.680139 9.584899 -68.613022 -15.665532 -4.999799 -14.732519 74.536321 -18.598638 8.163782 33.685173 -58.216019 -87.432109 0.000000 0.000000 0.000000 -13.402668 -1.408025 -8.780604 54.192425 -17.944344 22.085324 -9.066019 -55.469572 -46.241318 0.000000 0.000000 0.000000 23.090751 17.177282 -69.412297 -4.081866 1.845188 -2.583013 -32.437083 -21.466127 74.874425 -15.841019 4.737336 -28.624034 0.000000 0.000000 0.000000 0.981261 -0.420809 -1.101661 -112.789946 -4.039390 18.387481 56.080919 -71.526861 -20.507770 0.000000 0.000000 0.000000 -36.156541 0.641507 6.888629 81.096154 23.529119 -19.468431 -4.762660 71.858053 -2.014306 0.000000 0.000000 0.000000
-0.603190 0.279993 0.891752 7.148227 9.003429 -68.515794 -16.483403 -4.847474 -13.572735 71.486968 -20.979463 12.452726 26.535453 -53.841661 -78.744989 0.000000 0.000000 0.000000 -10.837386 -0.978644 -9.049645 50.497784 -17.190023 22.756818 -8.789717 -59.742760 -46.842926 0.000000 0.000000 0.000000 23.193785 17.499713 -69.630527 -4.491711 2.023029 -2.143288 -27.739873 -18.323527 73.071735 -12.867410 4.153279 -24.509876 0.000000 0.000000 0.000000 -1.540393 1.213869 -0.338839 -108.386554 3.048724 2.422989 -19.480591 -79.486108 39.267256 0.000000 0.000000 0.000000 -33.623715 -1.793365 4.851085 81.459054 16.698362 -19.598900 -7.549531 69.393635 -3.028665 0.000000 0.000000 0.000000
-0.602267 0.279796 0.894578 7.019759 9.069263 -68.749125 -16.879181 -4.803645 -12.914269 67.392092 -24.876370 19.546554 21.768645 -43.605361 -74.350152 0.000000 0.000000 0.000000 -8.979039 -0.695614 -9.015788 48.132143 -17.892174 25.784813 -5.637932 -52.707653 -56.013732 0.000000 0.000000 0.000000 23.085303 17.408725 -69.802235 -4.620930 2.081241 -0.970752 -25.038491 -16.131910 72.164122 -11.657871 4.166255 -22.950619 0.000000 0.000000 0.000000 -2.313723 4.626947 -1.469161 -102.544457 10.573665 -11.248057 -58.564540 -67.729803 62.290782 0.000000 0.000000 0.000000 -30.646927 -2.475104 3.567116 78.452798 13.696364 -18.283733 -5.752177 68.656438 -2.087991 0.000000 0.000000 0.000000
-0.601597 0.277738 0.898757 6.325132 8.705788 -68.893203 -16.906911 -5.162660 -14.139931 62.941598 -27.614807 25.872662 20.055355 -38.546615 -72.947614 0.000000 0.000000 0.000000 -7.832095 -0.532798 -8.238644 49.510202 -19.502763 27.355765 -3.358398 -49.601088 -64.310096 0.000000 0.000000 0.000000 22.446953 17.038165 -69.988610 -4.794062 2.160422 0.845768 -21.713967 -13.481847 70.409107 -10.654465 4.664063 -20.768222 0.000000 0.000000 0.000000 -2.609840 7.458363 -2.509888 -95.184564 18.544039 -24.053512 -76.261026 -54.005769 63.207419 0.000000 0.000000 0.000000 -27.040427 -3.027366 2.021530 78.039101 12.193935 -15.836983 -9.203854 67.281707 -3.309669 0.000000 0.000000 0.000000
-0.600646 0.276033 0.903973 5.686545 8.740887 -68.988700 -16.768651 -5.603927 -15.820677 61.032044 -31.350137 32.013968 20.058847 -37.552042 -73.399617 0.000000 0.000000 0.000000 -7.007378 -0.456732 -6.985301 48.456448 -20.387032 29.224460 -3.975325 -42.910334 -67.648827 0.000000 0.000000 0.000000 21.389226 16.229967 -70.892783 -5.294048 2.397905 2.486740 -18.513972 -12.169869 68.990405 -9.430200 4.491030 -19.673333 0.000000 0.000000 0.000000 -2.463731 10.013793 -3.644500 -86.667431 27.684598 -32.794344 -91.542393 -39.164027 58.635199 0.000000 0.000000 0.000000 -25.303272 -4.273551 1.058518 76.597312 13.467364 -12.699564 -6.222789 65.644204 -1.007695 0.000000 0.000000 0.000000
-0.599528 0.277547 0.909475 5.006953 9.002385 -68.900796 -17.531192 -6.189100 -17.190064 55.082127 -35.290687 42.351798 19.011694 -30.668117 -73.663274 0.000000 0.000000 0.000000 -6.154222 -0.354591 -6.533679 44.710697 -20.611487 32.414221 -4.636336 -37.141381 -71.443647 0.000000 0.000000 0.000000 20.477874 15.313446 -71.707650 -6.140053 2.804967 3.808689 -16.931110 -11.806078 68.236672 -10.340398 5.665197 -18.263577 0.000000 0.000000 0.000000 -3.004028 14.179398 -5.528645 -76.349063 35.205271 -35.069758 -102.986443 -29.453067 54.149668 0.000000 0.000000 0.000000 -23.780013 -4.294257 0.592797 77.358872 16.970694 -9.474628 -9.449238 67.123843 -2.427415 0.000000 0.000000 0.000000
-0.597960 0.274579 0.915557 4.527550 8.757698 -68.941369 -17.043764 -6.412240 -18.373938 46.094416 -36.442479 53.520145 18.059653 -21.032329 -75.654229 0.000000 0.000000 0.000000 -5.526712 -0.178661 -8.225692 42.192822 -22.391733 39.092044 -4.868309 -35.986678 -72.763505 0.000000 0.000000 0.000000 19.297120 14.567184 -72.445796 -5.934047 2.710958 3.951360 -16.110848 -10.835576 67.243919 -9.664198 5.609234 -16.418494 0.000000 0.000000 0.000000 1.451409 19.690204 -8.478650 -65.477817 44.518008 -34.230785 -112.528126 -16.040839 36.743624 0.000000 0.000000 0.000000 -24.410353 -3.568058 0.578346 78.121062 18.204068 -7.773058 -0.345775 70.567198 4.200775 0.000000 0.000000 0.000000
-0.596723 0.272910 0.922059 4.345603 6.475828 -69.013120 -14.819973 -5.989491 -19.471339 33.405564 -34.292692 68.334282 14.992547 -9.619338 -72.813011 0.000000 0.000000 0.000000 -4.292763 0.192159 -9.719511 42.367667 -21.916050 39.865701 -5.241959 -36.247140 -70.162097 0.000000 0.000000 0.000000 17.521327 15.012871 -73.752836 -6.420918 3.008754 6.331785 -12.884821 -12.173705 65.453883 -7.584341 3.760277 -16.942985 0.000000 0.000000 0.000000 6.764590 15.700670 -7.091534 -64.804547 46.826100 -34.036775 -116.034108 -14.355848 35.503865 0.000000 0.000000 0.000000 -26.979313 -6.418814 0.349569 79.505637 20.616272 -5.834661 11.077377 74.113122 13.397829 0.000000 0.000000 0.000000
-0.595930 0.269890 0.928941 4.101924 4.739273 -69.214858 -11.976786 -6.197173 -23.855691 14.048243 -23.767054 89.996343 12.645287 0.558392 -69.500428 0.000000 0.000000 0.000000 -5.181787 0.301417 -13.788537 41.437545 -21.723309 43.397900 -7.148362 -31.555150 -64.119591 0.000000 0.000000 0.000000 14.653666 14.023404 -74.281979 -5.474320 2.563896 6.834148 -11.909687 -14.586301 65.066498 -10.424544 5.375155 -19.075348 0.000000 0.000000 0.000000 9.317740 20.244770 -9.166613 -53.912908 49.530223 -27.133666 -121.392854 -3.635445 18.099938 0.000000 0.000000 0.000000 -26.823702 -7.993796 0.619083 73.438005 24.259521 -4.909913 36.054149 78.051701 32.767510 0.000000 0.000000 0.000000
-0.595652 0.270689 0.935355 4.149214 1.814442 -69.752983 -8.878179 -5.483453 -26.887015 5.871562 -12.995267 93.882963 11.172186 6.254345 -61.724392 0.000000 0.000000 0.000000 -6.072141 0.476248 -16.856565 42.345633 -21.039679 43.908393 -9.023319 -30.185215 -48.858717 0.000000 0.000000 0.000000 12.873761 14.674141 -74.087127 -3.188387 1.380256 6.296859 -13.996518 -16.665194 65.503601 -10.863589 5.456416 -16.574384 0.000000 0.000000 0.000000 11.607221 18.191323 -8.954966 -56.467826 49.615069 -27.382542 -120.024352 -3.397826 20.449291 0.000000 0.000000 0.000000 -27.231131 -6.916225 1.393754 60.892751 26.428019 -4.554082 58.546672 83.528676 52.035036 0.000000 0.000000 0.000000
-0.595530 0.270943 0.940330 3.178331 0.960014 -70.451148 -8.105946 -5.236399 -27.405125 1.910782 -7.341008 92.066603 10.522845 7.629778 -55.679097 0.000000 0.000000 0.000000 -10.397096 -0.421169 -18.251655 45.795750 -21.670896 42.252520 -10.284704 -32.341436 -38.349486 0.000000 0.000000 0.000000 10.886623 13.175239 -73.570709 -2.664816 1.165430 3.213282 -13.780465 -16.279155 66.227506 -10.606698 5.364165 -15.601649 0.000000 0.000000 0.000000 14.588301 19.787957 -9.670894 -58.833868 51.141772 -28.464232 -124.587047 -1.266605 17.776433 0.000000 0.000000 0.000000 -28.700415 -6.127315 1.794452 47.943625 27.869664 -3.354647 79.557370 82.529685 67.036536 0.000000 0.000000 0.000000
-0.595623 0.275175 0.943773 2.425924 0.741116 -70.224418 -8.898360 -5.301849 -26.158470 -0.244985 -4.134040 88.158538 10.371075 6.782978 -54.050609 0.000000 0.000000 0.000000 -13.248812 -1.082761 -19.912389 48.853287 -22.262677 40.392656 -9.645851 -30.468780 -41.959830 0.000000 0.000000 0.000000 8.572959 11.418410 -75.464031 -3.182653 1.412328 4.686530 -11.990888 -16.306670 64.327336 -10.730371 5.496005 -16.379970 0.000000 0.000000 0.000000 16.171407 20.454340 -9.685945 -69.429626 52.287916 -34.536621 -122.197733 -2.897010 18.872340 0.000000 0.000000 0.000000 -32.740755 -4.937207 2.651310 42.188602 29.322995 -2.679101 140.177859 87.818364 131.934454 0.000000 0.000000 0.000000
-0.596465 0.274653 0.946292 2.994555 -2.142571 -70.120277 -4.688951 -3.342327 -23.938954 -3.127277 0.886074 85.475967 10.843175 5.894190 -56.790971 0.000000 0.000000 0.000000 -11.540315 -0.190823 -24.140781 48.209983 -21.148717 41.258041 -9.833653 -30.785345 -38.512359 0.000000 0.000000 0.000000 7.709744 12.949023 -75.449651 -2.126608 0.909351 3.677106 -13.514098 -16.610828 65.427730 -9.676128 4.611046 -14.611244 0.000000 0.000000 0.000000 12.679689 16.861918 -8.465128 -79.900307 46.180014 -37.596563 -116.105407 -10.434931 32.867914 0.000000 0.000000 0.000000 -34.629586 -6.009743 2.776461 33.491654 33.602293 -2.307813 -97.295692 84.418139 -100.038937 0.000000 0.000000 0.000000
-0.598378 0.274827 0.947933 2.692486 -2.212384 -70.175545 -2.919112 -2.218760 -18.700809 -7.042429 4.733349 79.137197 11.204181 8.754916 -60.037850 0.000000 0.000000 0.000000 -12.093191 -0.265369 -25.598324 47.102682 -21.525222 43.061469 -9.130628 -29.243052 -44.858774 0.000000 0.000000 0.000000 5.689174 11.163036 -75.286844 -3.417119 1.548830 3.946960 -10.906165 -15.748831 64.698830 -9.789494 4.842971 -16.294274 0.000000 0.000000 0.000000 8.406672 12.363339 -6.180740 -88.755908 34.662548 -35.795541 -109.961129 -26.962818 56.614247 0.000000 0.000000 0.000000 -34.691191 -6.592241 2.292817 29.810798 32.870040 -2.163809 -92.890494 76.793079 -87.174043 0.000000 0.000000 0.000000
-0.601349 0.270329 0.948284 3.548066 -3.380660 -69.835984 -0.775904 -1.423684 -16.514897 -9.369449 8.024617 79.068416 11.514071 9.047579 -62.708321 0.000000 0.000000 0.000000 -11.292520 0.066224 -24.170537 45.498909 -20.574620 44.432881 -8.601865 -27.750593 -51.362676 0.000000 0.000000 0.000000 3.759588 11.031080 -77.471138 -2.718256 1.161885 6.852380 -12.776028 -16.203031 66.580568 -11.355716 6.314146 -13.531258 0.000000 0.000000 0.000000 -0.670564 14.799854 -6.080826 -88.356953 22.829414 -26.626269 -100.426905 -39.853328 71.043551 0.000000 0.000000 0.000000 -37.239605 -3.974110 2.883160 31.913117 29.556870 -2.978917 -109.369450 69.441795 -97.641517 0.000000 0.000000 0.000000
-0.603794 0.271436 0.946995 2.526531 -4.888944 -68.973840 -0.540611 -1.302414 -17.244380 -9.344236 8.828344 82.992019 12.012352 6.360925 -64.520885 0.000000 0.000000 0.000000 -10.699917 0.375769 -23.682131 40.812735 -19.099974 47.639448 -8.368771 -26.060336 -56.185579 0.000000 0.000000 0.000000 0.969467 9.501667 -78.677181 -2.079756 0.774077 9.209420 -11.641275 -15.426221 66.799634 -8.333006 4.194954 -10.098101 0.000000 0.000000 0.000000 -8.404086 7.674156 -1.094652 -86.193409 6.787509 -17.678283 -83.038632 -54.728716 73.270073 0.000000 0.000000 0.000000 -33.369993 -2.364617 1.996554 30.122460 26.771894 -3.305632 -104.792465 59.038353 -80.021767 0.000000 0.000000 0.000000
-0.605159 0.269435 0.945872 3.116024 -6.616073 -68.636377 1.004849 -0.809114 -17.553099 -11.808544 13.073369 84.839074 11.928758 11.398110 -66.191129 0.000000 0.000000 0.000000 -9.683158 0.616672 -20.568310 33.612370 -15.638960 53.049891 -9.065827 -19.128231 -56.032349 0.000000 0.000000 0.000000 -0.961716 9.595247 -79.835624 -1.783426 0.514506 12.447692 -14.305194 -15.826086 69.433763 -5.656514 2.160463 -0.500580 0.000000 0.000000 0.000000 -23.831252 0.833472 8.434111 -73.668292 -13.210350 -9.483425 -49.710661 -69.093975 61.727506 0.000000 0.000000 0.000000 -31.212693 1.567398 2.207451 35.599524 24.292277 -4.795100 -108.762488 54.833835 -78.071598 0.000000 0.000000 0.000000
-0.605684 0.265324 0.944711 5.226676 -12.238265 -69.341612 5.431286 0.819818 -18.934364 -10.755597 16.840070 88.347683 12.691633 9.256606 -66.988172 0.000000 0.000000 0.000000 -5.579360 2.474517 -23.456598 33.132125 -14.316629 59.633347 -8.493001 -22.181476 -57.249048 0.000000 0.000000 0.000000 -2.788983 12.947550 -78.183964 3.486785 -2.519261 12.627274 -22.433821 -16.816651 75.064854 -7.410339 2.114815 -2.790311 0.000000 0.000000 0.000000 -44.557360 4.871121 17.073229 -50.646854 -33.090126 -10.167729 -43.372647 -73.133645 63.294632 0.000000 0.000000 0.000000 -27.850628 2.756726 2.546355 38.374459 25.750726 -6.566321 -107.978935 42.758806 -63.985477 0.000000 0.000000 0.000000
-0.605693 0.265709 0.943570 4.539607 -12.339394 -68.171497 5.551235 0.881936 -22.118282 -13.670016 19.431360 85.537813 12.343379 13.765708 -71.770081 0.000000 0.000000 0.000000 -8.713665 1.314064 -20.468185 35.460394 -14.835166 58.186473 -7.194703 -27.339600 -66.584906 0.000000 0.000000 0.000000 -2.131209 13.859148 -79.949760 2.333470 -2.327536 18.918949 -19.683588 -15.737611 70.586865 -0.669815 -5.366960 -3.945050 0.000000 0.000000 0.000000 -52.234142 -8.319328 28.154584 -33.084087 -33.810305 -9.948652 28.331429 -78.350460 -4.776241 0.000000 0.000000 0.000000 -27.240991 1.188098 1.661417 48.573805 14.402656 -9.625652 -137.004800 37.215951 -82.237797 0.000000 0.000000 0.000000
