HIERARCHY
ROOT Hips
{
	OFFSET -0.001795 -0.223333 0.028219
	CHANNELS 6 Xposition Yposition Zposition Zrotation Yrotation Xrotation
	JOINT LeftUpLeg
	{
		OFFSET 0.069520 -0.091406 -0.006815
		CHANNELS 3 Zrotation Yrotation Xrotation
		JOINT LeftLeg
		{
			OFFSET 0.034277 -0.375199 -0.004496
			CHANNELS 3 Zrotation Yrotation Xrotation
			JOINT LeftFoot
			{
				OFFSET -0.013596 -0.397961 -0.043693
				CHANNELS 3 Zrotation Yrotation Xrotation
				JOINT LeftToe
				{
					OFFSET 0.026358 -0.055791 0.119288
					CHANNELS 3 Zrotation Yrotation Xrotation
					End Site
					{
						OFFSET 0.000000 0.000000 0.000000
					}
				}
			}
		}
	}
	JOINT RightUpLeg
	{
		OFFSET -0.067670 -0.090522 -0.004320
		CHANNELS 3 Zrotation Yrotation Xrotation
		JOINT RightLeg
		{
			OFFSET -0.038290 -0.382569 -0.008850
			CHANNELS 3 Zrotation Yrotation Xrotation
			JOINT RightFoot
			{
				OFFSET 0.015774 -0.398415 -0.042312
				CHANNELS 3 Zrotation Yrotation Xrotation
				JOINT RightToe
				{
					OFFSET -0.025372 -0.048144 0.123348
					CHANNELS 3 Zrotation Yrotation Xrotation
					End Site
					{
						OFFSET 0.000000 0.000000 0.000000
					}
				}
			}
		}
	}
	JOINT Spine
	{
		OFFSET -0.002533 0.108963 -0.026696
		CHANNELS 3 Zrotation Yrotation Xrotation
		JOINT Spine1
		{
			OFFSET 0.005487 0.135180 0.001092
			CHANNELS 3 Zrotation Yrotation Xrotation
			JOINT Spine2
			{
				OFFSET 0.001457 0.052922 0.025425
				CHANNELS 3 Zrotation Yrotation Xrotation
				JOINT Neck
				{
					OFFSET -0.002778 0.213870 -0.042857
					CHANNELS 3 Zrotation Yrotation Xrotation
					JOINT Head
					{
						OFFSET 0.005152 0.064970 0.051349
						CHANNELS 3 Zrotation Yrotation Xrotation
						End Site
						{
							OFFSET 0.000000 0.000000 0.000000
						}
					}
				}
				JOINT LeftShoulder
				{
					OFFSET 0.078845 0.121749 -0.034090
					CHANNELS 3 Zrotation Yrotation Xrotation
					JOINT LeftArm
					{
						OFFSET 0.090977 0.030469 -0.008868
						CHANNELS 3 Zrotation Yrotation Xrotation
						JOINT LeftForeArm
						{
							OFFSET 0.259612 -0.012772 -0.027456
							CHANNELS 3 Zrotation Yrotation Xrotation
							JOINT LeftHand
							{
								OFFSET 0.249234 0.008986 -0.001171
								CHANNELS 3 Zrotation Yrotation Xrotation
								End Site
								{
									OFFSET 0.000000 0.000000 0.000000
								}
							}
						}
					}
				}
				JOINT RightShoulder
				{
					OFFSET -0.081759 0.118833 -0.038615
					CHANNELS 3 Zrotation Yrotation Xrotation
					JOINT RightArm
					{
						OFFSET -0.096012 0.032551 -0.009143
						CHANNELS 3 Zrotation Yrotation Xrotation
						JOINT RightForeArm
						{
							OFFSET -0.253742 -0.013329 -0.021401
							CHANNELS 3 Zrotation Yrotation Xrotation
							JOINT RightHand
							{
								OFFSET -0.255298 0.007772 -0.005559
								CHANNELS 3 Zrotation Yrotation Xrotation
								End Site
								{
									OFFSET 0.000000 0.000000 0.000000
								}
							}
						}
					}
				}
			}
		}
	}
}
MOTION
Frames: 68
Frame Time: 0.050000
0.000000 0.781700 0.000000 1.018578 -6.998504 6.483895 7.313621 0.390301 -49.015361 -7.462902 7.005897 72.372141 8.647920 16.448418 -16.239696 0.000000 0.000000 0.000000 -4.461442 1.285108 -15.448754 8.484683 -0.510526 57.118423 -4.521707 -5.948051 -13.328673 0.000000 0.000000 0.000000 6.685501 -4.416903 62.050399 -7.325237 0.784579 -59.902947 4.905247 11.613615 33.296931 16.928818 -8.976499 -22.793514 0.000000 0.000000 0.000000 -35.727452 -8.402324 -0.531058 -32.291061 14.246913 -8.129684 -37.769068 -69.263906 28.662225 0.000000 0.000000 0.000000 35.951941 11.991257 11.583076 33.478452 24.848105 -1.030984 -18.287526 43.710259 -4.243991 0.000000 0.000000 0.000000
-0.008272 0.782851 0.124372 0.455900 -10.599053 10.262073 10.520369 4.419942 -60.617666 -9.737701 6.581348 53.394117 9.856677 19.648074 -6.121578 0.000000 0.000000 0.000000 -3.499262 1.075490 -11.324579 4.613561 3.116155 54.261334 0.188738 0.202585 0.438897 0.000000 0.000000 0.000000 0.737936 0.372123 56.523901 1.551971 1.779238 -58.175957 5.835933 20.060975 32.122494 13.019546 -3.703789 -26.162609 0.000000 0.000000 0.000000 -32.849513 -3.924978 -6.930016 -31.859854 20.123891 -8.451510 -59.165074 -63.653838 38.981663 0.000000 0.000000 0.000000 32.544032 8.635351 11.300972 33.900875 33.284328 0.890666 -18.717766 52.972217 -4.463638 0.000000 0.000000 0.000000
-0.019696 0.779540 0.263070 2.448207 -13.270224 10.943257 10.570109 5.978941 -63.064638 -12.689473 5.765334 34.972202 11.298492 21.781837 1.181805 0.000000 0.000000 0.000000 -6.348656 0.449651 1.411230 0.507628 4.592403 44.268476 -0.459717 1.419588 -3.612284 0.000000 0.000000 0.000000 -1.753885 2.318647 53.461052 -5.206625 1.343275 -61.393676 8.180367 16.196157 36.322090 9.058049 -2.529514 -23.405795 0.000000 0.000000 0.000000 -30.967654 0.069726 -6.997299 -30.256828 20.543351 -8.786624 -69.091137 -69.319955 51.597949 0.000000 0.000000 0.000000 29.467834 10.570469 10.573973 32.024844 37.160890 1.577505 -16.031992 60.595380 -3.639849 0.000000 0.000000 0.000000
-0.032853 0.768290 0.416472 3.677729 -14.039281 12.855732 9.920398 6.398429 -66.095374 -14.212563 6.192376 33.363832 9.260078 18.019632 8.678454 0.000000 0.000000 0.000000 -8.641192 0.857426 11.805121 -1.007793 3.845686 35.845028 3.471288 3.035130 7.184490 0.000000 0.000000 0.000000 -5.890831 4.194504 48.161225 -5.190696 1.466192 -56.617868 7.268209 18.152529 32.327185 14.065454 -6.389570 -20.474794 0.000000 0.000000 0.000000 -30.321727 1.991518 -8.920636 -27.097454 15.768416 -6.408898 -78.516916 -70.834187 60.496506 0.000000 0.000000 0.000000 24.948542 8.932065 8.947891 38.433763 39.979961 4.548030 -15.662231 63.392750 -2.376204 0.000000 0.000000 0.000000
-0.044432 0.747427 0.574345 5.523803 -11.679119 12.397547 4.805457 1.913489 -68.399728 -10.869812 6.152158 47.120724 9.642003 19.161429 2.485541 0.000000 0.000000 0.000000 -7.784036 0.696678 19.183629 -3.105739 4.535756 36.939990 5.364215 3.296930 13.211450 0.000000 0.000000 0.000000 -7.738442 4.830374 49.718778 -10.084961 1.064144 -56.833849 7.991950 12.367610 31.089919 14.753044 -7.926109 -19.337203 0.000000 0.000000 0.000000 -33.750339 -5.209658 -2.652310 -26.320942 7.541046 -4.966868 -79.233310 -78.743734 70.263944 0.000000 0.000000 0.000000 23.644829 10.368828 8.148393 42.994537 41.771361 7.129962 -16.837708 65.763954 -3.682807 0.000000 0.000000 0.000000
-0.050064 0.726717 0.721925 5.444104 -9.246647 10.965423 1.154593 -1.744663 -68.154130 -8.335565 5.879923 61.727117 11.402482 23.487382 -8.051985 0.000000 0.000000 0.000000 -7.884499 0.433698 13.781809 0.710030 4.986604 56.070864 3.539601 1.468658 11.353834 0.000000 0.000000 0.000000 -8.170529 4.971960 54.207707 -6.015634 1.223823 -54.520755 1.781158 10.973470 27.907254 18.977454 -11.653183 -17.134974 0.000000 0.000000 0.000000 -35.664501 -12.373339 2.759372 -24.767328 -7.745967 -2.243788 22.244430 -85.857805 -17.781875 0.000000 0.000000 0.000000 25.149118 16.301007 11.832164 36.891954 42.028497 5.688151 -26.813670 61.908214 -10.229623 0.000000 0.000000 0.000000
-0.052033 0.715798 0.860934 5.549805 -6.507403 10.438672 -0.238190 -3.832554 -64.394811 -7.980103 6.271932 71.815902 12.651779 28.284436 -17.417862 0.000000 0.000000 0.000000 -8.602852 0.500992 1.639206 4.857285 2.767360 75.221724 -1.463213 -4.925829 3.049996 0.000000 0.000000 0.000000 -8.061637 4.679303 59.904269 -0.772489 1.420935 -55.719604 -2.313787 8.466202 29.470777 20.218824 -12.807781 -18.225854 0.000000 0.000000 0.000000 -40.131941 -21.916914 11.366253 -14.428305 -23.989583 -0.742627 64.899691 -73.194435 -47.204382 0.000000 0.000000 0.000000 28.377819 19.313010 13.909930 29.239907 41.105476 3.128240 -30.975864 55.996762 -12.227137 0.000000 0.000000 0.000000
-0.052334 0.717686 0.997741 4.439276 -4.198738 9.624479 0.428319 -3.871459 -55.914593 -8.193625 6.718320 77.241488 11.904268 28.042554 -25.654479 0.000000 0.000000 0.000000 -7.081405 0.950498 -14.246221 5.886521 0.996060 91.275365 -4.757039 -10.260678 -6.789718 0.000000 0.000000 0.000000 -4.758547 2.196009 68.998645 -4.173214 1.032611 -64.310375 -1.630032 -0.463184 35.893373 18.209347 -17.185800 -9.530978 0.000000 0.000000 0.000000 -44.558707 -25.528637 20.143188 -0.626297 -31.821021 -3.169243 77.977072 -65.962605 -52.933798 0.000000 0.000000 0.000000 33.917176 23.642640 14.925901 22.941032 34.108264 0.365250 -25.672032 54.604817 -10.582288 0.000000 0.000000 0.000000
-0.052385 0.732928 1.140839 2.201254 -6.126427 8.351927 2.856629 -1.833213 -45.939238 -7.628372 7.680821 77.696321 13.077756 28.254664 -12.563751 0.000000 0.000000 0.000000 -4.959123 2.900201 -34.405334 7.519467 0.370909 102.256072 -7.389441 -17.896358 -14.667271 0.000000 0.000000 0.000000 -2.896021 2.192322 80.572138 -0.047758 1.545606 -79.981346 -2.579722 1.128523 50.509412 18.580856 -23.679414 -5.864037 0.000000 0.000000 0.000000 -45.585527 -28.011586 22.197687 7.444542 -35.375174 -5.289210 103.335657 -62.934369 -74.510114 0.000000 0.000000 0.000000 42.140628 22.872561 16.907451 11.700089 31.621167 -2.616140 -28.499579 55.811010 -13.508765 0.000000 0.000000 0.000000
-0.052658 0.753328 1.295316 -0.375464 -6.815476 8.690126 4.721079 -0.933915 -31.396460 -5.881567 6.204502 71.337042 10.071229 20.581831 -1.885426 0.000000 0.000000 0.000000 -5.781545 5.077925 -54.182684 11.933822 -7.117210 101.048158 -9.083246 -26.479309 -24.643502 0.000000 0.000000 0.000000 1.497372 -1.648550 89.924935 0.740227 1.569196 -102.296719 -1.793381 0.619345 69.772211 -17.614263 -28.614119 118.293269 0.000000 0.000000 0.000000 -57.869883 -26.231562 23.693019 12.798864 -34.308758 -6.134422 108.272207 -68.529840 -89.421387 0.000000 0.000000 0.000000 46.897084 21.747016 16.693379 7.912672 25.458014 -3.822127 -29.549001 57.090507 -16.491911 0.000000 0.000000 0.000000
-0.057202 0.764333 1.465410 -2.683787 -9.242256 8.370987 7.569670 -0.174710 -18.092301 -5.197282 6.676350 66.616869 2.135333 8.884510 17.356676 0.000000 0.000000 0.000000 -8.444786 6.607927 -68.727139 20.299801 -15.690656 87.885662 -8.637228 -31.457705 -36.138749 0.000000 0.000000 0.000000 6.274383 -7.310642 104.588293 13.959379 15.834104 -147.600914 4.544461 22.404414 101.307068 -20.702599 -9.851930 136.138032 0.000000 0.000000 0.000000 -65.384827 -24.989893 11.507082 3.130165 -27.316065 -2.990847 179.119027 -86.048212 -179.428517 0.000000 0.000000 0.000000 47.989851 16.953390 21.664741 7.166537 18.783968 -6.169735 -28.819060 59.614207 -22.227908 0.000000 0.000000 0.000000
-0.067968 0.746494 1.647952 1.205129 -7.848387 4.432123 5.375655 -0.054428 -0.661132 -1.710998 2.742421 64.778958 -8.339565 -6.071777 19.097769 0.000000 0.000000 0.000000 -17.668872 0.197454 -73.652336 34.268087 -27.216897 75.646355 -7.874675 -37.700285 -43.244743 0.000000 0.000000 0.000000 13.765409 -28.410707 123.657537 165.167898 28.267621 -54.500881 168.232256 12.240956 -147.918960 -37.671734 42.795519 115.025553 0.000000 0.000000 0.000000 -78.721988 -19.768905 -5.869328 -2.331217 -6.482377 12.558431 -48.542310 -71.680545 129.196060 0.000000 0.000000 0.000000 28.557589 -14.493582 102.086245 -20.392398 34.972677 -14.529329 -61.019460 10.265968 -22.247193 0.000000 0.000000 0.000000
-0.084345 0.699518 1.833463 7.121020 2.165661 -17.986382 7.348950 0.781590 36.464857 10.226902 -11.095986 60.602061 -11.482490 -14.819322 12.290627 0.000000 0.000000 0.000000 -26.042355 -7.353068 -49.480095 46.686904 -40.063224 75.596899 -4.619091 -37.164149 -67.456091 0.000000 0.000000 0.000000 60.538935 -74.968679 100.128300 12.654252 37.598332 170.622097 127.876360 55.780425 143.743260 -27.970000 9.498003 118.823854 0.000000 0.000000 0.000000 -68.994044 -20.596143 -52.134106 26.864706 21.034452 9.102705 -87.217044 0.583344 47.640600 0.000000 0.000000 0.000000 41.874837 -17.954409 29.092833 26.500978 -28.253862 -14.952749 29.604830 70.816771 8.571615 0.000000 0.000000 0.000000
-0.102675 0.624701 2.012003 8.831731 15.804328 -49.196289 13.254099 -12.604594 77.162067 28.654403 -20.966637 49.414810 -14.892011 -23.981243 9.513994 0.000000 0.000000 0.000000 -48.050661 -15.402213 -12.000397 77.240985 -59.669089 68.994319 -5.756817 -33.962912 -85.563250 0.000000 0.000000 0.000000 157.907994 55.913464 -7.493192 1.133378 38.244050 151.343297 -98.069168 -62.370627 102.473637 66.656414 -63.484433 29.833728 0.000000 0.000000 0.000000 -61.320845 11.887474 33.621546 -9.509811 20.284144 -8.180660 -115.721841 -45.661691 38.610213 0.000000 0.000000 0.000000 -12.367580 -24.368145 0.226403 -50.178115 -49.784891 10.476786 90.535699 -21.509840 -33.450034 0.000000 0.000000 0.000000
-0.121931 0.527754 2.176305 2.051412 10.645221 -67.596662 24.171427 -32.068219 100.964593 43.147659 -22.250024 37.327808 -14.459876 -26.422555 8.722335 0.000000 0.000000 0.000000 -54.880351 -21.500168 3.649625 156.391506 -32.423091 5.439428 -4.782811 -51.984389 -90.599822 0.000000 0.000000 0.000000 7.713952 27.545499 -125.814597 -4.841836 16.595067 141.378547 -7.180957 -20.955848 10.639816 42.904945 -47.747707 -18.158560 0.000000 0.000000 0.000000 -26.799843 3.446225 -3.756767 -22.254522 28.515177 -13.055498 -133.654893 -0.779737 23.207606 0.000000 0.000000 0.000000 -31.586652 -20.350603 4.772609 -46.765599 -31.913756 14.450735 84.751262 -27.189294 -26.993104 0.000000 0.000000 0.000000
-0.140381 0.436625 2.321042 -1.236761 10.870379 -78.531472 37.780038 -52.195427 99.951880 63.930217 -23.354322 21.134337 -17.596027 -45.859219 0.135321 0.000000 0.000000 0.000000 -68.416156 -45.945560 -22.611627 152.848858 47.132616 -17.607173 -36.420456 -20.074562 -166.325747 0.000000 0.000000 0.000000 4.643754 3.428883 -79.925475 -8.283518 19.419072 124.502458 2.695086 -2.373913 -23.585333 40.225853 -39.712143 -12.629324 0.000000 0.000000 0.000000 -17.708529 -2.306919 -2.621940 -25.631665 21.250579 -9.752025 -159.462813 -6.061252 22.685526 0.000000 0.000000 0.000000 -37.155532 -14.560184 -0.714102 -51.846917 -12.212816 10.935388 69.080317 -34.233073 -28.034218 0.000000 0.000000 0.000000
-0.157684 0.347942 2.446400 -1.261331 5.238395 -87.995255 105.045951 -63.978968 40.093242 86.057967 -7.227860 -10.986047 32.102929 -67.272818 -75.399905 0.000000 0.000000 0.000000 -24.505381 -24.769439 -86.148972 136.556236 -4.151063 -5.286214 -2.038354 -25.161768 -120.804377 0.000000 0.000000 0.000000 0.359701 2.550928 -46.577752 -9.001646 10.574092 107.318761 6.538673 -2.488472 -47.228112 22.988647 -20.530509 0.349150 0.000000 0.000000 0.000000 -7.845983 -10.545286 2.817878 -48.226352 11.811222 -10.018536 -169.418070 -15.164994 129.057769 0.000000 0.000000 0.000000 -48.145196 -2.323351 2.550605 -37.355963 0.324193 4.453571 35.884055 -19.917027 -7.712778 0.000000 0.000000 0.000000
-0.172387 0.275458 2.549703 -0.314569 3.746051 -94.862517 136.601918 -13.354759 -10.093743 44.136218 22.083016 -84.716476 39.725969 -13.157235 -127.423860 0.000000 0.000000 0.000000 -17.643950 -10.127569 -74.872408 107.965249 -28.206192 11.961343 3.254987 -34.753451 -103.661812 0.000000 0.000000 0.000000 -0.440433 1.645401 -31.417301 -8.228862 5.889560 72.512358 2.085134 -7.589495 -23.892457 18.791813 -16.511544 9.998734 0.000000 0.000000 0.000000 -1.396517 -18.397606 7.899571 -57.483195 -8.958925 -2.488922 177.398702 -34.751856 -150.945198 0.000000 0.000000 0.000000 -54.507341 0.780901 3.416477 -17.855365 5.098341 0.926338 2.442725 2.910712 0.055163 0.000000 0.000000 0.000000
-0.182498 0.228747 2.631094 1.273966 -1.751351 -97.690553 74.910858 34.812678 -58.737296 -82.064796 -54.474788 -55.576300 10.077346 22.709557 -114.913669 0.000000 0.000000 0.000000 -15.145624 -2.797983 -58.059792 69.856409 -30.492343 33.869088 -3.141506 -35.411995 -81.231034 0.000000 0.000000 0.000000 1.960749 3.183086 -20.244447 -5.399869 5.026514 39.321056 -0.913192 -18.878106 4.800456 9.153325 -6.272065 -3.554833 0.000000 0.000000 0.000000 4.633580 -13.856599 6.945745 -70.416976 -29.686623 12.178168 150.205388 -49.685668 -91.017290 0.000000 0.000000 0.000000 -56.529521 -0.258036 6.035953 0.684614 14.906634 -1.085075 -36.227085 13.628074 -6.392929 0.000000 0.000000 0.000000
-0.188563 0.198538 2.695102 7.640481 -3.526122 -98.545627 24.371873 14.849882 -61.712134 -64.526361 62.589268 81.935370 -0.788016 41.470852 -101.537889 0.000000 0.000000 0.000000 -12.032566 1.064945 -47.414281 46.746784 -19.960036 42.505852 -8.170138 -44.055343 -59.124066 0.000000 0.000000 0.000000 7.595327 5.878032 -16.954805 -7.690973 8.038155 27.172115 -6.987921 -23.968585 18.743864 4.778527 -4.139479 -3.251758 0.000000 0.000000 0.000000 2.882928 -17.259913 8.848696 -64.522740 -39.230871 16.808055 106.390929 -44.667394 -34.710111 0.000000 0.000000 0.000000 -53.085651 0.245717 7.041163 13.298795 24.124948 -1.736559 -56.729282 18.867449 -16.432350 0.000000 0.000000 0.000000
-0.191063 0.180649 2.748138 10.241541 -7.468708 -98.410281 6.191925 1.874195 -43.691154 9.248947 -15.639666 104.596373 12.870516 14.657760 -74.990089 0.000000 0.000000 0.000000 -10.062058 1.439315 -35.150272 26.975049 -7.567963 40.534365 -15.820550 -30.869823 -17.233034 0.000000 0.000000 0.000000 10.926295 7.336654 -17.062215 -4.320169 4.197992 20.205198 -16.356166 -25.335580 29.791050 1.033469 -3.023690 -10.540077 0.000000 0.000000 0.000000 4.452522 -16.311455 6.701741 -66.827442 -44.482182 23.876118 92.989810 -34.543632 -14.827142 0.000000 0.000000 0.000000 -49.915048 -1.824388 8.663196 21.297843 28.145605 -2.879398 -65.594113 28.751245 -29.994779 0.000000 0.000000 0.000000
-0.192796 0.166758 2.796127 15.468350 -10.221267 -97.589677 0.051512 -0.910849 -38.475490 24.311113 -17.509697 77.483278 9.708084 -5.689529 -49.288965 0.000000 0.000000 0.000000 -10.114599 1.480577 -30.903309 19.749257 -2.576140 36.650943 -10.634700 -22.206112 14.709224 0.000000 0.000000 0.000000 15.623192 9.122192 -15.325747 -7.063245 6.676362 17.221631 -18.011942 -26.370027 33.705219 -2.330451 -0.936609 -7.550161 0.000000 0.000000 0.000000 3.355062 -19.447813 8.164897 -63.120172 -45.004667 22.929523 84.191115 -26.642742 -6.839788 0.000000 0.000000 0.000000 -43.513550 0.736666 9.500744 24.402263 23.549375 -3.215437 -71.094451 40.547470 -44.932623 0.000000 0.000000 0.000000
-0.196014 0.159965 2.839903 17.219733 -13.963148 -95.817803 -3.383832 -2.217331 -35.385445 30.404431 -14.676506 64.240138 -10.449127 -13.736143 3.004851 0.000000 0.000000 0.000000 -10.067981 1.617304 -29.195110 17.719322 -1.172836 30.977897 -5.517400 -19.707891 35.363413 0.000000 0.000000 0.000000 18.710172 10.005567 -13.858753 -6.277599 6.698273 18.221165 -18.802503 -32.228431 33.165485 -4.916549 0.071774 -10.377532 0.000000 0.000000 0.000000 2.667287 -19.403087 9.173494 -59.789862 -44.491129 22.416885 82.073830 -23.807988 -4.307385 0.000000 0.000000 0.000000 -41.854056 -2.807684 12.021842 26.648489 27.594265 -4.140638 -74.723050 48.027279 -59.389502 0.000000 0.000000 0.000000
-0.202498 0.156571 2.878978 19.331506 -16.453442 -92.494704 -6.258638 -3.003060 -35.774570 36.285082 -13.877310 54.004673 -19.330785 -6.397597 37.802422 0.000000 0.000000 0.000000 -10.882332 1.852396 -29.621654 19.973555 -1.320388 25.084008 -7.967741 -22.842721 41.394585 0.000000 0.000000 0.000000 20.972902 11.046943 -14.245709 -6.782363 9.053240 22.613379 -16.581125 -35.732043 27.297442 -5.024496 2.595948 -2.829194 0.000000 0.000000 0.000000 2.844004 -23.777215 11.991211 -56.350334 -43.938858 20.732731 76.877694 -21.894317 -4.603253 0.000000 0.000000 0.000000 -32.685764 0.297418 11.438098 29.047099 23.595962 -2.918380 -81.876088 56.985837 -76.058614 0.000000 0.000000 0.000000
-0.209669 0.152296 2.911522 21.410317 -18.358039 -91.085087 -8.432447 -3.616336 -34.620178 40.543092 -12.862250 45.244635 -20.391463 -1.275323 52.217842 0.000000 0.000000 0.000000 -9.998899 2.215260 -28.896614 20.644326 -1.116269 21.267938 -8.529941 -23.816171 40.202095 0.000000 0.000000 0.000000 22.411868 12.138809 -14.743008 -4.026820 7.731235 25.132448 -18.312452 -36.222035 23.940941 -2.562101 1.069849 -2.292498 0.000000 0.000000 0.000000 -2.690309 -25.994927 16.771543 -45.214547 -42.658699 13.313620 63.364356 -22.184816 -5.684716 0.000000 0.000000 0.000000 -26.697933 1.023052 9.810279 28.293549 21.755341 -2.073697 -85.690398 63.711792 -86.105936 0.000000 0.000000 0.000000
-0.215594 0.144871 2.937190 22.858288 -19.438840 -88.530898 -10.212844 -4.078145 -33.871394 46.062913 -12.010593 36.546156 -24.155830 0.539628 59.645934 0.000000 0.000000 0.000000 -10.610633 1.947056 -27.342513 21.774377 -0.846430 15.880856 -8.663813 -24.414791 37.732351 0.000000 0.000000 0.000000 25.378854 14.440964 -16.192787 -3.627272 10.598684 31.999166 -13.888001 -40.552166 15.718694 -2.203923 3.940952 4.895165 0.000000 0.000000 0.000000 -12.976842 -27.558185 25.318716 -33.003022 -43.587839 6.735468 58.434033 -20.934745 -6.173217 0.000000 0.000000 0.000000 -20.865782 3.146656 8.450103 30.348336 16.302501 -1.374896 -95.025983 64.444615 -95.852879 0.000000 0.000000 0.000000
-0.219600 0.141997 2.957256 22.931094 -19.653916 -85.483626 -12.973790 -4.990078 -35.241835 52.200000 -12.178356 32.236167 -30.509662 -1.526180 61.023574 0.000000 0.000000 0.000000 -10.656936 1.676149 -25.470747 19.534038 -0.446482 9.975263 -12.685442 -28.115321 34.494426 0.000000 0.000000 0.000000 25.170394 17.083148 -22.243716 -1.735304 10.748563 37.955402 -13.037299 -44.045508 14.245342 0.817516 1.924972 6.202875 0.000000 0.000000 0.000000 -15.914068 -26.705077 27.368600 -28.877194 -46.555565 5.530210 52.835666 -20.985714 -6.121336 0.000000 0.000000 0.000000 -18.975559 5.017836 8.011473 37.202335 16.218994 -2.272533 -101.803866 63.435778 -101.880626 0.000000 0.000000 0.000000
-0.223256 0.142078 2.972676 23.754521 -20.988331 -84.314033 -11.653258 -4.169865 -35.686437 53.462196 -11.894565 31.819806 -42.020846 0.672959 68.935830 0.000000 0.000000 0.000000 -7.430988 1.881610 -22.630123 15.429205 -0.130414 6.037261 -15.025726 -30.452355 27.253520 0.000000 0.000000 0.000000 26.840207 18.541174 -22.994033 -1.239584 8.243178 32.824739 -18.159909 -39.442004 18.922204 4.984588 -0.620629 11.276319 0.000000 0.000000 0.000000 -20.360752 -27.271625 29.448258 -27.809018 -47.843040 4.599460 48.635385 -25.247402 -7.795389 0.000000 0.000000 0.000000 -12.402051 8.529122 5.435402 39.594847 8.602458 -3.446431 -109.256978 63.634452 -107.622645 0.000000 0.000000 0.000000
-0.226326 0.143014 2.983211 26.023074 -19.930586 -83.838815 -11.526237 -4.009153 -36.182816 48.882843 -11.967454 36.426482 -49.384704 -4.623441 65.942907 0.000000 0.000000 0.000000 -7.725910 1.858126 -22.831326 16.184898 -0.152571 8.494806 -21.955527 -37.610982 15.548296 0.000000 0.000000 0.000000 30.192972 20.072701 -21.760510 -4.204227 8.722880 26.704543 -21.133763 -35.530636 25.930100 4.692482 -2.120381 8.593525 0.000000 0.000000 0.000000 -21.589475 -26.566164 29.012698 -32.249793 -50.278805 6.452816 51.629144 -28.884914 -9.414977 0.000000 0.000000 0.000000 -8.462654 10.260772 3.707522 46.818222 3.874412 -6.142484 -112.143528 64.620731 -109.542103 0.000000 0.000000 0.000000
-0.229383 0.149914 2.988069 26.799411 -20.216812 -84.228774 -10.186653 -3.431546 -35.951005 46.072684 -11.741810 39.141693 -50.036631 -11.470978 60.737480 0.000000 0.000000 0.000000 -7.252643 1.599832 -20.928946 18.580820 -0.140291 11.398455 -24.290850 -44.030059 -5.870217 0.000000 0.000000 0.000000 33.541726 22.284741 -21.017323 -3.477256 7.914078 27.132637 -21.872465 -34.340988 25.611489 7.498845 -3.851685 12.921278 0.000000 0.000000 0.000000 -27.859152 -28.051889 33.626442 -31.664887 -49.097850 4.368487 55.747116 -32.940393 -12.398408 0.000000 0.000000 0.000000 -6.320137 13.900287 3.765189 51.117078 1.659269 -7.641414 -102.735599 65.791477 -97.865789 0.000000 0.000000 0.000000
-0.232014 0.151188 2.988966 27.077663 -19.752487 -84.015482 -7.839388 -2.394435 -36.531266 42.469120 -11.263001 40.481081 -51.187445 -13.583440 59.661365 0.000000 0.000000 0.000000 -6.785052 1.851499 -21.919444 18.446219 -0.243900 17.792173 -22.117256 -43.358971 -15.075370 0.000000 0.000000 0.000000 35.593679 22.574632 -19.669940 -3.647505 6.202558 21.860819 -24.568860 -31.059412 30.051173 6.873741 -5.265375 7.190717 0.000000 0.000000 0.000000 -26.260890 -27.261427 31.702797 -40.164272 -47.996083 7.043466 48.227962 -35.469013 -10.640773 0.000000 0.000000 0.000000 -7.072888 14.858570 4.070468 62.887060 7.623957 -9.507881 -69.094182 65.787386 -62.337842 0.000000 0.000000 0.000000
-0.233902 0.156138 2.987559 25.810548 -18.396924 -83.944777 -7.255788 -2.495203 -35.731857 41.551347 -11.354337 39.571682 -44.325141 -10.087526 61.212543 0.000000 0.000000 0.000000 -8.159763 1.334218 -20.513311 18.519747 -0.422995 18.344816 -21.978525 -43.059008 -14.210212 0.000000 0.000000 0.000000 36.893947 23.016326 -19.730784 -3.346316 5.324929 21.267090 -24.342783 -30.957184 29.955965 7.040593 -5.993854 4.944614 0.000000 0.000000 0.000000 -24.307333 -29.098850 31.024275 -45.221682 -44.556534 7.964100 43.822120 -33.664831 -8.873014 0.000000 0.000000 0.000000 -6.130524 18.666762 4.536296 69.076979 14.020980 -7.356017 -45.650781 51.630424 -32.133455 0.000000 0.000000 0.000000
-0.235195 0.151858 2.986511 25.166545 -17.272261 -83.896403 -6.090192 -2.083909 -37.153041 37.917685 -10.691033 38.479558 -41.366325 -8.875777 61.274064 0.000000 0.000000 0.000000 -9.485867 1.160742 -21.404648 19.377808 -0.597485 22.036769 -21.813645 -44.847402 -16.695170 0.000000 0.000000 0.000000 39.429840 23.436859 -18.281932 -4.916939 5.075027 16.344134 -24.985095 -27.221381 34.129932 5.618626 -6.606318 0.036531 0.000000 0.000000 0.000000 -18.289685 -28.175418 24.862983 -53.876652 -41.158746 10.711351 36.910775 -34.787839 -7.144732 0.000000 0.000000 0.000000 -7.186376 17.765461 4.693175 79.678854 22.843755 -5.399766 -35.881057 35.933600 -15.148728 0.000000 0.000000 0.000000
-0.235325 0.145872 2.986547 23.502072 -14.511407 -83.185283 -6.756357 -3.035516 -37.510206 34.351945 -10.138461 36.094520 -27.775130 -2.505905 61.500904 0.000000 0.000000 0.000000 -13.403528 0.300132 -21.676405 22.011127 -1.325577 22.989620 -21.454037 -45.364498 -17.286161 0.000000 0.000000 0.000000 38.743312 22.490111 -18.583837 -4.232223 3.783471 13.831262 -26.783188 -24.131738 35.789269 9.038633 -9.624265 -1.770895 0.000000 0.000000 0.000000 -10.609856 -28.545716 19.078283 -59.310992 -37.509678 12.597477 28.806916 -36.066995 -5.579784 0.000000 0.000000 0.000000 -7.141231 23.493686 6.139720 82.998095 29.369390 -0.071608 -37.183170 21.220350 -8.468903 0.000000 0.000000 0.000000
-0.234171 0.139365 2.988763 24.175073 -12.254574 -83.673553 -4.970725 -2.538787 -37.569649 31.824679 -9.754965 36.761566 -22.514591 -1.745572 58.511348 0.000000 0.000000 0.000000 -16.319267 -0.278139 -22.191507 24.714858 -1.784905 24.455044 -20.143372 -42.996432 -18.887970 0.000000 0.000000 0.000000 40.423117 22.518693 -17.370004 -6.030012 4.422755 10.938822 -25.537882 -22.427477 38.411178 8.576089 -9.899501 -6.408240 0.000000 0.000000 0.000000 -4.653316 -26.660477 14.060007 -62.664785 -33.801965 12.694313 23.479143 -38.485689 -4.400451 0.000000 0.000000 0.000000 -9.967295 22.212158 6.546687 87.104703 33.330961 2.277571 -36.083432 18.781335 -6.313682 0.000000 0.000000 0.000000
-0.231444 0.134045 2.992498 23.782378 -10.054950 -84.038381 -2.475811 -1.704956 -37.148845 28.649346 -9.519462 37.792767 -21.223638 -1.456740 57.219808 0.000000 0.000000 0.000000 -17.985481 -0.772918 -22.354608 23.422601 -1.946139 25.487300 -19.257939 -43.334071 -23.952329 0.000000 0.000000 0.000000 38.873369 21.543224 -18.130736 -4.215470 2.880230 9.275144 -26.041564 -18.845740 38.902263 10.327036 -11.354356 -4.513867 0.000000 0.000000 0.000000 -4.312278 -27.664530 13.591785 -61.645971 -31.803165 10.595687 22.102857 -41.178158 -4.268458 0.000000 0.000000 0.000000 -8.852065 21.211761 6.223564 86.603071 33.321646 4.103463 -35.185410 18.175848 -5.416025 0.000000 0.000000 0.000000
-0.227837 0.128700 2.995019 23.335261 -7.890368 -84.732020 -1.397382 -1.578757 -35.492708 26.643065 -9.351515 38.637647 -21.177210 -1.795630 56.481527 0.000000 0.000000 0.000000 -18.674692 -1.091647 -23.786199 20.197505 -1.615497 29.612731 -18.861210 -40.504228 -21.506188 0.000000 0.000000 0.000000 37.114432 20.977983 -19.680931 -2.251996 1.450488 7.892126 -27.822419 -17.881185 42.381249 9.861796 -11.490804 -4.181632 0.000000 0.000000 0.000000 -3.280469 -27.149398 12.415848 -59.058723 -28.840004 8.017631 26.757147 -44.856324 -6.294479 0.000000 0.000000 0.000000 -10.473546 20.247112 6.213117 87.114679 33.311067 3.136649 -34.271123 26.551861 -7.500903 0.000000 0.000000 0.000000
-0.223822 0.129809 2.994142 22.026223 -5.898890 -86.059652 -0.058606 -1.335272 -32.778286 20.904626 -7.722548 38.831331 -18.839836 -0.034013 57.627500 0.000000 0.000000 0.000000 -17.879061 -1.285675 -23.370030 15.705346 -0.522821 34.760331 -18.123061 -41.090420 -25.444231 0.000000 0.000000 0.000000 35.431042 19.364237 -19.423369 -2.516869 1.452917 6.260413 -26.433035 -18.563330 45.030143 8.860773 -11.204200 -4.350356 0.000000 0.000000 0.000000 -6.073789 -27.528853 13.775894 -55.521562 -28.062866 5.917531 37.313428 -45.172788 -10.216461 0.000000 0.000000 0.000000 -9.403524 15.609782 4.955652 85.097446 30.117484 -0.171230 -28.338741 40.234034 -9.660066 0.000000 0.000000 0.000000
-0.220548 0.129689 2.991323 19.650240 -5.841131 -86.885303 3.221726 0.053340 -31.798310 16.775223 -6.524867 37.617606 -20.085417 -0.618432 58.264180 0.000000 0.000000 0.000000 -15.866650 -0.889995 -26.131928 13.062266 0.966396 43.293797 -19.594703 -42.776464 -17.196845 0.000000 0.000000 0.000000 33.806307 18.332703 -19.151729 0.905543 -0.587808 10.690622 -27.942438 -21.448357 42.248862 9.046280 -11.127522 3.449043 0.000000 0.000000 0.000000 -12.290775 -24.881055 16.437536 -46.836456 -27.097700 2.444796 44.332978 -49.576046 -14.120769 0.000000 0.000000 0.000000 -2.259442 16.974067 3.811686 77.859991 26.379370 -1.165973 -30.045419 48.574746 -14.553592 0.000000 0.000000 0.000000
-0.218929 0.131688 2.988532 17.573143 -6.146852 -87.158913 6.234274 1.384877 -30.591099 12.794911 -5.195414 35.574724 -20.124662 -0.886475 57.624943 0.000000 0.000000 0.000000 -14.676415 -0.230078 -30.903283 11.211335 2.790319 53.499633 -16.770434 -33.715071 -4.464570 0.000000 0.000000 0.000000 32.882972 17.561051 -18.639641 1.196625 -0.861034 13.399306 -26.157124 -23.414767 40.546679 9.347593 -11.359256 2.808544 0.000000 0.000000 0.000000 -18.733059 -24.127968 19.652426 -39.865536 -25.552682 -0.131393 50.231851 -49.164902 -17.035234 0.000000 0.000000 0.000000 2.801286 17.221909 2.665199 69.942536 22.807393 -1.374868 -25.028001 55.592804 -15.564649 0.000000 0.000000 0.000000
-0.218342 0.131162 2.987041 15.164283 -6.388956 -87.018264 10.292191 3.122367 -29.072718 7.408944 -3.272565 34.013072 -16.347028 0.845535 55.346412 0.000000 0.000000 0.000000 -15.386569 -0.225154 -35.058793 14.341043 1.093156 60.837350 -18.682459 -35.310073 6.731267 0.000000 0.000000 0.000000 30.558604 16.264139 -18.440575 0.189315 -0.221021 16.946631 -21.692106 -23.920667 37.783672 9.059136 -10.807168 10.167927 0.000000 0.000000 0.000000 -21.575649 -24.591032 21.206340 -36.046094 -22.892235 -1.609313 48.698258 -50.225283 -17.688813 0.000000 0.000000 0.000000 9.688827 17.665058 1.690671 63.325002 18.397675 -1.407749 -26.341756 59.844825 -17.886457 0.000000 0.000000 0.000000
-0.217201 0.130486 2.986805 14.103423 -6.826169 -87.620862 13.288322 4.498797 -28.190955 5.290337 -2.653853 35.741317 -16.368922 -0.133981 52.375039 0.000000 0.000000 0.000000 -17.194146 -0.797797 -36.324934 13.810885 1.629630 62.745769 -19.781496 -36.105412 10.212634 0.000000 0.000000 0.000000 30.312340 14.301902 -13.953337 3.388902 -2.621894 15.254028 -25.131293 -18.121098 37.934977 12.836160 -15.694451 12.169862 0.000000 0.000000 0.000000 -20.856371 -23.860306 18.720513 -35.740089 -20.972038 -2.012217 39.662424 -57.694515 -16.059141 0.000000 0.000000 0.000000 19.529736 13.676684 -0.716863 53.754251 16.180193 -0.596320 -15.632107 61.260824 -9.956090 0.000000 0.000000 0.000000
-0.214609 0.135994 2.988490 12.558079 -7.588873 -86.802720 16.076897 6.130695 -31.259329 2.839126 -1.864123 40.704591 -15.758321 0.147823 51.372840 0.000000 0.000000 0.000000 -18.462225 -1.316559 -36.348772 12.443127 1.977613 58.378549 -14.507334 -27.474482 23.873212 0.000000 0.000000 0.000000 29.020056 12.582092 -11.014072 0.712222 -0.719172 14.923273 -19.495105 -17.293665 34.788746 10.956627 -13.500878 12.943262 0.000000 0.000000 0.000000 -29.256496 -22.381588 21.406486 -29.416968 -19.907420 -2.835130 27.365697 -60.678977 -11.621324 0.000000 0.000000 0.000000 22.022028 18.036477 2.412946 48.026135 12.460397 -1.386554 -19.791637 58.423689 -11.227426 0.000000 0.000000 0.000000
-0.211529 0.131536 2.992882 9.767302 -8.299052 -84.552777 16.588081 6.367385 -33.406868 4.204381 -3.065883 43.025062 -14.014097 -0.754881 44.258387 0.000000 0.000000 0.000000 -19.324352 -1.807829 -36.548677 10.258711 2.373364 55.624125 -14.938775 -27.489050 25.104470 0.000000 0.000000 0.000000 26.355408 11.227674 -11.504608 3.181869 -2.867481 23.487811 -18.214851 -15.646215 26.260705 13.475591 -16.942461 22.496360 0.000000 0.000000 0.000000 -30.344991 -25.293621 22.337520 -29.765858 -19.451568 -2.217638 17.739956 -59.242169 -6.366489 0.000000 0.000000 0.000000 26.942870 13.591417 0.147172 45.317643 13.378094 -0.085160 -15.342681 55.634817 -7.611094 0.000000 0.000000 0.000000
-0.208108 0.134699 2.998741 9.205346 -8.708485 -82.516353 18.906527 7.472505 -33.251952 2.195895 -2.296636 47.825581 -10.677187 -2.579178 30.331209 0.000000 0.000000 0.000000 -21.199958 -2.417235 -36.535671 9.353093 2.700421 53.490426 -14.377396 -27.054972 21.124977 0.000000 0.000000 0.000000 24.836502 9.848232 -9.233423 2.453735 -2.278323 35.470431 -15.286381 -15.281383 13.258293 13.512346 -18.308943 35.141724 0.000000 0.000000 0.000000 -35.611000 -25.838206 23.776474 -28.775158 -20.227495 -1.331420 13.995377 -55.422239 -4.257870 0.000000 0.000000 0.000000 34.394040 13.735314 0.224691 38.607886 10.725156 0.547565 -10.952142 53.046793 -4.544846 0.000000 0.000000 0.000000
-0.205299 0.138912 3.006315 7.104926 -10.377136 -79.723040 21.217276 9.030872 -35.736789 2.262861 -2.878651 52.160006 -7.712615 -4.344631 16.487716 0.000000 0.000000 0.000000 -22.378127 -2.658287 -38.149009 10.512122 2.009934 54.961041 -16.469201 -29.487283 22.855780 0.000000 0.000000 0.000000 22.285374 8.208653 -7.592240 3.091992 -2.732643 38.379053 -14.178531 -13.475588 9.552272 12.226405 -17.834500 38.773006 0.000000 0.000000 0.000000 -40.106847 -26.109423 24.542510 -26.707524 -19.001348 -1.256706 13.240655 -53.100947 -4.077943 0.000000 0.000000 0.000000 36.595911 13.835628 1.028649 35.976508 10.958221 0.688846 -4.112479 48.084885 -0.740697 0.000000 0.000000 0.000000
-0.202648 0.145589 3.014549 6.542126 -11.797832 -77.014614 24.227836 11.220679 -37.853031 -0.866522 -1.054625 59.106032 -1.907023 -3.038483 -0.366758 0.000000 0.000000 0.000000 -23.452991 -2.571723 -40.592340 11.703718 1.662875 58.109449 -17.119379 -30.860031 21.710542 0.000000 0.000000 0.000000 22.164860 7.192129 -4.400838 2.579569 -1.133631 52.494422 -9.485973 -15.560607 -7.129716 12.774356 -15.473281 37.903707 0.000000 0.000000 0.000000 -42.792171 -26.484404 25.509740 -26.821533 -17.496802 -0.443500 12.400358 -51.975451 -3.500300 0.000000 0.000000 0.000000 35.779776 14.350670 0.893461 34.470927 9.134438 1.687659 0.110525 46.794397 0.836190 0.000000 0.000000 0.000000
-0.199668 0.158477 3.022004 5.341461 -13.457805 -74.638359 25.717447 12.729215 -40.080274 -1.450549 -0.929812 66.764914 1.164975 -1.252461 -8.510755 0.000000 0.000000 0.000000 -24.313217 -2.509450 -42.553252 13.826958 0.608707 62.018484 -14.781426 -28.564013 21.140652 0.000000 0.000000 0.000000 24.517327 6.121403 2.444054 2.815479 -1.187208 66.767034 -5.373832 -19.205426 -26.591211 14.756100 -13.251726 37.604262 0.000000 0.000000 0.000000 -44.530357 -26.192149 26.970267 -25.780028 -16.861074 0.524658 11.067934 -47.990547 -2.450658 0.000000 0.000000 0.000000 33.928144 15.626222 0.409648 34.159919 9.230436 3.740485 1.593652 43.421312 1.187385 0.000000 0.000000 0.000000
-0.196913 0.176391 3.027567 4.786874 -14.666717 -71.664554 28.136152 14.871143 -42.367526 -2.287293 -0.778577 74.892949 1.273635 -1.869892 -9.655048 0.000000 0.000000 0.000000 -26.627618 -2.851206 -46.131061 18.168901 -2.474699 66.373086 -15.178458 -28.927976 24.806723 0.000000 0.000000 0.000000 28.530059 5.858538 8.043454 2.924425 -1.850733 90.395964 2.401782 -21.533936 -50.291200 19.999531 -10.990387 30.209979 0.000000 0.000000 0.000000 -42.866876 -30.182450 32.590156 -24.627925 -18.938097 1.755186 18.349196 -45.605343 -4.965445 0.000000 0.000000 0.000000 31.378720 18.116772 0.948491 30.794796 12.151239 6.156397 -1.686326 41.206415 0.269242 0.000000 0.000000 0.000000
-0.194098 0.195402 3.030777 4.496098 -15.839693 -67.871603 29.612777 16.929707 -45.688892 -3.118545 -0.377778 80.105341 2.619052 2.320754 -6.638074 0.000000 0.000000 0.000000 -28.872096 -3.195757 -48.456916 20.699043 -4.548123 66.181960 -14.932854 -28.741061 25.892768 0.000000 0.000000 0.000000 32.119196 3.569433 19.522824 2.041012 -6.902269 109.084415 8.684148 -23.522005 -74.371652 27.357086 -6.278781 27.519832 0.000000 0.000000 0.000000 -36.380708 -29.915348 33.009872 -22.104021 -23.306586 3.190058 23.107260 -40.626152 -5.361805 0.000000 0.000000 0.000000 29.160084 22.804788 1.358670 27.676921 16.911319 9.418697 -5.052454 35.218038 -0.542745 0.000000 0.000000 0.000000
-0.191801 0.219449 3.031428 4.847196 -16.295023 -63.266350 30.784755 18.515627 -47.864538 -3.314961 -0.273042 84.207682 1.732993 1.324136 -4.691776 0.000000 0.000000 0.000000 -31.103929 -3.655109 -49.642149 22.516569 -6.010657 64.682601 -16.424069 -31.205599 22.946327 0.000000 0.000000 0.000000 38.482634 -2.435214 42.014886 -0.751285 1.332032 119.368318 28.571999 -14.621236 -97.058186 40.077292 4.816579 22.431013 0.000000 0.000000 0.000000 -31.183888 -29.563555 41.129893 -13.827427 -32.615778 2.867173 30.752988 -26.982813 -5.352890 0.000000 0.000000 0.000000 26.423410 28.814182 0.421390 24.108462 20.366954 13.793901 -13.106681 28.012529 -3.255073 0.000000 0.000000 0.000000
-0.189559 0.249040 3.031361 4.006836 -16.347846 -56.409408 30.589344 19.289798 -51.728092 -3.875495 0.486370 83.131889 2.113139 4.062236 0.273276 0.000000 0.000000 0.000000 -33.142649 -4.295830 -49.880005 23.154468 -6.669177 59.117849 -16.509720 -32.070709 19.971055 0.000000 0.000000 0.000000 34.873214 -10.987621 65.485877 -3.723049 15.637346 125.813866 40.214596 2.153802 -114.513267 72.283757 27.980871 31.769166 0.000000 0.000000 0.000000 -25.153307 -30.012289 51.105038 -2.840114 -38.920615 1.511879 30.752043 -12.813592 -2.394046 0.000000 0.000000 0.000000 21.897251 32.534501 -0.094834 20.403466 22.607909 17.296251 -15.001781 19.851171 -3.951427 0.000000 0.000000 0.000000
-0.187413 0.285781 3.033176 2.703541 -16.262180 -49.088569 31.800067 20.682041 -54.762009 -6.585855 3.149720 80.402842 2.988353 7.348281 5.873361 0.000000 0.000000 0.000000 -35.555101 -5.065446 -48.779220 25.014629 -7.473312 50.637478 -16.648631 -32.556065 19.668159 0.000000 0.000000 0.000000 19.772984 -15.915085 100.358720 167.298947 74.849721 -61.224644 122.963662 23.728900 -80.040609 36.896964 35.961148 0.116602 0.000000 0.000000 0.000000 28.104376 -29.058895 146.960820 60.726694 11.033136 12.043341 -23.438973 31.882651 -12.922991 0.000000 0.000000 0.000000 0.876277 40.249567 -15.181239 15.262866 22.079127 -1.549936 -9.102856 17.574084 -6.942378 0.000000 0.000000 0.000000
-0.184919 0.325993 3.040586 1.980658 -15.140057 -41.148520 31.425230 20.491851 -57.551950 -8.827310 5.449960 77.131457 2.638800 7.694491 9.128015 0.000000 0.000000 0.000000 -36.607718 -5.587979 -48.289482 23.552958 -6.705684 44.552187 -16.642290 -32.976980 18.515745 0.000000 0.000000 0.000000 11.569810 -12.417674 113.951693 -39.970423 -19.035247 -92.233274 5.170314 -28.889387 95.079180 6.686602 -32.011661 -7.043119 0.000000 0.000000 0.000000 -35.433762 -50.405581 23.882919 12.879927 -18.650956 -1.795337 11.960159 -16.294976 -3.335670 0.000000 0.000000 0.000000 23.265113 41.308004 14.946654 -18.360938 26.889330 -6.779618 -15.235033 10.469859 -2.067457 0.000000 0.000000 0.000000
-0.182563 0.369851 3.053701 1.934180 -15.233532 -32.640735 31.930364 20.867344 -57.801647 -12.009496 8.557179 71.435102 4.462546 9.948269 6.645330 0.000000 0.000000 0.000000 -36.726697 -5.467623 -50.304006 21.868361 -5.943809 40.928467 -18.082814 -35.520973 18.352383 0.000000 0.000000 0.000000 7.940276 -8.516187 120.098448 -7.347070 -2.891577 -59.235877 -10.995285 -0.215605 34.510774 7.884102 -21.069221 24.874583 0.000000 0.000000 0.000000 -39.317870 -46.217343 32.347695 8.776719 -13.929284 -0.504188 3.817602 -16.989637 -0.383395 0.000000 0.000000 0.000000 44.854863 39.853601 33.923412 -19.239966 23.551192 -3.103829 -11.592880 10.109586 -0.806104 0.000000 0.000000 0.000000
-0.181033 0.405430 3.070265 1.975497 -14.778833 -26.302697 31.918356 20.833590 -58.728544 -15.709001 11.344114 66.759100 7.349677 14.370225 5.023428 0.000000 0.000000 0.000000 -36.335137 -5.497439 -52.478314 19.849606 -5.226470 39.094074 -17.904820 -34.634590 22.900274 0.000000 0.000000 0.000000 6.585959 -5.732987 119.058851 -2.505776 -0.766003 -46.320754 -12.747754 -0.585014 22.582267 12.034120 -18.364182 11.278922 0.000000 0.000000 0.000000 -36.560251 -48.894678 31.230303 5.286576 -13.408079 -0.505101 3.277290 -17.775429 -0.091059 0.000000 0.000000 0.000000 38.987866 41.918857 31.581614 -14.337117 25.186898 -2.993141 -13.490846 9.688071 -0.852630 0.000000 0.000000 0.000000
-0.180738 0.439147 3.086001 1.264057 -14.691935 -20.929815 31.015640 20.107951 -59.112035 -16.649103 11.748924 62.920087 10.280721 18.965453 -0.606369 0.000000 0.000000 0.000000 -35.484408 -5.291896 -54.514780 21.248288 -6.057082 39.161894 -19.696838 -37.398256 21.794800 0.000000 0.000000 0.000000 4.729655 -2.438888 118.739765 -1.416800 -0.542918 -45.419340 -10.209521 -0.919045 23.029575 13.182714 -14.752685 0.725326 0.000000 0.000000 0.000000 -31.087663 -48.528844 28.683291 4.125223 -15.620832 -0.773081 3.211899 -17.227324 -0.068360 0.000000 0.000000 0.000000 34.233091 44.015896 30.337903 -12.916881 28.464129 -3.611808 -14.295148 7.736928 -0.676927 0.000000 0.000000 0.000000
-0.181652 0.465748 3.098014 0.790888 -13.852048 -17.218505 31.425251 19.327689 -57.980600 -19.229384 12.751929 57.851193 11.933304 22.083432 -2.340597 0.000000 0.000000 0.000000 -35.332297 -5.488334 -54.288089 21.157474 -5.964785 36.852688 -19.594077 -37.208637 22.336537 0.000000 0.000000 0.000000 5.051330 -3.227351 117.057978 -3.162061 0.099618 -41.523027 -9.223349 -2.952998 21.542462 14.045432 -12.290106 -7.638375 0.000000 0.000000 0.000000 -28.513465 -48.892278 28.635654 3.223201 -17.287517 -0.934020 4.711576 -17.727042 -0.289355 0.000000 0.000000 0.000000 27.984035 43.490769 26.204281 -8.660737 31.258332 -3.405120 -16.229222 9.499858 -0.966665 0.000000 0.000000 0.000000
-0.183336 0.484247 3.106194 0.692153 -13.548319 -15.928524 30.882320 18.137621 -56.437467 -18.672315 12.013778 55.418800 12.116195 22.604022 -4.069296 0.000000 0.000000 0.000000 -33.998119 -5.069411 -54.388891 21.331662 -6.028790 36.393061 -20.974463 -39.079165 21.849101 0.000000 0.000000 0.000000 4.515289 -2.169599 114.949510 -2.661555 0.131597 -42.008044 -8.793652 -2.244153 22.450438 14.824401 -11.412026 -12.930001 0.000000 0.000000 0.000000 -27.660145 -47.244502 27.114528 1.379683 -19.999261 -1.112998 6.168875 -16.335480 -0.471443 0.000000 0.000000 0.000000 28.190690 41.935393 25.378259 -5.562499 33.446813 -3.217268 -16.992469 10.060700 -1.092973 0.000000 0.000000 0.000000
-0.185987 0.499763 3.112937 0.896913 -13.780957 -16.628708 30.841219 17.601957 -54.746454 -18.866783 12.198319 55.055173 10.788817 20.048428 2.352456 0.000000 0.000000 0.000000 -33.101661 -4.606286 -54.070052 23.171755 -6.792139 37.221878 -20.875429 -39.139581 21.023327 0.000000 0.000000 0.000000 4.646850 -2.072904 114.128894 -2.961586 0.029664 -43.459300 -8.814336 -1.756038 22.790573 14.106566 -10.823312 -13.226349 0.000000 0.000000 0.000000 -30.714180 -45.524188 27.203270 -0.431429 -21.689349 -1.138931 7.054129 -16.332719 -0.595272 0.000000 0.000000 0.000000 33.684900 39.807700 26.489591 -2.061787 32.447012 -2.525915 -19.242680 13.981922 -1.867628 0.000000 0.000000 0.000000
-0.189698 0.509320 3.121776 1.313301 -13.426856 -18.712779 30.669849 16.345083 -51.866169 -19.616468 12.685500 54.373160 9.681469 18.172462 1.540320 0.000000 0.000000 0.000000 -33.146266 -4.636132 -52.348494 25.054033 -7.871795 39.890834 -19.440455 -37.928354 17.829132 0.000000 0.000000 0.000000 5.187460 -2.904613 112.345918 -2.849235 0.040593 -43.490103 -9.500773 -0.836836 23.770033 15.193292 -11.992033 -13.017611 0.000000 0.000000 0.000000 -29.754510 -45.018636 26.068022 -4.811980 -23.119094 -0.905107 9.364157 -19.129155 -1.112112 0.000000 0.000000 0.000000 35.551174 37.364798 25.677255 2.581486 31.634067 -1.732675 -19.275865 16.726761 -2.288900 0.000000 0.000000 0.000000
-0.195560 0.508544 3.134649 1.162977 -13.565285 -22.859726 32.276232 15.711665 -46.886438 -22.646671 14.701356 54.063918 11.343148 21.129108 -3.667229 0.000000 0.000000 0.000000 -31.706170 -3.998523 -49.671764 27.430127 -9.260430 43.761860 -17.777141 -37.334240 10.195522 0.000000 0.000000 0.000000 4.593280 -2.075295 112.098749 -2.674478 -0.186164 -46.792238 -7.630648 1.951195 27.908902 16.984632 -12.374881 -17.317279 0.000000 0.000000 0.000000 -29.042632 -43.283695 23.748240 -10.377235 -25.723623 -0.502075 11.367014 -21.415594 -1.667468 0.000000 0.000000 0.000000 35.173350 35.156074 24.624563 8.916430 31.476781 -1.002863 -21.180805 19.859380 -3.095838 0.000000 0.000000 0.000000
-0.203789 0.489851 3.152920 1.271669 -12.225416 -27.573008 33.508893 15.539178 -45.732241 -25.818451 17.770044 59.356754 12.786672 24.295287 -6.696433 0.000000 0.000000 0.000000 -32.538109 -4.740007 -47.489583 28.640438 -11.075052 50.128653 -14.615613 -33.769311 1.513609 0.000000 0.000000 0.000000 5.525961 -4.666148 110.947703 -3.551672 -0.263842 -49.179734 -8.429795 3.233146 28.117153 16.261029 -14.745002 -9.798050 0.000000 0.000000 0.000000 -34.450534 -40.068918 23.361049 -13.765929 -22.921156 -0.430498 8.165919 -27.260154 -1.354281 0.000000 0.000000 0.000000 40.733312 29.523282 23.179643 14.552021 27.857925 -0.738781 -21.198414 26.682560 -4.225668 0.000000 0.000000 0.000000
-0.213955 0.463028 3.176995 1.093531 -10.196173 -34.572259 34.604510 14.681177 -43.386418 -27.540385 19.643280 64.940120 14.419688 28.473592 -11.021671 0.000000 0.000000 0.000000 -34.391154 -5.836781 -42.775773 30.587218 -13.552055 56.409123 -12.357479 -30.272949 -6.553827 0.000000 0.000000 0.000000 5.319185 -6.348992 110.541776 -5.822860 -0.661086 -57.438334 -5.603350 2.492828 37.108223 15.914561 -18.141731 -5.914174 0.000000 0.000000 0.000000 -38.185596 -38.031721 25.071935 -16.315266 -20.548670 -1.385202 11.391013 -28.595033 -2.205933 0.000000 0.000000 0.000000 43.624926 26.743471 22.062910 15.687990 23.421447 -1.578396 -18.828143 33.269235 -4.661553 0.000000 0.000000 0.000000
-0.224802 0.418183 3.203246 1.643502 -9.289637 -40.951946 37.656545 16.374052 -44.156405 -28.925447 21.986454 72.893889 15.896283 30.859138 -5.913097 0.000000 0.000000 0.000000 -37.945354 -7.341187 -41.744137 33.537386 -17.173139 63.644304 -12.070870 -30.622050 -10.407353 0.000000 0.000000 0.000000 5.757992 -6.989178 105.681169 -17.307258 -4.048234 -75.146037 3.599828 -5.385873 65.128622 15.631264 -25.494622 -11.092022 0.000000 0.000000 0.000000 -44.427026 -35.866004 32.425664 -7.665123 -23.110596 -5.398331 18.101580 -31.639533 -5.586899 0.000000 0.000000 0.000000 45.522118 24.733939 20.110655 11.641849 22.910463 -5.953983 -19.203518 36.215518 -5.333044 0.000000 0.000000 0.000000
-0.235440 0.368306 3.226825 0.549683 -8.059657 -45.459910 38.790685 17.516503 -47.600097 -29.011770 23.885919 81.743790 17.390869 33.890445 -4.184798 0.000000 0.000000 0.000000 -38.777988 -8.458235 -41.916609 34.731001 -20.199919 70.049567 -11.360469 -29.774900 -14.036359 0.000000 0.000000 0.000000 5.514398 -6.702831 98.986865 -42.573315 -8.593402 -87.834791 11.231237 -34.745585 85.865440 11.046696 -32.707608 -24.276809 0.000000 0.000000 0.000000 -43.594689 -37.168379 33.618234 -5.105105 -25.224485 -7.514280 33.284471 -31.683570 -13.927808 0.000000 0.000000 0.000000 32.339226 29.291748 7.841356 17.364392 18.631080 -11.804930 -14.764422 44.736423 -6.291666 0.000000 0.000000 0.000000
-0.243417 0.323815 3.244785 1.190414 -9.057180 -50.766869 42.067268 19.695621 -46.788363 -25.932723 22.093177 89.054362 12.787364 25.983583 -9.452942 0.000000 0.000000 0.000000 -37.546698 -8.276554 -44.802528 31.610141 -19.789154 79.423370 -11.435174 -31.515676 -16.027594 0.000000 0.000000 0.000000 6.939949 -5.949784 87.888694 41.098195 70.226711 156.852365 70.177667 17.425378 -115.396522 33.593568 51.958448 -3.093652 0.000000 0.000000 0.000000 -3.985268 -18.631628 100.356575 65.184804 -48.869648 -37.857099 58.964416 30.448375 15.856561 0.000000 0.000000 0.000000 2.702687 10.681134 25.393095 35.553325 41.558159 11.964774 -44.582045 33.935618 -29.249371 0.000000 0.000000 0.000000
-0.248025 0.294182 3.256431 -0.175800 -6.375493 -50.800430 40.846435 18.442928 -50.357493 -25.710113 21.171560 88.448215 12.750253 27.027848 -14.769976 0.000000 0.000000 0.000000 -39.481521 -10.057042 -44.287180 29.835631 -20.598601 83.817984 -10.380788 -28.884118 -18.805762 0.000000 0.000000 0.000000 11.813993 -7.514198 69.993019 1.577254 34.200774 109.615371 31.797913 -0.229631 -109.380325 30.016267 23.698621 -2.278881 0.000000 0.000000 0.000000 -20.102510 -26.864178 34.403775 -34.652191 -33.387106 17.545352 61.889340 -34.489231 -19.443392 0.000000 0.000000 0.000000 9.025339 14.244067 3.690305 47.216955 13.744816 17.934994 -44.904083 44.355665 -31.432254 0.000000 0.000000 0.000000
