HIERARCHY
ROOT Hips
{
	OFFSET -0.001795 -0.223333 0.028219
	CHANNELS 6 Xposition Yposition Zposition Zrotation Yrotation Xrotation
	JOINT LeftUpLeg
	{
		OFFSET 0.069520 -0.091406 -0.006815
		CHANNELS 3 Zrotation Yrotation Xrotation
		JOINT LeftLeg
		{
			OFFSET 0.034277 -0.375199 -0.004496
			CHANNELS 3 Zrotation Yrotation Xrotation
			JOINT LeftFoot
			{
				OFFSET -0.013596 -0.397961 -0.043693
				CHANNELS 3 Zrotation Yrotation Xrotation
				JOINT LeftToe
				{
					OFFSET 0.026358 -0.055791 0.119288
					CHANNELS 3 Zrotation Yrotation Xrotation
					End Site
					{
						OFFSET 0.000000 0.000000 0.000000
					}
				}
			}
		}
	}
	JOINT RightUpLeg
	{
		OFFSET -0.067670 -0.090522 -0.004320
		CHANNELS 3 Zrotation Yrotation Xrotation
		JOINT RightLeg
		{
			OFFSET -0.038290 -0.382569 -0.008850
			CHANNELS 3 Zrotation Yrotation Xrotation
			JOINT RightFoot
			{
				OFFSET 0.015774 -0.398415 -0.042312
				CHANNELS 3 Zrotation Yrotation Xrotation
				JOINT RightToe
				{
					OFFSET -0.025372 -0.048144 0.123348
					CHANNELS 3 Zrotation Yrotation Xrotation
					End Site
					{
						OFFSET 0.000000 0.000000 0.000000
					}
				}
			}
		}
	}
	JOINT Spine
	{
		OFFSET -0.002533 0.108963 -0.026696
		CHANNELS 3 Zrotation Yrotation Xrotation
		JOINT Spine1
		{
			OFFSET 0.005487 0.135180 0.001092
			CHANNELS 3 Zrotation Yrotation Xrotation
			JOINT Spine2
			{
				OFFSET 0.001457 0.052922 0.025425
				CHANNELS 3 Zrotation Yrotation Xrotation
				JOINT Neck
				{
					OFFSET -0.002778 0.213870 -0.042857
					CHANNELS 3 Zrotation Yrotation Xrotation
					JOINT Head
					{
						OFFSET 0.005152 0.064970 0.051349
						CHANNELS 3 Zrotation Yrotation Xrotation
						End Site
						{
							OFFSET 0.000000 0.000000 0.000000
						}
					}
				}
				JOINT LeftShoulder
				{
					OFFSET 0.078845 0.121749 -0.034090
					CHANNELS 3 Zrotation Yrotation Xrotation
					JOINT LeftArm
					{
						OFFSET 0.090977 0.030469 -0.008868
						CHANNELS 3 Zrotation Yrotation Xrotation
						JOINT LeftForeArm
						{
							OFFSET 0.259612 -0.012772 -0.027456
							CHANNELS 3 Zrotation Yrotation Xrotation
							JOINT LeftHand
							{
								OFFSET 0.249234 0.008986 -0.001171
								CHANNELS 3 Zrotation Yrotation Xrotation
								End Site
								{
									OFFSET 0.000000 0.000000 0.000000
								}
							}
						}
					}
				}
				JOINT RightShoulder
				{
					OFFSET -0.081759 0.118833 -0.038615
					CHANNELS 3 Zrotation Yrotation Xrotation
					JOINT RightArm
					{
						OFFSET -0.096012 0.032551 -0.009143
						CHANNELS 3 Zrotation Yrotation Xrotation
						JOINT RightForeArm
						{
							OFFSET -0.253742 -0.013329 -0.021401
							CHANNELS 3 Zrotation Yrotation Xrotation
							JOINT RightHand
							{
								OFFSET -0.255298 0.007772 -0.005559
								CHANNELS 3 Zrotation Yrotation Xrotation
								End Site
								{
									OFFSET 0.000000 0.000000 0.000000
								}
							}
						}
					}
				}
			}
		}
	}
}
MOTION
Frames: 68
Frame Time: 0.050000
0.000000 0.914340 0.000000 1.857255 4.366452 -18.524926 2.066888 0.451807 6.367958 -1.646592 -0.573883 21.636879 4.918449 11.814983 6.539759 0.000000 0.000000 0.000000 -1.506311 -0.901969 9.436403 3.082529 -0.310328 19.539280 -3.699120 -10.301741 3.658535 0.000000 0.000000 0.000000 -1.145773 -0.433052 14.068140 22.528217 5.312468 -88.831806 -4.723824 26.619216 103.059342 15.392966 -0.404200 -35.505178 0.000000 0.000000 0.000000 -31.825268 1.882615 -1.706153 -41.205317 -8.590551 -24.657648 -14.049977 -23.010265 5.546974 0.000000 0.000000 0.000000 52.325559 -9.464259 18.265686 39.626701 23.356304 -26.651646 -4.708301 23.732207 3.261375 0.000000 0.000000 0.000000
-0.001472 0.890501 -0.015868 2.402932 3.497370 -20.711964 2.760106 0.144264 1.538049 -3.779053 -0.122354 31.255622 5.430250 13.281178 9.902226 0.000000 0.000000 0.000000 -2.582229 -0.586468 6.693196 5.957608 -1.387744 29.675034 -5.807830 -13.650141 -7.376395 0.000000 0.000000 0.000000 -1.123217 -0.480027 15.836319 -94.158202 -4.919400 -131.009866 -88.810679 -50.051594 -158.795786 11.984735 -2.142382 -45.825643 0.000000 0.000000 0.000000 -24.719825 11.028955 4.978399 -53.441921 -21.745990 4.346344 2.927812 -25.864889 -10.107189 0.000000 0.000000 0.000000 28.323742 -32.709465 90.622618 -59.268673 70.950001 -93.113891 -19.148016 7.843540 0.695282 0.000000 0.000000 0.000000
-0.002312 0.862293 -0.034892 3.392089 2.444147 -24.572201 3.423752 -0.011109 -1.474470 -4.501869 0.171604 40.035979 3.998584 11.063058 10.894570 0.000000 0.000000 0.000000 -3.955896 -0.434977 5.264314 8.684555 -2.654577 37.494339 -8.419385 -21.068005 -12.921851 0.000000 0.000000 0.000000 -0.334455 -0.620042 17.908395 -159.640102 20.926953 -146.991809 -171.540994 -28.259666 -137.868412 -2.103690 11.758279 -34.903562 0.000000 0.000000 0.000000 -40.533268 -11.150294 -39.551300 -31.200734 27.027083 -1.494363 -13.799409 -23.376065 6.277819 0.000000 0.000000 0.000000 31.328402 8.780356 -57.343137 37.479965 -48.622972 -8.061295 5.528846 19.259743 -1.725341 0.000000 0.000000 0.000000
-0.001523 0.827668 -0.055551 5.076637 1.992390 -27.191604 2.333857 -0.467462 -7.126143 -4.113825 0.000525 52.012268 3.015620 8.872061 8.897439 0.000000 0.000000 0.000000 -5.517058 -0.228299 1.821864 12.466289 -5.066025 47.823373 -10.766647 -28.587482 -14.249786 0.000000 0.000000 0.000000 -0.173366 -0.577396 17.253431 -159.870964 56.922398 -111.667563 127.778950 -26.102840 -90.592530 -20.727021 13.726806 -28.344801 0.000000 0.000000 0.000000 -59.610780 16.496901 43.571353 -22.902996 -39.051465 -16.421025 5.884925 -21.418513 -1.231890 0.000000 0.000000 0.000000 7.147388 -11.557203 -10.819022 67.464989 -10.938912 -25.313626 3.384177 18.052365 -3.234438 0.000000 0.000000 0.000000
0.000683 0.785373 -0.076224 6.961438 0.257480 -31.162673 2.223852 -0.870211 -12.402074 -5.374961 1.963965 63.906962 4.017434 9.275639 3.646211 0.000000 0.000000 0.000000 -9.034250 -0.197308 -1.523273 17.105651 -7.907706 57.698897 -11.397014 -30.663508 -16.727406 0.000000 0.000000 0.000000 1.407926 -0.624761 17.914709 10.173319 22.417284 144.014838 20.789035 7.636806 -136.316552 -2.586272 6.885565 -27.564926 0.000000 0.000000 0.000000 -12.928170 8.766148 -6.631228 -67.632654 16.197879 -1.542001 -18.537998 -26.752606 2.001187 0.000000 0.000000 0.000000 -5.138276 -25.885841 8.686010 81.337808 -9.098724 -16.317677 6.926868 15.114446 -0.633837 0.000000 0.000000 0.000000
0.003972 0.727393 -0.095519 8.775731 1.272442 -34.434773 2.170653 -1.537776 -20.337785 -6.779261 3.836909 78.509340 5.320136 10.594503 -1.631174 0.000000 0.000000 0.000000 -13.219335 -0.526247 -5.796379 22.378453 -12.839980 65.969450 -10.738992 -30.868674 -23.653567 0.000000 0.000000 0.000000 2.278931 -0.546227 17.194442 14.560353 46.425168 132.564165 44.049809 15.521050 -116.030688 -5.069501 9.545030 -20.680001 0.000000 0.000000 0.000000 -23.855695 9.860557 -5.280409 -58.297116 11.622709 0.512057 -22.705774 -28.393991 5.260820 0.000000 0.000000 0.000000 -8.479692 -25.141754 14.255298 74.853086 -7.626568 -21.837274 13.403922 15.502179 0.020294 0.000000 0.000000 0.000000
0.007996 0.652106 -0.113585 10.399744 2.035271 -40.353328 2.945294 -1.611054 -23.669511 -3.129680 0.142295 87.477474 5.988989 10.299673 -9.248077 0.000000 0.000000 0.000000 -15.885035 -1.048734 -9.720967 28.787793 -18.854826 71.330863 -9.701574 -32.187293 -34.803056 0.000000 0.000000 0.000000 6.781368 -0.567007 18.563561 8.921437 49.305094 127.120549 48.488828 12.555609 -110.213419 -3.238248 13.128496 -12.795689 0.000000 0.000000 0.000000 -21.261272 3.625833 1.842807 -56.764430 3.754174 2.671105 -23.277042 -37.456718 9.043558 0.000000 0.000000 0.000000 -6.937763 -27.119156 13.629958 70.016811 -9.095615 -21.401486 13.122565 18.609577 -0.026892 0.000000 0.000000 0.000000
0.012045 0.571749 -0.128954 11.632443 5.590826 -44.993199 0.156800 -2.697557 -25.037352 1.591763 -7.837102 91.633947 6.989240 12.144759 -12.629559 0.000000 0.000000 0.000000 -18.658470 -1.961309 -12.245975 37.055822 -27.368097 71.829466 -8.916318 -27.832388 -42.095561 0.000000 0.000000 0.000000 9.423641 -0.323831 18.970080 4.593732 44.971783 131.296964 49.803823 12.893977 -109.962476 4.461411 16.686920 -2.261472 0.000000 0.000000 0.000000 -18.938491 0.424393 5.895719 -51.457857 -9.443612 6.592722 -17.625258 -51.831396 13.227680 0.000000 0.000000 0.000000 -0.350130 -21.670159 9.934262 67.400647 -11.258703 -19.427185 10.810246 20.831477 -0.627609 0.000000 0.000000 0.000000
0.017916 0.481858 -0.139923 12.365498 6.906631 -50.681602 -0.472469 -2.972182 -24.912292 6.406475 -14.876987 94.222603 6.500485 8.473590 -20.759128 0.000000 0.000000 0.000000 -19.743205 -3.038771 -19.904076 42.207907 -32.303205 73.543891 -9.627713 -27.873308 -32.961266 0.000000 0.000000 0.000000 13.382632 0.944330 14.776867 -1.358468 47.176251 118.641885 55.165341 4.762344 -91.198270 5.692774 17.313584 10.043266 0.000000 0.000000 0.000000 -22.121103 -4.456112 12.157050 -40.096437 -25.721466 7.164386 -6.871732 -63.680695 12.444244 0.000000 0.000000 0.000000 5.740012 -21.845194 3.050791 57.246591 -13.999355 -14.337836 10.109644 22.921543 -0.373477 0.000000 0.000000 0.000000
0.028879 0.383866 -0.144772 12.283638 8.686095 -56.430656 -2.733550 -4.246422 -27.617584 10.795681 -24.538545 102.308125 3.808963 -4.564151 -25.994181 0.000000 0.000000 0.000000 -18.366968 -3.757632 -29.605134 42.971583 -38.068510 81.728254 -10.199177 -36.928994 -35.681064 0.000000 0.000000 0.000000 14.149762 2.688013 7.232862 -2.525346 32.911246 122.245512 45.122506 -0.681726 -85.096013 0.842302 13.586746 9.752169 0.000000 0.000000 0.000000 -13.728258 -7.656538 10.747705 -32.032222 -43.819448 12.652979 36.489105 -62.281028 -12.606640 0.000000 0.000000 0.000000 10.409661 -11.511527 -1.619773 56.574152 -21.190787 -14.148705 -3.883445 26.546176 -2.987531 0.000000 0.000000 0.000000
0.045653 0.296329 -0.145300 11.587257 8.288378 -62.706677 -2.327949 -5.281746 -35.520018 9.782103 -27.760499 114.144346 3.102391 -11.277485 -28.959613 0.000000 0.000000 0.000000 -13.163343 -2.064965 -37.026600 43.036396 -39.795038 83.795949 -12.188619 -42.904703 -28.958594 0.000000 0.000000 0.000000 20.868457 7.304090 -8.536088 -6.623518 27.060705 112.393320 40.259146 -15.493746 -58.469386 2.619720 9.662121 14.396590 0.000000 0.000000 0.000000 -5.426020 -10.752317 11.196933 -8.883511 -54.405121 4.417505 41.389973 -44.812240 -9.817250 0.000000 0.000000 0.000000 7.907796 -9.763719 -6.036879 50.346506 -23.928526 -13.267299 -3.457347 32.014765 -3.913143 0.000000 0.000000 0.000000
0.065961 0.226974 -0.147407 12.064277 7.668745 -66.007546 -2.339397 -6.926778 -47.172641 7.781117 -28.215716 124.929775 -0.698256 -19.549581 -21.805546 0.000000 0.000000 0.000000 -8.318176 0.646816 -45.720889 37.180639 -39.278107 92.115636 -12.687610 -47.854337 -28.970071 0.000000 0.000000 0.000000 28.554711 11.988979 -14.049810 -5.912022 21.702849 116.426122 43.003406 -25.903678 -56.748175 8.557158 7.630077 11.865654 0.000000 0.000000 0.000000 4.382125 -14.552531 11.433242 9.182815 -54.150183 -1.904112 41.851709 -20.926250 -3.695524 0.000000 0.000000 0.000000 7.963497 -7.710742 -8.349849 46.052388 -24.827518 -12.436476 -16.378528 42.722965 -12.745383 0.000000 0.000000 0.000000
0.085458 0.173651 -0.154180 12.824695 6.742214 -70.275648 -1.886591 -7.363114 -54.487381 7.557043 -25.460977 125.811733 -1.637960 -22.487094 -20.196302 0.000000 0.000000 0.000000 -5.834636 2.498754 -47.397890 35.110939 -35.807810 91.819575 -10.220952 -48.709702 -37.323785 0.000000 0.000000 0.000000 32.331013 14.330047 -16.439986 -6.484802 17.313705 111.772239 46.944527 -34.632059 -55.827579 3.220721 7.399682 5.515019 0.000000 0.000000 0.000000 3.359707 -13.325116 12.109486 15.222034 -50.346225 -3.649243 34.877757 -14.143685 -1.922127 0.000000 0.000000 0.000000 -6.193024 -8.586872 0.899595 51.289988 -14.130335 -13.608521 -29.105043 59.948626 -32.369348 0.000000 0.000000 0.000000
0.098692 0.145435 -0.165145 14.231490 5.823207 -72.095097 0.902816 -5.292011 -58.525123 6.825578 -20.189472 119.738623 -4.078813 -22.908711 -14.342989 0.000000 0.000000 0.000000 -0.796660 5.923853 -48.701187 30.348251 -32.176457 95.107066 -9.223948 -47.014980 -40.172274 0.000000 0.000000 0.000000 37.076166 16.264287 -16.467932 -6.585110 16.589161 109.521663 47.481237 -38.690879 -56.863806 8.871237 7.844272 16.794058 0.000000 0.000000 0.000000 -0.399812 -23.236582 20.395466 17.303063 -39.644269 -4.048286 36.362115 -13.824383 -2.546245 0.000000 0.000000 0.000000 -2.821877 -9.600173 -1.407916 41.051528 -15.609643 -9.492318 -33.958041 71.314790 -43.397199 0.000000 0.000000 0.000000
0.103839 0.141354 -0.174911 16.433161 5.714851 -72.597690 1.146651 -4.189976 -53.710644 11.456640 -20.035057 102.268864 -6.887830 -23.000114 -9.190659 0.000000 0.000000 0.000000 -0.208856 6.405010 -47.485249 27.357164 -28.284519 97.238674 -7.684307 -39.318265 -45.631230 0.000000 0.000000 0.000000 37.019137 17.043045 -17.753290 -6.140126 16.892809 108.644056 50.997413 -41.308210 -57.113872 3.937091 10.504442 13.836281 0.000000 0.000000 0.000000 -4.382937 -17.498132 19.688055 10.266677 -42.140264 -3.458760 43.704251 -21.278902 -4.928287 0.000000 0.000000 0.000000 -3.516109 -4.654147 -0.175308 44.732588 -10.701350 -8.598964 -76.541251 77.408959 -90.264981 0.000000 0.000000 0.000000
0.103542 0.145733 -0.177304 17.050070 7.268332 -72.219257 3.162128 -3.166928 -52.078565 10.900671 -16.024949 86.872182 -10.619838 -11.483882 13.291338 0.000000 0.000000 0.000000 -2.322239 5.201810 -48.538669 25.726452 -29.095604 101.675094 -7.373765 -36.419256 -47.563313 0.000000 0.000000 0.000000 34.106733 17.052379 -21.605814 -6.839835 20.717407 110.687306 47.428483 -38.676911 -50.920063 5.417774 8.913898 17.911789 0.000000 0.000000 0.000000 -7.456902 -19.914929 20.747914 2.846281 -38.980155 -2.159554 54.446403 -31.677428 -10.716958 0.000000 0.000000 0.000000 1.369118 -0.201966 -3.119701 45.215315 -11.931108 -7.254529 -101.284904 76.509411 -113.328932 0.000000 0.000000 0.000000
0.102249 0.162159 -0.170096 16.107554 7.845862 -71.332009 4.259160 -2.570200 -47.883041 11.895449 -14.728574 73.706535 -11.827693 -6.188017 26.162881 0.000000 0.000000 0.000000 -4.193289 3.882587 -48.423545 26.181929 -32.153187 104.722791 -7.371629 -35.307397 -47.641107 0.000000 0.000000 0.000000 29.430908 15.654883 -25.071203 -6.925552 17.591713 109.370622 36.775205 -34.646553 -47.788754 5.501793 6.578791 18.201261 0.000000 0.000000 0.000000 -11.779835 -18.463012 19.901414 -7.663275 -41.031286 -0.503830 69.179399 -44.786858 -21.531980 0.000000 0.000000 0.000000 5.124605 -0.439452 -4.608605 44.213902 -11.557337 -5.797509 -125.718470 77.265936 -137.877529 0.000000 0.000000 0.000000
0.102764 0.170619 -0.152700 15.295772 9.065730 -70.390223 5.032073 -2.503548 -46.857256 7.047656 -9.726512 66.532259 -5.912544 1.653949 27.735300 0.000000 0.000000 0.000000 -7.884413 1.549541 -49.965083 26.483879 -34.875979 107.741913 -7.726637 -35.785700 -44.178442 0.000000 0.000000 0.000000 26.256803 13.709567 -25.439058 -9.142719 22.595450 104.342101 34.704038 -27.983487 -43.357752 8.480272 2.199417 19.547135 0.000000 0.000000 0.000000 -20.639823 -16.590828 21.044369 -13.484520 -38.953865 -0.253602 89.358398 -57.469033 -44.024282 0.000000 0.000000 0.000000 3.116970 -4.125897 -3.098816 48.644370 -7.597441 -6.224477 -151.440226 80.014305 -167.168535 0.000000 0.000000 0.000000
0.107484 0.184150 -0.127989 13.647797 8.587802 -69.325649 5.876198 -2.421242 -49.210456 5.127279 -8.793244 69.478110 -4.493677 1.986763 23.631523 0.000000 0.000000 0.000000 -9.047692 0.813606 -52.612442 25.829160 -40.324567 116.473976 -7.854199 -39.543992 -40.624621 0.000000 0.000000 0.000000 26.615374 13.529759 -25.527758 -10.296050 25.482483 102.745512 36.481016 -23.685861 -43.706813 9.022653 1.272501 20.700934 0.000000 0.000000 0.000000 -27.008043 -16.091298 22.745601 -14.037109 -32.700443 -1.066868 110.751276 -58.317714 -64.751956 0.000000 0.000000 0.000000 1.864542 -7.799709 -2.696663 50.201058 -6.606574 -6.936673 -162.058815 78.480859 -177.474129 0.000000 0.000000 0.000000
0.115110 0.187357 -0.098002 12.538419 7.280256 -68.984942 8.378144 -1.112464 -53.472682 0.777292 -6.319817 81.929283 -0.321821 3.392722 10.443629 0.000000 0.000000 0.000000 -10.785277 0.059025 -54.767039 25.310925 -46.251950 124.748454 -7.935914 -43.519937 -37.401062 0.000000 0.000000 0.000000 31.083372 15.108452 -23.564035 -10.122785 24.106410 102.787044 40.077563 -25.861472 -46.249783 11.822408 1.068797 20.661526 0.000000 0.000000 0.000000 -32.973516 -11.114880 23.917723 -11.416561 -29.521382 -2.318581 127.940115 -54.812906 -79.412968 0.000000 0.000000 0.000000 0.855000 -9.347510 -2.486246 50.545741 -2.881943 -6.046774 -175.912946 78.076813 163.909667 0.000000 0.000000 0.000000
0.122284 0.187969 -0.065171 13.899420 5.797343 -66.065218 11.771581 1.536311 -58.729611 -1.076311 -5.146183 95.745769 -1.576614 -6.008962 -4.983845 0.000000 0.000000 0.000000 -12.544806 -0.070473 -60.531756 26.852512 -55.765295 129.923848 -12.953474 -54.327650 -22.847829 0.000000 0.000000 0.000000 37.085747 16.341759 -19.922234 -9.790835 27.633612 104.312299 47.899387 -28.995809 -50.663030 18.208141 -0.023322 26.512679 0.000000 0.000000 0.000000 -39.586590 -9.890483 30.070633 -3.966815 -25.796747 -3.397805 127.589004 -48.730061 -77.361605 0.000000 0.000000 0.000000 4.949609 -4.064596 -3.959771 46.434002 -4.962306 -5.165030 171.207573 76.028157 145.985522 0.000000 0.000000 0.000000
0.125888 0.194701 -0.031279 14.262706 4.333830 -63.028426 13.566818 3.226894 -60.872101 -1.707923 -4.841586 104.348411 2.359008 -11.152687 -24.953745 0.000000 0.000000 0.000000 -16.742585 -2.170218 -60.751118 29.175993 -64.626106 132.478113 -13.676466 -60.398978 -24.086932 0.000000 0.000000 0.000000 45.934358 18.632943 -16.537867 -6.806123 19.397329 113.377076 55.574366 -33.475819 -64.396126 25.955080 3.078240 30.197052 0.000000 0.000000 0.000000 -39.532917 -5.319451 32.235475 2.114347 -24.924094 -3.690532 125.203361 -46.318696 -73.846063 0.000000 0.000000 0.000000 7.038130 -0.372611 -5.745416 47.411431 -2.480717 -4.100041 156.369763 79.168906 127.260443 0.000000 0.000000 0.000000
0.124943 0.207776 0.003557 14.433960 2.291449 -57.609200 20.450249 9.189645 -66.989386 -3.675849 -3.505820 115.753634 1.146724 -23.530211 -28.496314 0.000000 0.000000 0.000000 -22.545083 -5.106325 -63.048694 14.924057 -59.811789 152.177864 -15.834495 -48.595412 -10.057230 0.000000 0.000000 0.000000 71.112371 19.211802 -2.895704 -6.056800 19.939576 120.342079 83.842507 -40.424385 -87.621115 52.517620 1.910319 32.333123 0.000000 0.000000 0.000000 -35.513896 -0.649716 41.700050 9.085874 -24.360010 -4.358414 127.381221 -39.016329 -68.199231 0.000000 0.000000 0.000000 14.778679 8.249786 -15.930965 40.693399 -12.092040 -4.273584 110.304019 79.917974 79.368081 0.000000 0.000000 0.000000
0.120122 0.225919 0.041895 17.451775 1.139681 -51.888443 30.528236 15.835489 -61.251664 -9.364425 7.132913 115.908029 11.183476 -14.216863 -56.504823 0.000000 0.000000 0.000000 -28.149888 -7.531723 -63.435061 6.598237 -33.392105 164.110436 -6.611567 -17.962516 -9.859711 0.000000 0.000000 0.000000 94.280198 12.590143 5.764992 -7.064844 27.432649 119.976138 115.997758 -43.487349 -110.384534 68.135693 3.472051 41.382418 0.000000 0.000000 0.000000 -37.121060 6.971322 53.184753 14.966272 -21.684324 -4.854969 127.760912 -32.924323 -70.249854 0.000000 0.000000 0.000000 11.818161 10.364645 -24.766432 38.417922 -22.703453 -9.498927 114.800898 61.212961 59.823214 0.000000 0.000000 0.000000
0.112147 0.260908 0.088249 16.799026 -1.338981 -48.327911 35.831045 18.242179 -54.784581 -8.219431 4.366354 116.030196 9.603128 -22.856502 -51.593243 0.000000 0.000000 0.000000 -43.734886 -12.244533 -48.727080 5.889440 12.027627 164.293204 15.840863 31.923763 8.066813 0.000000 0.000000 0.000000 116.788748 -22.826986 22.697720 -35.023041 71.801046 86.736777 161.976409 -36.626994 -123.914332 107.120651 -6.257577 43.858243 0.000000 0.000000 0.000000 -50.863200 10.309862 78.314997 21.558403 -9.954724 -1.442142 134.296413 -14.576436 -93.706411 0.000000 0.000000 0.000000 7.120826 15.699910 -52.817599 22.092145 -38.267226 -8.038489 99.775290 42.574604 25.142135 0.000000 0.000000 0.000000
0.102570 0.303458 0.149973 19.951123 -0.072345 -44.594903 41.416562 15.866041 -40.010572 -6.998844 1.860366 116.696730 14.919251 -29.235434 -65.023185 0.000000 0.000000 0.000000 -69.549096 -7.966480 -18.327088 5.864058 14.168805 147.121245 20.137445 50.053274 -1.214651 0.000000 0.000000 0.000000 119.953730 -40.287218 26.077997 -104.314117 41.243406 -17.820632 -135.790592 -48.458671 -176.888487 99.892296 -59.796461 25.907253 0.000000 0.000000 0.000000 -71.733055 8.878491 61.888010 26.810785 -3.722236 3.797868 113.678922 -33.660420 -119.620822 0.000000 0.000000 0.000000 25.548004 27.158594 -54.842577 7.839557 -22.806673 2.580001 92.174562 49.380460 57.460399 0.000000 0.000000 0.000000
0.089119 0.350726 0.226314 25.806117 9.523149 -39.342059 35.984892 7.261693 -28.445290 -13.094207 11.013977 115.528064 13.666905 -10.525471 -69.559947 0.000000 0.000000 0.000000 -88.740404 10.799402 16.385009 13.667397 -9.274479 120.880115 -11.533075 34.109110 -59.121765 0.000000 0.000000 0.000000 112.839009 -54.481400 32.847359 -49.008419 4.361991 -46.304169 -95.615648 -44.637479 64.121853 15.543204 -43.212067 89.777327 0.000000 0.000000 0.000000 -83.149005 1.408417 30.122280 12.368174 0.471652 3.050601 -10.006454 -61.562475 -11.476406 0.000000 0.000000 0.000000 37.094613 13.556546 -21.102955 14.203667 -21.908082 -0.661480 74.857853 64.871956 52.240491 0.000000 0.000000 0.000000
0.069775 0.383567 0.319175 47.192496 16.062913 -14.195289 16.695367 -1.230940 -22.994137 -21.662631 22.259990 100.106724 13.991274 -0.511130 -78.778328 0.000000 0.000000 0.000000 -88.213324 34.555129 47.735138 74.159790 -39.245734 40.043059 -10.978900 -5.494262 -64.146456 0.000000 0.000000 0.000000 102.730333 -51.181825 33.420652 -63.811275 -13.960173 -72.039332 -80.116437 -28.255366 62.650594 -7.972821 -42.946411 121.055796 0.000000 0.000000 0.000000 -89.073145 -4.497029 11.330110 11.503428 -0.456025 2.724920 -27.100233 -35.404352 0.938390 0.000000 0.000000 0.000000 49.501417 13.396417 -15.391262 5.608441 -14.299465 0.315458 54.502670 69.325192 37.020914 0.000000 0.000000 0.000000
0.046481 0.401367 0.422415 55.237408 -15.669459 27.020964 15.742585 -0.144445 -28.972131 -15.371236 36.209559 78.369969 16.350119 -3.816854 -80.904223 0.000000 0.000000 0.000000 -47.933839 48.476591 59.841043 80.316411 22.282257 -59.761161 2.588400 -46.302779 -72.061929 0.000000 0.000000 0.000000 90.680213 -38.625640 46.750255 -9.957344 -7.924412 -108.073213 -60.267079 12.996902 6.495110 -13.099939 -48.303009 127.780072 0.000000 0.000000 0.000000 -98.390297 -13.383705 -6.256481 14.195215 -7.137369 0.558720 -37.708333 -25.394939 8.841788 0.000000 0.000000 0.000000 49.404133 9.241977 5.932296 3.056277 7.399670 -0.288367 -10.730292 73.164853 -11.972192 0.000000 0.000000 0.000000
0.022543 0.392959 0.523714 31.031635 -36.612229 61.590537 21.638659 0.333175 -13.953359 -45.060992 41.101798 20.687211 10.220559 -2.539689 -77.307682 0.000000 0.000000 0.000000 -48.774760 49.589389 20.541845 11.594366 14.163421 -95.512847 22.215071 -68.582757 -111.115109 0.000000 0.000000 0.000000 92.350971 -26.882271 55.404065 -3.693035 -0.896528 -65.264094 -91.934593 -44.729343 90.486779 15.155545 -66.628361 92.814959 0.000000 0.000000 0.000000 -93.881843 -22.461827 67.458141 77.560767 5.912898 -5.642736 83.118219 -25.080718 -50.057445 0.000000 0.000000 0.000000 27.685128 39.457787 -19.210868 -39.243631 72.336939 -26.565567 -76.908130 49.472324 -29.379227 0.000000 0.000000 0.000000
0.001689 0.357702 0.614782 27.695797 -38.101749 67.710998 18.251143 -3.588089 0.774940 -52.665541 29.938432 -5.518734 4.557934 6.967369 -81.589367 0.000000 0.000000 0.000000 -8.541347 35.931618 52.183000 -42.391435 -29.467501 -92.225076 22.892061 -56.499270 -135.900740 0.000000 0.000000 0.000000 106.778705 -17.207741 49.837198 3.699670 1.734188 -46.104753 -176.201644 -62.860010 -176.013827 136.147512 2.564500 6.183238 0.000000 0.000000 0.000000 -87.709070 -28.093896 72.956801 87.719123 42.411700 8.601600 93.527874 -1.865367 -45.476369 0.000000 0.000000 0.000000 -38.582397 9.211548 18.055254 -78.697500 3.273856 -71.070078 -99.949648 -3.534870 -50.818734 0.000000 0.000000 0.000000
-0.014313 0.307058 0.693999 16.464996 -35.801056 83.931119 21.495704 -5.339330 5.237885 -80.277090 60.210382 -9.389838 13.512174 2.614104 -89.977986 0.000000 0.000000 0.000000 10.226190 29.351599 53.027331 -103.240112 -37.896647 -56.746028 -16.911598 -24.162055 -121.154345 0.000000 0.000000 0.000000 126.684489 -3.124645 48.889004 -1.796810 3.547499 -42.627081 175.107710 -38.778837 -173.293731 -169.421445 19.810659 66.217498 0.000000 0.000000 0.000000 -54.834811 -30.439628 88.028396 -8.984923 60.603023 -27.318705 125.054856 31.036572 -2.694503 0.000000 0.000000 0.000000 -52.286129 5.757921 11.009537 -32.310383 19.669977 -21.507513 -139.793088 -27.433574 -148.020845 0.000000 0.000000 0.000000
-0.027301 0.252886 0.765180 3.364888 13.229539 -93.760596 123.836767 -16.871033 -23.612519 -19.105894 -30.023327 33.708879 20.852733 11.918919 -99.926457 0.000000 0.000000 0.000000 -172.695100 -31.989582 -45.327958 -35.112071 10.910281 35.904357 -16.426528 -6.586874 -104.853814 0.000000 0.000000 0.000000 87.640396 22.655955 -61.481543 -112.889991 -21.612557 -23.715077 115.660369 48.342610 119.391990 -68.217694 -29.417824 46.803122 0.000000 0.000000 0.000000 -18.623311 -55.620450 -126.015379 75.796850 -54.242099 -16.792105 -150.475732 -27.620733 -168.471786 0.000000 0.000000 0.000000 -51.564953 -2.133301 42.431667 17.751159 57.752482 28.771339 -155.831305 -28.243328 -141.875983 0.000000 0.000000 0.000000
-0.040070 0.200148 0.823876 -6.945968 7.938918 -105.490587 105.306552 6.882019 -51.371492 -55.994978 17.159947 90.288607 8.507172 16.390735 -93.211074 0.000000 0.000000 0.000000 117.231120 28.655094 -64.936104 74.609392 -46.538803 31.255539 -10.999748 -11.150525 -90.793621 0.000000 0.000000 0.000000 35.873806 15.867130 -76.019538 -110.578203 46.904547 28.602307 56.854524 44.800894 38.652593 11.758493 5.494099 -4.896317 0.000000 0.000000 0.000000 -18.691281 -39.728380 -17.303860 0.583350 71.482197 0.414694 173.174123 -20.123648 -135.459893 0.000000 0.000000 0.000000 -55.174809 9.657006 -23.368308 66.110603 7.817370 22.899071 -115.781103 17.472289 18.114478 0.000000 0.000000 0.000000
-0.053832 0.169779 0.868023 -9.115733 4.030271 -103.518710 68.601399 15.827892 -73.492807 -33.988347 40.061343 128.654573 4.532041 22.326666 -85.888656 0.000000 0.000000 0.000000 29.756869 18.576838 -101.569852 73.816375 65.045810 -97.500681 -4.200456 -26.180619 -94.884405 0.000000 0.000000 0.000000 11.667480 9.217720 -68.701447 -37.202509 38.830170 95.424208 30.305165 18.946132 6.336467 1.931750 7.804977 -19.043662 0.000000 0.000000 0.000000 -4.705433 -9.744074 5.640157 -75.706374 13.304458 -29.532993 -174.814708 -33.567781 178.983264 0.000000 0.000000 0.000000 -46.184053 0.432542 -9.764198 85.666852 26.732354 26.809118 -109.267611 34.246800 -30.033640 0.000000 0.000000 0.000000
-0.068115 0.156571 0.902488 -9.326686 1.878735 -99.309305 39.238809 7.294858 -83.209849 -21.888407 28.811563 141.003879 3.746275 27.307294 -62.545448 0.000000 0.000000 0.000000 10.828128 9.327789 -88.459678 0.781328 -12.513436 -178.224047 8.197945 -34.958793 -97.819941 0.000000 0.000000 0.000000 4.461001 6.489831 -57.965166 -23.830350 25.292174 101.249309 27.423116 10.172708 -7.481131 -1.712107 4.832642 -17.452738 0.000000 0.000000 0.000000 -9.242526 -9.115608 3.076128 -86.064236 2.177701 -19.831178 178.750968 -51.881877 -160.915154 0.000000 0.000000 0.000000 -38.725828 -4.242983 -1.700898 94.689471 29.729817 21.981137 -114.684167 53.994899 -65.557873 0.000000 0.000000 0.000000
-0.082645 0.154652 0.930615 -8.867591 -2.685624 -95.539697 22.004314 1.177134 -77.216826 -14.211164 4.451532 145.032447 5.437546 15.108892 -38.031900 0.000000 0.000000 0.000000 -2.069854 3.649561 -70.984055 -4.525326 39.438512 161.107194 -14.578858 5.714092 -47.487305 0.000000 0.000000 0.000000 2.526464 7.149100 -50.247670 -15.701447 11.640295 99.013220 23.529201 1.959564 -17.121246 -4.219565 3.894103 -16.072331 0.000000 0.000000 0.000000 -15.895554 -7.353437 3.121132 -84.345950 -1.718345 -11.980462 158.789535 -60.297070 -128.497415 0.000000 0.000000 0.000000 -32.790060 -8.505781 1.960510 96.642398 22.032140 7.253347 -157.151733 67.783471 -138.156808 0.000000 0.000000 0.000000
-0.095708 0.159395 0.955249 -9.060621 -4.476308 -90.145281 14.996598 -0.791243 -71.551335 -11.532643 -4.155043 140.311157 6.274981 15.325527 -27.656103 0.000000 0.000000 0.000000 -5.317533 2.849675 -63.842000 -5.086762 20.149563 149.310806 -4.141721 2.170985 -17.388098 0.000000 0.000000 0.000000 -1.805206 3.680465 -45.105434 -9.376418 3.534447 97.014597 18.785438 1.623466 -26.074761 -5.151338 3.930301 -14.559108 0.000000 0.000000 0.000000 -13.283766 -3.006192 1.112621 -89.477406 -0.623374 -10.932736 144.489080 -66.987730 -117.106519 0.000000 0.000000 0.000000 -28.574755 -11.553307 2.285248 94.766774 10.818417 -3.974086 167.556152 65.886079 166.341382 0.000000 0.000000 0.000000
-0.106628 0.161666 0.976788 -8.799094 -6.747203 -86.168400 11.828104 0.159549 -63.112524 -7.169987 -14.584651 132.206659 6.064146 9.202664 -30.298190 0.000000 0.000000 0.000000 -9.241245 1.239905 -57.957394 -0.864732 3.623349 135.322317 -3.994726 -5.785222 -13.095244 0.000000 0.000000 0.000000 -1.715156 3.969249 -41.500178 -5.473848 -0.640472 91.560431 16.655163 -2.621754 -28.845260 -5.078306 3.344489 -14.178832 0.000000 0.000000 0.000000 -11.151580 2.311128 -0.954383 -91.217182 2.800151 -11.120777 151.491117 -68.933826 -128.076089 0.000000 0.000000 0.000000 -25.893554 -14.217039 2.684087 89.187114 4.127438 -10.803808 157.283362 57.397179 142.470008 0.000000 0.000000 0.000000
-0.115846 0.165055 0.995844 -9.284849 -7.519808 -83.689279 11.120065 0.458645 -60.318430 -4.032962 -19.614076 125.921673 5.355025 4.134179 -28.160521 0.000000 0.000000 0.000000 -10.703175 0.523186 -57.870954 0.144282 2.954421 130.624743 -2.459232 -4.566818 -5.721648 0.000000 0.000000 0.000000 -4.714648 1.468231 -39.933726 -2.023801 -6.265085 87.205806 11.472610 -2.201352 -28.570183 -3.745311 2.455106 -14.765586 0.000000 0.000000 0.000000 -12.200035 2.696817 -1.358713 -90.663279 5.146730 -12.959973 156.043290 -65.997908 -133.368279 0.000000 0.000000 0.000000 -22.275975 -14.520433 1.547930 82.949339 -1.551528 -13.065465 161.861505 55.381965 148.699891 0.000000 0.000000 0.000000
-0.123034 0.168928 1.010296 -8.260213 -7.828143 -82.631400 11.608827 1.800977 -54.527621 -1.268598 -22.151297 117.365971 4.847817 -0.761526 -29.067245 0.000000 0.000000 0.000000 -11.085969 0.682692 -55.794545 -0.651326 6.602431 126.738020 -0.838079 -1.021093 -2.546569 0.000000 0.000000 0.000000 -3.529294 2.402082 -38.756291 -1.785613 -4.471193 85.107576 11.994665 -2.549809 -30.909313 -2.871385 1.960889 -12.259934 0.000000 0.000000 0.000000 -15.291667 3.096117 -1.656883 -86.924181 7.561035 -13.824311 161.676510 -62.815928 -139.117650 0.000000 0.000000 0.000000 -22.886443 -15.399300 1.786212 80.324643 -4.441431 -14.029201 162.199063 54.114441 148.500235 0.000000 0.000000 0.000000
-0.128766 0.171105 1.018892 -8.025302 -7.101079 -83.046878 10.842253 1.684279 -47.902245 1.469307 -24.215425 109.219618 4.000103 -6.111392 -29.415786 0.000000 0.000000 0.000000 -11.207617 0.314659 -53.002257 -4.053462 14.595911 124.814433 2.818729 7.176187 1.144956 0.000000 0.000000 0.000000 -4.799079 1.154291 -37.983840 -3.037915 -0.647561 81.943233 15.803339 -2.206727 -27.921754 -3.389747 2.115384 -11.946747 0.000000 0.000000 0.000000 -21.454065 3.389860 -1.611067 -80.461458 6.381407 -12.119788 164.760378 -57.963769 -138.223269 0.000000 0.000000 0.000000 -22.712027 -13.614784 2.036407 79.654530 -1.932049 -12.458710 170.349124 54.163397 164.699819 0.000000 0.000000 0.000000
-0.132647 0.172871 1.022078 -6.741993 -5.552828 -83.334552 8.567385 0.330181 -46.361628 4.157829 -27.571240 107.623448 1.152764 -14.953958 -26.073443 0.000000 0.000000 0.000000 -9.582353 1.201765 -55.111830 -9.119774 27.194198 128.029774 9.506919 20.171466 7.010208 0.000000 0.000000 0.000000 -7.410043 -1.074555 -42.740424 -4.086104 1.005787 78.580587 15.289155 -2.907473 -19.306471 -3.876772 2.356632 -13.022099 0.000000 0.000000 0.000000 -26.060220 4.745855 -2.346665 -73.845547 3.474886 -11.058812 168.215098 -54.172713 -139.749481 0.000000 0.000000 0.000000 -22.785990 -11.009310 1.862488 78.935700 1.196175 -11.158931 174.916693 47.610940 174.529839 0.000000 0.000000 0.000000
-0.136355 0.175760 1.021967 -7.522786 -6.141852 -82.148166 8.691982 0.482329 -46.532396 3.979263 -26.352385 105.777478 0.327422 -13.471718 -21.796736 0.000000 0.000000 0.000000 -8.191625 2.241362 -55.060209 -9.636328 28.065019 129.458235 10.454014 19.821488 9.534542 0.000000 0.000000 0.000000 -10.312791 -3.092620 -44.713252 -1.926953 -2.821785 79.537364 10.815868 -0.257854 -21.129965 1.212985 -0.888191 -8.703649 0.000000 0.000000 0.000000 -30.201869 -0.724759 0.330755 -66.772413 2.462142 -9.645634 169.550180 -51.485027 -142.092160 0.000000 0.000000 0.000000 -19.791668 -12.049092 0.596282 75.870053 -3.011232 -11.511301 178.492903 42.857668 -175.213044 0.000000 0.000000 0.000000
-0.139905 0.173755 1.019407 -7.024412 -5.479448 -82.668360 8.485441 0.194571 -47.123266 2.914576 -25.110786 106.524207 -1.567232 -15.573437 -17.550450 0.000000 0.000000 0.000000 -8.039269 2.230879 -56.023053 -9.855413 30.922817 132.570844 13.224997 24.078128 12.214661 0.000000 0.000000 0.000000 -12.771384 -5.221452 -45.354889 -1.627335 -2.753926 77.718389 10.319340 1.651471 -18.377256 2.001939 -1.618639 -6.562588 0.000000 0.000000 0.000000 -32.280130 -3.486042 2.029703 -60.668012 2.814568 -9.354105 170.838540 -49.331225 -143.310855 0.000000 0.000000 0.000000 -20.227210 -11.787373 0.318755 75.340483 -6.969681 -13.592274 178.865655 35.483486 -171.159157 0.000000 0.000000 0.000000
-0.143636 0.174961 1.015158 -5.913008 -6.768331 -83.518171 11.048266 2.093925 -47.307823 0.317442 -20.869461 106.780743 -1.721746 -11.001063 -11.871221 0.000000 0.000000 0.000000 -7.182107 3.439986 -55.234427 -6.510870 25.301319 136.631861 10.652146 20.288735 9.913448 0.000000 0.000000 0.000000 -12.012639 -4.048467 -45.729574 -0.557902 -3.703413 77.136026 8.500431 1.265388 -18.551051 3.109854 -2.646594 -3.484427 0.000000 0.000000 0.000000 -36.753678 -7.548819 4.948956 -53.527663 4.507038 -9.094948 172.509980 -51.150182 -148.844558 0.000000 0.000000 0.000000 -19.076472 -10.819695 0.083635 74.299139 -12.094426 -16.281403 178.792971 32.623309 -170.119539 0.000000 0.000000 0.000000
-0.146537 0.175784 1.009102 -5.939340 -7.502296 -83.093807 11.777532 2.570821 -49.044552 -0.873188 -18.040636 108.021056 -0.604135 -6.946601 -10.319550 0.000000 0.000000 0.000000 -7.210091 3.606338 -54.601019 -2.581320 16.136173 139.286745 5.448028 11.671989 4.898703 0.000000 0.000000 0.000000 -12.910131 -4.595406 -47.083461 1.151429 -6.365400 79.541603 6.016826 1.321435 -19.126939 4.850140 -4.266984 -1.588901 0.000000 0.000000 0.000000 -37.651075 -7.950731 5.148200 -49.089954 5.474381 -8.802494 175.158177 -52.731224 -155.678730 0.000000 0.000000 0.000000 -16.620563 -10.636974 -0.310266 74.960954 -14.576936 -18.148208 -179.692156 32.094745 -164.743045 0.000000 0.000000 0.000000
-0.148064 0.176682 1.002233 -5.687490 -8.008634 -83.765596 12.508850 3.143879 -49.160248 -2.602277 -15.094549 109.395377 -0.066374 -5.716929 -10.599671 0.000000 0.000000 0.000000 -6.606233 3.837567 -50.763230 -0.269645 8.867107 138.400469 0.395422 6.991843 -7.321718 0.000000 0.000000 0.000000 -12.711960 -4.337030 -46.868716 1.851791 -6.978807 78.017853 5.400202 0.753274 -17.380267 2.631845 -2.959281 2.678007 0.000000 0.000000 0.000000 -37.511659 -8.578416 6.129711 -47.462935 6.298752 -9.021900 179.111641 -56.472689 -163.822246 0.000000 0.000000 0.000000 -11.365706 -9.627881 -1.099621 73.700084 -17.339458 -19.622526 177.101796 31.795528 -176.394102 0.000000 0.000000 0.000000
-0.148285 0.180024 0.996543 -6.560960 -9.516476 -84.684841 12.415493 3.296692 -49.201169 -3.137465 -14.558338 110.441555 1.961593 -1.122023 -12.192777 0.000000 0.000000 0.000000 -6.281360 3.929945 -47.128023 1.189947 3.786957 136.487346 -2.239802 2.339692 -13.759434 0.000000 0.000000 0.000000 -12.284483 -3.670531 -46.373062 2.751927 -8.031396 74.594566 6.363986 -0.063917 -14.288207 1.042572 -1.954167 6.330984 0.000000 0.000000 0.000000 -40.676579 -10.302066 9.125154 -41.677114 7.001900 -8.634133 179.721285 -61.685342 -165.460039 0.000000 0.000000 0.000000 -6.971132 -8.486773 -1.610753 71.050191 -16.377574 -18.550542 174.924145 37.212306 176.460910 0.000000 0.000000 0.000000
-0.148111 0.179823 0.993731 -6.241046 -10.321713 -84.706535 11.886877 3.245429 -48.514679 -1.466429 -16.441305 109.791908 1.211143 -4.041143 -13.314919 0.000000 0.000000 0.000000 -6.278507 3.916020 -44.673709 2.379349 1.375689 134.663500 -4.874473 -5.489551 -20.207901 0.000000 0.000000 0.000000 -11.281347 -2.542046 -46.855292 3.351115 -8.545635 73.151316 7.406214 -0.691636 -12.805075 0.480760 -1.605992 9.999734 0.000000 0.000000 0.000000 -42.082367 -10.527725 10.109665 -39.182625 5.918126 -8.086937 179.179722 -64.331787 -165.215929 0.000000 0.000000 0.000000 -4.139004 -6.901934 -1.642387 69.918466 -13.545499 -16.767084 170.890027 42.938667 166.234370 0.000000 0.000000 0.000000
-0.148651 0.175613 0.993680 -5.680193 -11.341157 -84.657686 12.792250 4.177350 -49.482246 -3.264271 -12.637020 111.352414 3.503752 0.307540 -17.625003 0.000000 0.000000 0.000000 -5.003780 4.493780 -41.521927 3.998648 -1.197772 132.097827 -6.909936 -13.610433 -29.600107 0.000000 0.000000 0.000000 -9.025048 -0.378767 -49.504579 2.137444 -6.656695 76.079104 10.519174 -1.287790 -14.466680 -0.533996 -0.502402 13.163249 0.000000 0.000000 0.000000 -41.173111 -10.517114 10.815559 -38.895131 7.603101 -8.806598 178.929844 -66.537896 -165.063308 0.000000 0.000000 0.000000 -4.977820 -3.341976 -0.292634 73.836301 -12.346284 -17.910218 167.106902 47.494335 158.689170 0.000000 0.000000 0.000000
-0.150569 0.170883 0.995434 -7.208777 -12.356711 -85.571244 13.066319 4.208385 -50.855195 -4.299054 -11.680485 112.557800 3.552458 1.258165 -16.483061 0.000000 0.000000 0.000000 -4.757602 4.032927 -37.839114 5.082792 -4.184408 130.018021 -7.568107 -17.878880 -33.785783 0.000000 0.000000 0.000000 -9.025297 -0.634647 -46.665761 4.043109 -8.986592 70.821909 9.866552 -0.498992 -9.941989 0.310234 -1.799921 16.265637 0.000000 0.000000 0.000000 -45.552448 -15.569397 16.831297 -35.585590 7.504730 -8.088680 168.485048 -68.445618 -150.606319 0.000000 0.000000 0.000000 -2.950313 -7.441532 -2.089303 73.867331 -6.661082 -13.839889 163.459651 55.184679 157.482483 0.000000 0.000000 0.000000
-0.153165 0.173173 0.997898 -8.158714 -11.410372 -85.883484 11.692799 2.869549 -51.204043 -4.794088 -9.916929 110.590089 3.856526 4.886362 -10.091864 0.000000 0.000000 0.000000 -7.152317 2.147403 -34.892952 8.073388 -9.604835 127.874755 -7.710418 -19.895983 -40.741638 0.000000 0.000000 0.000000 -9.229649 -1.525391 -45.381097 1.966776 -6.261347 72.838145 15.886755 -1.066395 -12.755406 -7.773557 8.027322 15.728489 0.000000 0.000000 0.000000 -42.298235 -7.934983 11.856457 -39.125160 4.867476 -8.910353 166.880639 -70.989375 -146.775851 0.000000 0.000000 0.000000 -5.803350 -2.579668 0.229373 78.598702 -3.334789 -14.100857 167.008865 58.567788 162.248011 0.000000 0.000000 0.000000
-0.155933 0.171906 1.000899 -9.450942 -12.958219 -84.370178 13.419737 4.065853 -55.100153 -4.445591 -10.954176 109.784119 4.009539 6.442838 -6.380834 0.000000 0.000000 0.000000 -6.620240 2.674022 -35.670242 8.683183 -11.489482 126.470325 -7.762526 -17.656535 -39.206890 0.000000 0.000000 0.000000 -8.916954 -0.883716 -45.630749 3.826724 -7.870279 64.927783 14.833177 -3.140877 -7.689104 -5.038822 4.892010 16.986065 0.000000 0.000000 0.000000 -42.712462 -11.513186 15.901066 -38.939408 5.841028 -9.076993 147.684678 -70.013449 -121.209575 0.000000 0.000000 0.000000 -5.605667 -6.447175 -1.116354 77.852547 -0.737222 -12.334782 161.834471 61.082233 154.451801 0.000000 0.000000 0.000000
-0.158613 0.173765 1.004601 -7.231769 -12.099836 -86.116041 13.064515 4.168111 -51.178824 -2.173449 -14.251003 106.439010 0.549429 -0.587687 -3.928459 0.000000 0.000000 0.000000 -7.749014 2.187813 -35.956928 9.225435 -10.983592 124.335965 -7.804340 -21.142758 -39.652158 0.000000 0.000000 0.000000 -7.182923 0.254929 -41.248608 1.688031 -3.969300 61.832594 15.503053 -2.022485 -8.851198 -7.366154 7.216727 17.702266 0.000000 0.000000 0.000000 -41.117845 -10.629595 13.147031 -40.713126 6.641714 -9.022039 145.276194 -70.268938 -118.306402 0.000000 0.000000 0.000000 -3.030174 -6.120314 -1.664541 74.972012 2.579952 -8.111769 169.009582 64.887422 168.995594 0.000000 0.000000 0.000000
-0.160595 0.175480 1.008466 -6.209217 -11.016904 -85.141502 11.436087 3.153671 -50.248069 1.645374 -18.670560 105.837692 -0.604591 -4.673374 -6.708277 0.000000 0.000000 0.000000 -10.128835 0.995964 -37.214024 9.078206 -8.899914 126.839637 -7.450218 -19.006176 -41.266487 0.000000 0.000000 0.000000 -8.178191 -0.566176 -43.774298 1.343310 -3.065031 58.579495 15.024021 -3.965539 -0.995366 -9.695759 10.654167 16.697184 0.000000 0.000000 0.000000 -34.933483 -3.822525 6.835260 -44.261772 2.307166 -9.186714 151.429701 -71.215604 -124.952345 0.000000 0.000000 0.000000 -0.541097 -3.847697 -1.558182 71.698579 7.530881 -6.196684 178.806885 63.044688 -174.675804 0.000000 0.000000 0.000000
-0.162298 0.178744 1.012448 -6.919802 -11.104229 -82.260012 10.351641 2.363104 -53.412829 4.564582 -22.680499 106.378938 -5.434337 -10.439003 1.225450 0.000000 0.000000 0.000000 -11.043893 0.820296 -39.723455 7.506000 -5.359768 127.003489 -7.302288 -16.039103 -37.247089 0.000000 0.000000 0.000000 -9.851566 -1.545742 -46.314419 2.620171 -4.249972 53.999215 13.551366 -4.669850 4.054020 -8.238787 8.815626 15.389808 0.000000 0.000000 0.000000 -33.264796 -3.916507 6.797277 -44.734347 0.801870 -8.991123 157.002132 -67.180717 -128.648154 0.000000 0.000000 0.000000 -0.295510 -3.823314 -1.677752 67.289587 9.211550 -5.242961 -172.627733 58.123825 -158.343354 0.000000 0.000000 0.000000
-0.164635 0.179114 1.016585 -7.042785 -11.334610 -81.452790 11.494161 3.200440 -54.491325 5.040536 -23.923878 106.505508 -8.158023 -12.541639 6.120089 0.000000 0.000000 0.000000 -11.071830 1.088939 -41.937416 6.742277 -3.958638 126.987210 -6.770798 -13.331969 -29.795007 0.000000 0.000000 0.000000 -10.354952 -1.688997 -47.793124 3.176168 -4.936774 54.230336 12.017113 -4.090306 4.980115 -10.292742 10.274136 11.440624 0.000000 0.000000 0.000000 -29.130309 -3.648847 5.372947 -47.296823 0.959683 -9.092872 157.542569 -65.084501 -127.810668 0.000000 0.000000 0.000000 -2.065857 -4.256728 -1.521456 65.855142 7.884497 -5.843809 -168.103752 54.080214 -147.378721 0.000000 0.000000 0.000000
-0.167090 0.176021 1.020602 -6.574063 -11.339232 -80.701988 14.200316 5.123643 -58.516507 3.470244 -23.701433 110.174772 -11.926459 -15.880632 11.644054 0.000000 0.000000 0.000000 -12.099323 0.972826 -46.266088 5.682302 -1.675970 131.975829 -5.681952 -11.719693 -18.371046 0.000000 0.000000 0.000000 -11.224201 -2.153441 -47.947184 3.342599 -4.923003 55.379506 11.705092 -3.068754 4.697583 -10.294618 8.939388 5.197509 0.000000 0.000000 0.000000 -25.007528 -3.364822 4.089022 -50.937656 -0.222117 -8.769217 165.501768 -64.909888 -139.183054 0.000000 0.000000 0.000000 -4.249936 -4.207811 -1.115506 63.889833 7.382749 -5.829236 -164.209186 50.897926 -137.234604 0.000000 0.000000 0.000000
-0.169247 0.177607 1.023604 -5.974352 -11.175609 -79.934356 16.847007 7.101613 -60.433600 1.191609 -20.985290 111.469022 -12.624498 -13.296817 17.516495 0.000000 0.000000 0.000000 -11.600758 1.857769 -51.896133 5.090384 -1.669660 136.620562 -5.401083 -14.650141 0.798742 0.000000 0.000000 0.000000 -12.016474 -2.549549 -49.469966 3.789594 -5.539118 58.230505 9.667557 -1.046773 2.587899 -9.018824 7.033768 0.133780 0.000000 0.000000 0.000000 -19.746688 -3.601946 2.826819 -54.775393 1.859000 -9.379361 169.196045 -64.496887 -145.902864 0.000000 0.000000 0.000000 -3.288481 -3.835926 -1.143088 62.047759 3.988170 -6.742398 -160.742221 48.794402 -127.339777 0.000000 0.000000 0.000000
-0.170618 0.176707 1.025449 -5.340230 -10.800845 -79.380262 20.854376 10.025215 -62.539769 -1.722396 -18.287115 113.706760 -14.260178 -13.909833 20.951234 0.000000 0.000000 0.000000 -14.307065 0.691734 -58.895921 4.105920 0.975605 141.114291 -2.149692 -11.168150 19.617049 0.000000 0.000000 0.000000 -13.248540 -3.320439 -50.018997 4.380346 -6.458552 60.406813 8.019052 1.168640 2.385709 -6.973815 5.070160 -7.313820 0.000000 0.000000 0.000000 -17.278184 -2.665659 1.305932 -56.268940 2.647099 -9.733980 173.600808 -64.046494 -154.362801 0.000000 0.000000 0.000000 -5.460530 -4.345909 -1.105724 63.814380 3.272953 -6.879678 -157.656847 50.235822 -120.773487 0.000000 0.000000 0.000000
-0.171388 0.180959 1.026208 -5.138332 -9.668493 -78.711259 24.642337 12.243548 -63.227725 -5.252112 -13.155241 115.838909 -13.268958 -12.770882 20.835969 0.000000 0.000000 0.000000 -16.745149 -1.252976 -65.186914 4.028646 1.845942 145.446828 -1.627290 -12.429461 30.906159 0.000000 0.000000 0.000000 -15.182159 -5.226523 -49.884509 3.991444 -6.398446 65.658163 7.113434 6.187872 -3.351226 -5.538072 4.303107 -10.462188 0.000000 0.000000 0.000000 -14.036846 -3.625455 0.576323 -58.380001 5.526886 -10.627191 168.285958 -65.553839 -151.024631 0.000000 0.000000 0.000000 -3.816457 -3.301045 -0.922025 61.113905 1.797940 -6.063989 -146.454414 52.823116 -103.465307 0.000000 0.000000 0.000000
-0.171703 0.181087 1.026276 -4.405007 -8.728777 -78.155896 29.194142 15.055590 -64.187247 -9.120873 -7.358367 117.262826 -12.533596 -11.075407 22.355431 0.000000 0.000000 0.000000 -20.288532 -4.419680 -73.402708 3.422565 5.565879 149.815227 1.813760 -9.489108 38.194467 0.000000 0.000000 0.000000 -16.116200 -6.073269 -51.552186 3.707955 -6.435557 67.574698 5.407339 8.627516 -3.435584 -4.873649 4.389704 -12.146247 0.000000 0.000000 0.000000 -12.932523 -3.958687 0.200309 -59.162654 5.832826 -11.078409 152.430194 -71.343208 -134.385992 0.000000 0.000000 0.000000 -0.576200 -2.195222 -0.726261 59.346170 0.953919 -6.063561 -127.278988 55.727722 -79.592365 0.000000 0.000000 0.000000
-0.172337 0.183741 1.025942 -3.913827 -7.961063 -77.839404 32.968043 16.645090 -60.978418 -12.952212 -0.464750 114.367866 -8.798238 -8.248165 17.063387 0.000000 0.000000 0.000000 -20.944924 -5.448015 -75.636101 3.735232 5.824850 152.036089 0.268660 -11.804108 40.045636 0.000000 0.000000 0.000000 -14.972012 -5.552287 -51.773181 1.514695 -3.375012 72.062315 5.693219 10.029691 -9.240093 -2.083290 2.457200 -8.507832 0.000000 0.000000 0.000000 -14.899219 -5.663616 0.591661 -56.277136 8.001683 -10.967515 103.924325 -73.604923 -82.440892 0.000000 0.000000 0.000000 -0.775637 -2.218175 -0.746819 61.512986 -0.652425 -6.167782 -99.564413 58.517766 -55.451676 0.000000 0.000000 0.000000
-0.172682 0.188597 1.025335 -3.636651 -8.299622 -78.026443 37.721592 19.238790 -59.853638 -17.818448 6.631144 114.387066 -7.759956 -7.652770 15.515107 0.000000 0.000000 0.000000 -23.417436 -7.934567 -81.525848 3.133804 11.899210 155.344586 3.774731 -7.847113 40.948072 0.000000 0.000000 0.000000 -14.821641 -5.120021 -50.731893 1.106852 -2.581827 72.936893 5.304149 11.040028 -10.299852 -2.870936 3.402907 -11.511520 0.000000 0.000000 0.000000 -14.532862 -6.650622 0.526927 -57.275947 7.026234 -10.618315 64.653923 -58.922467 -36.914739 0.000000 0.000000 0.000000 0.305189 -2.999984 -1.047854 62.202628 0.545496 -5.184552 -69.683312 53.039837 -29.203093 0.000000 0.000000 0.000000
-0.173329 0.189543 1.025402 -3.602953 -8.135468 -78.110503 39.073684 19.773996 -59.579491 -20.557832 11.408850 114.791612 -3.328806 -0.864049 14.481415 0.000000 0.000000 0.000000 -30.101854 -12.765518 -71.661096 4.081462 11.469693 151.758332 3.190779 -6.523473 35.908462 0.000000 0.000000 0.000000 -14.539256 -4.876957 -51.594027 -0.572993 -0.074708 77.895631 7.104383 11.461523 -12.827102 -3.170522 3.676842 -9.269281 0.000000 0.000000 0.000000 -15.577295 -9.836829 1.965869 -59.106023 4.952605 -9.899573 66.550771 -40.706679 -25.855624 0.000000 0.000000 0.000000 -0.478112 -1.101583 -0.375098 64.482293 -0.131398 -5.549625 -58.698199 50.800955 -21.833416 0.000000 0.000000 0.000000
-0.172849 0.182505 1.025588 -3.409448 -8.656281 -76.976143 42.746691 22.039377 -60.000320 -24.353804 18.122898 113.350883 2.365662 7.782723 10.195009 0.000000 0.000000 0.000000 -33.567972 -14.180324 -69.144321 4.904806 7.546602 149.948183 -0.154797 -10.309878 32.117617 0.000000 0.000000 0.000000 -16.075812 -5.456091 -45.853883 0.545659 -0.876255 75.185886 5.686662 12.483430 -15.507149 -4.881668 4.369760 -0.949474 0.000000 0.000000 0.000000 -14.720028 -10.684485 2.660158 -59.324087 5.824842 -9.853408 61.327772 -46.726797 -26.419652 0.000000 0.000000 0.000000 6.545758 -0.659522 0.020039 60.004870 0.138478 -5.076372 -58.749703 24.295268 -6.706254 0.000000 0.000000 0.000000
-0.172538 0.185341 1.025403 -1.462371 -10.614732 -73.209749 47.325738 25.819162 -56.211991 -23.457142 17.033933 108.073295 -0.040829 -3.999309 -7.425894 0.000000 0.000000 0.000000 -55.990513 -22.462644 -59.133326 9.914769 -9.539871 145.781145 -0.264992 -4.274679 10.327409 0.000000 0.000000 0.000000 -11.209767 -0.943671 -45.087660 0.382890 3.169937 85.118617 4.010574 8.728042 -31.455353 -3.989857 3.496835 -4.965623 0.000000 0.000000 0.000000 -12.815890 -15.181594 4.089114 -59.368298 5.823343 -8.244724 66.231097 -38.483801 -25.943552 0.000000 0.000000 0.000000 9.613167 -1.130014 -0.486208 60.878288 -3.046834 -5.235208 -66.803200 21.748204 -8.213033 0.000000 0.000000 0.000000
