HIERARCHY
ROOT Hips
{
	OFFSET -0.001795 -0.223333 0.028219
	CHANNELS 6 Xposition Yposition Zposition Zrotation Yrotation Xrotation
	JOINT LeftUpLeg
	{
		OFFSET 0.069520 -0.091406 -0.006815
		CHANNELS 3 Zrotation Yrotation Xrotation
		JOINT LeftLeg
		{
			OFFSET 0.034277 -0.375199 -0.004496
			CHANNELS 3 Zrotation Yrotation Xrotation
			JOINT LeftFoot
			{
				OFFSET -0.013596 -0.397961 -0.043693
				CHANNELS 3 Zrotation Yrotation Xrotation
				JOINT LeftToe
				{
					OFFSET 0.026358 -0.055791 0.119288
					CHANNELS 3 Zrotation Yrotation Xrotation
					End Site
					{
						OFFSET 0.000000 0.000000 0.000000
					}
				}
			}
		}
	}
	JOINT RightUpLeg
	{
		OFFSET -0.067670 -0.090522 -0.004320
		CHANNELS 3 Zrotation Yrotation Xrotation
		JOINT RightLeg
		{
			OFFSET -0.038290 -0.382569 -0.008850
			CHANNELS 3 Zrotation Yrotation Xrotation
			JOINT RightFoot
			{
				OFFSET 0.015774 -0.398415 -0.042312
				CHANNELS 3 Zrotation Yrotation Xrotation
				JOINT RightToe
				{
					OFFSET -0.025372 -0.048144 0.123348
					CHANNELS 3 Zrotation Yrotation Xrotation
					End Site
					{
						OFFSET 0.000000 0.000000 0.000000
					}
				}
			}
		}
	}
	JOINT Spine
	{
		OFFSET -0.002533 0.108963 -0.026696
		CHANNELS 3 Zrotation Yrotation Xrotation
		JOINT Spine1
		{
			OFFSET 0.005487 0.135180 0.001092
			CHANNELS 3 Zrotation Yrotation Xrotation
			JOINT Spine2
			{
				OFFSET 0.001457 0.052922 0.025425
				CHANNELS 3 Zrotation Yrotation Xrotation
				JOINT Neck
				{
					OFFSET -0.002778 0.213870 -0.042857
					CHANNELS 3 Zrotation Yrotation Xrotation
					JOINT Head
					{
						OFFSET 0.005152 0.064970 0.051349
						CHANNELS 3 Zrotation Yrotation Xrotation
						End Site
						{
							OFFSET 0.000000 0.000000 0.000000
						}
					}
				}
				JOINT LeftShoulder
				{
					OFFSET 0.078845 0.121749 -0.034090
					CHANNELS 3 Zrotation Yrotation Xrotation
					JOINT LeftArm
					{
						OFFSET 0.090977 0.030469 -0.008868
						CHANNELS 3 Zrotation Yrotation Xrotation
						JOINT LeftForeArm
						{
							OFFSET 0.259612 -0.012772 -0.027456
							CHANNELS 3 Zrotation Yrotation Xrotation
							JOINT LeftHand
							{
								OFFSET 0.249234 0.008986 -0.001171
								CHANNELS 3 Zrotation Yrotation Xrotation
								End Site
								{
									OFFSET 0.000000 0.000000 0.000000
								}
							}
						}
					}
				}
				JOINT RightShoulder
				{
					OFFSET -0.081759 0.118833 -0.038615
					CHANNELS 3 Zrotation Yrotation Xrotation
					JOINT RightArm
					{
						OFFSET -0.096012 0.032551 -0.009143
						CHANNELS 3 Zrotation Yrotation Xrotation
						JOINT RightForeArm
						{
							OFFSET -0.253742 -0.013329 -0.021401
							CHANNELS 3 Zrotation Yrotation Xrotation
							JOINT RightHand
							{
								OFFSET -0.255298 0.007772 -0.005559
								CHANNELS 3 Zrotation Yrotation Xrotation
								End Site
								{
									OFFSET 0.000000 0.000000 0.000000
								}
							}
						}
					}
				}
			}
		}
	}
}
MOTION
Frames: 68
Frame Time: 0.050000
0.000000 0.992249 0.000000 1.734117 -7.316666 -6.647458 -0.645045 0.649634 6.075107 -1.765492 0.358107 -6.641606 2.565706 10.612630 28.226644 0.000000 0.000000 0.000000 -1.512539 -0.721276 10.770666 0.860411 -0.157753 -2.441537 -1.977912 -11.650606 19.654486 0.000000 0.000000 0.000000 6.784627 -1.298670 15.396354 -9.391815 2.851899 -23.808671 -0.973335 6.023646 24.302146 11.319210 -6.660679 -17.314234 0.000000 0.000000 0.000000 -27.035415 -16.040316 7.858431 -41.975353 -1.362923 -6.261618 -11.675496 -26.156793 3.730129 0.000000 0.000000 0.000000 36.970392 3.173149 0.343833 41.449041 2.791571 -5.235359 9.605526 22.576116 2.648860 0.000000 0.000000 0.000000
-0.000610 0.990997 0.000128 1.726939 -7.061392 -6.827465 -0.575196 0.645289 6.079830 -1.823527 0.352674 -6.291999 2.658521 10.618003 27.172195 0.000000 0.000000 0.000000 -1.244802 -0.743059 10.511792 0.307279 -0.095318 -1.783348 -3.235800 -13.126364 17.589739 0.000000 0.000000 0.000000 6.523412 -1.263305 15.284248 -10.142531 3.039044 -24.180502 -0.112564 5.712751 24.662599 11.946271 -6.666667 -19.656869 0.000000 0.000000 0.000000 -26.759267 -16.777722 8.393612 -42.691260 -1.510661 -6.377032 -10.990339 -26.973979 3.711156 0.000000 0.000000 0.000000 37.563321 3.403816 0.415587 41.869579 2.306223 -5.440736 8.577744 23.675520 2.608831 0.000000 0.000000 0.000000
-0.001144 0.989662 0.000516 1.755268 -6.194077 -6.898775 -0.132574 0.597235 5.865153 -1.976012 0.334075 -5.081734 1.606384 9.116465 25.088726 0.000000 0.000000 0.000000 -1.445918 -0.783170 11.124580 0.517319 -0.141548 -2.650107 -2.688369 -12.199755 17.871142 0.000000 0.000000 0.000000 6.501331 -1.219846 14.578044 -9.610496 2.912156 -24.369117 -0.459777 5.742345 25.694901 11.988654 -6.615692 -20.075097 0.000000 0.000000 0.000000 -27.458264 -17.166941 8.562022 -41.573455 -1.893172 -6.149467 -11.439947 -26.523463 3.730426 0.000000 0.000000 0.000000 37.572818 3.135630 0.564334 41.969695 2.615611 -5.555273 8.331485 24.857069 2.743727 0.000000 0.000000 0.000000
-0.001637 0.990204 0.000708 1.968926 -6.229769 -7.473036 -0.693287 0.730260 6.855918 -1.676135 0.322627 -5.610109 1.915899 9.450026 24.717374 0.000000 0.000000 0.000000 -1.561558 -0.821718 11.957326 0.840579 -0.168833 -2.786372 -3.182276 -13.058482 18.255667 0.000000 0.000000 0.000000 6.092188 -1.183415 14.840588 -9.307317 2.836540 -24.432172 -0.760087 5.712158 26.190706 12.183269 -6.821036 -20.023246 0.000000 0.000000 0.000000 -27.197718 -17.846220 9.000621 -41.842912 -2.156209 -6.156356 -10.616565 -27.047829 3.610248 0.000000 0.000000 0.000000 38.426915 3.887877 1.105052 41.209328 3.135954 -5.351613 8.285627 25.169131 2.761162 0.000000 0.000000 0.000000
-0.002043 0.990970 0.000728 1.807019 -6.475904 -7.912398 -0.677078 0.774435 7.240761 -1.100253 0.257335 -4.844400 1.804418 9.195642 24.308310 0.000000 0.000000 0.000000 -1.682722 -0.814552 12.188141 1.037569 -0.179887 -2.699785 -2.677983 -12.408933 18.764993 0.000000 0.000000 0.000000 5.643559 -1.111838 14.690811 -8.693894 2.738197 -23.062241 -0.714435 5.492316 25.073519 11.121764 -6.325338 -18.691015 0.000000 0.000000 0.000000 -27.663750 -17.565353 8.927089 -41.956921 -2.975887 -5.824084 -10.090486 -26.593376 3.423314 0.000000 0.000000 0.000000 38.143798 4.288168 1.159284 41.676013 3.416904 -5.134778 7.653121 25.585043 2.660495 0.000000 0.000000 0.000000
-0.002315 0.991469 0.000692 1.752133 -6.824794 -8.260781 -0.583980 0.819627 7.652080 -0.896097 0.235032 -4.644658 1.943701 9.242459 23.816271 0.000000 0.000000 0.000000 -1.781587 -0.806301 12.432929 1.411539 -0.194822 -2.278517 -2.535084 -12.171150 18.474831 0.000000 0.000000 0.000000 5.099653 -1.038306 14.642822 -8.049320 2.563493 -22.797180 -0.533871 5.345169 25.099773 10.969506 -6.222131 -18.898122 0.000000 0.000000 0.000000 -28.495253 -17.846101 9.329837 -41.756180 -3.506147 -5.650892 -9.309798 -26.453604 3.224554 0.000000 0.000000 0.000000 38.289139 5.036748 1.530686 41.660784 4.229467 -4.813411 6.935735 25.443443 2.476655 0.000000 0.000000 0.000000
-0.002392 0.991548 0.000575 1.513741 -7.092302 -8.515739 -0.274825 0.866762 8.194577 -0.867671 0.236011 -4.742093 1.957713 9.346641 24.512680 0.000000 0.000000 0.000000 -1.742437 -0.806360 12.460050 1.496439 -0.196159 -2.104316 -2.561560 -12.181553 18.164299 0.000000 0.000000 0.000000 5.004821 -1.021634 14.656940 -7.584213 2.449522 -22.242345 -0.572437 5.022587 24.771157 10.887816 -6.239163 -18.771220 0.000000 0.000000 0.000000 -28.965612 -17.555895 9.354050 -41.982925 -4.094954 -5.510225 -8.617866 -26.253856 3.050690 0.000000 0.000000 0.000000 38.297350 5.670836 1.744837 41.994518 4.331312 -4.699546 6.001781 25.880522 2.310756 0.000000 0.000000 0.000000
-0.002268 0.991106 0.000391 1.353273 -7.340861 -8.801840 -0.284016 0.936743 8.783244 -0.664917 0.215067 -4.617455 1.889273 9.235442 24.577009 0.000000 0.000000 0.000000 -1.788216 -0.793775 12.458311 1.591709 -0.198668 -1.939859 -2.156013 -11.318190 17.059469 0.000000 0.000000 0.000000 4.825054 -1.009381 14.884093 -7.228725 2.360403 -21.767445 -0.571305 4.916990 24.452180 10.951931 -6.268323 -18.911216 0.000000 0.000000 0.000000 -29.412593 -17.940522 9.723238 -41.734378 -4.470315 -5.341521 -8.172797 -26.263095 2.944205 0.000000 0.000000 0.000000 38.600508 6.296604 2.067295 41.962072 4.744432 -4.484459 5.402131 25.876337 2.167829 0.000000 0.000000 0.000000
-0.002031 0.990253 0.000198 1.202985 -7.247779 -9.061637 -0.153100 0.993685 9.374959 -0.680784 0.221757 -4.784377 1.694103 9.093458 25.053992 0.000000 0.000000 0.000000 -1.819709 -0.796553 12.485696 1.637652 -0.203073 -1.953419 -1.957915 -10.866993 16.574704 0.000000 0.000000 0.000000 4.660096 -1.002192 15.063541 -6.973337 2.303330 -21.421210 -0.471611 4.780826 23.991182 10.853927 -6.200079 -18.819297 0.000000 0.000000 0.000000 -29.823857 -18.264624 9.972176 -41.455080 -4.760858 -5.170789 -7.838737 -26.100805 2.838515 0.000000 0.000000 0.000000 39.001357 6.537773 2.175266 41.322593 4.874269 -4.323748 5.444774 25.624252 2.132900 0.000000 0.000000 0.000000
-0.001842 0.989185 -0.000014 1.160169 -7.445966 -9.386711 -0.252862 1.051449 9.793091 -0.760660 0.232135 -4.886759 2.224793 9.854702 25.684041 0.000000 0.000000 0.000000 -1.779662 -0.812269 12.771448 1.369711 -0.182552 -1.951858 -1.491754 -9.856753 15.572582 0.000000 0.000000 0.000000 4.503835 -0.981613 15.111963 -6.471189 2.151802 -21.262163 -0.701813 4.757018 23.977407 10.678019 -6.173793 -18.453109 0.000000 0.000000 0.000000 -30.226969 -18.186085 10.016468 -40.724552 -4.975454 -5.032966 -7.749105 -26.143886 2.813145 0.000000 0.000000 0.000000 39.376778 7.041594 2.472274 40.879391 4.952523 -4.227644 5.269312 25.668909 2.085156 0.000000 0.000000 0.000000
-0.001712 0.987865 -0.000203 1.049109 -7.446684 -9.385570 -0.124797 1.050966 9.864970 -0.954961 0.246879 -4.820079 2.357537 10.035049 25.702694 0.000000 0.000000 0.000000 -1.745633 -0.823430 12.874582 1.326669 -0.187073 -2.244972 -1.184174 -8.979775 14.373175 0.000000 0.000000 0.000000 4.399652 -0.959924 14.937177 -6.371427 2.145877 -20.563646 -0.605515 4.687546 23.392647 10.463002 -6.000480 -18.421617 0.000000 0.000000 0.000000 -30.429213 -18.452271 10.205764 -40.319978 -5.561930 -4.751698 -7.843549 -25.919628 2.798500 0.000000 0.000000 0.000000 39.308500 7.345530 2.647497 41.011053 4.911155 -4.183213 5.840714 25.474411 2.174652 0.000000 0.000000 0.000000
-0.001734 0.986760 -0.000295 0.794529 -7.761334 -9.559953 0.098775 1.075326 10.171861 -0.768499 0.221541 -4.507102 2.274752 9.688613 24.455829 0.000000 0.000000 0.000000 -1.445884 -0.840923 12.635189 0.994731 -0.157493 -2.078345 -0.889374 -8.758005 15.156675 0.000000 0.000000 0.000000 4.630905 -0.983489 15.011148 -6.103433 2.050065 -20.642155 -0.904801 4.922892 23.343917 10.859509 -6.234111 -18.587415 0.000000 0.000000 0.000000 -30.640726 -18.252893 10.063744 -39.840200 -5.656636 -4.665820 -8.008291 -25.613994 2.793318 0.000000 0.000000 0.000000 39.610693 7.425621 2.742814 40.827346 4.680270 -4.246946 6.663291 24.588040 2.246480 0.000000 0.000000 0.000000
-0.001995 0.986172 -0.000222 0.592112 -7.814312 -9.623604 0.262392 1.098467 10.477660 -0.758481 0.219834 -4.479222 2.404360 9.693645 23.393305 0.000000 0.000000 0.000000 -1.227319 -0.850326 12.317770 0.930693 -0.146672 -1.875196 -0.881972 -8.999629 15.964465 0.000000 0.000000 0.000000 4.570895 -0.996696 15.345153 -5.942441 1.989728 -21.019057 -1.004985 5.049515 23.249167 11.310715 -6.558722 -18.478252 0.000000 0.000000 0.000000 -30.779725 -17.971526 9.837084 -39.820951 -5.579593 -4.672571 -8.077690 -25.312338 2.772083 0.000000 0.000000 0.000000 39.945245 7.273014 2.671469 40.738499 4.037756 -4.447424 7.388635 23.381859 2.253494 0.000000 0.000000 0.000000
-0.002464 0.985526 -0.000100 0.570897 -8.232760 -10.052186 0.210430 1.139348 10.724651 -0.859659 0.213263 -3.936676 3.134248 10.554353 22.987386 0.000000 0.000000 0.000000 -1.253213 -0.851927 12.619542 0.842092 -0.134221 -1.708061 -0.534792 -8.457506 15.903046 0.000000 0.000000 0.000000 4.706202 -1.014710 15.645250 -5.756799 1.925793 -20.895746 -1.420962 5.234829 22.883550 11.564798 -6.554948 -19.307431 0.000000 0.000000 0.000000 -30.721404 -17.470254 9.477499 -39.403098 -5.323639 -4.689086 -8.629830 -24.913907 2.840280 0.000000 0.000000 0.000000 40.024440 7.278375 2.637366 40.806619 3.201184 -4.681005 8.788950 22.693222 2.425482 0.000000 0.000000 0.000000
-0.003114 0.984713 0.000092 0.601755 -8.397934 -10.202664 -0.019692 1.150350 10.644963 -0.559824 0.164162 -3.277787 3.404255 10.795969 22.286227 0.000000 0.000000 0.000000 -1.246799 -0.836830 12.444464 0.958676 -0.133169 -1.386242 -0.755555 -8.895579 16.043650 0.000000 0.000000 0.000000 4.577603 -0.993265 15.621632 -5.747850 1.915206 -21.049399 -1.494154 5.334098 23.008617 11.954393 -6.771142 -19.621580 0.000000 0.000000 0.000000 -30.775708 -17.008253 9.181083 -39.160556 -5.027624 -4.766735 -9.264950 -24.263194 2.892977 0.000000 0.000000 0.000000 40.187382 6.966958 2.387914 40.561352 2.637895 -4.841391 9.762565 21.824414 2.487811 0.000000 0.000000 0.000000
-0.003829 0.983004 0.000269 0.652917 -9.094845 -10.460677 -0.184425 1.113819 10.119700 -0.459383 0.113384 -1.950786 4.226459 11.804643 22.300190 0.000000 0.000000 0.000000 -1.252196 -0.766411 11.643687 1.292210 -0.117398 0.005838 -1.251112 -9.766184 15.862946 0.000000 0.000000 0.000000 4.835916 -1.002457 15.643564 -6.003935 1.958036 -21.582165 -1.348418 5.399806 22.743172 12.033441 -6.544642 -21.137125 0.000000 0.000000 0.000000 -30.562190 -15.508530 8.293448 -39.446063 -3.904280 -5.172467 -10.842815 -22.843765 3.039561 0.000000 0.000000 0.000000 38.938079 6.329706 1.717679 41.755768 1.505325 -5.269643 10.542553 21.267180 2.551967 0.000000 0.000000 0.000000
-0.004703 0.981068 0.000342 0.731987 -10.054333 -10.821667 -0.632355 1.077369 9.461774 0.015815 0.000122 -0.090988 5.303172 13.104584 22.147945 0.000000 0.000000 0.000000 -1.092440 -0.702286 10.670365 1.147101 -0.046744 1.657506 -1.530546 -10.387868 15.948781 0.000000 0.000000 0.000000 5.268436 -1.040944 15.969269 -6.375173 2.022326 -22.410186 -1.411602 6.096615 22.619976 12.855918 -6.966245 -21.629393 0.000000 0.000000 0.000000 -30.537734 -15.332624 8.113453 -39.486401 -2.247321 -5.650167 -12.156846 -21.501253 3.088840 0.000000 0.000000 0.000000 38.471542 5.813970 1.389371 42.288101 0.702978 -5.611953 11.829673 20.559732 2.671655 0.000000 0.000000 0.000000
-0.005544 0.977596 0.000473 0.780272 -10.555706 -12.136786 -0.431978 1.126783 9.881733 -0.310030 -0.009272 2.086330 5.577023 13.330121 20.420777 0.000000 0.000000 0.000000 -0.971189 -0.638337 9.549255 1.495944 0.068642 5.652541 -2.634427 -12.075043 15.292583 0.000000 0.000000 0.000000 5.478780 -1.015309 15.747689 -6.345645 2.024350 -21.933401 -1.584947 6.283467 22.135846 13.024532 -6.996658 -22.012429 0.000000 0.000000 0.000000 -31.193323 -14.667547 7.705693 -39.373350 -0.142972 -6.239112 -13.560655 -20.029003 3.108605 0.000000 0.000000 0.000000 38.663468 4.873305 0.595040 41.723969 -0.678064 -5.949904 13.240234 20.473697 2.889753 0.000000 0.000000 0.000000
-0.006150 0.973158 0.000798 1.318804 -10.830003 -13.606536 0.006436 1.017402 9.119216 -1.838058 0.215404 5.870501 6.446475 14.505751 19.290821 0.000000 0.000000 0.000000 -1.334993 -0.491325 7.755665 2.191378 0.265060 12.075844 -4.109142 -13.854529 12.494177 0.000000 0.000000 0.000000 5.091337 -0.921050 15.282661 -5.539897 1.771253 -22.062822 -2.020984 7.321561 21.981196 12.757701 -7.008167 -20.641875 0.000000 0.000000 0.000000 -31.946204 -14.422630 7.211225 -38.414832 2.940117 -6.870754 -15.767614 -18.677657 3.225017 0.000000 0.000000 0.000000 38.432790 4.068281 0.409995 40.897275 -1.201171 -6.130684 14.184905 19.668403 2.913027 0.000000 0.000000 0.000000
-0.006463 0.962837 0.001348 1.858327 -11.997864 -15.729083 0.075249 1.123147 9.801619 -4.011335 0.787757 10.473056 8.544673 17.633254 14.653832 0.000000 0.000000 0.000000 -1.815858 -0.288192 5.173555 3.060091 0.675151 21.057805 -5.160603 -14.937434 9.117592 0.000000 0.000000 0.000000 5.629701 -0.831092 13.963268 -6.779220 2.127924 -21.448858 -1.134474 6.815943 21.195164 12.505058 -7.407540 -19.073378 0.000000 0.000000 0.000000 -35.362044 -12.795098 6.687270 -35.234476 5.152680 -6.925901 -17.643186 -16.219365 3.019417 0.000000 0.000000 0.000000 39.439087 2.890190 -1.260640 38.802609 -3.247456 -6.208204 15.985522 18.494201 2.937872 0.000000 0.000000 0.000000
-0.006570 0.946952 0.002132 2.212735 -12.384655 -17.659627 0.880350 1.121293 9.959446 -6.458906 1.726569 15.519331 10.339792 20.900998 10.670806 0.000000 0.000000 0.000000 -2.786455 -0.107524 2.848228 4.403309 0.897657 28.594759 -5.686553 -15.474020 7.309837 0.000000 0.000000 0.000000 6.394159 -0.713867 12.081011 -6.613659 2.085208 -19.784573 -2.525831 7.133461 17.728636 12.922843 -9.913196 -8.938704 0.000000 0.000000 0.000000 -39.454358 -12.529332 6.083048 -31.122252 9.297980 -6.684353 -18.060292 -14.673330 2.722201 0.000000 0.000000 0.000000 42.730621 2.904577 -1.563096 35.392316 -7.300513 -6.495882 15.882346 17.375300 2.668859 0.000000 0.000000 0.000000
-0.006315 0.911598 0.003955 2.565891 -12.481699 -21.303916 2.668589 1.092370 10.019185 -10.523254 4.108887 25.048969 13.348706 28.033095 1.286888 0.000000 0.000000 0.000000 -4.166754 0.078666 -0.466289 7.413865 0.728518 40.347178 -7.824825 -19.267226 6.165394 0.000000 0.000000 0.000000 8.203310 -0.472114 9.875385 -9.104906 3.375924 -15.126769 -1.340619 6.087711 11.724400 12.341640 -12.117319 3.833107 0.000000 0.000000 0.000000 -44.050949 -10.837515 4.036776 -26.370122 13.692323 -5.898789 -18.904723 -12.929603 2.458771 0.000000 0.000000 0.000000 44.513767 1.512843 -3.675235 31.754208 -11.665384 -6.210911 16.473506 17.184052 2.645113 0.000000 0.000000 0.000000
-0.006314 0.856216 0.007296 2.844011 -12.812097 -26.414290 5.701940 1.244497 11.669407 -14.236256 7.543965 35.703196 14.587795 34.116092 -9.961254 0.000000 0.000000 0.000000 -5.174408 0.118331 -2.173557 10.220823 0.372611 52.091041 -10.793467 -24.825180 3.373796 0.000000 0.000000 0.000000 11.133543 0.189684 6.493640 -9.345324 5.134806 -2.932082 -4.723399 4.744492 -3.675260 11.529361 -14.802621 24.107713 0.000000 0.000000 0.000000 -44.255958 -10.147052 0.458285 -21.458119 21.760863 -4.306312 -22.029821 -12.707148 2.814999 0.000000 0.000000 0.000000 45.059303 -0.606705 -6.097492 28.687255 -18.164089 -5.428372 17.163740 16.815650 2.593235 0.000000 0.000000 0.000000
-0.006541 0.787791 0.011664 1.723959 -11.821079 -31.652789 10.921495 1.282886 13.114174 -16.962875 11.401210 49.540986 14.810433 37.832896 -20.543926 0.000000 0.000000 0.000000 -5.354027 0.167667 -4.710430 14.019369 -1.800078 66.107416 -14.176931 -31.230993 5.304661 0.000000 0.000000 0.000000 13.567616 1.386383 1.759054 -7.384768 5.197215 5.288495 -6.762702 3.300745 -11.527223 14.552073 -19.310450 32.537043 0.000000 0.000000 0.000000 -46.390006 -8.861348 -2.079600 -14.907031 25.177400 -2.163966 -23.655410 -15.824561 3.952973 0.000000 0.000000 0.000000 45.482808 -1.972574 -6.971005 22.435450 -20.023006 -3.554676 19.725908 18.198648 3.300675 0.000000 0.000000 0.000000
-0.007920 0.700327 0.015726 1.471941 -11.214025 -37.019418 14.406204 1.390042 11.451071 -16.938764 15.686647 70.181944 18.212647 43.099820 -19.266362 0.000000 0.000000 0.000000 -7.329316 0.134706 -8.364236 17.921913 -5.676457 82.010179 -15.652544 -33.815959 6.648628 0.000000 0.000000 0.000000 16.417081 3.346474 -4.552420 -7.954506 8.544923 20.354066 -4.979080 -2.091111 -22.241631 13.166073 -16.031374 35.271447 0.000000 0.000000 0.000000 -43.475553 -7.272852 -1.879910 -18.472851 22.028444 -2.450858 -22.768765 -20.388255 5.005611 0.000000 0.000000 0.000000 39.416132 -2.709373 -7.571235 24.030977 -20.443949 -3.297366 21.280099 19.955429 4.062264 0.000000 0.000000 0.000000
-0.010805 0.614674 0.015411 -0.206311 -10.008321 -41.374523 17.190484 1.637315 8.570420 -16.443005 18.223949 88.909410 21.045192 46.036335 -18.176968 0.000000 0.000000 0.000000 -8.716976 0.120318 -14.052993 19.165038 -10.127918 96.116317 -12.321645 -25.133338 24.014769 0.000000 0.000000 0.000000 16.616636 4.116770 -6.790487 -2.732660 1.709899 7.260241 -12.255892 2.997550 -6.444486 10.459995 -20.826169 40.401806 0.000000 0.000000 0.000000 -42.575808 -10.145748 -0.687455 -18.359080 13.528837 -2.100049 -19.404194 -26.685003 5.590889 0.000000 0.000000 0.000000 44.962718 -0.801650 -4.359917 20.898656 -12.891073 -2.699046 19.145940 21.253086 3.894627 0.000000 0.000000 0.000000
-0.014600 0.534950 0.011296 -1.736711 -9.053257 -47.792476 19.341427 2.232559 4.652456 -15.148081 19.248757 107.848785 30.830804 49.884668 1.762891 0.000000 0.000000 0.000000 -8.652519 0.354439 -21.112148 18.806600 -14.432066 108.376842 -12.762259 -24.012254 40.450750 0.000000 0.000000 0.000000 15.754606 3.940546 -5.371505 -3.631237 2.064824 -0.262930 -7.969762 2.832539 3.780144 10.913834 -20.898381 35.722393 0.000000 0.000000 0.000000 -41.997761 -14.237672 4.561923 -19.104435 2.353157 -1.756992 -15.056591 -33.958508 5.771095 0.000000 0.000000 0.000000 39.850195 -0.006253 -3.164348 24.538924 -4.033354 -2.713954 21.294038 24.064174 4.896337 0.000000 0.000000 0.000000
-0.018729 0.471252 0.007103 -4.916397 -7.091380 -49.000373 20.976718 2.757680 -1.426069 -14.042864 18.882763 122.008613 34.440948 42.047237 29.353326 0.000000 0.000000 0.000000 -9.955139 0.307430 -30.834514 20.177133 -24.270656 116.167853 -19.761632 -33.700655 31.453650 0.000000 0.000000 0.000000 11.660753 3.002015 -5.832438 4.829709 -3.571254 -1.818061 -14.622146 6.590260 5.918635 7.435418 -20.646203 41.013615 0.000000 0.000000 0.000000 -38.260069 -17.052931 5.034067 -18.185509 -7.907951 -0.501659 -4.278789 -44.877518 3.192747 0.000000 0.000000 0.000000 47.229905 1.448877 -0.571949 18.854904 3.856936 -1.582807 19.729246 27.142040 5.164309 0.000000 0.000000 0.000000
-0.023692 0.439538 0.007210 -6.040064 -7.452563 -49.702814 22.280440 3.251421 -2.606617 -13.675938 19.560282 127.315704 28.756805 31.901684 48.202385 0.000000 0.000000 0.000000 -12.255792 -0.117995 -39.904909 20.221545 -29.389576 122.890235 -15.390585 -31.994747 17.097767 0.000000 0.000000 0.000000 11.287736 3.245246 -7.475485 0.391221 -0.882301 25.664836 -9.406817 0.725264 -25.075201 7.046095 -16.275096 43.691564 0.000000 0.000000 0.000000 -37.442455 -18.275079 5.154751 -17.388371 -10.314022 1.393637 -10.801587 -55.320960 8.437706 0.000000 0.000000 0.000000 36.895533 -1.983001 -4.778738 23.653488 -1.706281 -0.597683 37.844686 38.374360 14.979669 0.000000 0.000000 0.000000
-0.030326 0.448333 0.014840 -8.555624 -6.527653 -49.709702 22.123530 2.822747 0.158370 -14.064539 16.897664 124.972839 19.265060 24.446148 51.121832 0.000000 0.000000 0.000000 -16.921039 -2.490599 -42.109116 18.773406 -27.347810 123.525682 -7.822495 -20.297826 2.459759 0.000000 0.000000 0.000000 9.358688 2.475148 -5.289078 4.744910 -5.573753 16.745363 -14.006722 4.259904 -19.998691 2.741816 -15.797709 51.422746 0.000000 0.000000 0.000000 -39.803131 -20.542828 4.850057 -13.113780 -9.539304 1.050415 -10.250339 -67.189125 10.314973 0.000000 0.000000 0.000000 41.534277 -0.868895 -3.228136 15.498131 -1.626055 -0.205397 61.037688 51.984903 34.071498 0.000000 0.000000 0.000000
-0.043952 0.486521 0.027790 -9.291361 -6.724923 -47.504455 21.768052 1.475447 11.970393 -14.540906 13.362749 111.647382 34.848662 31.778567 42.861351 0.000000 0.000000 0.000000 -20.520730 -4.003263 -43.442071 17.775441 -22.333230 119.749128 -5.709945 -13.767177 -9.154822 0.000000 0.000000 0.000000 8.115562 2.032697 -4.013211 6.111428 -8.613972 25.273723 -19.812752 4.873250 -32.279657 3.219626 -18.412091 51.650553 0.000000 0.000000 0.000000 -35.819757 -24.053601 4.412469 -7.338484 -8.656837 1.026638 -22.659387 -72.575473 22.628196 0.000000 0.000000 0.000000 34.232076 0.619812 -0.168831 9.807730 4.289740 0.521273 80.772965 61.596160 59.762603 0.000000 0.000000 0.000000
-0.069812 0.540928 0.044227 -9.937806 -6.607924 -43.098354 25.825490 0.004448 19.055699 -14.684195 10.309555 96.983431 39.127949 57.205131 -9.897167 0.000000 0.000000 0.000000 -22.583548 -4.570087 -40.769418 20.368148 -21.161405 108.168602 -6.579213 -14.980808 -16.747554 0.000000 0.000000 0.000000 4.611791 1.263914 -4.409238 2.144795 -7.841160 72.478908 -17.345694 -5.505493 -76.598045 5.383313 -12.986534 33.743195 0.000000 0.000000 0.000000 -12.817390 -16.588174 1.524378 -19.831813 -16.826365 6.428863 20.399017 -80.422768 -16.631066 0.000000 0.000000 0.000000 9.357159 -2.806400 -2.508213 14.868856 12.912221 3.103472 69.477432 73.831235 66.827868 0.000000 0.000000 0.000000
-0.112976 0.620102 0.062075 -10.246656 -7.160419 -38.759148 23.804426 -1.209920 27.945908 -11.432803 5.322957 76.389407 9.154867 39.106143 -65.091210 0.000000 0.000000 0.000000 -20.172469 -3.055103 -34.914627 19.945407 -15.769468 95.725020 -7.676271 -18.246229 -14.563707 0.000000 0.000000 0.000000 -2.179294 -0.260846 -2.072239 4.505460 -23.949717 86.982975 -31.731851 -14.139536 -92.613850 6.650578 -16.179300 25.996981 0.000000 0.000000 0.000000 0.875270 -12.360292 5.125186 -12.290406 -17.720211 5.155963 44.325490 -66.671523 -31.853061 0.000000 0.000000 0.000000 5.818489 4.483817 1.177735 12.543783 15.919826 3.386007 -2.680117 39.250114 3.626685 0.000000 0.000000 0.000000
-0.174764 0.705983 0.081595 -13.601325 -5.033418 -32.052370 31.818239 -2.459456 21.040023 -7.847844 0.749364 69.110607 12.261288 29.613717 -35.729299 0.000000 0.000000 0.000000 -13.263994 -0.795748 -30.582618 15.391316 -10.451619 82.192538 -7.266115 -17.152207 -2.954744 0.000000 0.000000 0.000000 -14.540256 -1.927881 0.098834 7.572018 -42.821600 88.580729 -49.770748 -12.875233 -93.696043 -6.938769 -17.718559 20.157856 0.000000 0.000000 0.000000 10.607737 -8.379845 11.913168 -5.039415 -17.752086 2.312667 40.617475 -46.316258 -24.360087 0.000000 0.000000 0.000000 3.443585 5.555217 6.657347 6.649067 16.876785 0.889733 -1.385002 14.350198 0.910874 0.000000 0.000000 0.000000
-0.245780 0.788469 0.103505 -16.915213 -3.249208 -26.668919 36.588571 -0.884045 7.966304 -2.816790 -4.241966 69.802776 9.666648 18.996744 -6.357234 0.000000 0.000000 0.000000 -4.969161 1.260817 -23.139939 9.881034 -5.660029 69.272175 -6.158539 -15.584054 6.929017 0.000000 0.000000 0.000000 -19.830176 -1.416381 5.529984 31.890663 -31.519126 12.899296 -49.607992 13.106573 -47.749368 -19.149406 -9.948469 43.033053 0.000000 0.000000 0.000000 2.980801 -5.277411 4.047105 9.803047 -8.405003 -1.280781 10.228339 -43.716410 -4.234492 0.000000 0.000000 0.000000 29.057881 14.443441 25.466247 -12.219312 0.478948 1.532088 0.914221 12.667704 0.407590 0.000000 0.000000 0.000000
-0.313359 0.853301 0.129068 -18.134445 -3.476361 -23.262606 36.579698 1.752186 -3.998427 -3.424352 -3.441920 72.948234 7.332129 15.304651 2.526924 0.000000 0.000000 0.000000 2.686952 1.677076 -11.956864 2.895901 0.089179 51.233975 -2.401890 -9.283209 11.927981 0.000000 0.000000 0.000000 -27.605176 -1.115467 6.251891 25.598266 -18.432653 4.368878 -38.043732 19.966796 -27.164404 -11.931918 -8.936604 41.325848 0.000000 0.000000 0.000000 -2.147312 -9.907576 1.441900 16.926611 -4.702521 -1.404348 6.961317 -30.648954 -1.229812 0.000000 0.000000 0.000000 35.568880 10.975651 20.767637 -19.357606 -3.364695 3.805441 1.064370 17.961189 0.404017 0.000000 0.000000 0.000000
-0.371493 0.890048 0.156116 -19.497003 -0.130128 -19.827916 32.094294 2.669827 -13.754562 -11.620472 3.194920 68.210716 11.665100 23.309227 -3.679430 0.000000 0.000000 0.000000 7.527309 1.264224 -6.069717 -0.301805 0.974689 40.006701 1.040369 -2.204811 11.359761 0.000000 0.000000 0.000000 -32.338892 0.811904 14.051888 14.516432 -7.272143 -8.174270 -21.600142 21.138444 -7.284092 -2.569149 -10.327599 29.596918 0.000000 0.000000 0.000000 -7.589184 -9.459683 -0.150688 17.649419 -6.990021 -1.127705 10.275729 -27.677194 -2.093833 0.000000 0.000000 0.000000 33.183679 7.163415 13.213970 -20.084665 -7.894334 5.445704 3.080236 22.777592 0.721093 0.000000 0.000000 0.000000
-0.418811 0.913098 0.182535 -21.962738 2.270840 -17.691323 27.753497 1.791557 -14.473320 -20.074401 6.785397 45.503230 15.979182 31.578867 -5.676400 0.000000 0.000000 0.000000 11.598891 0.983847 -3.646390 -1.431961 0.993343 31.019555 -1.344422 -7.013750 13.699439 0.000000 0.000000 0.000000 -35.103986 2.809698 21.340082 11.931047 -4.070750 -18.520842 -16.016984 21.907058 5.395110 -0.947513 -8.474163 24.189443 0.000000 0.000000 0.000000 -9.030047 -9.335139 -0.090551 13.119230 -5.884006 -0.267548 12.287584 -22.287495 -2.452375 0.000000 0.000000 0.000000 31.172071 4.385076 10.499346 -20.216318 -11.028702 6.649024 4.265312 24.639093 0.741447 0.000000 0.000000 0.000000
-0.456505 0.926360 0.208081 -25.609530 8.053687 -16.324416 27.384748 1.233027 -18.494157 -21.842856 5.036009 31.729184 17.710433 31.440582 11.443881 0.000000 0.000000 0.000000 15.424974 0.825991 -2.809510 2.971559 -1.352845 26.753394 -3.223732 -9.745664 13.278676 0.000000 0.000000 0.000000 -33.493433 2.849621 25.415294 3.559849 -0.811971 -13.015560 -11.396897 15.872854 6.233160 4.473334 -6.872370 8.506792 0.000000 0.000000 0.000000 -8.624065 -9.030935 0.535500 4.709562 -8.798062 -0.387862 14.373893 -18.581046 -2.415916 0.000000 0.000000 0.000000 21.908581 1.256402 4.492629 -8.532976 -14.555249 3.528468 2.302395 26.559799 1.042887 0.000000 0.000000 0.000000
-0.485605 0.929535 0.230368 -28.145893 8.596820 -14.405828 29.590803 1.219653 -18.964933 -17.631240 3.283390 25.182526 20.770257 34.733959 14.996316 0.000000 0.000000 0.000000 16.540099 1.545738 -6.003469 5.731806 -2.598815 27.424244 -1.517550 -6.352839 12.822114 0.000000 0.000000 0.000000 -32.532630 3.768807 30.211171 5.733894 -0.890984 -23.506990 -11.988011 17.340608 19.237108 4.404551 -3.797835 2.113099 0.000000 0.000000 0.000000 -10.551652 -8.377436 -0.136137 0.278955 -11.551880 -0.573173 15.592944 -14.400021 -2.246288 0.000000 0.000000 0.000000 18.042306 -1.937680 2.847499 0.205244 -13.244798 0.921675 -0.999696 24.733235 0.475714 0.000000 0.000000 0.000000
-0.506179 0.932790 0.247136 -29.853043 8.997258 -12.024501 32.350122 1.702609 -21.989126 -16.527514 2.988698 23.909203 28.785046 41.691207 22.483317 0.000000 0.000000 0.000000 14.832902 2.313756 -10.019660 3.996643 -1.909793 27.797277 -1.612214 -7.282336 18.206881 0.000000 0.000000 0.000000 -31.849376 4.178668 32.235486 3.874084 -0.389881 -22.143725 -11.724708 14.875372 21.353397 3.367403 0.372061 -9.526870 0.000000 0.000000 0.000000 -11.121890 -10.664656 1.075607 -4.325374 -11.423729 -0.609954 15.609901 -12.184580 -1.853895 0.000000 0.000000 0.000000 14.924480 -1.881898 1.857789 7.906848 -17.322514 -1.348364 0.706127 22.186590 0.879644 0.000000 0.000000 0.000000
-0.519620 0.932972 0.259609 -29.873500 8.890828 -8.050352 33.703886 2.065619 -23.514130 -17.061045 3.128714 21.148899 36.271437 47.523703 26.471121 0.000000 0.000000 0.000000 11.889063 2.517945 -12.716891 4.256662 -1.618028 24.924048 -0.849826 -6.384113 19.867624 0.000000 0.000000 0.000000 -31.050415 4.983374 34.664115 -1.163674 0.993771 -25.998326 -9.784021 11.739309 26.203363 -0.132329 3.802353 -16.858983 0.000000 0.000000 0.000000 -10.529236 -12.901461 2.789774 -6.386929 -14.230318 -0.845488 11.256499 -9.541225 -0.915987 0.000000 0.000000 0.000000 14.639590 -1.875300 1.431473 13.224846 -19.365551 -3.195687 3.502440 19.264450 1.147278 0.000000 0.000000 0.000000
-0.527697 0.936373 0.268882 -29.050897 7.681093 -3.815789 34.774369 2.739013 -25.031808 -15.915906 2.903728 18.313940 45.061631 50.524019 37.341616 0.000000 0.000000 0.000000 9.739008 2.690353 -15.413398 4.514380 -1.332790 22.834501 -0.839938 -7.563455 24.343436 0.000000 0.000000 0.000000 -31.824961 6.425513 36.649766 -0.708262 0.882422 -26.012700 -12.436504 9.887551 25.511458 -1.949677 4.798330 -20.923449 0.000000 0.000000 0.000000 -8.972599 -14.364060 3.894300 -7.892456 -16.766143 -0.935921 7.951146 -8.756101 -0.481422 0.000000 0.000000 0.000000 13.717231 -1.765589 0.901510 16.942086 -20.077539 -4.294501 8.748403 17.927884 1.784388 0.000000 0.000000 0.000000
-0.532891 0.941856 0.274601 -28.214352 8.163931 0.764196 35.063964 3.272729 -28.088712 -13.032027 2.174153 15.743711 42.764134 46.618858 43.626000 0.000000 0.000000 0.000000 8.464051 2.729804 -17.125687 4.128993 -0.900799 18.023079 -1.309837 -9.132641 29.151790 0.000000 0.000000 0.000000 -29.505543 6.827610 39.879444 -3.401421 1.495884 -25.721865 -14.038779 5.339951 26.328019 -5.294847 6.183473 -22.127918 0.000000 0.000000 0.000000 -11.160741 -16.593423 5.466401 -4.766644 -16.899687 -1.054442 4.865625 -8.557900 -0.157879 0.000000 0.000000 0.000000 15.403381 0.114866 1.263389 17.057989 -21.102418 -4.324841 12.632117 17.399973 2.149230 0.000000 0.000000 0.000000
-0.536124 0.948007 0.277614 -27.470923 8.611125 4.365212 34.980463 3.642898 -30.659208 -11.921237 1.916033 14.488339 40.103004 44.086994 46.008777 0.000000 0.000000 0.000000 8.336235 2.974316 -19.361125 4.747734 -0.960969 15.920199 -1.930842 -10.073562 29.111866 0.000000 0.000000 0.000000 -28.621464 7.506450 43.467560 -5.332426 1.946988 -24.586951 -14.652366 2.014340 25.793008 -7.998523 7.225587 -22.616089 0.000000 0.000000 0.000000 -9.710655 -17.598407 6.372503 -2.443796 -18.978744 -1.245581 3.337493 -7.282036 -0.013498 0.000000 0.000000 0.000000 18.148036 0.924166 1.036482 19.190355 -19.914353 -4.795286 12.305905 17.035076 2.028670 0.000000 0.000000 0.000000
-0.538799 0.951927 0.279174 -26.376710 9.798563 7.498662 34.159904 3.846983 -34.294637 -9.190658 1.377788 15.752507 32.036277 38.865043 45.192984 0.000000 0.000000 0.000000 7.082062 3.090305 -22.033991 5.075172 -1.053830 15.715802 -3.482935 -12.167227 29.548147 0.000000 0.000000 0.000000 -28.448608 8.046739 46.443463 -5.935154 2.200843 -21.228206 -13.232147 -2.218853 24.378965 -11.414087 8.647919 -21.664997 0.000000 0.000000 0.000000 -8.996620 -18.380940 7.225238 -1.230727 -18.619729 -1.258631 3.301223 -8.921971 -0.003747 0.000000 0.000000 0.000000 20.664570 3.970305 1.697795 19.527210 -18.221509 -4.502302 11.149552 18.439648 2.016227 0.000000 0.000000 0.000000
-0.541199 0.950198 0.279694 -25.500367 9.548752 9.994407 35.017807 4.169990 -34.607933 -9.843592 1.506299 13.983403 27.835411 36.486362 42.440195 0.000000 0.000000 0.000000 6.725768 3.366343 -24.806607 7.353040 -1.513371 13.707626 -4.210464 -13.168350 27.593063 0.000000 0.000000 0.000000 -29.181727 9.045964 48.132109 -4.650673 1.888371 -21.060137 -13.120338 -2.488402 23.709993 -12.276714 9.296737 -17.717225 0.000000 0.000000 0.000000 -8.022638 -19.483771 7.672148 -0.023098 -20.400448 -1.440061 3.368092 -8.234632 -0.000996 0.000000 0.000000 0.000000 22.036802 5.136811 2.205400 22.074601 -14.543566 -4.692590 8.814073 19.601432 1.838082 0.000000 0.000000 0.000000
-0.544513 0.946432 0.279640 -23.939308 10.900395 12.569512 34.812432 4.244215 -37.283998 -9.589422 1.423242 13.648173 22.803017 32.885365 41.773714 0.000000 0.000000 0.000000 7.008847 3.635507 -27.422807 7.598807 -1.460480 11.343279 -2.834490 -11.023477 26.991192 0.000000 0.000000 0.000000 -28.065354 8.901463 50.670596 -3.888410 1.727982 -21.096502 -13.161937 -3.199568 23.275559 -12.417435 9.375358 -16.432394 0.000000 0.000000 0.000000 -8.407476 -20.925945 8.444395 1.454722 -20.043105 -1.500888 2.193807 -9.592512 0.082373 0.000000 0.000000 0.000000 23.991185 8.837375 4.375287 21.345462 -13.291855 -4.255170 9.112672 21.724829 2.072054 0.000000 0.000000 0.000000
-0.548039 0.943823 0.279257 -21.862957 11.200386 13.199062 32.945817 3.698694 -37.259037 -8.056076 1.098489 14.181699 16.397474 28.164283 36.082484 0.000000 0.000000 0.000000 7.363936 3.817915 -28.757050 8.275757 -1.613886 11.113700 -6.285753 -15.890270 27.252844 0.000000 0.000000 0.000000 -28.108854 9.651929 55.796296 -2.898419 1.501380 -24.852018 -12.978626 -2.066093 25.307387 -10.086180 7.989755 -15.814993 0.000000 0.000000 0.000000 -6.338191 -22.776307 8.869179 1.336190 -19.732431 -1.485109 4.172974 -8.924788 -0.076840 0.000000 0.000000 0.000000 22.236665 8.894694 4.555180 24.275036 -7.008817 -4.249827 6.964536 23.756260 1.928376 0.000000 0.000000 0.000000
-0.550849 0.940976 0.278866 -20.571458 11.503283 13.273086 32.145788 3.494609 -37.860889 -7.023543 0.885226 16.206847 10.694354 22.814366 32.216093 0.000000 0.000000 0.000000 7.423921 3.914070 -29.845360 8.820148 -1.766223 11.242043 -7.712000 -17.805910 27.763808 0.000000 0.000000 0.000000 -26.929207 9.422444 59.507937 -4.174680 1.757551 -25.984295 -11.522964 -2.062494 25.313408 -11.059696 8.733282 -13.616448 0.000000 0.000000 0.000000 -4.705690 -24.045597 9.156567 0.618719 -19.398133 -1.410252 4.388468 -9.794499 -0.107222 0.000000 0.000000 0.000000 21.460636 11.489765 5.957125 27.297816 -3.341440 -4.215202 4.751106 31.320184 2.105396 0.000000 0.000000 0.000000
-0.551508 0.940580 0.278584 -19.048271 11.177067 13.080456 30.899190 3.053666 -36.307669 -6.128174 0.671711 16.831209 5.697408 16.758126 25.177828 0.000000 0.000000 0.000000 7.388778 4.037451 -30.931044 9.069185 -1.850522 11.732870 -8.936530 -19.485784 28.536290 0.000000 0.000000 0.000000 -26.228821 9.207442 60.241440 -3.843878 1.692615 -25.799067 -11.425261 0.090452 25.121988 -9.952151 8.407698 -10.041026 0.000000 0.000000 0.000000 -6.208251 -25.435623 9.747221 0.426596 -18.883152 -1.391823 7.188050 -11.682700 -0.432143 0.000000 0.000000 0.000000 25.078862 12.665278 7.765256 26.537221 1.162814 -3.592609 1.512694 37.296273 1.676933 0.000000 0.000000 0.000000
-0.549926 0.939654 0.278048 -17.556869 11.555789 13.108258 29.704578 2.703221 -36.513934 -5.134846 0.384625 18.957879 0.914327 9.616492 20.371528 0.000000 0.000000 0.000000 6.447769 3.909304 -32.234742 9.467130 -2.112715 13.593834 -10.530792 -21.509257 28.906314 0.000000 0.000000 0.000000 -25.737040 9.063583 62.501669 -3.041722 1.541818 -26.890715 -9.502049 1.224562 25.299214 -9.870462 8.584818 -7.503839 0.000000 0.000000 0.000000 -8.759832 -26.540868 10.550385 0.565795 -18.469624 -1.387378 9.325266 -13.361027 -0.764662 0.000000 0.000000 0.000000 27.669112 13.764514 9.201874 25.819434 3.080881 -3.339289 0.165768 41.402275 1.476018 0.000000 0.000000 0.000000
-0.546218 0.937261 0.276410 -15.669213 11.611978 12.437042 27.472952 2.047894 -35.208419 -4.601219 0.191619 19.748752 -0.608974 5.854320 15.258832 0.000000 0.000000 0.000000 4.543176 3.470121 -32.814532 10.219007 -2.440763 14.802096 -11.545726 -22.932418 27.295564 0.000000 0.000000 0.000000 -25.038720 8.948712 65.587402 -3.136595 1.577414 -27.424701 -7.701301 2.283434 23.858037 -7.379639 6.729318 -2.837714 0.000000 0.000000 0.000000 -11.099788 -28.656015 11.801302 0.300483 -17.519873 -1.288089 10.855800 -15.094518 -1.073332 0.000000 0.000000 0.000000 29.957192 13.973691 9.934232 25.207075 3.814101 -3.198500 0.114619 40.736363 1.474354 0.000000 0.000000 0.000000
-0.541081 0.932414 0.273610 -13.555448 11.157183 11.847402 25.624251 1.696622 -34.645470 -5.253362 0.321316 21.491871 -1.515916 2.906866 11.633647 0.000000 0.000000 0.000000 2.631107 3.052107 -33.510623 10.992235 -2.871249 17.065191 -11.682761 -23.375950 25.240519 0.000000 0.000000 0.000000 -22.882506 7.877995 67.180515 -4.115730 1.753834 -27.842584 -7.442225 1.524219 23.695381 -7.027501 6.458202 0.903365 0.000000 0.000000 0.000000 -13.320099 -29.739357 12.945933 -0.248955 -16.648321 -1.198929 12.929930 -17.439185 -1.561257 0.000000 0.000000 0.000000 33.545081 14.681817 10.512349 23.817712 4.057638 -2.972723 -0.161452 41.465393 1.331623 0.000000 0.000000 0.000000
-0.535503 0.928137 0.269854 -11.810850 11.232706 10.011781 23.161552 1.091958 -33.262698 -5.395216 0.275009 22.569416 -1.279678 2.456342 9.506799 0.000000 0.000000 0.000000 0.899359 2.512233 -32.543455 10.611560 -2.892877 18.001570 -11.507533 -23.192864 23.705643 0.000000 0.000000 0.000000 -21.524524 6.953239 68.949450 -3.521810 1.663283 -27.430482 -7.062370 2.878250 23.886115 -5.169766 4.810412 2.902539 0.000000 0.000000 0.000000 -15.487481 -32.304190 14.427469 0.483715 -15.902298 -1.132217 14.529357 -17.258694 -1.806501 0.000000 0.000000 0.000000 34.742571 16.140037 12.289245 24.955390 5.784753 -2.999914 -2.287257 39.699550 0.585424 0.000000 0.000000 0.000000
-0.529630 0.926553 0.265878 -10.433524 10.172643 9.289327 21.359654 0.889017 -32.521544 -5.970292 0.456978 23.862882 -0.381605 3.247643 7.796160 0.000000 0.000000 0.000000 -0.733949 2.136842 -31.428456 10.468400 -2.789863 18.009372 -10.871353 -22.518541 22.655436 0.000000 0.000000 0.000000 -19.907507 6.335442 69.385600 -2.976173 1.540766 -27.809749 -7.045591 3.373244 24.530891 -4.207664 3.899149 4.207159 0.000000 0.000000 0.000000 -17.466625 -33.739868 15.589716 -0.274656 -15.333201 -1.077817 15.664327 -16.653931 -1.908677 0.000000 0.000000 0.000000 36.986883 16.604313 13.194755 24.322046 6.757383 -2.897373 -1.941044 39.455895 0.668439 0.000000 0.000000 0.000000
-0.523441 0.928970 0.262216 -9.359060 9.085246 8.484865 19.828487 0.677498 -30.272786 -5.728621 0.460696 22.203461 -0.666202 2.598861 7.648795 0.000000 0.000000 0.000000 -1.470885 1.993669 -30.097842 9.823727 -2.439579 17.017000 -9.099647 -20.080185 22.209634 0.000000 0.000000 0.000000 -17.804940 5.350472 69.521052 -3.246315 1.577057 -26.802096 -6.879723 3.179536 23.502708 -2.506984 2.164589 4.611444 0.000000 0.000000 0.000000 -20.109350 -34.871590 16.978654 -0.713485 -15.149599 -1.043616 16.237227 -16.884364 -1.992188 0.000000 0.000000 0.000000 36.949604 17.295408 13.472334 26.630261 7.094213 -2.960378 -1.697168 39.880001 0.826876 0.000000 0.000000 0.000000
-0.516568 0.932259 0.259565 -8.230854 8.172858 8.228170 18.342512 0.482875 -29.061160 -5.723349 0.514853 21.187842 -1.012774 2.159058 8.199145 0.000000 0.000000 0.000000 -2.334048 1.797196 -28.590766 8.983412 -2.027096 15.435780 -8.071137 -18.647560 22.913098 0.000000 0.000000 0.000000 -16.113442 4.559315 69.072998 -2.293882 1.376532 -26.943914 -7.494506 2.920971 24.052458 -0.777862 0.378460 5.163168 0.000000 0.000000 0.000000 -20.983657 -35.043916 17.437011 -3.027471 -15.384436 -1.055560 16.797263 -17.074959 -2.085706 0.000000 0.000000 0.000000 38.056369 16.996450 13.286079 27.540643 7.306530 -3.023460 -0.454954 40.442307 1.307553 0.000000 0.000000 0.000000
-0.508794 0.935965 0.257601 -7.394471 6.249194 8.078819 17.502602 0.518663 -27.269545 -6.188969 0.760548 19.526009 -1.105652 2.113783 8.823768 0.000000 0.000000 0.000000 -2.529681 1.855700 -27.593435 7.837688 -1.549645 14.248888 -6.653646 -16.900075 23.995893 0.000000 0.000000 0.000000 -14.268645 4.065624 67.735507 -3.575072 1.589306 -26.090218 -7.549883 1.321767 23.651716 -1.057900 0.418284 7.633160 0.000000 0.000000 0.000000 -22.597631 -34.817945 18.325771 -4.319288 -15.043076 -1.065971 16.113132 -17.666016 -2.022777 0.000000 0.000000 0.000000 39.247393 16.965847 12.477596 29.290624 6.699934 -3.070416 0.807664 40.808774 1.802893 0.000000 0.000000 0.000000
-0.500271 0.938108 0.255795 -6.769891 5.047997 8.307978 16.267215 0.386223 -25.970631 -5.970386 0.761004 18.122636 -0.833722 2.010865 7.662822 0.000000 0.000000 0.000000 -2.606278 1.899782 -27.101841 6.610533 -1.149010 13.314280 -6.009456 -16.205805 24.550758 0.000000 0.000000 0.000000 -12.601073 3.397685 66.403029 -3.794580 1.608899 -25.718796 -7.521146 0.554547 23.486363 -0.095420 -0.659834 8.258553 0.000000 0.000000 0.000000 -23.771911 -34.571801 18.857296 -6.378949 -15.470796 -1.108175 15.820315 -17.926201 -1.980907 0.000000 0.000000 0.000000 40.176144 17.103070 12.249042 31.404597 6.852956 -3.101539 -0.705428 39.875854 1.300309 0.000000 0.000000 0.000000
-0.490914 0.940342 0.253709 -6.205112 3.911568 7.893460 15.143204 0.273301 -24.490149 -6.008592 0.816760 17.019476 -0.691331 2.083188 7.413516 0.000000 0.000000 0.000000 -2.981714 1.824013 -25.834697 5.315210 -0.783057 12.538138 -4.626182 -14.346696 23.809187 0.000000 0.000000 0.000000 -11.610780 3.178612 66.162783 -4.088366 1.638694 -25.706148 -6.933539 0.229354 23.516115 -0.225669 -0.666670 9.973236 0.000000 0.000000 0.000000 -26.561810 -34.645708 19.968732 -6.043565 -15.822953 -1.134986 15.072749 -17.884463 -1.851310 0.000000 0.000000 0.000000 41.226167 17.834214 12.701363 32.075998 7.796574 -2.903676 -3.570060 37.761404 0.315735 0.000000 0.000000 0.000000
-0.481332 0.941812 0.251162 -5.575059 2.944151 7.744409 13.755454 0.120920 -24.235995 -5.483575 0.728707 17.034943 -0.944159 1.726502 7.840673 0.000000 0.000000 0.000000 -4.228716 1.591433 -24.959677 4.729572 -0.606628 11.538021 -2.976125 -11.985839 23.049610 0.000000 0.000000 0.000000 -10.357181 2.732522 66.022691 -4.562106 1.719031 -25.533127 -6.849396 -0.319620 24.035338 0.774368 -1.498867 7.693035 0.000000 0.000000 0.000000 -25.653462 -34.908864 20.139414 -8.389848 -16.854433 -1.169125 15.463199 -18.480389 -1.965612 0.000000 0.000000 0.000000 41.521195 18.342892 12.721381 32.756421 10.537511 -2.264890 -6.178713 35.128901 -0.446965 0.000000 0.000000 0.000000
-0.472256 0.944525 0.248273 -5.191034 1.822539 7.726827 12.691506 0.013474 -23.011232 -5.362230 0.738232 15.758717 -0.586800 2.003240 7.137751 0.000000 0.000000 0.000000 -4.779104 1.510118 -24.051640 4.053727 -0.427856 10.355979 -2.603048 -11.524793 22.305947 0.000000 0.000000 0.000000 -9.552395 2.638823 65.642387 -4.995531 1.783160 -25.393073 -6.604942 -0.522299 24.368535 1.518803 -2.269999 7.501818 0.000000 0.000000 0.000000 -25.072883 -35.164729 20.287628 -9.748969 -18.276651 -1.176028 15.685411 -18.770862 -2.020761 0.000000 0.000000 0.000000 42.967934 19.227426 13.452035 31.893242 13.297653 -1.598202 -8.540212 33.138157 -1.061894 0.000000 0.000000 0.000000
-0.464616 0.945985 0.245777 -5.050614 1.796851 7.792825 12.231329 -0.061459 -23.198874 -5.541004 0.781667 15.713425 -0.844163 1.647497 7.428750 0.000000 0.000000 0.000000 -5.323511 1.363712 -23.015377 3.494120 -0.323931 8.205251 -2.436599 -11.332470 22.721446 0.000000 0.000000 0.000000 -9.132771 2.329308 64.437416 -4.523795 1.691464 -24.908622 -6.273267 -0.393717 24.121452 1.871384 -2.440591 5.802362 0.000000 0.000000 0.000000 -26.238292 -34.825728 20.437807 -10.802045 -18.587472 -1.149022 15.416686 -19.529544 -2.044030 0.000000 0.000000 0.000000 43.423860 20.115299 14.363275 32.264228 15.474556 -1.100012 -10.093709 31.856313 -1.401011 0.000000 0.000000 0.000000
-0.458715 0.946807 0.244169 -4.734173 1.224199 7.699195 11.199717 -0.194672 -22.493436 -5.404777 0.759026 14.649566 -0.129616 2.960480 7.558725 0.000000 0.000000 0.000000 -6.135024 1.222635 -22.219670 3.186444 -0.264017 7.562636 -3.302050 -12.813273 23.222745 0.000000 0.000000 0.000000 -8.937849 2.393482 63.560971 -4.214405 1.599986 -25.599387 -6.126469 -0.193323 24.331172 3.295881 -3.746938 4.582511 0.000000 0.000000 0.000000 -26.640565 -34.276471 20.201753 -12.397891 -18.976725 -1.111072 15.468122 -20.166973 -2.101205 0.000000 0.000000 0.000000 43.879262 20.203970 14.593507 33.236978 17.834403 -0.566378 -11.988888 30.350308 -1.739010 0.000000 0.000000 0.000000
-0.454503 0.946064 0.243990 -4.830923 0.641771 8.031367 11.621249 -0.087565 -22.068660 -5.820304 0.871810 13.993213 -0.561871 1.708939 6.519410 0.000000 0.000000 0.000000 -6.328600 1.236748 -22.379237 3.237792 -0.265625 7.290040 -3.079415 -12.699527 23.935620 0.000000 0.000000 0.000000 -9.465766 2.875389 61.707593 -1.847299 1.088147 -26.792399 -6.011584 1.620599 24.935746 4.836153 -5.254650 4.074142 0.000000 0.000000 0.000000 -27.842875 -32.989474 19.164426 -13.810232 -18.778379 -1.076491 14.553976 -22.982615 -2.220766 0.000000 0.000000 0.000000 45.199553 19.720308 15.523020 31.722761 18.807069 -0.765068 -10.830402 30.296756 -1.430405 0.000000 0.000000 0.000000
-0.451463 0.945993 0.245306 -5.070840 -1.994888 7.373677 11.673528 0.094923 -20.161025 -6.669706 1.120631 12.069416 1.685299 6.112094 8.122773 0.000000 0.000000 0.000000 -5.233834 1.477888 -21.305359 2.386157 -0.091224 6.961362 -3.167200 -13.222545 22.949046 0.000000 0.000000 0.000000 -9.233970 3.558119 60.145185 -3.438267 1.341388 -26.039405 -6.154956 1.333077 22.717790 7.490550 -8.115181 5.315127 0.000000 0.000000 0.000000 -27.522315 -31.305286 18.218967 -16.701383 -17.667401 -1.070708 12.544493 -25.360595 -1.971811 0.000000 0.000000 0.000000 46.835711 19.651643 14.966240 32.837511 17.592700 -0.615583 -12.269261 30.665200 -1.830583 0.000000 0.000000 0.000000
-0.449337 0.946694 0.247604 -5.141435 -2.315637 6.031999 11.037559 0.000157 -17.871399 -6.509036 1.058633 10.977131 2.774296 7.919582 7.716232 0.000000 0.000000 0.000000 -6.512831 1.192533 -19.418038 4.321013 -0.401781 6.449263 -3.675070 -13.895864 22.193778 0.000000 0.000000 0.000000 -8.311739 2.944054 58.725385 -4.723316 1.565991 -27.488249 -5.755166 1.964799 23.100894 7.411168 -8.505688 6.854679 0.000000 0.000000 0.000000 -27.518955 -31.328020 17.975800 -17.476299 -16.567335 -1.136375 10.130973 -25.135740 -1.454680 0.000000 0.000000 0.000000 49.486091 18.761628 14.842799 30.357709 16.716775 -1.000453 -11.303502 31.246382 -1.663860 0.000000 0.000000 0.000000
