HIERARCHY
ROOT Hips
{
	OFFSET -0.001795 -0.223333 0.028219
	CHANNELS 6 Xposition Yposition Zposition Zrotation Yrotation Xrotation
	JOINT LeftUpLeg
	{
		OFFSET 0.069520 -0.091406 -0.006815
		CHANNELS 3 Zrotation Yrotation Xrotation
		JOINT LeftLeg
		{
			OFFSET 0.034277 -0.375199 -0.004496
			CHANNELS 3 Zrotation Yrotation Xrotation
			JOINT LeftFoot
			{
				OFFSET -0.013596 -0.397961 -0.043693
				CHANNELS 3 Zrotation Yrotation Xrotation
				JOINT LeftToe
				{
					OFFSET 0.026358 -0.055791 0.119288
					CHANNELS 3 Zrotation Yrotation Xrotation
					End Site
					{
						OFFSET 0.000000 0.000000 0.000000
					}
				}
			}
		}
	}
	JOINT RightUpLeg
	{
		OFFSET -0.067670 -0.090522 -0.004320
		CHANNELS 3 Zrotation Yrotation Xrotation
		JOINT RightLeg
		{
			OFFSET -0.038290 -0.382569 -0.008850
			CHANNELS 3 Zrotation Yrotation Xrotation
			JOINT RightFoot
			{
				OFFSET 0.015774 -0.398415 -0.042312
				CHANNELS 3 Zrotation Yrotation Xrotation
				JOINT RightToe
				{
					OFFSET -0.025372 -0.048144 0.123348
					CHANNELS 3 Zrotation Yrotation Xrotation
					End Site
					{
						OFFSET 0.000000 0.000000 0.000000
					}
				}
			}
		}
	}
	JOINT Spine
	{
		OFFSET -0.002533 0.108963 -0.026696
		CHANNELS 3 Zrotation Yrotation Xrotation
		JOINT Spine1
		{
			OFFSET 0.005487 0.135180 0.001092
			CHANNELS 3 Zrotation Yrotation Xrotation
			JOINT Spine2
			{
				OFFSET 0.001457 0.052922 0.025425
				CHANNELS 3 Zrotation Yrotation Xrotation
				JOINT Neck
				{
					OFFSET -0.002778 0.213870 -0.042857
					CHANNELS 3 Zrotation Yrotation Xrotation
					JOINT Head
					{
						OFFSET 0.005152 0.064970 0.051349
						CHANNELS 3 Zrotation Yrotation Xrotation
						End Site
						{
							OFFSET 0.000000 0.000000 0.000000
						}
					}
				}
				JOINT LeftShoulder
				{
					OFFSET 0.078845 0.121749 -0.034090
					CHANNELS 3 Zrotation Yrotation Xrotation
					JOINT LeftArm
					{
						OFFSET 0.090977 0.030469 -0.008868
						CHANNELS 3 Zrotation Yrotation Xrotation
						JOINT LeftForeArm
						{
							OFFSET 0.259612 -0.012772 -0.027456
							CHANNELS 3 Zrotation Yrotation Xrotation
							JOINT LeftHand
							{
								OFFSET 0.249234 0.008986 -0.001171
								CHANNELS 3 Zrotation Yrotation Xrotation
								End Site
								{
									OFFSET 0.000000 0.000000 0.000000
								}
							}
						}
					}
				}
				JOINT RightShoulder
				{
					OFFSET -0.081759 0.118833 -0.038615
					CHANNELS 3 Zrotation Yrotation Xrotation
					JOINT RightArm
					{
						OFFSET -0.096012 0.032551 -0.009143
						CHANNELS 3 Zrotation Yrotation Xrotation
						JOINT RightForeArm
						{
							OFFSET -0.253742 -0.013329 -0.021401
							CHANNELS 3 Zrotation Yrotation Xrotation
							JOINT RightHand
							{
								OFFSET -0.255298 0.007772 -0.005559
								CHANNELS 3 Zrotation Yrotation Xrotation
								End Site
								{
									OFFSET 0.000000 0.000000 0.000000
								}
							}
						}
					}
				}
			}
		}
	}
}
MOTION
Frames: 68
Frame Time: 0.050000
0.000000 0.142529 0.000000 35.100105 -12.126510 62.400766 12.112612 -1.742658 -14.014928 -4.086696 1.699734 38.754985 -0.404957 -9.945106 -14.475329 0.000000 0.000000 0.000000 20.235249 -2.666232 -4.616771 -23.163237 15.287395 45.236799 -8.100132 -2.990880 -35.498734 0.000000 0.000000 0.000000 18.532529 -13.507208 42.441304 -21.884502 -1.597138 -61.334304 -7.723084 -13.033546 16.943965 15.757533 -7.371369 12.904110 0.000000 0.000000 0.000000 -48.652695 -16.486092 24.147529 -2.340085 -14.012803 -1.606065 121.006363 -55.033068 -78.053080 0.000000 0.000000 0.000000 13.816678 3.376224 -3.952377 11.118711 3.877927 -0.075902 -139.527170 21.163289 -49.546585 0.000000 0.000000 0.000000
-0.000357 0.140245 0.001662 37.638879 -14.722511 60.606069 8.916083 -1.495127 -15.262836 -5.260414 2.846694 37.301637 -1.454182 -2.914142 1.298616 0.000000 0.000000 0.000000 19.618860 -2.033894 -7.149854 -26.592651 20.289040 48.428588 -4.926471 -2.939456 -16.810600 0.000000 0.000000 0.000000 16.720670 -11.767454 42.940080 -20.279688 0.037582 -54.438259 -10.415793 -15.565038 9.285060 6.987308 -0.323043 3.984612 0.000000 0.000000 0.000000 -45.232568 -11.649966 21.292595 -4.144247 -13.732934 -1.634886 130.604318 -50.603412 -80.353514 0.000000 0.000000 0.000000 -4.386649 -3.556856 -0.973943 22.750026 11.531144 0.842910 -135.443727 22.010678 -53.678058 0.000000 0.000000 0.000000
-0.000482 0.143062 0.002426 40.011967 -12.837981 60.124141 13.555230 -1.700132 -15.712962 -7.937872 3.073549 34.833170 -5.890334 -12.065203 2.308286 0.000000 0.000000 0.000000 23.819555 -1.749018 -8.810859 -29.939467 23.558092 53.418444 -4.830770 -1.683149 -19.487499 0.000000 0.000000 0.000000 20.898061 -14.772188 42.184933 -25.095765 -0.626538 -54.162275 -10.507083 -18.690363 10.209162 7.280791 -1.360241 2.050197 0.000000 0.000000 0.000000 -42.660884 -9.346679 19.042402 -7.902590 -12.450513 -1.715996 141.865538 -53.169376 -97.919689 0.000000 0.000000 0.000000 -7.185901 -5.289281 -0.136313 14.132197 11.183727 -0.020343 -138.131642 22.193430 -56.267415 0.000000 0.000000 0.000000
-0.000897 0.136762 0.003237 42.351737 -15.277477 58.423412 11.729664 -1.550775 -15.927525 -7.930635 3.108988 32.464939 -5.850137 -7.134063 10.769158 0.000000 0.000000 0.000000 22.943428 -1.484443 -9.075335 -29.916597 24.330598 53.039117 -2.797553 -0.537125 -10.961652 0.000000 0.000000 0.000000 19.987933 -13.249432 41.045357 -24.383208 0.370666 -50.638509 -12.702745 -19.381061 9.345203 5.225360 -0.375626 -4.578627 0.000000 0.000000 0.000000 -42.519790 -8.606347 19.745065 -8.635909 -13.020065 -1.936273 142.819649 -51.367434 -96.023329 0.000000 0.000000 0.000000 -14.672959 -8.910272 2.094904 12.525520 15.163934 -0.212553 -132.388415 20.353603 -49.985850 0.000000 0.000000 0.000000
-0.000974 0.138437 0.003157 42.546694 -16.179703 58.454880 11.205664 -1.442642 -18.598066 -6.911879 3.304078 36.562622 -2.796790 -3.849007 5.673618 0.000000 0.000000 0.000000 23.358117 -1.191019 -10.347588 -31.522326 27.242319 54.843476 -3.435741 1.770542 -16.017711 0.000000 0.000000 0.000000 20.251638 -12.988514 40.183407 -23.096171 0.953459 -47.975931 -13.383952 -18.091163 9.263758 8.186373 -1.505631 -7.315610 0.000000 0.000000 0.000000 -43.976736 -9.129954 20.773623 -11.727952 -12.532205 -2.108050 140.762276 -52.594691 -94.557092 0.000000 0.000000 0.000000 -18.465282 -8.949751 3.549199 9.017092 14.929889 -0.633362 -126.134458 25.089591 -53.847870 0.000000 0.000000 0.000000
-0.000957 0.135837 0.002510 40.529214 -19.758450 59.700167 11.948830 -1.041395 -19.996128 -10.053530 6.118968 37.510737 -0.186795 0.976974 5.672849 0.000000 0.000000 0.000000 24.585674 -1.064071 -11.435461 -37.930711 34.231373 53.255888 -3.762948 6.602616 -20.030860 0.000000 0.000000 0.000000 18.906606 -11.514562 41.172098 -22.949576 1.214371 -48.582247 -13.701984 -14.368077 8.975560 9.802701 -2.091068 -8.253941 0.000000 0.000000 0.000000 -47.698086 -9.545625 21.708764 -9.839538 -12.945500 -2.093087 140.404292 -54.745008 -97.657167 0.000000 0.000000 0.000000 -21.703065 -9.076554 4.574921 5.152706 14.639925 -1.011816 -119.269312 26.821057 -50.073350 0.000000 0.000000 0.000000
-0.000662 0.134209 0.001123 42.739688 -19.540545 57.211500 13.186811 -0.843306 -21.860908 -9.890925 6.648650 40.536503 -0.796580 -1.700924 1.585824 0.000000 0.000000 0.000000 25.474584 -1.129848 -11.541644 -37.350609 37.399677 58.604796 -6.016324 5.840691 -28.174507 0.000000 0.000000 0.000000 20.329821 -12.238199 41.519799 -21.687070 1.539209 -46.133359 -16.507143 -14.006795 8.379302 13.511754 -3.923000 -1.649928 0.000000 0.000000 0.000000 -50.561953 -10.685701 23.671743 -7.723728 -12.469839 -1.976741 137.318976 -53.013211 -92.609086 0.000000 0.000000 0.000000 -23.448314 -7.905019 5.414944 1.213619 13.356123 -1.294423 -114.905103 31.066461 -52.579985 0.000000 0.000000 0.000000
0.000217 0.128124 -0.000406 43.794932 -20.377343 56.662435 14.302937 -0.621261 -23.286998 -10.732170 7.923136 42.955673 -1.913746 -5.553637 -1.122175 0.000000 0.000000 0.000000 24.193588 -0.790041 -12.707726 -33.731915 38.180769 64.165046 -7.029269 5.406287 -32.123940 0.000000 0.000000 0.000000 20.288351 -11.829990 40.233439 -21.816418 1.823360 -43.934733 -17.671764 -13.389071 7.790283 15.904686 -5.325610 4.710123 0.000000 0.000000 0.000000 -51.848308 -10.779017 23.696983 -4.513686 -12.751127 -1.807699 136.344848 -52.248239 -90.954433 0.000000 0.000000 0.000000 -24.089295 -7.831871 5.610936 -2.958281 12.453434 -1.653406 -111.653528 31.882309 -50.162569 0.000000 0.000000 0.000000
0.001068 0.120389 -0.001653 44.448479 -20.622741 55.516084 15.161735 -0.522878 -22.937969 -10.254464 7.789215 42.906563 -2.505048 -9.371288 -5.263288 0.000000 0.000000 0.000000 23.877489 -0.687778 -12.888798 -28.754592 37.864422 70.547171 -8.354252 2.451300 -37.632957 0.000000 0.000000 0.000000 19.948927 -11.425656 39.916180 -20.945999 1.958228 -42.851642 -19.301466 -12.387785 7.698837 16.772776 -6.565963 7.029635 0.000000 0.000000 0.000000 -50.766184 -11.300552 22.757253 -4.042877 -13.312859 -1.791337 141.095460 -52.807530 -97.582284 0.000000 0.000000 0.000000 -24.720459 -7.631766 5.665112 -4.416848 12.979721 -1.858050 -113.177367 34.524315 -54.003242 0.000000 0.000000 0.000000
0.001535 0.111598 -0.002501 46.547044 -20.671849 53.335568 15.996548 -0.520539 -22.361063 -10.777580 8.180072 42.682025 -1.271872 -9.875726 -11.723619 0.000000 0.000000 0.000000 24.013326 -1.013036 -12.104649 -23.732929 37.695812 77.859201 -9.680550 -2.309088 -45.797258 0.000000 0.000000 0.000000 20.193317 -11.419631 39.671632 -22.754094 2.018585 -42.352403 -20.264033 -13.092579 6.858593 16.705500 -7.820994 17.089421 0.000000 0.000000 0.000000 -50.358023 -11.843522 22.559595 -3.585827 -11.592137 -1.484828 143.898639 -53.862358 -103.295333 0.000000 0.000000 0.000000 -23.764133 -6.232096 5.754503 -5.348959 12.091229 -1.928472 -115.791048 37.536433 -59.717805 0.000000 0.000000 0.000000
0.001510 0.102687 -0.003091 48.464335 -20.166423 51.043127 16.568606 -0.727692 -20.298788 -10.875114 7.853725 41.228601 -1.669918 -12.362577 -13.650803 0.000000 0.000000 0.000000 23.834190 -1.930536 -9.064541 -22.497187 35.587585 77.105776 -10.041903 -4.646677 -48.463516 0.000000 0.000000 0.000000 20.250343 -11.452172 40.197745 -23.534353 2.194791 -41.504783 -21.190218 -15.521206 7.090247 14.660371 -5.843956 16.050995 0.000000 0.000000 0.000000 -48.612354 -11.060408 22.286529 -3.428071 -13.902300 -1.707243 144.690171 -54.099271 -104.047218 0.000000 0.000000 0.000000 -22.925233 -7.087282 5.562893 -4.089372 15.079328 -2.276037 -121.113523 39.736788 -68.845558 0.000000 0.000000 0.000000
0.000966 0.094342 -0.003679 51.097862 -18.393852 47.502423 18.308877 -0.772517 -19.661284 -11.679778 8.415452 42.935575 1.540231 -12.922603 -27.304157 0.000000 0.000000 0.000000 26.628970 -2.932720 -6.496274 -20.039466 35.155264 81.461414 -9.888617 -9.130666 -52.123369 0.000000 0.000000 0.000000 21.185655 -12.285006 41.075506 -28.928309 1.761999 -43.727048 -21.597593 -19.513038 8.798886 15.448178 -6.526436 25.589334 0.000000 0.000000 0.000000 -48.956755 -10.421862 22.822254 -1.765815 -12.497605 -1.457167 142.699963 -54.450623 -103.504693 0.000000 0.000000 0.000000 -16.663086 -4.871629 3.917868 -3.324951 14.807861 -2.393928 -129.511390 45.022006 -86.041447 0.000000 0.000000 0.000000
0.000505 0.088110 -0.005021 53.042234 -16.688549 43.879886 20.869955 -0.672436 -19.187684 -12.885699 10.038963 46.569530 1.324824 -18.145748 -29.356554 0.000000 0.000000 0.000000 30.309694 -3.936804 -4.391663 -18.343062 35.860466 85.325108 -9.385818 -12.534936 -53.097616 0.000000 0.000000 0.000000 21.462045 -12.942625 43.882476 -33.431630 1.351601 -45.218042 -21.803747 -24.070486 9.729251 14.694130 -4.557963 27.199148 0.000000 0.000000 0.000000 -48.130735 -10.477046 24.486642 -2.337295 -13.048732 -1.547550 143.292468 -54.424470 -104.811894 0.000000 0.000000 0.000000 -12.561284 -4.408884 2.495356 1.348345 14.502009 -1.647666 -141.103662 48.875876 -109.565277 0.000000 0.000000 0.000000
0.000183 0.082118 -0.006795 55.630589 -13.321101 40.499049 23.154077 -0.581234 -20.762099 -12.464257 10.003901 51.420564 0.724551 -22.091819 -28.140503 0.000000 0.000000 0.000000 35.496050 -4.477781 -3.888047 -18.273941 35.033781 86.472835 -8.886194 -15.205856 -51.792201 0.000000 0.000000 0.000000 23.157065 -14.825750 45.572931 -37.234544 0.982608 -45.600772 -23.043790 -29.547616 11.154427 13.449868 -2.367158 26.217526 0.000000 0.000000 0.000000 -47.108152 -9.881972 25.452064 -3.734031 -13.495882 -1.681284 140.808277 -52.936721 -99.869612 0.000000 0.000000 0.000000 -8.544814 -2.995427 1.102302 4.366517 12.243276 -0.902664 -147.678309 51.115729 -124.986809 0.000000 0.000000 0.000000
0.000329 0.081072 -0.009401 58.522014 -8.874270 35.402483 24.813234 -0.295008 -23.976853 -9.810715 8.949913 60.896587 0.792807 -28.979303 -29.691933 0.000000 0.000000 0.000000 40.068152 -3.915888 -5.682131 -10.065531 28.788980 97.489413 -7.674178 -22.376414 -49.956355 0.000000 0.000000 0.000000 25.818044 -17.763790 48.350603 -46.657230 -0.036745 -46.526059 -22.970497 -36.814168 14.089661 14.724404 -1.612943 33.339525 0.000000 0.000000 0.000000 -50.705773 -9.129286 28.756756 -2.571100 -11.263706 -1.429491 138.258436 -52.049272 -100.605449 0.000000 0.000000 0.000000 -6.366162 -2.393723 0.270712 8.968873 7.032469 -0.021043 -158.789366 51.442745 -151.164579 0.000000 0.000000 0.000000
0.000994 0.078156 -0.012505 62.942922 -0.079942 27.290331 24.891473 -0.594021 -28.345199 -4.343705 2.627497 71.899763 0.985942 -34.556118 -30.262552 0.000000 0.000000 0.000000 46.649789 -3.386512 -7.349283 -3.725982 17.702444 105.171956 -7.090512 -31.502332 -47.774349 0.000000 0.000000 0.000000 30.775021 -23.024585 50.383449 -56.410014 -0.139187 -44.613163 -27.503277 -44.674878 20.739133 19.275346 -4.533664 38.292367 0.000000 0.000000 0.000000 -54.734192 -8.443048 32.474679 -1.723445 -8.316711 -1.070140 135.516559 -50.862922 -102.338924 0.000000 0.000000 0.000000 -0.675410 -0.236491 -2.432333 8.786847 -2.746075 -0.005666 -170.476601 50.616564 -176.534041 0.000000 0.000000 0.000000
0.002048 0.076667 -0.016921 64.737976 11.405657 17.976744 23.632805 -1.433266 -33.142438 1.435733 -8.802057 82.314836 0.053231 -42.136562 -29.250859 0.000000 0.000000 0.000000 50.859126 -2.201602 -9.126185 3.022317 -1.241474 105.923861 -8.623695 -43.944819 -44.033435 0.000000 0.000000 0.000000 38.575292 -30.801051 51.187249 -70.980672 2.557707 -39.876559 -32.070303 -56.368862 32.099811 23.399759 -6.729958 43.643471 0.000000 0.000000 0.000000 -59.028051 -7.278809 38.847984 0.465288 -6.235963 -0.724781 128.579150 -45.490397 -97.782337 0.000000 0.000000 0.000000 1.880203 1.788132 -3.605270 9.755438 -11.304421 -0.595100 -171.230508 48.113228 175.267922 0.000000 0.000000 0.000000
0.003198 0.075409 -0.022079 64.382288 19.893215 10.741011 22.400486 -2.342183 -35.569653 5.419988 -18.460226 86.821643 3.977292 -47.843076 -36.953914 0.000000 0.000000 0.000000 55.971911 -0.064747 -12.732046 6.793631 -11.434524 103.982885 -15.815650 -53.105474 -29.359537 0.000000 0.000000 0.000000 42.154919 -34.844939 51.272416 -80.995316 5.571896 -36.772238 -35.708502 -63.585720 43.727607 27.546717 -11.215936 44.129541 0.000000 0.000000 0.000000 -61.510363 -7.007236 43.466290 1.491537 -7.916797 -1.170362 126.344567 -44.131150 -100.104460 0.000000 0.000000 0.000000 6.754663 1.869888 -7.190640 10.927968 -18.878461 -1.666671 -175.288548 45.670362 165.324186 0.000000 0.000000 0.000000
0.004032 0.073994 -0.026579 59.263415 28.524668 -2.386761 22.314792 -2.335921 -34.925243 11.110183 -29.569766 87.147337 15.571918 -47.962113 -57.620105 0.000000 0.000000 0.000000 59.493996 4.108555 -17.178882 16.760925 -29.870304 100.993226 -26.697636 -62.136311 -18.835679 0.000000 0.000000 0.000000 49.722377 -40.997846 52.133356 -100.392411 16.721542 -31.806075 -75.508420 -80.293453 96.978339 31.473057 -6.754041 44.622209 0.000000 0.000000 0.000000 -61.670588 -4.098963 51.807537 4.650831 -13.395422 -2.848219 122.818235 -37.889782 -98.718754 0.000000 0.000000 0.000000 6.104269 3.612528 -9.759231 17.662927 -23.218691 -4.225078 -178.203375 42.982175 149.422707 0.000000 0.000000 0.000000
0.004725 0.076129 -0.028247 52.728073 32.722043 -13.978285 24.943852 -1.377162 -34.637338 15.796681 -36.017605 84.567954 26.421980 -47.178381 -77.093188 0.000000 0.000000 0.000000 60.188406 7.262269 -19.255477 30.087509 -44.035961 89.578015 -41.089358 -65.255160 -1.801228 0.000000 0.000000 0.000000 52.895067 -43.506448 53.985142 -114.591192 34.822591 -25.671599 179.190942 -72.739897 -152.777890 46.473761 -3.929013 42.812931 0.000000 0.000000 0.000000 -59.435356 -2.740090 62.208780 8.981563 -20.342612 -5.736771 112.473731 -33.484363 -86.944316 0.000000 0.000000 0.000000 4.568831 5.846149 -16.923356 21.367886 -31.897002 -8.133115 171.761266 41.715163 124.205894 0.000000 0.000000 0.000000
0.004691 0.079625 -0.027866 41.303702 34.455794 -29.997951 30.024291 0.573466 -36.951588 16.534674 -40.058986 87.213750 24.203492 -48.208797 -74.971491 0.000000 0.000000 0.000000 56.956227 12.891187 -25.420064 58.952279 -57.054089 65.107188 -60.370056 -64.222710 24.220162 0.000000 0.000000 0.000000 62.330602 -45.702942 51.611831 -121.825747 62.837365 -13.260863 158.454877 -47.008552 -133.794259 69.103847 8.627005 42.689280 0.000000 0.000000 0.000000 -52.364078 1.902863 73.926210 18.542360 -31.531476 -13.974118 104.811103 -29.992469 -74.037380 0.000000 0.000000 0.000000 0.618594 6.318566 -32.558085 21.314109 -43.482507 -12.670850 154.938835 33.317690 71.696558 0.000000 0.000000 0.000000
0.004810 0.082039 -0.027640 33.499864 33.090730 -40.041720 33.607682 2.344667 -42.076902 13.840590 -39.585455 93.784603 20.248461 -46.261001 -70.542712 0.000000 0.000000 0.000000 52.298009 16.027441 -30.766364 93.775014 -57.465613 34.261225 -81.717215 -61.365014 55.681370 0.000000 0.000000 0.000000 64.675180 -45.531870 53.904860 -126.810555 71.523660 -12.191252 159.030896 -40.835668 -136.913454 80.048024 11.474569 41.140052 0.000000 0.000000 0.000000 -44.205828 3.248951 79.518352 20.953970 -39.236713 -20.346213 104.339034 -32.361175 -65.893726 0.000000 0.000000 0.000000 0.619438 7.834787 -41.667309 15.862806 -58.395569 -14.878932 150.485000 22.153677 49.559396 0.000000 0.000000 0.000000
0.005353 0.083311 -0.030092 29.254341 30.666079 -45.641266 34.117262 3.782051 -46.746571 10.763312 -37.807307 99.633848 14.834066 -45.657347 -62.245963 0.000000 0.000000 0.000000 42.414582 15.185994 -31.525601 122.362605 -49.877953 10.607921 -96.318894 -66.748641 66.123730 0.000000 0.000000 0.000000 72.859666 -42.651139 48.005706 -52.727047 82.810334 70.159893 152.111724 -29.104535 -139.098481 103.698768 9.809600 48.125307 0.000000 0.000000 0.000000 -36.818150 5.813464 88.661570 29.107400 -46.996112 -29.678767 105.269322 -27.746856 -53.301048 0.000000 0.000000 0.000000 -5.066699 10.238754 -49.368836 13.110701 -68.411300 -18.804933 147.499589 16.250478 24.866502 0.000000 0.000000 0.000000
0.007046 0.084012 -0.036226 24.876776 28.087462 -50.108129 32.669114 4.239897 -51.376551 15.519453 -41.659590 97.503160 14.584979 -53.720868 -60.845201 0.000000 0.000000 0.000000 34.902223 14.681937 -35.163904 136.418081 -40.738490 1.101680 -127.839229 -70.997649 94.157301 0.000000 0.000000 0.000000 80.894117 -41.279654 43.294747 -26.188047 81.647155 98.736323 153.950924 -30.462458 -142.436508 108.818015 10.102870 46.597680 0.000000 0.000000 0.000000 -31.558434 6.852761 86.651717 27.700596 -53.098133 -30.888542 108.644534 -32.244435 -50.001506 0.000000 0.000000 0.000000 -2.914254 9.326808 -55.627887 2.722940 -70.191465 -9.189282 146.728740 15.676792 30.753540 0.000000 0.000000 0.000000
0.009062 0.084989 -0.044150 22.377596 25.812189 -54.193266 29.719168 4.027461 -53.237950 14.878454 -42.617172 102.078056 15.059063 -47.938356 -62.917770 0.000000 0.000000 0.000000 26.795571 13.103827 -38.156098 147.976092 -33.631141 -3.395189 98.280012 -78.516437 -159.044926 0.000000 0.000000 0.000000 92.643602 -34.917977 33.540298 -6.868968 69.428767 120.851700 151.446990 -31.849243 -144.198106 101.188078 14.306769 46.375095 0.000000 0.000000 0.000000 -25.813308 6.586177 82.085684 18.585609 -56.609052 -23.475856 110.676751 -33.531714 -44.079977 0.000000 0.000000 0.000000 -2.719633 7.628175 -56.291053 -2.754969 -68.333557 -4.057848 144.964569 18.813602 32.083466 0.000000 0.000000 0.000000
0.010849 0.088927 -0.050269 20.531405 22.933415 -57.124366 27.017235 4.025672 -53.813949 14.951675 -41.863867 101.414723 16.048467 -44.303849 -65.381443 0.000000 0.000000 0.000000 22.108351 12.481228 -39.835579 153.382180 -39.519165 -1.986258 32.327755 -64.375489 -109.370798 0.000000 0.000000 0.000000 99.233317 -24.854261 26.473476 -1.798098 61.700206 129.681850 150.795539 -33.812304 -141.820300 98.897371 13.515814 45.813350 0.000000 0.000000 0.000000 -23.574685 9.987494 73.206022 3.152648 -57.476094 -13.505800 111.589431 -41.433527 -45.665427 0.000000 0.000000 0.000000 0.718128 11.884284 -53.625755 1.601557 -64.579225 -3.582783 142.278719 27.084922 45.692114 0.000000 0.000000 0.000000
0.011950 0.091751 -0.051586 19.987683 19.841697 -61.453045 25.264154 4.706212 -49.879658 19.896855 -40.384404 89.722656 13.846796 -44.418928 -61.384686 0.000000 0.000000 0.000000 18.294423 11.946160 -40.416833 154.919238 -47.002387 0.459653 23.058510 -59.262795 -103.836903 0.000000 0.000000 0.000000 106.048789 -10.396447 20.383415 -2.488329 47.609846 132.089654 145.703631 -39.988838 -137.821905 87.312426 14.750486 42.410498 0.000000 0.000000 0.000000 -21.435547 8.843718 60.571278 -18.101123 -53.171515 -0.166159 114.535600 -51.795703 -53.094652 0.000000 0.000000 0.000000 4.593544 13.476894 -46.925855 14.700068 -59.637879 -9.299672 142.202928 38.133627 66.805857 0.000000 0.000000 0.000000
0.012478 0.097670 -0.049426 18.625544 18.985556 -64.793227 19.701579 2.590703 -47.849212 25.785004 -39.694892 78.052393 5.955011 -50.598922 -47.499618 0.000000 0.000000 0.000000 12.414555 9.597409 -40.141882 154.143194 -59.288217 5.616192 12.229259 -57.088028 -87.384844 0.000000 0.000000 0.000000 100.477256 11.543169 11.086233 -5.519845 36.431934 131.795107 128.403747 -55.213213 -117.947774 67.451973 10.273941 32.851452 0.000000 0.000000 0.000000 -18.290288 5.197793 35.229819 -38.694316 -38.606864 8.058855 125.403150 -67.850012 -72.114756 0.000000 0.000000 0.000000 16.848197 18.945096 -41.663611 16.723302 -50.544148 -2.692955 149.103100 51.583723 110.330432 0.000000 0.000000 0.000000
0.013068 0.103339 -0.047577 17.207319 17.333471 -68.030524 15.826927 1.337356 -45.358777 28.071059 -34.932878 68.464510 -11.442859 -52.796909 -20.678156 0.000000 0.000000 0.000000 6.308182 6.519594 -38.674032 149.486264 -69.232918 13.346178 7.016283 -50.372746 -85.459290 0.000000 0.000000 0.000000 78.983662 25.859192 -2.620088 -8.089463 35.269283 129.703553 76.724455 -56.464801 -64.043823 43.573834 1.213733 23.093623 0.000000 0.000000 0.000000 -18.880696 -2.829503 21.651971 -43.417014 -31.142132 6.236821 106.232292 -77.937604 -66.629212 0.000000 0.000000 0.000000 27.472421 20.851860 -32.992809 23.291580 -35.853353 -0.524871 162.719938 69.457128 149.452755 0.000000 0.000000 0.000000
0.013811 0.107015 -0.048693 15.275682 15.271733 -69.479784 13.425888 0.520022 -45.171413 29.440759 -32.569577 63.827147 -21.794427 -51.210596 -4.869465 0.000000 0.000000 0.000000 1.371068 4.406169 -41.037768 96.835598 -81.660884 68.219269 0.856120 -42.618143 -77.424542 0.000000 0.000000 0.000000 62.307584 28.823737 -13.343364 -7.816539 32.450181 129.831156 56.628485 -45.444152 -47.559708 36.592659 -4.358654 20.810898 0.000000 0.000000 0.000000 -19.691235 -6.969941 17.471729 -46.159441 -30.947283 6.726474 65.087457 -78.148968 -33.609781 0.000000 0.000000 0.000000 33.037264 22.951208 -26.464298 26.822585 -25.879063 0.555877 -168.927238 82.027409 -172.614111 0.000000 0.000000 0.000000
0.014607 0.110081 -0.051889 14.609445 13.122844 -70.247694 11.181843 0.037758 -42.252962 31.420993 -28.875610 56.003263 -30.200168 -49.099441 7.980417 0.000000 0.000000 0.000000 -1.779561 3.076807 -40.960552 21.998586 -66.465054 141.939379 -4.921836 -29.170300 -78.612575 0.000000 0.000000 0.000000 49.639292 24.962958 -17.535409 -8.904213 36.982215 124.425818 48.670873 -32.775055 -41.124986 26.988364 -5.503778 21.163889 0.000000 0.000000 0.000000 -26.478494 -10.580368 19.621582 -43.545495 -31.699172 4.489779 36.899916 -71.928242 -14.090123 0.000000 0.000000 0.000000 33.331481 20.603704 -16.739987 32.673051 -14.201234 0.557807 -85.016221 82.472324 -84.494067 0.000000 0.000000 0.000000
0.015441 0.111446 -0.055376 13.758371 11.534089 -70.866024 11.659409 0.586328 -41.066274 29.559656 -26.408827 54.595257 -29.316278 -47.010044 7.761600 0.000000 0.000000 0.000000 -4.132184 2.121244 -41.736371 21.586391 -61.171476 139.987614 -5.818811 -26.380048 -79.482022 0.000000 0.000000 0.000000 40.725657 23.145517 -21.645485 -8.963928 35.830603 122.068743 43.339244 -26.178523 -41.074799 23.610213 -6.041472 20.241445 0.000000 0.000000 0.000000 -29.166109 -12.291809 18.573351 -44.679616 -31.630029 4.823096 23.453532 -61.763302 -5.670039 0.000000 0.000000 0.000000 33.017298 18.851312 -11.934911 37.775760 -6.502080 1.165843 -47.171493 76.282152 -44.391171 0.000000 0.000000 0.000000
0.016041 0.114823 -0.057737 12.517531 9.618141 -71.610151 11.889924 1.066360 -39.592997 28.223662 -24.958826 53.942358 -25.144228 -46.031127 2.136823 0.000000 0.000000 0.000000 -5.126507 1.838641 -40.840846 22.434918 -54.951342 134.644203 -7.543496 -22.114680 -80.725347 0.000000 0.000000 0.000000 32.873249 20.474568 -25.729592 -9.190193 35.528251 119.054115 38.648964 -18.873089 -41.698245 20.001666 -6.426392 22.234198 0.000000 0.000000 0.000000 -34.829455 -14.507188 18.424638 -42.265474 -28.219899 3.092298 16.719666 -55.231631 -3.694943 0.000000 0.000000 0.000000 31.954290 15.843499 -7.539963 40.556661 -1.336978 1.284025 -31.415425 71.407275 -28.046449 0.000000 0.000000 0.000000
0.016666 0.114669 -0.057861 11.223619 7.960001 -72.434936 12.154933 1.404500 -38.804205 26.819760 -23.535095 53.711671 -28.057570 -45.981419 6.100067 0.000000 0.000000 0.000000 -7.056156 0.939600 -39.389644 28.450102 -56.059265 125.787477 -7.278321 -22.420682 -81.315575 0.000000 0.000000 0.000000 26.449590 17.295631 -28.084166 -9.398209 33.650125 115.156251 33.463818 -12.762159 -44.139407 16.110466 -6.767567 24.710301 0.000000 0.000000 0.000000 -39.462589 -15.194343 16.743155 -41.786468 -23.318670 2.017018 9.315072 -50.410195 -1.212721 0.000000 0.000000 0.000000 29.129565 11.602864 -4.967343 43.570784 0.434043 0.637986 -23.229673 65.930970 -18.983879 0.000000 0.000000 0.000000
0.017290 0.115461 -0.057028 10.826661 6.454374 -73.779417 14.749269 2.915617 -40.429763 20.541387 -21.817927 60.876484 -26.571202 -42.259594 6.615580 0.000000 0.000000 0.000000 -6.313416 1.447542 -38.378341 30.909846 -56.630854 122.689874 -6.068520 -25.326541 -81.274299 0.000000 0.000000 0.000000 22.952347 16.882999 -33.870912 -11.523564 32.417759 108.308426 26.628074 -9.316014 -38.961145 9.756643 -6.903704 23.324924 0.000000 0.000000 0.000000 -38.460255 -14.841236 12.059345 -46.566283 -16.327929 0.555137 3.018051 -48.804789 0.998530 0.000000 0.000000 0.000000 24.910942 7.183699 -3.345002 48.253689 -0.199807 -1.619405 -14.615340 64.800362 -11.833898 0.000000 0.000000 0.000000
0.018409 0.117606 -0.056604 9.837155 6.236787 -75.767893 13.565415 2.388952 -40.759267 18.405818 -21.830574 64.710373 -28.664473 -39.545973 12.283703 0.000000 0.000000 0.000000 -7.364517 0.783571 -36.066123 32.101918 -55.445540 119.808780 -5.341424 -27.273446 -81.687985 0.000000 0.000000 0.000000 19.204770 14.147234 -32.874675 -12.467958 31.207392 101.437173 24.481975 -7.213381 -41.836385 10.041814 -9.085844 24.171514 0.000000 0.000000 0.000000 -39.369124 -13.386183 9.262827 -47.864876 -9.231840 -1.351580 -0.720806 -45.460666 2.148838 0.000000 0.000000 0.000000 22.785585 4.046953 -2.158208 50.404780 -3.579962 -3.859178 -6.463264 65.028213 -5.006918 0.000000 0.000000 0.000000
0.019891 0.122343 -0.057502 10.019073 5.982567 -78.263322 11.259432 1.419952 -39.515289 16.507506 -20.685835 67.551620 -26.267034 -34.119639 13.964274 0.000000 0.000000 0.000000 -6.356894 1.105961 -33.878653 22.057203 -42.155876 127.249108 -7.584976 -21.326705 -79.445976 0.000000 0.000000 0.000000 16.897627 12.727119 -32.966109 -15.140344 28.500730 89.263129 20.691225 -6.714507 -33.067094 5.811457 -6.080486 22.712348 0.000000 0.000000 0.000000 -39.280776 -9.747979 5.630184 -48.214948 -6.378316 -2.636774 0.090195 -45.322710 2.024452 0.000000 0.000000 0.000000 20.270675 2.672686 -1.632009 51.944665 -5.167170 -5.581897 -6.322292 68.587325 -3.695146 0.000000 0.000000 0.000000
0.021513 0.128571 -0.059255 8.188122 4.921504 -78.915971 10.283940 0.982586 -39.671188 16.576178 -21.704164 69.337706 -25.996958 -34.754168 13.119014 0.000000 0.000000 0.000000 -5.185504 1.577724 -31.964134 16.520472 -31.637461 129.083001 -9.295731 -16.842316 -79.750136 0.000000 0.000000 0.000000 14.527275 11.581780 -34.545954 -14.219777 24.460423 86.287944 18.009607 -5.828735 -33.279974 6.249275 -6.991607 21.566608 0.000000 0.000000 0.000000 -38.429503 -7.836610 3.432522 -48.769707 -1.952495 -4.037829 1.139586 -45.305489 1.631459 0.000000 0.000000 0.000000 17.191244 -0.549650 -1.924135 51.957003 -7.666072 -6.974979 1.653595 69.484629 2.876099 0.000000 0.000000 0.000000
0.023201 0.132583 -0.061097 8.256781 3.902455 -79.409746 9.809182 0.948680 -40.214223 15.406182 -21.549296 72.699018 -25.862835 -33.045883 14.882988 0.000000 0.000000 0.000000 -3.367893 2.582803 -32.115589 12.611691 -22.618064 130.786163 -10.086641 -13.885883 -78.312187 0.000000 0.000000 0.000000 15.502669 12.408222 -34.351470 -14.899462 24.037074 81.625580 17.660444 -7.460674 -29.876150 6.197758 -6.711727 20.252195 0.000000 0.000000 0.000000 -36.257180 -4.919668 1.574744 -49.798895 -0.628686 -4.862876 4.671186 -47.542327 0.483105 0.000000 0.000000 0.000000 14.999936 -2.230905 -2.297915 51.612977 -9.756358 -8.116561 6.484154 74.192987 7.039732 0.000000 0.000000 0.000000
0.024793 0.135754 -0.062921 7.635801 2.838733 -80.316320 9.843966 1.122047 -40.876629 13.884223 -21.494538 76.474489 -24.621600 -28.989963 17.452951 0.000000 0.000000 0.000000 -2.100683 3.289225 -32.095184 11.057964 -18.120079 129.633750 -10.213687 -13.129830 -76.956349 0.000000 0.000000 0.000000 15.634795 12.986238 -35.318142 -14.371560 22.039974 79.446303 16.455126 -8.442934 -27.315247 5.051841 -5.008513 16.272325 0.000000 0.000000 0.000000 -33.788643 -1.289928 -0.854303 -51.027395 0.701587 -5.662338 6.036659 -50.826674 0.168579 0.000000 0.000000 0.000000 13.475757 -4.375550 -2.986898 49.675436 -10.213371 -8.181160 9.393263 77.387602 10.021728 0.000000 0.000000 0.000000
0.025959 0.139539 -0.064455 7.512045 1.878639 -81.195117 9.905099 1.382797 -40.501158 12.919431 -21.431671 79.155731 -22.765669 -27.329315 16.407758 0.000000 0.000000 0.000000 -1.031666 3.879952 -31.789227 10.444481 -15.895494 128.423576 -9.944769 -13.397211 -74.842114 0.000000 0.000000 0.000000 15.507926 13.328614 -35.887973 -14.357846 20.886520 76.264181 15.452064 -8.521128 -24.468634 4.681410 -4.651950 14.715466 0.000000 0.000000 0.000000 -31.290860 -0.081880 -1.676596 -51.778925 1.845588 -6.333183 8.414394 -56.032674 -0.879126 0.000000 0.000000 0.000000 12.252097 -5.437743 -3.179283 48.536782 -9.948721 -8.072741 5.010311 80.576095 7.465507 0.000000 0.000000 0.000000
0.026788 0.141753 -0.065216 7.175805 0.903303 -81.566102 9.578532 1.363670 -41.209281 12.244529 -21.540169 82.168755 -21.821986 -26.403549 16.123302 0.000000 0.000000 0.000000 -0.886062 4.067890 -31.869583 10.417565 -14.979565 127.391787 -9.882793 -12.871730 -72.939501 0.000000 0.000000 0.000000 15.017696 13.469075 -36.998754 -13.393221 19.084671 74.814325 14.121384 -9.068846 -22.850863 3.917487 -3.731213 12.544102 0.000000 0.000000 0.000000 -29.635371 2.575870 -3.239560 -52.794986 3.279968 -7.134262 8.849704 -61.807151 -0.873469 0.000000 0.000000 0.000000 11.924310 -5.672814 -3.152575 47.639223 -9.636323 -7.919560 -8.973304 83.749220 -4.223368 0.000000 0.000000 0.000000
0.027168 0.143316 -0.065794 6.899477 0.325086 -82.399521 10.074080 1.735734 -40.759131 10.502753 -20.306166 83.829043 -19.857184 -24.651759 14.672986 0.000000 0.000000 0.000000 -0.669841 4.124923 -31.210482 10.911861 -15.165698 125.540227 -9.447121 -14.112259 -71.493028 0.000000 0.000000 0.000000 14.266970 13.259981 -37.491392 -13.444546 18.808305 73.417393 14.330144 -8.565651 -21.065439 3.387077 -3.234068 11.211201 0.000000 0.000000 0.000000 -28.241417 3.096424 -3.444721 -53.417964 3.440130 -7.468967 12.408352 -66.532678 -3.070931 0.000000 0.000000 0.000000 11.981171 -5.835409 -3.260011 47.000003 -8.934893 -7.686323 -43.047256 85.096702 -35.432719 0.000000 0.000000 0.000000
0.027271 0.144919 -0.066253 6.265892 -0.485494 -82.642675 11.188292 2.409256 -41.391052 9.662073 -20.218548 85.409004 -20.007146 -25.068199 14.555027 0.000000 0.000000 0.000000 -1.092257 4.000504 -31.288507 11.412895 -15.806486 125.151938 -9.054745 -15.173762 -69.954160 0.000000 0.000000 0.000000 12.942530 12.793376 -38.457208 -11.632499 16.716948 76.037667 12.785676 -8.183094 -22.983658 4.552055 -4.259422 10.456596 0.000000 0.000000 0.000000 -26.602216 3.669144 -3.814237 -53.213805 4.166366 -7.562905 12.416991 -72.114679 -3.532300 0.000000 0.000000 0.000000 12.308385 -5.705742 -3.238798 47.011403 -8.505099 -7.420689 -67.652161 83.808689 -57.450396 0.000000 0.000000 0.000000
0.026991 0.148532 -0.066881 5.954022 -1.031954 -82.395647 12.201789 3.008389 -42.070521 7.930135 -18.843589 87.011312 -18.417770 -23.658131 13.329544 0.000000 0.000000 0.000000 -1.570052 3.874735 -31.732248 12.264056 -16.734915 123.923238 -8.936486 -15.092749 -68.312194 0.000000 0.000000 0.000000 11.675810 12.207409 -39.300347 -10.823380 16.469643 78.605382 13.108131 -7.097328 -24.774053 4.840550 -4.600710 10.368983 0.000000 0.000000 0.000000 -26.212630 3.880867 -4.026283 -51.570076 3.822098 -7.113984 18.989237 -75.849875 -9.013494 0.000000 0.000000 0.000000 12.725888 -5.581568 -3.233267 46.616054 -7.914930 -7.068884 -83.473754 83.081639 -71.917411 0.000000 0.000000 0.000000
0.026581 0.153449 -0.067487 5.307410 -2.220192 -82.139624 13.088809 3.630511 -42.462965 8.171232 -18.867681 86.907764 -18.414071 -23.974789 12.896657 0.000000 0.000000 0.000000 -1.572506 3.813751 -31.009785 13.656085 -17.511717 120.751250 -8.619855 -16.056144 -67.227738 0.000000 0.000000 0.000000 10.658860 11.528892 -39.115673 -9.197544 13.849542 76.084667 10.582622 -7.488213 -23.272212 6.159355 -6.046158 11.812549 0.000000 0.000000 0.000000 -25.187170 3.366425 -3.573152 -49.001864 5.415603 -7.333139 23.965466 -81.117579 -14.040491 0.000000 0.000000 0.000000 13.164272 -5.897435 -3.492752 46.071823 -8.825781 -7.258366 -89.237071 83.426726 -77.570612 0.000000 0.000000 0.000000
0.026153 0.160981 -0.067774 4.654549 -2.982522 -81.707089 13.521078 3.920916 -42.264224 7.945062 -18.599300 87.282260 -17.924894 -23.844301 12.106178 0.000000 0.000000 0.000000 -1.602070 3.814569 -30.986180 14.121894 -17.033996 118.247133 -8.603458 -15.849135 -65.984735 0.000000 0.000000 0.000000 9.656375 10.849135 -39.080402 -8.087219 12.627052 76.712564 9.712636 -7.189778 -25.071862 6.680138 -6.625778 12.932437 0.000000 0.000000 0.000000 -23.303226 4.323935 -4.039368 -47.127501 6.325610 -7.130467 22.060189 -84.846891 -13.361289 0.000000 0.000000 0.000000 13.399102 -5.960681 -3.561891 44.956181 -9.888934 -7.255686 -99.397021 84.217358 -88.502290 0.000000 0.000000 0.000000
0.025938 0.164001 -0.067586 4.319755 -3.948801 -81.439721 13.002832 3.786698 -42.612527 8.881214 -19.339792 88.444538 -16.099195 -23.163170 9.376295 0.000000 0.000000 0.000000 -1.227104 3.990092 -30.821981 13.958881 -14.971846 115.839619 -8.399944 -16.319784 -64.659012 0.000000 0.000000 0.000000 9.346465 10.452621 -38.391026 -7.185004 10.779412 71.190343 7.081712 -7.631842 -21.429677 7.338399 -8.086362 17.125690 0.000000 0.000000 0.000000 -22.197644 4.605678 -4.044716 -44.587046 7.566838 -7.216364 37.429272 -87.047970 -28.277284 0.000000 0.000000 0.000000 13.700719 -6.931244 -4.073919 43.782290 -11.604668 -7.680031 -133.237830 85.270477 -123.884376 0.000000 0.000000 0.000000
0.026191 0.166509 -0.067347 3.789822 -4.596057 -80.942910 12.106390 3.332143 -43.182171 9.767007 -20.265547 90.143542 -15.499303 -23.392542 8.150118 0.000000 0.000000 0.000000 -2.129531 3.653300 -31.273947 14.019167 -12.817505 111.901689 -8.225188 -16.887730 -62.794916 0.000000 0.000000 0.000000 8.497446 9.800865 -38.607375 -6.587792 9.632744 67.922062 5.960570 -7.360775 -18.787670 7.043896 -8.093070 18.210010 0.000000 0.000000 0.000000 -19.596789 5.484007 -4.139567 -44.610169 7.530415 -7.339671 58.662014 -88.627002 -49.620182 0.000000 0.000000 0.000000 14.194796 -7.070294 -4.371628 41.526513 -12.267542 -7.504420 -157.405049 83.250212 -148.570427 0.000000 0.000000 0.000000
0.026743 0.168420 -0.067064 3.137289 -5.661106 -80.452977 11.752344 3.273364 -44.469562 11.067616 -22.244270 92.880030 -14.941387 -22.652271 8.259643 0.000000 0.000000 0.000000 -2.319917 3.663544 -31.674836 14.572991 -11.865059 107.864379 -8.045057 -17.881983 -60.683054 0.000000 0.000000 0.000000 8.472127 9.562763 -37.740336 -5.582814 8.058680 64.117084 3.954981 -7.691396 -16.957313 7.268930 -9.142815 22.556096 0.000000 0.000000 0.000000 -17.803696 6.331829 -4.339508 -45.413669 8.051154 -7.598622 -96.375275 -89.621366 104.109321 0.000000 0.000000 0.000000 13.686193 -8.385871 -5.020809 40.275492 -13.029448 -7.439332 -172.169113 81.528613 -164.779768 0.000000 0.000000 0.000000
0.027198 0.169309 -0.066932 2.742322 -6.518540 -80.235419 11.366519 3.189352 -45.415614 12.366955 -24.056056 94.736270 -14.551113 -22.170820 8.337436 0.000000 0.000000 0.000000 -2.848001 3.565958 -32.274094 14.312520 -9.535498 103.196330 -7.987638 -18.620857 -57.966951 0.000000 0.000000 0.000000 8.123490 9.217114 -37.140806 -4.938331 7.259519 61.085927 3.452875 -7.923935 -14.872773 6.653611 -8.452746 23.241535 0.000000 0.000000 0.000000 -17.385639 6.494717 -4.205937 -45.323287 6.605309 -7.210905 101.801836 -89.836312 -93.062238 0.000000 0.000000 0.000000 13.747291 -7.533606 -4.859245 38.783081 -12.602956 -7.004536 -168.495005 77.987443 -159.639609 0.000000 0.000000 0.000000
0.027493 0.170815 -0.066797 2.055298 -7.438131 -79.705320 10.548021 2.817916 -45.921738 14.642607 -26.857242 96.081556 -14.021733 -23.560258 5.885230 0.000000 0.000000 0.000000 -2.656201 3.779599 -32.943104 15.110041 -9.704094 99.906749 -7.845551 -20.972477 -54.324013 0.000000 0.000000 0.000000 7.381629 8.775640 -37.472009 -3.688832 5.624563 59.225345 1.971467 -7.897405 -12.911862 6.929831 -9.340229 26.000932 0.000000 0.000000 0.000000 -16.946572 6.788350 -4.201463 -46.006887 5.147776 -6.946109 112.599007 -89.076428 -102.792555 0.000000 0.000000 0.000000 14.221101 -8.787923 -5.728966 37.530273 -12.898308 -6.856087 -173.828625 74.530852 -165.718046 0.000000 0.000000 0.000000
0.027320 0.175667 -0.066586 2.147598 -8.255523 -79.628446 10.615721 3.086111 -46.239171 15.224655 -27.946111 97.899163 -13.534391 -23.394385 5.243686 0.000000 0.000000 0.000000 -2.401708 3.974376 -32.985723 15.871722 -9.675877 97.683946 -7.753624 -23.614912 -52.085914 0.000000 0.000000 0.000000 6.836455 8.718312 -37.961732 -2.686081 5.071286 61.685926 1.868038 -7.760397 -15.980490 6.907413 -9.469260 27.383413 0.000000 0.000000 0.000000 -17.043510 7.000432 -4.370817 -46.938143 4.364578 -6.545528 147.134348 -88.728504 -137.463772 0.000000 0.000000 0.000000 14.676503 -9.468485 -6.092595 35.970480 -13.765002 -6.607279 -174.767905 69.728350 -165.812822 0.000000 0.000000 0.000000
0.026738 0.179961 -0.065969 1.710655 -8.598232 -79.146811 10.214498 2.893500 -47.110041 14.760694 -28.984834 101.798733 -11.529495 -23.371430 1.300931 0.000000 0.000000 0.000000 -2.312286 4.080736 -33.400917 16.123773 -9.890598 97.006184 -7.814214 -24.077987 -50.758772 0.000000 0.000000 0.000000 5.498169 8.154747 -39.260297 -1.404222 3.791068 67.022042 1.355501 -7.614188 -20.585291 6.787188 -9.773890 29.532906 0.000000 0.000000 0.000000 -16.869806 7.098780 -4.446921 -47.224268 2.629844 -5.646228 134.423971 -88.062705 -124.162415 0.000000 0.000000 0.000000 15.360498 -10.389631 -6.504619 35.116879 -14.244549 -6.402994 -175.801562 67.739716 -166.667019 0.000000 0.000000 0.000000
0.026014 0.183065 -0.064854 1.714940 -9.050238 -78.821842 10.528214 3.256757 -48.444538 13.087630 -28.932758 106.878588 -9.743302 -22.144884 -0.998297 0.000000 0.000000 0.000000 -2.825412 4.058373 -34.328076 18.298330 -12.310090 96.490677 -7.751066 -25.831799 -49.475659 0.000000 0.000000 0.000000 5.064131 8.137033 -39.980622 -0.712250 3.301040 70.275795 1.260281 -7.663516 -23.639919 6.847918 -9.996585 30.475845 0.000000 0.000000 0.000000 -17.681648 7.268609 -4.691376 -47.314221 2.410858 -5.355323 153.773029 -87.169508 -143.833027 0.000000 0.000000 0.000000 15.329664 -11.475955 -6.932361 34.843888 -15.412318 -6.533286 -176.605032 66.426622 -167.689028 0.000000 0.000000 0.000000
0.025901 0.190361 -0.063147 1.522617 -9.006089 -77.665200 10.441205 3.253714 -50.410363 11.902220 -30.201597 112.697725 -8.148209 -21.759950 -3.801781 0.000000 0.000000 0.000000 -4.010204 3.701289 -35.523417 20.574082 -17.525824 103.705994 -7.381459 -25.369400 -49.142821 0.000000 0.000000 0.000000 4.049217 7.695256 -41.212431 -0.165204 2.838841 77.917874 2.424574 -7.236836 -30.161788 7.502383 -11.447609 32.890340 0.000000 0.000000 0.000000 -19.457305 6.708860 -4.647342 -47.589285 0.596742 -4.360748 119.578197 -86.050769 -108.132336 0.000000 0.000000 0.000000 15.589932 -12.056474 -7.095388 35.441188 -15.142717 -6.409506 -174.953542 66.698101 -165.574895 0.000000 0.000000 0.000000
0.026482 0.200485 -0.060869 1.814510 -9.602297 -76.197541 10.971556 4.025875 -53.362751 10.643834 -31.298270 118.558583 -9.495315 -21.938546 -0.179865 0.000000 0.000000 0.000000 -5.567142 3.176414 -35.992582 22.979179 -25.261322 113.690786 -6.588836 -25.435005 -50.809304 0.000000 0.000000 0.000000 4.711374 8.538171 -41.895131 0.720151 1.983430 83.446779 2.369218 -8.263114 -35.078685 8.616319 -12.487223 32.780457 0.000000 0.000000 0.000000 -21.904505 5.439450 -4.382115 -45.730509 -0.281752 -3.533122 91.399290 -83.884773 -78.188668 0.000000 0.000000 0.000000 16.427456 -12.531465 -7.472372 35.773244 -14.578626 -6.107565 -172.165258 66.875696 -161.940012 0.000000 0.000000 0.000000
0.027940 0.210787 -0.057618 2.096086 -9.954812 -74.986700 12.242114 5.095705 -53.547084 8.109789 -29.305067 123.289035 -6.714974 -18.604604 -3.349399 0.000000 0.000000 0.000000 -7.070135 2.514425 -35.602121 22.098910 -30.175524 124.233094 -6.072871 -23.071877 -51.738215 0.000000 0.000000 0.000000 4.855852 9.021837 -42.737080 1.354294 1.233833 87.684450 2.438246 -8.433502 -38.965993 8.630327 -14.404101 38.561985 0.000000 0.000000 0.000000 -25.590484 4.185835 -4.209939 -42.045608 -0.962956 -2.838467 81.101633 -81.842484 -66.548332 0.000000 0.000000 0.000000 17.993635 -13.009844 -7.924745 35.046180 -14.734918 -5.892328 -171.233107 69.332758 -161.275885 0.000000 0.000000 0.000000
0.029550 0.224744 -0.053595 2.607857 -9.990685 -73.182934 13.420946 6.069718 -53.379512 6.263181 -27.976120 127.276979 -6.814299 -18.696875 -2.998134 0.000000 0.000000 0.000000 -8.763363 1.833798 -35.461214 19.459459 -30.789996 132.558791 -5.673505 -21.997942 -53.179727 0.000000 0.000000 0.000000 5.730382 10.135758 -43.876341 1.338042 1.555221 93.938936 3.984529 -9.241276 -44.281768 9.934193 -15.048023 37.386377 0.000000 0.000000 0.000000 -29.081118 3.155805 -4.197025 -38.984218 -1.819551 -2.112684 46.744813 -76.869152 -32.785663 0.000000 0.000000 0.000000 18.264576 -12.967893 -8.075113 34.548275 -13.555733 -5.245902 -159.653277 78.637072 -151.248640 0.000000 0.000000 0.000000
0.030650 0.239221 -0.049545 2.942634 -9.416701 -70.344845 16.310000 7.763005 -52.077944 2.221044 -21.034340 131.549045 -2.481104 -13.463559 -9.999170 0.000000 0.000000 0.000000 -10.619935 1.082137 -35.940666 16.663016 -28.196368 138.239990 -5.553300 -21.296242 -50.675224 0.000000 0.000000 0.000000 5.098219 9.745829 -44.808684 1.193358 2.581689 100.944985 6.061242 -7.903214 -49.660469 8.691445 -12.448975 35.468639 0.000000 0.000000 0.000000 -30.934474 1.671982 -3.850082 -36.683328 -3.037543 -1.258354 25.246475 -67.785253 -13.719714 0.000000 0.000000 0.000000 19.334743 -12.875710 -8.430877 34.865283 -12.993418 -4.870531 -107.224040 85.351305 -99.984109 0.000000 0.000000 0.000000
0.031289 0.260819 -0.046290 2.143475 -9.152222 -66.656876 20.026752 9.468971 -48.551539 -0.360219 -16.161712 132.956291 -0.173062 -12.373401 -16.950393 0.000000 0.000000 0.000000 -12.001210 0.676546 -37.785205 17.118990 -28.067447 135.954681 -5.981081 -32.298439 -42.143369 0.000000 0.000000 0.000000 5.204344 10.192368 -46.623976 0.994660 2.419140 105.689309 6.965611 -7.462859 -52.031134 8.029127 -10.030818 33.356408 0.000000 0.000000 0.000000 -32.555395 0.933094 -4.016063 -34.278309 -4.369509 -0.507800 4.625560 -53.441239 -0.308507 0.000000 0.000000 0.000000 23.014334 -11.989051 -9.420425 31.496928 -12.842757 -3.981290 -30.311475 82.190862 -24.462394 0.000000 0.000000 0.000000
0.031706 0.290220 -0.043941 2.290586 -9.717130 -62.744073 24.222267 10.337305 -39.176117 -1.864738 -10.206501 130.246351 5.643993 -6.698421 -34.655377 0.000000 0.000000 0.000000 -10.644554 1.292728 -36.983233 17.786237 -26.130541 132.518295 -8.270543 -48.014122 -34.872477 0.000000 0.000000 0.000000 7.582045 11.996814 -46.230786 0.859398 4.508134 109.728461 10.421201 -8.020410 -56.300057 12.462267 -9.486508 26.230262 0.000000 0.000000 0.000000 -35.646656 -3.324301 -1.280646 -29.737214 -2.455882 -0.679770 1.122476 -40.361681 1.036629 0.000000 0.000000 0.000000 21.177733 -11.541870 -9.234484 34.260871 -13.814288 -4.289979 -13.786941 70.750132 -9.266177 0.000000 0.000000 0.000000
0.032225 0.332710 -0.042449 2.071809 -10.125068 -56.529886 28.983337 10.494081 -29.303411 -3.964584 -3.127466 126.175091 8.867242 -3.643118 -47.564006 0.000000 0.000000 0.000000 -13.104954 0.571830 -37.520487 20.627410 -27.080576 125.510780 -18.674611 -65.412249 -19.992913 0.000000 0.000000 0.000000 10.918651 13.707886 -42.721880 1.601841 6.421417 120.220756 14.482282 -9.234945 -65.681490 25.563000 -4.539952 21.406348 0.000000 0.000000 0.000000 -39.943222 -5.394772 -0.180387 -24.128529 -4.638510 0.453888 -0.482644 -36.053947 1.477333 0.000000 0.000000 0.000000 28.547905 -9.727431 -11.443647 30.014180 -14.146493 -2.809199 -6.304208 63.097115 -3.556653 0.000000 0.000000 0.000000
0.032925 0.377409 -0.041563 2.390301 -12.415922 -51.616288 28.701705 8.725040 -21.335674 -4.765063 3.588459 119.997784 11.327688 6.608349 -57.069079 0.000000 0.000000 0.000000 -11.479077 1.457157 -36.188765 23.673014 -25.802959 117.963417 -10.804251 -64.923531 -34.869272 0.000000 0.000000 0.000000 20.464032 16.170376 -30.310291 3.408087 11.293729 128.997256 25.473140 -11.325218 -81.083764 31.800039 6.612291 14.002145 0.000000 0.000000 0.000000 -40.186361 -4.322025 1.827475 -24.743485 -5.818082 0.899380 2.736715 -27.720298 0.539497 0.000000 0.000000 0.000000 29.897291 -9.448029 -12.835859 34.415357 -13.813752 -2.364827 -8.763795 50.983788 -5.198440 0.000000 0.000000 0.000000
0.033444 0.480861 -0.041670 2.013808 -13.952279 -43.338798 27.049725 5.402876 -7.893680 -6.157603 9.473985 101.640897 12.386632 10.300519 -64.922959 0.000000 0.000000 0.000000 -10.227369 1.485814 -29.959377 26.281524 -19.103177 101.029506 -2.910016 -57.216380 -53.489780 0.000000 0.000000 0.000000 27.885982 11.672210 -11.852325 9.849888 25.425653 138.356148 43.257645 -5.269509 -102.610198 35.817178 16.825596 4.458436 0.000000 0.000000 0.000000 -40.532762 -5.729579 7.521931 -27.782694 -4.931107 1.086379 10.624319 -21.769250 -1.045245 0.000000 0.000000 0.000000 27.634204 -8.695689 -10.388209 40.455443 -12.683060 -2.211898 -12.698153 45.189834 -8.410090 0.000000 0.000000 0.000000
0.034154 0.550399 -0.041942 1.903770 -15.603914 -37.265891 22.718448 3.630421 -4.133473 -5.840206 10.801427 89.567099 11.657528 13.499821 -61.039491 0.000000 0.000000 0.000000 -10.180671 1.327682 -25.985631 27.874683 -14.696751 86.855194 -1.186228 -49.288386 -63.214016 0.000000 0.000000 0.000000 26.270855 4.714837 2.587847 13.156406 27.251960 148.244113 43.741232 2.621383 -122.744847 24.818626 20.462861 -8.662701 0.000000 0.000000 0.000000 -35.600707 -4.311871 6.601979 -36.592198 -5.486726 4.375942 11.330499 -15.542364 -0.987711 0.000000 0.000000 0.000000 22.930520 -10.991706 -6.547812 48.438422 -6.876820 -0.495650 -10.940444 37.844495 -8.459034 0.000000 0.000000 0.000000
0.034534 0.651169 -0.041663 1.854684 -20.014591 -30.148778 20.401749 2.707357 0.491302 -8.326062 13.071851 68.161890 9.806563 13.393235 -52.928641 0.000000 0.000000 0.000000 -4.560992 1.734610 -18.514431 19.887887 -2.615986 65.786160 -4.489409 -40.573872 -65.071362 0.000000 0.000000 0.000000 27.821873 -0.267740 16.278029 35.747713 56.035530 169.571359 71.324399 17.236039 -121.404772 18.227546 25.287223 -17.420918 0.000000 0.000000 0.000000 -36.010069 5.961132 31.787817 -35.669128 -27.625191 2.021122 18.912284 -13.352733 -0.903540 0.000000 0.000000 0.000000 18.522387 -13.111287 -2.401433 55.719090 2.832743 -2.568004 -8.168873 36.701828 -11.055026 0.000000 0.000000 0.000000
0.033555 0.727827 -0.037602 1.250217 -17.297954 -26.684282 13.002393 1.250920 0.892093 -4.577734 6.107254 52.141646 7.004761 12.642710 -28.862685 0.000000 0.000000 0.000000 -3.241309 1.016481 -11.435564 11.025723 0.806030 48.037151 -8.943205 -39.860806 -52.699850 0.000000 0.000000 0.000000 18.464560 -1.631833 18.170957 51.699165 61.596976 176.381458 73.935068 20.666107 -116.797866 4.994489 16.961750 -27.307055 0.000000 0.000000 0.000000 -35.501128 5.851140 43.234726 -37.618379 -40.109840 2.102217 18.033623 -10.059402 -0.559281 0.000000 0.000000 0.000000 8.192810 -17.779664 6.846270 62.612739 15.290671 -3.962311 -6.104685 35.466377 -11.473912 0.000000 0.000000 0.000000
