HIERARCHY
ROOT Hips
{
	OFFSET -0.001795 -0.223333 0.028219
	CHANNELS 6 Xposition Yposition Zposition Zrotation Yrotation Xrotation
	JOINT LeftUpLeg
	{
		OFFSET 0.069520 -0.091406 -0.006815
		CHANNELS 3 Zrotation Yrotation Xrotation
		JOINT LeftLeg
		{
			OFFSET 0.034277 -0.375199 -0.004496
			CHANNELS 3 Zrotation Yrotation Xrotation
			JOINT LeftFoot
			{
				OFFSET -0.013596 -0.397961 -0.043693
				CHANNELS 3 Zrotation Yrotation Xrotation
				JOINT LeftToe
				{
					OFFSET 0.026358 -0.055791 0.119288
					CHANNELS 3 Zrotation Yrotation Xrotation
					End Site
					{
						OFFSET 0.000000 0.000000 0.000000
					}
				}
			}
		}
	}
	JOINT RightUpLeg
	{
		OFFSET -0.067670 -0.090522 -0.004320
		CHANNELS 3 Zrotation Yrotation Xrotation
		JOINT RightLeg
		{
			OFFSET -0.038290 -0.382569 -0.008850
			CHANNELS 3 Zrotation Yrotation Xrotation
			JOINT RightFoot
			{
				OFFSET 0.015774 -0.398415 -0.042312
				CHANNELS 3 Zrotation Yrotation Xrotation
				JOINT RightToe
				{
					OFFSET -0.025372 -0.048144 0.123348
					CHANNELS 3 Zrotation Yrotation Xrotation
					End Site
					{
						OFFSET 0.000000 0.000000 0.000000
					}
				}
			}
		}
	}
	JOINT Spine
	{
		OFFSET -0.002533 0.108963 -0.026696
		CHANNELS 3 Zrotation Yrotation Xrotation
		JOINT Spine1
		{
			OFFSET 0.005487 0.135180 0.001092
			CHANNELS 3 Zrotation Yrotation Xrotation
			JOINT Spine2
			{
				OFFSET 0.001457 0.052922 0.025425
				CHANNELS 3 Zrotation Yrotation Xrotation
				JOINT Neck
				{
					OFFSET -0.002778 0.213870 -0.042857
					CHANNELS 3 Zrotation Yrotation Xrotation
					JOINT Head
					{
						OFFSET 0.005152 0.064970 0.051349
						CHANNELS 3 Zrotation Yrotation Xrotation
						End Site
						{
							OFFSET 0.000000 0.000000 0.000000
						}
					}
				}
				JOINT LeftShoulder
				{
					OFFSET 0.078845 0.121749 -0.034090
					CHANNELS 3 Zrotation Yrotation Xrotation
					JOINT LeftArm
					{
						OFFSET 0.090977 0.030469 -0.008868
						CHANNELS 3 Zrotation Yrotation Xrotation
						JOINT LeftForeArm
						{
							OFFSET 0.259612 -0.012772 -0.027456
							CHANNELS 3 Zrotation Yrotation Xrotation
							JOINT LeftHand
							{
								OFFSET 0.249234 0.008986 -0.001171
								CHANNELS 3 Zrotation Yrotation Xrotation
								End Site
								{
									OFFSET 0.000000 0.000000 0.000000
								}
							}
						}
					}
				}
				JOINT RightShoulder
				{
					OFFSET -0.081759 0.118833 -0.038615
					CHANNELS 3 Zrotation Yrotation Xrotation
					JOINT RightArm
					{
						OFFSET -0.096012 0.032551 -0.009143
						CHANNELS 3 Zrotation Yrotation Xrotation
						JOINT RightForeArm
						{
							OFFSET -0.253742 -0.013329 -0.021401
							CHANNELS 3 Zrotation Yrotation Xrotation
							JOINT RightHand
							{
								OFFSET -0.255298 0.007772 -0.005559
								CHANNELS 3 Zrotation Yrotation Xrotation
								End Site
								{
									OFFSET 0.000000 0.000000 0.000000
								}
							}
						}
					}
				}
			}
		}
	}
}
MOTION
Frames: 68
Frame Time: 0.050000
0.000000 0.071111 0.000000 -10.419435 4.419113 79.305341 95.955225 18.240346 -11.731917 -51.365978 52.490898 65.006402 4.875490 0.109966 -20.157903 0.000000 0.000000 0.000000 -13.299680 8.345935 -43.713742 30.604627 -22.933458 82.287217 -4.344833 -2.873991 -50.712630 0.000000 0.000000 0.000000 -58.033728 40.683981 36.415249 20.764918 39.940893 -171.445264 -56.050740 7.645322 50.958619 -11.464612 15.731894 11.827019 0.000000 0.000000 0.000000 -24.685245 -18.490083 14.645475 8.404689 -28.793248 -3.794442 72.587024 -28.569015 -25.917184 0.000000 0.000000 0.000000 16.254372 -14.172321 -2.282790 38.139189 -15.070186 -15.246180 132.665546 46.294583 98.115728 0.000000 0.000000 0.000000
0.000089 0.065753 -0.001308 -10.846474 6.812020 84.764998 99.932489 18.451782 -7.138031 -67.080689 53.591913 47.407535 9.201826 10.849847 -29.715696 0.000000 0.000000 0.000000 -11.215322 11.185214 -43.310527 39.402712 -19.659295 68.903476 -0.196785 -8.468579 -50.827075 0.000000 0.000000 0.000000 -60.767301 36.967736 20.377008 1.446966 7.609056 -176.456516 -76.973600 3.953956 82.203862 -8.832034 13.858083 18.520680 0.000000 0.000000 0.000000 -24.645565 -13.178152 20.700968 20.145880 -35.172026 -6.093801 78.122681 -22.222503 -20.706724 0.000000 0.000000 0.000000 19.090410 -11.152115 -14.462031 32.643018 -27.248467 -12.575130 126.527398 39.979649 54.562267 0.000000 0.000000 0.000000
0.002097 0.066815 -0.002098 -10.020591 8.152874 79.894868 106.738908 -2.878700 0.573220 -96.300902 47.362006 13.496407 8.710903 3.350354 -38.026558 0.000000 0.000000 0.000000 -8.078112 2.994584 -34.177175 22.744418 -19.720724 77.867683 -15.177567 9.020289 -64.695449 0.000000 0.000000 0.000000 -53.375010 40.798096 46.160416 69.915618 61.544614 -128.287916 -45.682032 21.833333 21.704368 -9.844393 12.523224 10.906883 0.000000 0.000000 0.000000 -11.018975 -18.168364 2.717480 4.019313 -38.122093 -7.241629 76.007329 -32.198783 -34.107374 0.000000 0.000000 0.000000 16.199732 -12.487219 -3.466037 33.288388 -17.766585 -12.514896 137.599575 45.970001 122.239427 0.000000 0.000000 0.000000
0.004379 0.061968 -0.003328 -15.142668 7.936817 80.661346 105.358507 -19.584858 9.474874 -112.001292 32.602578 -8.957979 9.240093 11.225239 -36.393544 0.000000 0.000000 0.000000 5.725023 -2.051809 -29.290699 -3.763144 -0.638010 80.631209 -20.833083 3.312935 -84.550131 0.000000 0.000000 0.000000 -49.543369 42.968375 40.291901 51.530359 56.186839 -147.781262 -48.543664 24.862589 26.919104 -8.695485 9.160110 18.511055 0.000000 0.000000 0.000000 -17.582324 -20.591666 3.532943 12.243439 -40.002201 -13.904539 78.273889 -37.540073 -36.798575 0.000000 0.000000 0.000000 13.362021 -12.885228 -7.795265 32.329014 -20.586982 -11.593852 140.072445 42.070289 125.331044 0.000000 0.000000 0.000000
0.007593 0.060199 -0.004448 -22.220223 9.831388 79.021338 100.922689 -43.049268 25.951240 -127.091308 26.410753 -29.421526 11.337096 4.402457 -39.621768 0.000000 0.000000 0.000000 16.982889 -9.016397 -31.063950 -45.148320 12.850851 73.785342 -26.209939 8.922852 -93.145491 0.000000 0.000000 0.000000 -31.236295 55.814140 61.122752 52.851684 58.805057 -154.051381 -38.838187 30.834541 18.859319 -8.933352 8.498943 12.237540 0.000000 0.000000 0.000000 -15.368311 -16.279522 17.799154 23.437967 -41.890139 -15.843211 92.892799 -10.734578 -45.746137 0.000000 0.000000 0.000000 9.401157 -15.299454 4.650683 37.127312 -7.746770 -16.833649 146.817100 46.601211 153.303294 0.000000 0.000000 0.000000
0.010280 0.057798 -0.005541 -79.744868 -31.247603 39.438800 141.999599 -34.419120 47.756185 -31.038524 14.643050 80.552192 10.808598 -11.546627 -57.559505 0.000000 0.000000 0.000000 3.605742 -2.041713 17.888526 -71.983715 39.696037 33.894751 -29.110208 6.188610 -100.303278 0.000000 0.000000 0.000000 -26.265449 44.326952 82.368373 55.260144 54.705476 -130.098019 41.953571 38.454048 86.129585 -9.038013 -5.614002 28.391463 0.000000 0.000000 0.000000 -1.841353 -19.618140 -0.071640 4.306615 -36.261942 -1.259971 95.536616 -23.335351 -45.217853 0.000000 0.000000 0.000000 36.440396 -9.182724 11.573665 25.681125 -8.197945 -10.428677 164.241403 49.528655 171.850955 0.000000 0.000000 0.000000
0.012091 0.056173 -0.006689 -71.222358 -49.859351 13.738269 172.160283 6.414263 17.308059 38.330163 -50.419324 57.366378 32.084873 -52.804975 -86.236191 0.000000 0.000000 0.000000 -20.177893 19.545116 37.632045 -65.135829 31.141696 34.890843 -22.872557 4.047528 -101.261667 0.000000 0.000000 0.000000 -33.199562 52.326606 87.833342 48.439621 30.251226 -105.868675 49.668898 37.397428 70.009447 -20.008333 -1.816368 41.522890 0.000000 0.000000 0.000000 -19.960328 -24.681516 -4.412380 15.473159 -28.966803 -7.776951 106.865462 -42.458774 -51.255287 0.000000 0.000000 0.000000 44.667354 -5.623850 15.706650 16.036530 -5.523901 -3.900483 -173.124398 46.061613 -157.371204 0.000000 0.000000 0.000000
0.013323 0.052212 -0.009093 -25.408412 -47.952929 -45.181642 146.980100 32.770203 -2.682151 96.991213 -37.033008 -8.382891 56.435970 -48.083674 -126.199189 0.000000 0.000000 0.000000 -50.311751 50.212917 60.462602 -41.152012 18.173107 30.388143 -18.791688 1.109455 -100.545800 0.000000 0.000000 0.000000 -37.019421 62.419510 103.538490 20.205125 -0.030030 -58.041431 33.223014 49.824172 11.273861 -13.550644 -6.146159 36.116024 0.000000 0.000000 0.000000 -12.651659 -19.029679 -2.099100 7.720400 -24.111091 -3.761186 118.295863 -39.033992 -59.481502 0.000000 0.000000 0.000000 38.750290 -4.129979 12.813504 20.593812 -6.652053 -4.301278 -175.911167 37.521781 -142.411916 0.000000 0.000000 0.000000
0.014304 0.045716 -0.013848 -6.514840 -28.647508 -66.307179 115.193391 30.628730 -14.758251 108.638953 -37.083139 -11.407779 57.766415 -49.346341 -131.276814 0.000000 0.000000 0.000000 -94.222646 62.901532 43.916938 -15.417986 13.263385 35.812811 -19.211072 3.061343 -99.668781 0.000000 0.000000 0.000000 -19.063669 58.834380 135.071495 9.009130 -0.601745 -48.130116 19.122649 36.469721 5.465887 0.882952 -5.786613 16.139597 0.000000 0.000000 0.000000 -8.685237 -11.544694 0.657639 1.863873 -21.370759 -1.367495 126.383739 -35.681063 -68.752650 0.000000 0.000000 0.000000 31.933530 -1.650498 4.886166 25.344232 -4.856078 -5.125957 -178.707870 31.633811 -146.438329 0.000000 0.000000 0.000000
0.015405 0.040047 -0.020728 0.146401 -15.553739 -70.594516 91.767773 28.694658 -23.702998 117.035620 -47.843511 -7.352919 52.251193 -51.892385 -127.467537 0.000000 0.000000 0.000000 -137.592164 58.189226 12.937033 2.891604 6.677578 50.685048 -19.768260 4.015816 -101.072266 0.000000 0.000000 0.000000 -5.321433 37.503649 156.079119 0.633115 0.145340 -47.178870 5.508078 12.516333 -0.700683 5.170828 -7.195498 17.678057 0.000000 0.000000 0.000000 -10.629983 -9.182213 2.651892 -7.652622 -9.076671 -0.435350 139.674272 -35.179876 -75.937857 0.000000 0.000000 0.000000 30.133626 2.128249 -1.905562 24.568679 -8.430185 -3.707412 -177.102493 26.205588 -148.988612 0.000000 0.000000 0.000000
0.016709 0.032079 -0.028370 6.679686 -1.752566 -68.028872 62.456123 22.936856 -35.910087 115.948356 -64.437556 8.574272 66.332076 -73.086436 -130.293983 0.000000 0.000000 0.000000 -159.354045 17.195534 -6.990798 -12.119620 24.933797 77.946478 -22.482307 5.110452 -109.520513 0.000000 0.000000 0.000000 -1.863860 -3.117684 162.323888 -13.796975 2.099056 -45.348499 -12.547464 -28.149354 -1.203277 12.371601 -5.180616 28.251706 0.000000 0.000000 0.000000 -21.341956 -4.441167 8.537313 -9.048286 -1.369217 -1.974285 150.799200 -35.862298 -84.705755 0.000000 0.000000 0.000000 28.855825 6.003813 -12.550832 18.914599 -11.507079 -0.823781 -173.310323 25.454012 -136.888692 0.000000 0.000000 0.000000
0.018406 0.027262 -0.035554 12.009363 10.576989 -63.961777 42.598125 14.584506 -47.867351 58.902163 -73.831212 71.874785 36.004247 -76.456351 -88.848688 0.000000 0.000000 0.000000 -57.326256 -63.812422 -113.489756 -84.517360 -37.782188 -60.307518 7.835943 -47.793554 -108.431242 0.000000 0.000000 0.000000 3.062116 -51.398172 158.151932 -33.188576 7.339225 -37.926619 -63.681829 -61.733359 28.774634 35.777876 -11.673789 44.041118 0.000000 0.000000 0.000000 -35.185421 -1.347220 24.686141 -4.894757 7.277312 -1.480862 151.681124 -32.022224 -92.813150 0.000000 0.000000 0.000000 30.003959 8.376750 -25.412760 5.697471 -17.833614 0.569966 -174.291639 24.734686 -116.746242 0.000000 0.000000 0.000000
0.020588 0.025673 -0.042411 14.575252 15.784063 -62.226461 32.208394 8.640592 -55.934588 27.161242 -65.134138 104.971420 22.129369 -69.841804 -70.106899 0.000000 0.000000 0.000000 -18.340789 -26.418455 -132.077235 -4.187153 -7.030337 -137.772474 -1.413988 -40.237558 -71.458830 0.000000 0.000000 0.000000 137.290215 -67.684570 19.429676 -45.711483 23.789589 -4.568848 -134.415524 -44.990603 90.178568 63.859310 -27.211878 47.393119 0.000000 0.000000 0.000000 -44.103576 2.117547 44.427069 -0.681345 12.693144 -1.148971 146.366099 -28.472803 -104.058286 0.000000 0.000000 0.000000 27.184740 12.930773 -41.353144 -11.406217 -15.250150 2.218788 177.758613 29.229714 -132.027583 0.000000 0.000000 0.000000
0.022246 0.030477 -0.048238 16.176547 19.089478 -63.915642 28.744780 5.795553 -63.451443 12.792508 -49.668710 116.215453 9.419532 -74.102492 -51.780570 0.000000 0.000000 0.000000 -13.763079 -16.324137 -117.403366 8.608348 16.801791 -146.747462 -3.681177 -25.618063 -50.101488 0.000000 0.000000 0.000000 145.226493 -24.730390 -0.002753 -27.431667 30.361818 48.574449 -140.299613 -37.364026 116.573680 77.302278 -32.016726 39.634065 0.000000 0.000000 0.000000 -49.055945 1.353480 57.606531 2.985058 11.440658 -0.325999 135.039537 -24.864348 -103.979913 0.000000 0.000000 0.000000 25.190650 16.963135 -50.525243 -14.980306 -7.673661 1.434210 174.777462 31.527234 -138.124740 0.000000 0.000000 0.000000
0.021662 0.038771 -0.051942 16.433197 21.326996 -67.075122 26.270809 3.718479 -65.324548 5.262400 -35.002966 117.646961 -14.485101 -57.080706 -15.906391 0.000000 0.000000 0.000000 -12.496142 -12.313482 -95.772632 20.597366 44.805866 -152.187984 -8.215794 -0.464778 -47.755325 0.000000 0.000000 0.000000 128.807527 8.697790 -9.394270 -13.714710 24.200181 99.439439 -153.656964 -70.243848 155.928738 61.855966 -36.278909 44.888912 0.000000 0.000000 0.000000 -53.086535 -4.303132 58.707904 5.263620 7.630805 0.730269 125.219931 -27.022899 -99.930725 0.000000 0.000000 0.000000 19.731357 13.670252 -29.527500 3.272992 13.707598 1.341430 -171.333895 38.034735 -138.019182 0.000000 0.000000 0.000000
0.017849 0.048323 -0.052553 16.918578 23.807200 -68.758523 23.052105 0.875521 -67.965524 5.282468 -29.651396 114.584922 -30.887922 -50.832443 11.688410 0.000000 0.000000 0.000000 -12.342110 -11.305344 -83.358883 73.643132 75.392628 -108.016158 -17.789969 10.796693 -70.469165 0.000000 0.000000 0.000000 104.882226 22.404465 -19.586577 -12.162409 24.399370 115.330404 24.189874 -77.507930 -20.033277 46.407196 -31.719791 48.127953 0.000000 0.000000 0.000000 -45.634843 -10.238139 43.147122 0.166051 -2.395112 -1.210617 124.152216 -45.073703 -94.863070 0.000000 0.000000 0.000000 18.707383 17.855225 -16.549922 15.195091 15.938719 4.394815 -155.226808 35.170864 -117.287688 0.000000 0.000000 0.000000
0.012002 0.063244 -0.053174 15.687846 23.645433 -69.916147 23.987718 1.374572 -69.750708 1.506703 -20.363549 112.774603 -31.686932 -38.608755 23.317704 0.000000 0.000000 0.000000 -15.898801 -12.233813 -70.189825 164.385996 -85.260538 7.565190 15.269249 -40.751223 -124.734803 0.000000 0.000000 0.000000 83.884771 26.931316 -30.096843 -15.123491 32.462464 113.924981 20.409226 -49.821343 -15.137738 30.331912 -24.785489 45.362370 0.000000 0.000000 0.000000 -36.504698 -16.308843 29.508476 -13.300903 -9.793878 -3.899301 115.365462 -59.730074 -81.423555 0.000000 0.000000 0.000000 16.603676 16.060448 -7.653563 27.898108 19.414000 6.195962 -150.939178 33.570781 -121.170944 0.000000 0.000000 0.000000
0.005127 0.076767 -0.055651 13.073229 23.515642 -73.049763 23.159016 0.437313 -70.339132 -1.378518 -14.814549 111.354934 -26.181806 -27.201782 26.673570 0.000000 0.000000 0.000000 -17.209721 -11.609568 -60.670195 5.690233 -19.109348 163.378190 1.007971 -36.054120 -85.285709 0.000000 0.000000 0.000000 67.877917 24.774836 -33.409318 -24.818056 43.445341 99.673628 28.597611 -30.164002 -13.712590 15.087172 -12.348357 39.904083 0.000000 0.000000 0.000000 -29.313055 -15.989274 19.672148 -27.735164 -15.573534 -4.041262 103.026511 -68.061896 -68.488419 0.000000 0.000000 0.000000 19.284261 18.869690 -3.052834 30.435555 18.231219 5.852450 -141.425077 43.748473 -119.135331 0.000000 0.000000 0.000000
-0.002558 0.092497 -0.060680 10.854402 21.042036 -76.512354 19.658058 -0.678780 -66.513030 -0.659190 -16.399265 108.369907 -18.287088 -19.195525 22.025579 0.000000 0.000000 0.000000 -17.606928 -9.276667 -51.104829 2.714437 8.230260 148.349431 -7.935658 -19.688142 -77.475581 0.000000 0.000000 0.000000 55.133470 23.583750 -35.672844 -29.668647 41.358334 89.408821 28.750609 -19.067172 -11.625709 6.814901 -6.027214 30.127217 0.000000 0.000000 0.000000 -25.580374 -16.503959 15.027240 -36.396442 -18.503082 -2.287455 80.914067 -69.747557 -49.569234 0.000000 0.000000 0.000000 20.381470 18.171354 0.236440 34.524274 19.231953 4.868809 -116.220293 57.500229 -95.053723 0.000000 0.000000 0.000000
-0.010778 0.103048 -0.067483 7.911065 18.891670 -79.157267 17.012228 -1.868730 -64.380723 3.448801 -23.657663 108.233470 -17.632280 -21.777100 17.196226 0.000000 0.000000 0.000000 -18.397780 -8.975640 -47.329127 0.634969 13.099100 136.955154 -9.454135 -14.692626 -73.308652 0.000000 0.000000 0.000000 43.739445 22.546526 -41.819186 -27.335211 37.049838 91.022458 27.848738 -10.995930 -12.052277 2.938502 -3.539327 27.996753 0.000000 0.000000 0.000000 -27.388878 -14.263724 11.572712 -39.059481 -21.383729 -0.677934 69.909735 -71.813440 -44.260717 0.000000 0.000000 0.000000 21.505004 14.053880 0.667252 37.143920 21.631185 4.267137 -82.912591 66.172091 -65.310297 0.000000 0.000000 0.000000
-0.018409 0.113076 -0.074408 4.927071 16.867079 -81.302149 14.657291 -2.878397 -61.461916 5.985561 -30.056515 109.039295 -17.287057 -29.058996 8.149273 0.000000 0.000000 0.000000 -18.491929 -8.461656 -43.678487 -2.213669 15.022132 125.406251 -11.747579 -5.210187 -69.410099 0.000000 0.000000 0.000000 31.988425 19.005269 -47.365680 -25.945127 33.385562 89.734809 24.234672 -1.482865 -9.630041 2.199331 -5.794232 27.657271 0.000000 0.000000 0.000000 -27.376340 -15.618760 9.000455 -39.677392 -22.840413 0.908502 50.990296 -71.940263 -32.776307 0.000000 0.000000 0.000000 27.478361 9.838418 1.850975 31.396594 24.234846 2.587269 -47.202042 63.458840 -29.399394 0.000000 0.000000 0.000000
-0.024829 0.115409 -0.079619 3.429869 14.964533 -82.497274 14.739821 -1.749265 -57.060622 8.732913 -34.790023 107.784170 -14.880249 -34.214416 -1.438335 0.000000 0.000000 0.000000 -18.218313 -7.799879 -41.896427 -1.663445 11.809127 116.574131 -11.494142 -3.529341 -65.489198 0.000000 0.000000 0.000000 22.180504 13.912858 -47.860195 -22.307135 27.366310 89.376267 20.056032 4.434617 -12.819236 -0.975687 -3.141208 37.292900 0.000000 0.000000 0.000000 -28.887758 -14.433468 6.580366 -43.009981 -22.286921 1.817702 34.959628 -74.696794 -23.269726 0.000000 0.000000 0.000000 30.723975 7.546553 2.600056 31.312802 22.404780 1.564315 -39.789088 63.134025 -22.442002 0.000000 0.000000 0.000000
-0.030407 0.118499 -0.081799 -0.333713 11.703859 -84.974723 15.025717 -0.935034 -54.538598 11.097693 -39.580206 106.656088 -17.815017 -39.094323 -0.322487 0.000000 0.000000 0.000000 -17.486325 -6.983448 -39.714983 -0.787919 8.318762 111.404272 -11.498261 1.121959 -61.045521 0.000000 0.000000 0.000000 11.685108 7.500144 -47.324582 -16.927485 16.018413 84.277065 12.397266 8.724032 -13.526851 -0.465811 -5.091595 33.023228 0.000000 0.000000 0.000000 -24.767999 -13.490145 4.314192 -49.918777 -20.016547 2.034499 9.829742 -75.924015 -4.621777 0.000000 0.000000 0.000000 32.195728 6.138349 4.467835 29.540893 18.204120 -0.277510 -34.421506 68.203006 -18.778575 0.000000 0.000000 0.000000
-0.036001 0.116935 -0.081181 -2.812348 8.956360 -86.659457 17.703691 1.121514 -52.841930 12.188374 -40.765394 103.977474 -21.676419 -40.440854 4.892214 0.000000 0.000000 0.000000 -16.474926 -6.157715 -38.973231 1.965689 3.375092 109.148978 -10.094102 1.547632 -53.278984 0.000000 0.000000 0.000000 4.538776 2.790348 -44.374378 -12.214677 7.383461 70.235535 8.208605 10.683427 -6.843402 -0.799013 -4.830632 31.365564 0.000000 0.000000 0.000000 -23.648966 -11.642831 2.732667 -52.735583 -16.788900 0.501186 -21.402553 -74.583774 20.290040 0.000000 0.000000 0.000000 32.023545 3.427363 4.707947 29.955537 14.704221 -1.940626 -40.504257 76.068051 -23.949899 0.000000 0.000000 0.000000
-0.042140 0.115034 -0.079675 -5.714280 7.170880 -88.430022 18.610802 1.723944 -51.008222 16.257091 -44.055207 99.223639 -22.508539 -41.361372 5.055386 0.000000 0.000000 0.000000 -16.430373 -5.973104 -35.507369 4.801006 -0.938653 106.310857 -9.181073 -1.141720 -48.695683 0.000000 0.000000 0.000000 -2.244051 -2.148544 -42.574270 -6.519744 1.563607 48.149451 7.973467 12.511288 13.171414 0.854336 -5.392641 23.957054 0.000000 0.000000 0.000000 -16.404104 -10.078484 1.813411 -60.626279 -17.801814 -1.845248 -39.230610 -71.047368 33.828861 0.000000 0.000000 0.000000 32.938745 1.550350 5.474105 26.769527 13.927428 -3.883774 -97.078407 81.253866 -77.703076 0.000000 0.000000 0.000000
-0.048726 0.112799 -0.078579 -7.175073 5.308030 -88.873007 21.207269 3.403603 -49.503846 19.410295 -44.729745 92.951958 -24.341311 -43.682887 5.579055 0.000000 0.000000 0.000000 -14.407905 -4.749119 -35.180739 5.698499 -3.068864 106.246799 -8.519280 0.229689 -44.664179 0.000000 0.000000 0.000000 -5.746194 -4.279747 -41.511680 -2.634018 -0.511533 31.789644 9.331045 12.115957 26.167324 4.347237 -5.543705 10.165133 0.000000 0.000000 0.000000 -8.680992 -8.112049 1.272528 -67.729556 -18.382058 -3.635503 -47.704762 -65.845566 37.930276 0.000000 0.000000 0.000000 28.370675 -0.682790 3.988906 30.552704 12.254714 -5.141994 -135.363652 77.720300 -112.881254 0.000000 0.000000 0.000000
-0.055265 0.109715 -0.078197 -8.138251 4.291446 -89.494991 21.463778 3.737036 -47.563245 22.040041 -44.984749 88.222616 -23.283591 -43.820282 3.458816 0.000000 0.000000 0.000000 -11.808316 -3.308341 -34.280357 6.235112 -4.890218 104.852134 -8.351478 -3.451702 -42.564796 0.000000 0.000000 0.000000 -8.491867 -6.033222 -40.925294 -1.098319 -0.698924 22.092430 11.480920 11.961405 34.536889 6.431036 -4.852185 -0.079282 0.000000 0.000000 0.000000 0.936015 -5.551865 0.907218 -76.025407 -18.589684 -5.290618 -52.782465 -62.486407 39.885796 0.000000 0.000000 0.000000 22.851017 -2.236507 2.544411 33.990371 10.334209 -5.975031 -147.322348 72.687536 -121.692510 0.000000 0.000000 0.000000
-0.061110 0.109656 -0.078543 -7.662464 3.682900 -89.006604 21.986935 4.319301 -44.872963 23.160953 -42.711504 83.053134 -24.975998 -43.179876 6.434105 0.000000 0.000000 0.000000 -10.015486 -2.216637 -34.773070 6.519612 -5.549942 104.150529 -8.190093 -4.501399 -41.128982 0.000000 0.000000 0.000000 -8.667868 -5.880377 -41.270575 -0.573701 -0.536609 15.542091 11.822613 10.643252 39.325987 6.557067 -3.753758 -5.435061 0.000000 0.000000 0.000000 5.038701 -3.291305 0.441592 -79.696116 -16.723055 -7.295205 -54.069955 -59.937477 39.392885 0.000000 0.000000 0.000000 17.843481 -3.110612 1.377492 38.954230 8.192499 -6.853326 -150.006563 70.012999 -121.380805 0.000000 0.000000 0.000000
-0.066408 0.109568 -0.079483 -7.403022 2.481721 -89.158543 22.648275 5.042783 -43.057641 26.093378 -42.348604 78.077044 -27.356606 -43.255777 9.681616 0.000000 0.000000 0.000000 -9.055721 -1.525235 -33.920748 8.258556 -7.363021 102.946461 -8.433649 -9.205043 -41.625737 0.000000 0.000000 0.000000 -8.385297 -5.359493 -41.147399 -0.291195 -0.495416 13.424246 10.840105 9.426276 39.638224 7.551423 -4.079486 -9.389696 0.000000 0.000000 0.000000 7.667375 -1.956794 0.313451 -81.110022 -13.797575 -9.134134 -51.577922 -59.403677 37.176607 0.000000 0.000000 0.000000 12.071446 -3.653776 0.040840 45.226989 5.640528 -7.564757 -148.024527 70.621036 -119.324906 0.000000 0.000000 0.000000
-0.071182 0.108857 -0.081301 -6.914415 1.550968 -89.016809 21.914834 5.026826 -41.188057 27.499448 -40.971550 74.665499 -28.707885 -41.353812 13.200045 0.000000 0.000000 0.000000 -8.172392 -0.891170 -33.079068 9.283933 -7.893866 98.597682 -8.472632 -12.235239 -39.916037 0.000000 0.000000 0.000000 -7.888035 -4.707971 -41.314067 -0.195005 -0.428414 12.105232 10.576141 9.125033 40.569484 7.636686 -3.872412 -11.162822 0.000000 0.000000 0.000000 9.083189 -1.199520 0.197354 -82.029463 -11.513652 -11.019097 -48.222727 -58.384182 34.056013 0.000000 0.000000 0.000000 10.731626 -3.732569 -0.204174 47.606739 2.990801 -8.557236 -147.431340 70.883635 -119.317097 0.000000 0.000000 0.000000
-0.075213 0.108098 -0.084155 -6.306430 1.671701 -89.011524 21.540435 4.957169 -39.817153 26.263162 -38.360157 72.594458 -29.248718 -39.289302 15.660743 0.000000 0.000000 0.000000 -7.047272 -0.305467 -32.032919 8.874152 -7.195452 94.084449 -8.500967 -12.605352 -38.748602 0.000000 0.000000 0.000000 -6.632115 -3.793747 -41.404365 -0.263077 -0.442979 12.886989 9.259295 7.545787 39.644430 6.924161 -3.832256 -9.708519 0.000000 0.000000 0.000000 6.132780 -0.994052 -0.071435 -79.797652 -8.767914 -12.217810 -40.103561 -58.715683 28.704257 0.000000 0.000000 0.000000 7.972364 -4.211787 -0.915569 50.408356 0.295228 -9.597790 -148.671203 73.005079 -123.654667 0.000000 0.000000 0.000000
-0.078196 0.105837 -0.087868 -5.559274 1.943596 -88.600091 20.938824 4.735209 -38.657589 25.181206 -34.769086 69.228787 -30.239088 -37.378754 18.624711 0.000000 0.000000 0.000000 -6.507847 -0.023473 -31.656075 8.491953 -6.105904 89.239753 -8.343863 -12.463255 -35.794348 0.000000 0.000000 0.000000 -5.696987 -3.124078 -41.502617 -0.124468 -0.598461 14.305280 8.161329 6.314991 39.074417 6.707058 -4.191946 -8.207290 0.000000 0.000000 0.000000 3.170893 -0.935063 -0.255739 -77.434720 -7.563165 -12.222288 -31.484386 -57.847484 22.985516 0.000000 0.000000 0.000000 9.267263 -4.283580 -1.124618 49.998241 -1.241595 -10.249860 -149.163406 75.244008 -127.540736 0.000000 0.000000 0.000000
-0.079690 0.109539 -0.091570 -5.015956 2.240479 -88.196931 20.280635 4.475807 -36.472142 22.012367 -30.026284 66.370818 -28.478164 -33.691040 19.255843 0.000000 0.000000 0.000000 -5.916460 0.243667 -30.335979 7.987110 -5.167659 81.642634 -7.754386 -11.752244 -27.768069 0.000000 0.000000 0.000000 -4.051824 -1.940418 -40.861034 0.398483 -0.967358 14.049592 6.398162 4.012958 38.698537 6.133428 -4.293433 -6.855223 0.000000 0.000000 0.000000 -0.671117 -1.193873 -0.149906 -74.026365 -5.846814 -12.420498 -24.180754 -56.078805 17.961160 0.000000 0.000000 0.000000 7.300442 -5.488637 -2.121675 52.096803 -3.465082 -11.306189 -159.017657 80.513764 -144.218715 0.000000 0.000000 0.000000
-0.080219 0.110582 -0.094157 -4.109190 2.876189 -87.796719 19.231108 4.063842 -33.929543 19.880102 -25.951924 62.823550 -25.164119 -32.000587 15.357876 0.000000 0.000000 0.000000 -6.011595 0.152467 -29.167645 7.143023 -3.716737 75.539159 -7.158714 -11.310357 -20.632988 0.000000 0.000000 0.000000 -2.845470 -1.171069 -41.202608 0.357089 -1.006292 14.885186 5.108513 3.119386 38.446562 5.651429 -4.188254 -5.925280 0.000000 0.000000 0.000000 -2.661181 -0.704747 -0.338956 -71.902189 -3.910588 -13.318909 -23.271834 -54.110953 16.668216 0.000000 0.000000 0.000000 10.167836 -5.033236 -2.073471 49.928474 -4.808842 -11.555198 -155.293512 85.382826 -144.436543 0.000000 0.000000 0.000000
-0.080369 0.113395 -0.095518 -3.427630 3.575759 -87.317555 18.871495 3.905719 -31.324335 16.123045 -21.287619 59.681790 -22.069684 -28.346597 13.710003 0.000000 0.000000 0.000000 -5.872336 0.177848 -28.411648 6.582741 -3.067497 69.675914 -5.817426 -9.633302 -11.254829 0.000000 0.000000 0.000000 -1.269871 -0.160546 -40.814376 0.006461 -0.806440 14.391581 4.031098 1.571800 38.743650 4.910139 -3.675587 -6.104158 0.000000 0.000000 0.000000 -3.740582 -0.409384 -0.335498 -70.929365 -2.473814 -13.949937 -20.882123 -51.615052 14.504184 0.000000 0.000000 0.000000 8.978965 -5.712248 -2.611321 51.678398 -6.686563 -12.540202 56.406644 87.331276 61.593110 0.000000 0.000000 0.000000
-0.080804 0.116731 -0.096237 -2.567538 4.313823 -86.502465 18.252810 3.636458 -29.086426 14.203155 -17.649949 54.814181 -21.161167 -24.610157 16.024106 0.000000 0.000000 0.000000 -5.368134 0.368228 -27.339457 5.267774 -2.013625 64.694312 -4.935997 -8.842358 -5.963767 0.000000 0.000000 0.000000 0.304765 0.854263 -41.316575 -0.479957 -0.597168 15.179249 2.555488 1.269630 37.350216 5.889865 -4.332954 -7.438391 0.000000 0.000000 0.000000 -3.732771 -0.475848 -0.273956 -69.955961 -0.060105 -15.202925 -19.216961 -48.953891 12.379154 0.000000 0.000000 0.000000 9.274433 -5.561919 -2.589342 51.268554 -8.131079 -12.717906 19.164789 78.602868 21.398825 0.000000 0.000000 0.000000
-0.081277 0.117418 -0.096463 -2.093284 5.425441 -85.683419 18.130248 3.471055 -26.540209 11.425603 -13.869049 49.658411 -18.618344 -21.075355 15.397956 0.000000 0.000000 0.000000 -5.686753 0.161039 -26.751334 4.946527 -1.890560 60.075262 -4.016907 -8.313794 0.016959 0.000000 0.000000 0.000000 1.212605 1.275829 -41.238212 -0.510259 -0.578855 14.086439 1.157535 1.036905 37.975177 6.448264 -4.720888 -7.923958 0.000000 0.000000 0.000000 -4.313378 0.037416 -0.535185 -68.799696 1.671268 -16.105536 -19.583677 -45.842907 11.372434 0.000000 0.000000 0.000000 7.915535 -6.060835 -2.789195 52.684148 -9.711309 -13.516880 24.207297 70.876552 22.194598 0.000000 0.000000 0.000000
-0.082012 0.118895 -0.096787 -1.449896 6.345868 -84.878049 17.568984 3.192946 -24.171582 11.088950 -11.697413 43.811730 -18.628559 -19.387840 17.469286 0.000000 0.000000 0.000000 -5.892705 0.012031 -25.698440 4.742103 -1.745174 55.931158 -4.385861 -9.600348 2.609188 0.000000 0.000000 0.000000 2.065269 1.701068 -41.872548 -1.201825 -0.161339 13.748954 0.584417 0.964369 38.125993 7.116184 -5.122292 -8.697434 0.000000 0.000000 0.000000 -4.811726 0.679696 -0.889802 -67.452792 3.738413 -17.061327 -19.270847 -43.109086 10.168497 0.000000 0.000000 0.000000 6.842810 -6.842085 -3.140296 53.872260 -11.130849 -14.231723 23.459737 64.181087 18.954508 0.000000 0.000000 0.000000
-0.082487 0.118408 -0.096884 -1.395971 6.835623 -84.591604 17.851421 3.203334 -22.271318 9.960580 -9.810344 39.600564 -18.002805 -17.870073 18.134074 0.000000 0.000000 0.000000 -5.849934 -0.018976 -25.059379 4.440950 -1.583128 52.569984 -4.492014 -10.448816 6.405330 0.000000 0.000000 0.000000 2.270189 1.716995 -42.139020 -1.244923 -0.115071 13.040964 0.071504 1.480705 38.634432 8.578046 -6.228130 -9.008922 0.000000 0.000000 0.000000 -4.281219 1.352034 -1.252618 -66.842930 5.586052 -18.065952 -20.714790 -41.767621 10.106634 0.000000 0.000000 0.000000 6.378688 -7.505628 -3.390104 54.267137 -12.027892 -14.575431 22.870751 57.382139 16.101840 0.000000 0.000000 0.000000
-0.083013 0.119226 -0.097020 -1.431738 7.113055 -84.145199 17.861035 3.131103 -20.479287 9.610775 -8.328706 34.964057 -17.738403 -14.266933 22.299454 0.000000 0.000000 0.000000 -6.142023 -0.158918 -24.534900 4.606908 -1.674590 49.949722 -4.587812 -11.212184 10.190684 0.000000 0.000000 0.000000 2.706817 1.912856 -43.055113 -1.578443 0.075178 12.882261 -0.169649 1.913889 38.334492 10.535279 -7.369876 -10.800264 0.000000 0.000000 0.000000 -3.812231 1.625729 -1.421976 -66.457474 7.667601 -19.160142 -20.973712 -40.900501 9.650451 0.000000 0.000000 0.000000 4.724619 -8.413179 -3.758471 55.118357 -14.154932 -15.358175 23.968131 52.125902 14.715818 0.000000 0.000000 0.000000
-0.083475 0.118582 -0.097140 -1.373755 7.284734 -83.701692 18.706594 3.305326 -19.082466 8.349359 -6.846391 31.484865 -17.032087 -12.543846 23.173407 0.000000 0.000000 0.000000 -6.020371 -0.112062 -24.343762 4.371855 -1.562655 48.516373 -5.779960 -12.934766 8.890683 0.000000 0.000000 0.000000 3.087915 2.131500 -43.970181 -1.457451 -0.078607 13.782599 -0.676781 2.644381 37.537668 12.187160 -8.353176 -11.741417 0.000000 0.000000 0.000000 -4.323106 1.499920 -1.523310 -64.555803 8.601674 -19.038029 -20.518768 -39.781298 8.891678 0.000000 0.000000 0.000000 4.239006 -8.840525 -3.916257 54.997143 -15.251857 -15.501295 23.097217 48.340695 12.965937 0.000000 0.000000 0.000000
-0.083996 0.118886 -0.097364 -1.542298 7.667720 -83.298740 19.163702 3.326392 -18.103272 7.642086 -5.830073 28.390655 -16.711825 -10.193850 25.844440 0.000000 0.000000 0.000000 -6.475102 -0.333608 -23.641118 4.657932 -1.771650 46.779608 -6.714304 -14.243695 6.842773 0.000000 0.000000 0.000000 3.230608 2.084154 -45.288229 -1.937794 0.141152 14.485250 -0.635816 2.815616 37.105534 12.727484 -8.586677 -12.230676 0.000000 0.000000 0.000000 -4.312861 1.615356 -1.628328 -63.923684 9.800187 -19.480016 -19.517728 -40.016990 8.392296 0.000000 0.000000 0.000000 3.958564 -9.263247 -4.111001 54.332334 -16.415044 -15.641646 22.588493 46.405966 11.996923 0.000000 0.000000 0.000000
-0.084509 0.120080 -0.097485 -1.722723 7.668257 -83.343791 19.828043 3.451340 -17.401483 6.828803 -5.232705 27.124830 -17.183296 -9.513429 27.800381 0.000000 0.000000 0.000000 -6.473375 -0.346109 -23.306541 4.673509 -1.780008 45.813916 -6.675666 -14.397331 9.129332 0.000000 0.000000 0.000000 2.953668 1.867676 -45.617343 -1.971870 0.148266 14.659979 -0.450587 2.997778 36.666025 12.559050 -8.274155 -12.598100 0.000000 0.000000 0.000000 -3.641515 2.249480 -1.874566 -63.267177 10.328840 -19.461008 -19.419562 -40.330396 8.295120 0.000000 0.000000 0.000000 3.064226 -9.332822 -4.109951 54.589252 -17.480930 -15.998838 22.525096 44.768813 11.356967 0.000000 0.000000 0.000000
-0.084850 0.122759 -0.097460 -1.741739 7.562706 -83.172205 19.812837 3.432876 -17.090582 6.578226 -4.993326 26.535310 -17.437220 -7.886033 31.106905 0.000000 0.000000 0.000000 -6.726224 -0.453461 -22.950048 5.380397 -2.102546 45.274788 -7.626475 -15.976386 8.103158 0.000000 0.000000 0.000000 3.032738 1.915391 -46.160800 -1.797201 0.088547 14.076673 -0.653244 2.741897 36.948936 12.074134 -7.785416 -13.155076 0.000000 0.000000 0.000000 -2.667588 3.251004 -2.158992 -63.166090 10.713954 -19.610373 -18.918565 -39.728653 7.973908 0.000000 0.000000 0.000000 2.020617 -9.275258 -4.086030 54.487740 -18.802666 -16.489114 24.130264 43.940845 11.535275 0.000000 0.000000 0.000000
-0.085028 0.125475 -0.097369 -1.823323 7.614663 -83.094949 20.077954 3.476937 -16.734454 5.778678 -4.694260 26.560718 -16.560389 -7.304858 30.175499 0.000000 0.000000 0.000000 -7.305968 -0.697665 -22.406321 6.065155 -2.454627 45.092738 -8.074561 -16.737668 6.300464 0.000000 0.000000 0.000000 2.968563 1.822918 -47.154690 -2.053407 0.167837 15.354489 -0.118700 2.701349 36.183532 11.063427 -7.070527 -12.665141 0.000000 0.000000 0.000000 -2.120006 3.143064 -2.049655 -62.878363 10.927140 -19.529803 -17.823043 -40.485924 7.665912 0.000000 0.000000 0.000000 1.696610 -9.543177 -4.209153 53.547482 -20.205882 -16.680220 25.658445 44.168076 12.104404 0.000000 0.000000 0.000000
-0.085160 0.130903 -0.097427 -1.885742 7.670520 -82.927872 20.491541 3.527354 -16.229072 4.875763 -4.246735 26.033680 -15.462253 -5.681134 30.586751 0.000000 0.000000 0.000000 -7.892309 -0.940249 -21.531228 6.381382 -2.575063 44.597997 -8.915274 -18.238746 2.759441 0.000000 0.000000 0.000000 2.927226 1.743007 -47.903375 -2.070112 0.191627 15.133421 0.057537 2.145877 36.254061 10.147287 -6.264938 -13.352528 0.000000 0.000000 0.000000 -0.174283 3.960803 -2.117040 -64.117356 11.469668 -20.217099 -17.297048 -39.982054 7.433065 0.000000 0.000000 0.000000 0.998142 -8.756082 -3.846351 53.197691 -21.291538 -17.059943 25.168203 43.536132 11.440547 0.000000 0.000000 0.000000
-0.085236 0.135837 -0.097718 -1.912502 7.827499 -82.793982 20.838231 3.534502 -15.055884 3.800920 -3.591191 24.619831 -14.309287 -5.280207 28.534997 0.000000 0.000000 0.000000 -8.886550 -1.331854 -21.176231 7.094718 -2.975542 45.451853 -9.371907 -19.179573 -1.395439 0.000000 0.000000 0.000000 3.036727 1.750236 -48.474043 -2.252654 0.263300 15.696179 0.377832 2.237738 36.042527 9.316366 -5.635963 -13.097957 0.000000 0.000000 0.000000 0.942360 4.210849 -2.097999 -64.921266 11.921176 -20.807014 -16.535896 -40.637365 7.271674 0.000000 0.000000 0.000000 1.440162 -8.710561 -3.831779 52.312677 -22.111452 -17.077547 24.256417 42.970724 10.816059 0.000000 0.000000 0.000000
-0.085113 0.141364 -0.098392 -1.984567 7.872828 -82.567072 20.784747 3.451924 -14.102656 3.605800 -3.270983 23.209139 -13.421766 -5.368691 26.244052 0.000000 0.000000 0.000000 -9.896888 -1.709390 -20.842960 8.356019 -3.641088 45.475314 -10.778321 -22.014901 -2.107542 0.000000 0.000000 0.000000 3.011527 1.682575 -48.973698 -2.547337 0.455619 15.624763 0.985905 1.748533 36.281419 7.615846 -4.420423 -12.920202 0.000000 0.000000 0.000000 2.093485 5.157359 -2.336269 -65.565246 12.602622 -21.383743 -16.959838 -40.751233 7.515937 0.000000 0.000000 0.000000 1.842830 -8.181955 -3.609913 52.077072 -22.374262 -17.263546 22.481580 43.249166 10.081121 0.000000 0.000000 0.000000
-0.084730 0.143968 -0.098921 -1.637815 7.744470 -82.430970 20.502943 3.420092 -13.897428 3.546678 -3.331680 23.791721 -12.515645 -4.922563 25.049669 0.000000 0.000000 0.000000 -10.808395 -2.029864 -21.546075 9.775814 -4.401944 47.010463 -12.028753 -24.395228 -1.313888 0.000000 0.000000 0.000000 3.240053 1.951997 -49.178289 -2.331891 0.417585 14.299739 0.848807 1.755111 37.525561 7.511801 -4.305208 -13.290700 0.000000 0.000000 0.000000 3.360098 5.582768 -2.357646 -65.741397 12.678669 -21.690489 -17.776980 -39.930148 7.613405 0.000000 0.000000 0.000000 2.003589 -7.850251 -3.462133 52.858441 -22.093839 -17.603687 21.470034 42.895755 9.598798 0.000000 0.000000 0.000000
-0.083836 0.148265 -0.099312 -1.269969 7.662154 -82.339898 20.132265 3.343617 -13.381588 3.532106 -3.425044 24.473862 -11.460452 -4.425798 23.548291 0.000000 0.000000 0.000000 -11.352015 -2.212936 -21.589290 10.348545 -4.632579 47.416862 -13.109186 -26.403044 -0.604457 0.000000 0.000000 0.000000 3.734911 2.401978 -48.911255 -2.305480 0.462469 13.408351 0.899800 1.549915 37.774311 7.444182 -4.088700 -14.243091 0.000000 0.000000 0.000000 4.750501 5.755307 -2.235198 -66.544835 12.908857 -22.103166 -18.235635 -39.081666 7.566312 0.000000 0.000000 0.000000 0.692701 -7.530096 -3.288672 54.162687 -22.084496 -17.988374 21.468953 42.567129 9.504424 0.000000 0.000000 0.000000
-0.082705 0.149903 -0.099503 -0.578433 7.702341 -82.053397 19.814835 3.295710 -13.289211 3.123050 -3.551835 26.271635 -9.092528 -4.345911 18.092781 0.000000 0.000000 0.000000 -12.341149 -2.542468 -21.691094 10.792026 -4.721685 48.075484 -13.464821 -27.558192 -3.266611 0.000000 0.000000 0.000000 4.440535 3.012331 -49.637077 -2.466911 0.613022 12.626619 0.835539 1.549807 38.740074 7.299051 -4.029784 -14.062707 0.000000 0.000000 0.000000 5.209257 5.540733 -2.106153 -66.355989 12.861238 -22.194361 -18.497557 -38.474374 7.495829 0.000000 0.000000 0.000000 0.301517 -7.134730 -3.118636 53.973835 -22.145981 -18.019237 21.309878 43.447290 9.639554 0.000000 0.000000 0.000000
-0.081510 0.152595 -0.099842 0.029663 7.660219 -81.865833 19.928407 3.333163 -13.103597 2.549774 -3.621756 28.110407 -7.452345 -4.052199 14.588213 0.000000 0.000000 0.000000 -12.725671 -2.634273 -21.630577 10.027824 -4.084570 47.768190 -13.360544 -27.381839 -3.751500 0.000000 0.000000 0.000000 4.985491 3.538005 -50.124569 -2.287809 0.531386 12.417894 0.607635 1.246951 38.735651 7.375832 -3.949639 -15.099805 0.000000 0.000000 0.000000 5.992502 5.647938 -2.035156 -66.703553 13.310433 -22.463928 -20.665956 -39.159932 8.420309 0.000000 0.000000 0.000000 -2.161220 -6.899524 -2.992360 54.053408 -21.297368 -17.539988 22.331919 43.621763 10.041224 0.000000 0.000000 0.000000
-0.080613 0.154594 -0.100338 0.674181 7.624883 -81.925558 19.548928 3.322581 -13.503524 2.624636 -4.010079 30.410657 -6.772228 -3.212236 14.447516 0.000000 0.000000 0.000000 -13.181989 -2.764590 -21.074160 9.459384 -3.466711 46.768148 -13.407662 -27.431924 -4.113029 0.000000 0.000000 0.000000 5.409015 3.965415 -49.928452 -2.448458 0.684165 11.674046 0.611064 0.497851 39.195464 6.760183 -3.656021 -15.081142 0.000000 0.000000 0.000000 5.641012 5.779393 -2.140942 -66.067666 13.445605 -22.108648 -20.232561 -40.106854 8.586490 0.000000 0.000000 0.000000 -2.931770 -5.923740 -2.593157 54.471184 -19.959437 -17.315239 19.607542 45.095761 9.283388 0.000000 0.000000 0.000000
-0.080060 0.155828 -0.100880 0.982080 7.501676 -81.873116 19.270387 3.296480 -13.809132 2.899227 -4.337535 31.797040 -6.025610 -2.866894 13.174412 0.000000 0.000000 0.000000 -13.750380 -2.925425 -21.002519 9.230267 -3.167145 46.143910 -13.580695 -27.420627 -2.526299 0.000000 0.000000 0.000000 5.679539 4.258840 -50.210577 -1.950304 0.382398 12.038321 0.018139 0.426635 39.208168 6.816963 -4.043795 -13.308163 0.000000 0.000000 0.000000 4.895718 5.955884 -2.282816 -64.901591 13.405716 -21.558325 -21.348533 -41.312563 9.319079 0.000000 0.000000 0.000000 -3.593533 -5.883916 -2.575939 54.472432 -18.169192 -16.569895 17.417122 46.305457 8.748312 0.000000 0.000000 0.000000
-0.079907 0.156203 -0.101293 0.744969 7.760304 -81.960749 19.261270 3.308413 -14.588887 2.951525 -4.710531 33.417304 -5.532164 -2.606956 12.297025 0.000000 0.000000 0.000000 -13.938836 -3.022196 -20.567977 8.888416 -2.977220 44.773728 -13.235860 -26.245855 0.814469 0.000000 0.000000 0.000000 5.179793 3.788724 -50.460840 -1.879722 0.298220 12.640527 0.330638 -0.054662 39.009001 6.134225 -3.811489 -12.042512 0.000000 0.000000 0.000000 3.571897 5.505040 -2.258923 -63.209699 13.174369 -20.690070 -21.714069 -42.667354 9.841514 0.000000 0.000000 0.000000 -2.920359 -5.244951 -2.322398 53.513454 -16.100796 -15.609370 13.266049 47.668273 7.279735 0.000000 0.000000 0.000000
-0.079915 0.154169 -0.101611 0.574355 7.904091 -82.217958 19.944103 3.466690 -15.203893 2.135747 -4.644609 34.752484 -4.845104 -1.667172 12.047165 0.000000 0.000000 0.000000 -13.923681 -3.026931 -20.345836 8.565855 -2.826155 43.553798 -12.742074 -24.893267 4.330162 0.000000 0.000000 0.000000 4.854729 3.477520 -49.919988 -1.467274 0.044243 12.547315 0.116140 -0.325964 39.365230 5.350644 -3.367684 -11.167039 0.000000 0.000000 0.000000 3.496367 5.653307 -2.303984 -62.243058 12.679672 -20.061145 -23.117201 -43.895346 10.814597 0.000000 0.000000 0.000000 -2.768192 -5.401989 -2.385353 53.406644 -14.160458 -14.902360 10.688100 47.910064 6.335536 0.000000 0.000000 0.000000
-0.080005 0.151753 -0.101987 0.268878 8.176736 -82.354966 20.534480 3.589209 -16.027072 1.261882 -4.483512 35.687191 -5.222736 -1.606704 13.169885 0.000000 0.000000 0.000000 -14.115135 -3.132651 -20.429418 8.205471 -2.686049 42.616594 -11.544713 -22.604747 8.359629 0.000000 0.000000 0.000000 4.292004 2.937358 -49.787973 -1.198743 -0.156064 12.886226 -0.009611 -0.418680 39.435574 5.617362 -3.693989 -10.669090 0.000000 0.000000 0.000000 3.345307 5.421845 -2.227195 -61.810143 12.349515 -19.720303 -23.772572 -45.329473 11.562760 0.000000 0.000000 0.000000 -2.284997 -5.193719 -2.304893 53.076036 -12.534584 -14.240115 8.125170 47.754093 5.292439 0.000000 0.000000 0.000000
-0.080139 0.149918 -0.102489 -0.138282 8.379094 -82.301817 20.937437 3.683710 -17.450626 0.232856 -4.349978 37.335374 -4.410032 -0.695342 12.594796 0.000000 0.000000 0.000000 -14.267777 -3.217669 -20.336501 8.312994 -2.780520 41.175688 -11.144855 -21.765666 10.111525 0.000000 0.000000 0.000000 3.776105 2.407883 -50.063109 -0.814772 -0.439431 13.439258 -0.063547 -0.537619 39.121433 5.181485 -3.586713 -9.263756 0.000000 0.000000 0.000000 2.699330 4.832066 -2.042369 -60.953915 11.596526 -18.988692 -22.413944 -47.480234 11.656473 0.000000 0.000000 0.000000 -1.281469 -4.986854 -2.228819 52.021252 -11.550921 -13.675927 6.685805 48.703882 4.779200 0.000000 0.000000 0.000000
-0.080177 0.147937 -0.103012 -0.309531 8.595130 -82.102750 21.586580 3.798975 -17.793811 -1.112510 -3.829514 37.733944 -3.867097 -0.380737 11.571912 0.000000 0.000000 0.000000 -14.865790 -3.469019 -20.610547 9.524874 -3.409506 40.483118 -10.741016 -21.093499 12.235117 0.000000 0.000000 0.000000 3.431943 2.054185 -50.186134 -0.762399 -0.560746 14.504707 0.149355 -0.179380 38.325495 4.888311 -3.387875 -8.500274 0.000000 0.000000 0.000000 2.602519 4.057456 -1.750236 -60.484470 10.903108 -18.477682 -21.493530 -49.639649 11.825282 0.000000 0.000000 0.000000 -0.214544 -4.730529 -2.114005 51.598980 -10.127720 -13.022464 4.779019 48.607594 4.087313 0.000000 0.000000 0.000000
-0.080204 0.148048 -0.103569 -0.551999 8.875265 -81.774688 21.666495 3.754277 -18.325486 -1.430512 -3.686533 37.590350 -3.793231 -0.068754 11.921394 0.000000 0.000000 0.000000 -15.282210 -3.629737 -20.458277 10.125518 -3.727759 39.437212 -11.286864 -21.812110 13.238487 0.000000 0.000000 0.000000 3.529784 1.947774 -50.577008 -1.158281 -0.335879 14.463970 0.257707 -0.244825 39.315380 4.645874 -3.285328 -7.934624 0.000000 0.000000 0.000000 2.079585 4.044062 -1.793702 -60.142795 9.564709 -17.919489 -18.724371 -52.436676 11.403283 0.000000 0.000000 0.000000 0.319161 -4.545924 -2.046720 52.730793 -8.685889 -12.943073 0.724004 48.794920 2.619662 0.000000 0.000000 0.000000
-0.080263 0.150696 -0.104136 -0.870134 8.624970 -81.552398 23.082994 4.013909 -17.902805 -2.123097 -3.297527 36.929052 -4.879728 -1.587762 12.119322 0.000000 0.000000 0.000000 -14.918712 -3.471647 -20.469721 10.911885 -4.128403 38.681734 -11.542400 -22.050954 16.729841 0.000000 0.000000 0.000000 3.361813 1.845977 -50.323243 -0.668967 -0.693235 15.136615 0.265606 0.349237 37.873990 6.346356 -4.547902 -8.571264 0.000000 0.000000 0.000000 2.720846 3.356476 -1.468816 -59.887002 8.394066 -17.111451 -16.699319 -54.340712 10.756631 0.000000 0.000000 0.000000 -0.652685 -4.587842 -2.022641 54.011910 -7.850666 -12.582249 -1.156521 48.783349 1.973828 0.000000 0.000000 0.000000
-0.080311 0.149415 -0.104481 -1.373663 8.824250 -81.447141 24.148425 4.201704 -18.344705 -3.315330 -2.850344 37.099252 -4.540989 -1.493615 11.324790 0.000000 0.000000 0.000000 -16.015653 -3.911040 -20.003434 12.666663 -4.936211 38.052385 -13.255676 -24.357618 16.173837 0.000000 0.000000 0.000000 2.786767 1.225144 -50.292381 -0.638723 -0.709974 15.166999 1.071721 1.030943 37.734430 7.413006 -4.784569 -11.658611 0.000000 0.000000 0.000000 3.348801 3.065570 -1.350517 -60.492811 6.775609 -16.530287 -13.125872 -54.853067 9.050351 0.000000 0.000000 0.000000 -1.162651 -5.181531 -2.236154 55.304356 -7.315907 -12.560432 -2.671613 47.195197 1.414114 0.000000 0.000000 0.000000
-0.080227 0.148585 -0.104918 -1.478290 8.625618 -81.303340 24.856884 4.323258 -18.091605 -3.312344 -2.793211 36.682828 -4.067393 -2.606332 8.132734 0.000000 0.000000 0.000000 -15.816053 -3.783850 -19.640911 13.208516 -5.133882 37.063887 -14.824628 -26.482127 15.935617 0.000000 0.000000 0.000000 2.721055 1.201046 -50.865311 -0.520814 -0.691082 14.092134 1.322380 1.728009 38.967364 7.742742 -4.659537 -13.119147 0.000000 0.000000 0.000000 4.465307 3.002221 -1.260479 -60.957053 5.602495 -16.343566 -12.245937 -53.899700 8.298253 0.000000 0.000000 0.000000 -1.132636 -5.278745 -2.250680 56.264024 -8.092397 -13.056716 -1.558270 45.087887 1.774103 0.000000 0.000000 0.000000
-0.080047 0.150355 -0.105044 -1.828746 8.577381 -81.335663 25.011959 4.277978 -17.478604 -3.379771 -2.539130 35.069880 -4.430918 -1.740010 10.523461 0.000000 0.000000 0.000000 -17.134277 -4.155245 -17.933460 15.390682 -5.981737 35.394269 -18.065191 -31.153806 12.782342 0.000000 0.000000 0.000000 2.594870 1.064161 -50.372480 -0.630686 -0.583440 13.449421 2.148185 1.720061 39.330268 7.196909 -4.160465 -13.289550 0.000000 0.000000 0.000000 3.701056 2.691780 -1.215909 -61.791787 3.656207 -15.668480 -6.178224 -49.962414 4.922319 0.000000 0.000000 0.000000 -2.732634 -4.999947 -2.139864 57.526826 -8.872538 -13.574765 2.570070 42.564867 3.145516 0.000000 0.000000 0.000000
-0.079891 0.155101 -0.105190 -1.412337 7.717811 -81.282444 25.732087 4.517739 -16.221430 -2.772806 -2.444602 33.164124 -8.459665 -6.596557 12.931703 0.000000 0.000000 0.000000 -16.979398 -3.963573 -16.827381 16.290676 -6.070640 34.299489 -19.287920 -33.816584 9.776183 0.000000 0.000000 0.000000 3.819996 2.309124 -49.914192 -1.280251 -0.142083 13.401092 2.521853 1.589027 38.017326 6.971802 -3.553430 -15.569114 0.000000 0.000000 0.000000 6.752388 2.176087 -0.724040 -63.146416 3.540216 -15.775993 -9.480790 -48.717890 6.082351 0.000000 0.000000 0.000000 -2.633384 -3.745890 -1.613504 57.713473 -10.219644 -13.979809 5.985813 42.348217 4.113123 0.000000 0.000000 0.000000
-0.079773 0.154534 -0.105008 -2.138718 8.310617 -81.857944 25.049570 4.282782 -15.756126 -3.589063 -2.269168 33.597192 -4.651072 -3.600211 7.994632 0.000000 0.000000 0.000000 -17.391706 -4.081843 -14.741904 17.271155 -6.428464 32.920676 -19.634899 -34.460379 9.746077 0.000000 0.000000 0.000000 3.030864 1.405198 -49.895572 -1.922057 0.081235 15.515516 3.381844 2.791200 37.069812 8.081011 -5.538692 -8.688285 0.000000 0.000000 0.000000 7.076384 -1.799425 0.674943 -64.536152 1.873694 -15.552520 1.628360 -49.317250 1.052111 0.000000 0.000000 0.000000 1.419012 -3.176952 -1.217170 54.780304 -11.123584 -13.779220 5.444480 43.793136 4.128200 0.000000 0.000000 0.000000
-0.079870 0.154626 -0.105168 -0.650830 5.774980 -81.701383 29.233128 5.283475 -13.190833 -5.811139 -0.721293 29.490932 -1.534033 -0.442734 4.522520 0.000000 0.000000 0.000000 -15.612480 -3.348788 -16.452552 18.643918 -7.050695 35.824824 -22.033103 -40.337414 2.231933 0.000000 0.000000 0.000000 4.039967 3.421309 -50.355930 0.705959 -1.468777 15.426426 1.937263 1.159114 38.466657 6.880375 -3.815061 -14.637752 0.000000 0.000000 0.000000 4.643674 -3.317610 1.206101 -62.476437 5.872231 -16.753751 -1.217024 -58.190600 2.795702 0.000000 0.000000 0.000000 -5.060248 -1.292682 -0.730402 61.471330 -12.784112 -16.313432 0.752860 41.783211 1.864377 0.000000 0.000000 0.000000
-0.080246 0.146883 -0.105561 -1.090991 8.657414 -81.911510 25.118334 4.351331 -17.408609 -6.505551 -1.181028 35.401466 -2.555551 -3.355035 2.913085 0.000000 0.000000 0.000000 -19.019463 -4.969704 -20.089111 18.102023 -8.216249 43.685326 -17.971379 -34.522822 -1.539345 0.000000 0.000000 0.000000 2.320657 1.209054 -45.587382 0.035968 -0.803800 11.073577 2.193678 2.960900 39.866382 6.090164 -3.264421 -11.240480 0.000000 0.000000 0.000000 7.923241 -3.331946 1.296579 -63.287204 4.686831 -16.731550 -6.009194 -51.629113 4.436613 0.000000 0.000000 0.000000 -3.010338 -3.729510 -1.600938 64.785217 -10.881920 -15.625465 -7.248922 45.109080 0.123913 0.000000 0.000000 0.000000
