HIERARCHY
ROOT Hips
{
	OFFSET -0.001795 -0.223333 0.028219
	CHANNELS 6 Xposition Yposition Zposition Zrotation Yrotation Xrotation
	JOINT LeftUpLeg
	{
		OFFSET 0.069520 -0.091406 -0.006815
		CHANNELS 3 Zrotation Yrotation Xrotation
		JOINT LeftLeg
		{
			OFFSET 0.034277 -0.375199 -0.004496
			CHANNELS 3 Zrotation Yrotation Xrotation
			JOINT LeftFoot
			{
				OFFSET -0.013596 -0.397961 -0.043693
				CHANNELS 3 Zrotation Yrotation Xrotation
				JOINT LeftToe
				{
					OFFSET 0.026358 -0.055791 0.119288
					CHANNELS 3 Zrotation Yrotation Xrotation
					End Site
					{
						OFFSET 0.000000 0.000000 0.000000
					}
				}
			}
		}
	}
	JOINT RightUpLeg
	{
		OFFSET -0.067670 -0.090522 -0.004320
		CHANNELS 3 Zrotation Yrotation Xrotation
		JOINT RightLeg
		{
			OFFSET -0.038290 -0.382569 -0.008850
			CHANNELS 3 Zrotation Yrotation Xrotation
			JOINT RightFoot
			{
				OFFSET 0.015774 -0.398415 -0.042312
				CHANNELS 3 Zrotation Yrotation Xrotation
				JOINT RightToe
				{
					OFFSET -0.025372 -0.048144 0.123348
					CHANNELS 3 Zrotation Yrotation Xrotation
					End Site
					{
						OFFSET 0.000000 0.000000 0.000000
					}
				}
			}
		}
	}
	JOINT Spine
	{
		OFFSET -0.002533 0.108963 -0.026696
		CHANNELS 3 Zrotation Yrotation Xrotation
		JOINT Spine1
		{
			OFFSET 0.005487 0.135180 0.001092
			CHANNELS 3 Zrotation Yrotation Xrotation
			JOINT Spine2
			{
				OFFSET 0.001457 0.052922 0.025425
				CHANNELS 3 Zrotation Yrotation Xrotation
				JOINT Neck
				{
					OFFSET -0.002778 0.213870 -0.042857
					CHANNELS 3 Zrotation Yrotation Xrotation
					JOINT Head
					{
						OFFSET 0.005152 0.064970 0.051349
						CHANNELS 3 Zrotation Yrotation Xrotation
						End Site
						{
							OFFSET 0.000000 0.000000 0.000000
						}
					}
				}
				JOINT LeftShoulder
				{
					OFFSET 0.078845 0.121749 -0.034090
					CHANNELS 3 Zrotation Yrotation Xrotation
					JOINT LeftArm
					{
						OFFSET 0.090977 0.030469 -0.008868
						CHANNELS 3 Zrotation Yrotation Xrotation
						JOINT LeftForeArm
						{
							OFFSET 0.259612 -0.012772 -0.027456
							CHANNELS 3 Zrotation Yrotation Xrotation
							JOINT LeftHand
							{
								OFFSET 0.249234 0.008986 -0.001171
								CHANNELS 3 Zrotation Yrotation Xrotation
								End Site
								{
									OFFSET 0.000000 0.000000 0.000000
								}
							}
						}
					}
				}
				JOINT RightShoulder
				{
					OFFSET -0.081759 0.118833 -0.038615
					CHANNELS 3 Zrotation Yrotation Xrotation
					JOINT RightArm
					{
						OFFSET -0.096012 0.032551 -0.009143
						CHANNELS 3 Zrotation Yrotation Xrotation
						JOINT RightForeArm
						{
							OFFSET -0.253742 -0.013329 -0.021401
							CHANNELS 3 Zrotation Yrotation Xrotation
							JOINT RightHand
							{
								OFFSET -0.255298 0.007772 -0.005559
								CHANNELS 3 Zrotation Yrotation Xrotation
								End Site
								{
									OFFSET 0.000000 0.000000 0.000000
								}
							}
						}
					}
				}
			}
		}
	}
}
MOTION
Frames: 68
Frame Time: 0.050000
0.000000 0.961882 0.000000 0.493370 -5.423678 -4.825538 -1.621720 0.213423 1.985675 -0.058212 -0.114678 4.284523 -2.444276 -1.471125 8.473709 0.000000 0.000000 0.000000 2.788687 -0.948500 7.695105 -0.542957 -0.008705 -1.360324 3.247680 1.581029 9.830246 0.000000 0.000000 0.000000 6.653310 -1.397124 15.596722 -11.644786 3.135231 -27.902988 1.788883 5.921788 27.280719 10.446858 -8.080068 -8.721205 0.000000 0.000000 0.000000 -27.761480 -10.491825 4.253568 -46.671458 -4.247433 -6.316284 0.683478 -25.485667 1.026194 0.000000 0.000000 0.000000 35.266170 -1.363385 -2.223127 50.901801 6.204782 -5.516888 0.150766 27.705494 1.576264 0.000000 0.000000 0.000000
0.001088 0.960935 0.002688 0.417980 -5.553128 -4.517647 -1.346304 0.193471 1.830215 -0.795965 -0.001383 4.569507 -1.983067 -1.000117 7.550668 0.000000 0.000000 0.000000 2.972297 -0.954822 7.598667 -0.626702 -0.006955 -1.476474 2.884271 1.025300 9.461953 0.000000 0.000000 0.000000 6.925490 -1.360998 14.744788 -13.156701 3.519232 -27.384941 2.576280 5.574974 27.414422 10.177282 -7.727164 -9.455227 0.000000 0.000000 0.000000 -27.965013 -10.330306 4.322578 -46.563743 -4.402466 -6.303448 2.315189 -25.656283 0.698842 0.000000 0.000000 0.000000 36.037443 -1.009460 -2.222740 51.517422 6.165764 -5.530494 -1.214504 28.082070 1.294042 0.000000 0.000000 0.000000
0.001796 0.960448 0.005322 0.858287 -5.260730 -4.354525 -1.455120 0.139132 1.317586 -1.037202 0.026301 5.155001 -2.811447 -2.353487 7.908131 0.000000 0.000000 0.000000 2.611132 -0.944274 7.769996 -0.713124 -0.015627 -1.837969 2.460103 0.358211 9.149780 0.000000 0.000000 0.000000 6.673382 -1.304000 14.363508 -14.040096 3.716313 -27.535194 3.167669 4.799279 27.804023 9.286714 -7.304159 -8.368720 0.000000 0.000000 0.000000 -28.873140 -9.931389 4.339408 -45.134569 -4.358276 -6.265454 1.156325 -25.191178 0.940532 0.000000 0.000000 0.000000 36.061319 -0.781451 -2.346668 50.058109 5.510846 -5.641926 0.189267 27.468487 1.502319 0.000000 0.000000 0.000000
0.002245 0.960730 0.008275 0.973199 -5.722316 -4.723472 -1.882000 0.173631 1.603401 -0.869577 -0.007429 5.717745 -2.252936 -1.420640 7.797347 0.000000 0.000000 0.000000 2.428893 -0.958294 8.123380 -0.219556 -0.063546 -2.023770 1.994899 -1.073382 9.973859 0.000000 0.000000 0.000000 6.662940 -1.319022 14.731750 -14.385649 3.751670 -28.042049 3.369157 5.585498 28.933509 9.895322 -7.862308 -8.270052 0.000000 0.000000 0.000000 -29.015294 -10.141204 4.338246 -45.700298 -4.218518 -6.450458 2.642861 -26.109008 0.660239 0.000000 0.000000 0.000000 36.616322 -0.857380 -2.136968 49.985233 5.944481 -5.683559 0.130120 27.820833 1.565615 0.000000 0.000000 0.000000
0.002485 0.960756 0.010933 0.841794 -6.132792 -4.868902 -1.820587 0.147195 1.383583 -0.845791 -0.018888 6.439528 -2.035367 -0.899227 8.217726 0.000000 0.000000 0.000000 2.465553 -0.954905 8.108589 -0.158528 -0.064113 -1.914197 2.206674 -1.119977 10.798459 0.000000 0.000000 0.000000 6.600382 -1.343951 15.227492 -13.720952 3.664653 -27.186301 2.866068 6.363935 27.961540 10.103513 -8.037094 -7.729331 0.000000 0.000000 0.000000 -29.093546 -9.814195 3.850859 -45.712796 -3.528219 -6.529409 2.785559 -26.612383 0.612087 0.000000 0.000000 0.000000 37.029349 -0.641678 -1.818282 49.236824 5.684890 -5.692358 -0.025884 27.742888 1.511010 0.000000 0.000000 0.000000
0.002523 0.960494 0.013325 0.800575 -6.247725 -5.019718 -1.777002 0.109498 1.056942 -1.240914 0.043272 7.502650 -1.447861 0.123900 8.111689 0.000000 0.000000 0.000000 2.531878 -0.956996 8.089425 0.133340 -0.060957 -1.224247 1.647831 -1.984009 10.284072 0.000000 0.000000 0.000000 6.460903 -1.400673 16.206426 -13.715598 3.542358 -28.542936 3.104692 6.358636 28.862047 10.493019 -8.150017 -8.951884 0.000000 0.000000 0.000000 -28.735923 -9.586158 3.782330 -46.285412 -3.693917 -6.667153 2.834948 -27.082348 0.642376 0.000000 0.000000 0.000000 36.636907 -0.562275 -1.707881 49.258445 5.616494 -5.808218 0.231073 27.237675 1.535251 0.000000 0.000000 0.000000
0.002558 0.959933 0.015479 0.709517 -6.447256 -5.071633 -1.712777 0.024078 0.296521 -1.424086 0.071484 9.089300 -1.027417 0.847302 8.037379 0.000000 0.000000 0.000000 2.599839 -0.932880 7.824649 0.208186 -0.052943 -0.848672 1.585106 -2.382041 10.804558 0.000000 0.000000 0.000000 6.447258 -1.455326 16.995251 -13.224067 3.431633 -28.541492 2.787804 6.400502 28.915455 10.481217 -8.102274 -9.149216 0.000000 0.000000 0.000000 -29.064085 -9.350555 3.659098 -46.136869 -3.543372 -6.710544 2.949454 -27.412756 0.630641 0.000000 0.000000 0.000000 36.491305 -0.227958 -1.471678 49.051580 5.686837 -5.758449 0.345305 27.253440 1.549579 0.000000 0.000000 0.000000
0.002710 0.959309 0.017622 0.564543 -6.554772 -4.968558 -1.668622 -0.120942 -1.029556 -1.586242 0.103512 11.534298 -0.480548 1.707523 7.634133 0.000000 0.000000 0.000000 2.744865 -0.864391 7.069782 0.233052 -0.013465 0.219963 1.464931 -2.735703 11.028236 0.000000 0.000000 0.000000 6.286583 -1.556908 18.632678 -13.160868 3.315829 -29.673996 3.123268 6.033319 29.495252 10.711327 -8.311233 -9.515495 0.000000 0.000000 0.000000 -29.455810 -9.517392 3.961215 -46.114660 -3.757832 -6.736360 3.028481 -28.199937 0.663190 0.000000 0.000000 0.000000 36.097780 0.293378 -1.204243 48.719383 6.012988 -5.613740 0.484672 27.149704 1.548417 0.000000 0.000000 0.000000
0.002973 0.958478 0.020151 0.524367 -6.922798 -4.791355 -1.723873 -0.291967 -2.605009 -1.834977 0.183450 13.757032 0.196365 3.161810 8.496324 0.000000 0.000000 0.000000 2.711044 -0.772344 6.261014 0.236887 0.036020 1.433882 1.536762 -2.547706 10.809722 0.000000 0.000000 0.000000 6.231142 -1.649988 20.141343 -12.972612 3.176327 -30.667788 3.114861 5.921714 30.061967 11.133674 -8.466306 -10.767285 0.000000 0.000000 0.000000 -29.741171 -9.609555 4.191028 -46.106661 -4.396290 -6.618748 3.528641 -28.733522 0.586939 0.000000 0.000000 0.000000 35.949108 0.535944 -1.115187 48.080767 6.626785 -5.369060 0.550008 27.054250 1.539539 0.000000 0.000000 0.000000
0.003276 0.957208 0.023246 0.511929 -7.409260 -4.655748 -1.779493 -0.456777 -4.140873 -2.319362 0.353455 15.702313 1.267546 5.424769 10.161938 0.000000 0.000000 0.000000 2.704360 -0.715249 5.758582 0.078944 0.102033 2.528196 1.638722 -1.983379 9.920494 0.000000 0.000000 0.000000 6.223317 -1.730312 21.586365 -12.745718 3.047417 -31.649653 3.037180 5.616840 30.697810 11.388569 -8.500949 -12.094822 0.000000 0.000000 0.000000 -30.559458 -9.439229 4.368017 -45.768345 -4.925733 -6.531774 3.670018 -29.121750 0.601436 0.000000 0.000000 0.000000 35.635285 1.183310 -0.844265 47.746856 7.101473 -5.162816 1.005380 26.976156 1.602177 0.000000 0.000000 0.000000
0.003582 0.956538 0.027045 0.540715 -7.953370 -4.326358 -1.887897 -0.622233 -5.689479 -2.839981 0.557922 17.171018 2.584687 8.067603 12.638041 0.000000 0.000000 0.000000 2.825666 -0.631485 4.914780 -0.020808 0.183475 3.962653 1.215314 -2.424085 8.970870 0.000000 0.000000 0.000000 6.038035 -1.747029 22.692049 -12.131868 2.882619 -32.060467 2.685754 5.626772 30.832266 11.853296 -8.742931 -12.897263 0.000000 0.000000 0.000000 -30.496618 -9.485518 4.547368 -46.060359 -5.614632 -6.379650 4.113166 -29.145828 0.518017 0.000000 0.000000 0.000000 35.038750 1.499391 -0.701801 47.512639 7.548501 -4.953099 1.380753 26.955211 1.660867 0.000000 0.000000 0.000000
0.003949 0.954718 0.031104 0.356234 -8.380104 -4.198343 -1.793114 -0.770222 -7.233976 -3.319142 0.781526 18.955544 4.169700 10.919375 15.430430 0.000000 0.000000 0.000000 3.274924 -0.524846 3.710260 -0.210286 0.343459 6.443245 0.569827 -3.234071 7.873046 0.000000 0.000000 0.000000 6.162086 -1.879597 24.802402 -11.723035 2.779615 -32.115124 2.078325 5.017767 30.277498 12.216443 -9.284295 -12.344674 0.000000 0.000000 0.000000 -31.196052 -9.372022 4.800909 -45.376434 -6.034125 -6.207604 4.265748 -29.662198 0.516006 0.000000 0.000000 0.000000 34.948129 1.739078 -0.930149 46.796027 7.717219 -4.668831 2.289050 27.866664 1.877260 0.000000 0.000000 0.000000
0.004687 0.953612 0.034953 0.236480 -8.862904 -3.617908 -1.843951 -0.962631 -9.227741 -3.788811 1.026322 20.536801 6.230862 14.183449 18.975576 0.000000 0.000000 0.000000 3.348947 -0.328063 1.949741 -0.144811 0.482414 8.879141 0.388492 -3.399941 7.366774 0.000000 0.000000 0.000000 6.072768 -1.940524 26.659098 -10.316833 2.535805 -31.226258 0.956148 5.217257 29.049249 12.256231 -9.516576 -11.146485 0.000000 0.000000 0.000000 -31.240520 -9.628928 4.901985 -45.130355 -6.589753 -5.838206 3.973671 -29.519231 0.550032 0.000000 0.000000 0.000000 34.905224 2.083947 -0.754260 46.390858 8.189387 -4.322603 2.455824 28.708519 1.956497 0.000000 0.000000 0.000000
0.005822 0.952280 0.038024 0.006390 -9.279489 -2.812623 -1.552346 -1.162378 -11.847740 -4.164463 1.314983 23.069658 7.295257 15.715360 22.016498 0.000000 0.000000 0.000000 3.678228 -0.023180 -0.694728 -0.008249 0.690336 12.285779 -0.218046 -4.596396 7.173044 0.000000 0.000000 0.000000 6.130295 -2.059378 29.151024 -9.666656 2.403072 -30.825336 0.230955 4.595807 27.783435 11.874700 -9.427673 -9.993082 0.000000 0.000000 0.000000 -31.539009 -9.464796 5.045226 -44.879738 -7.185266 -5.553884 4.159788 -29.890893 0.527977 0.000000 0.000000 0.000000 34.659176 2.594617 -0.778621 45.925277 8.646477 -3.868592 2.719520 29.849834 2.048412 0.000000 0.000000 0.000000
0.007518 0.950893 0.040494 -0.038850 -9.489123 -2.346419 -1.487318 -1.373813 -14.586283 -5.053799 1.845368 26.005916 9.660878 18.733933 26.153948 0.000000 0.000000 0.000000 2.955255 0.407184 -4.080740 1.344154 0.754780 17.353635 -0.332051 -5.196798 7.938251 0.000000 0.000000 0.000000 5.864037 -2.093923 31.818977 -8.771739 2.226547 -30.110519 -0.391052 4.256544 26.517536 12.126781 -9.597871 -9.956575 0.000000 0.000000 0.000000 -30.903702 -10.039929 5.435145 -45.186951 -7.911437 -5.214865 4.082846 -30.097067 0.535872 0.000000 0.000000 0.000000 35.310843 3.189004 -0.588959 44.547376 9.051067 -3.469480 2.759221 30.500437 2.050129 0.000000 0.000000 0.000000
0.009665 0.943275 0.043344 -0.131731 -9.207613 -2.232339 -0.280018 -1.460199 -18.358831 -6.823064 3.018200 31.812102 9.581987 18.721287 28.518227 0.000000 0.000000 0.000000 1.720179 0.997642 -8.955490 3.710675 0.598356 25.117390 -0.485389 -6.355028 10.080855 0.000000 0.000000 0.000000 5.533669 -2.160871 35.254098 -8.848445 2.249337 -29.519067 -0.518224 3.507881 24.627567 11.620267 -9.653385 -7.500962 0.000000 0.000000 0.000000 -32.205414 -10.155646 5.568398 -42.933781 -7.929305 -4.853392 3.329969 -31.097998 0.695742 0.000000 0.000000 0.000000 36.140821 3.718017 -0.511877 42.375537 8.906494 -3.158028 2.317859 31.496604 1.927704 0.000000 0.000000 0.000000
0.011972 0.928397 0.047564 -0.651927 -9.470725 -2.139046 1.362984 -1.323060 -22.034452 -8.113941 4.414432 38.599751 6.279749 14.638625 23.190019 0.000000 0.000000 0.000000 0.759718 1.580989 -13.936540 6.096356 0.282438 33.628005 0.045875 -5.802799 11.403435 0.000000 0.000000 0.000000 5.475739 -2.218875 38.202092 -8.691419 2.178487 -29.796190 -0.693545 3.296706 23.754832 11.745642 -10.037271 -6.286681 0.000000 0.000000 0.000000 -32.470282 -10.987508 6.176109 -41.835989 -7.451553 -4.875716 3.075937 -32.277586 0.765048 0.000000 0.000000 0.000000 36.125605 4.882307 0.286616 40.488942 8.836293 -3.007438 2.518840 32.234857 1.970765 0.000000 0.000000 0.000000
0.014228 0.893519 0.052293 -0.869721 -9.536441 -3.416928 3.505333 -0.936682 -26.409339 -9.935561 6.873858 48.825094 4.654531 11.955656 15.949646 0.000000 0.000000 0.000000 -1.515048 2.220562 -20.918092 10.197238 -1.095520 46.526317 -0.089665 -6.164292 12.287381 0.000000 0.000000 0.000000 5.071125 -2.174198 42.681637 -9.267429 2.265512 -30.557739 -0.335299 2.976724 23.652202 11.900336 -9.959008 -7.301196 0.000000 0.000000 0.000000 -33.113481 -11.581987 6.597882 -40.051439 -6.825038 -4.894805 3.021563 -34.402304 0.795303 0.000000 0.000000 0.000000 35.993084 5.592839 0.817891 39.638023 9.487247 -2.770731 1.390706 33.036413 1.690020 0.000000 0.000000 0.000000
0.016339 0.839943 0.055735 -1.534490 -9.358010 -5.000120 6.764631 -0.024159 -30.358938 -11.596977 10.071914 61.298277 4.454729 9.807364 2.918489 0.000000 0.000000 0.000000 -2.788796 2.846961 -27.579736 12.809490 -2.731659 59.577670 -1.897357 -7.601227 6.910460 0.000000 0.000000 0.000000 4.582621 -2.110470 46.510105 -8.683764 2.108004 -31.022243 -0.538535 3.203544 22.128681 11.649404 -10.766137 -3.046509 0.000000 0.000000 0.000000 -33.910256 -12.347305 6.770860 -37.623073 -5.270241 -4.914969 0.633882 -36.137211 1.470464 0.000000 0.000000 0.000000 37.254217 6.268985 1.544408 36.829358 9.366115 -2.679550 0.580938 33.827825 1.460576 0.000000 0.000000 0.000000
0.018949 0.770301 0.056227 -2.696859 -9.077915 -7.102784 9.994411 1.152620 -34.411043 -12.218563 13.186288 75.910738 6.573430 11.603399 -10.014366 0.000000 0.000000 0.000000 -3.836231 3.457943 -34.342558 15.677212 -6.015545 73.965921 -6.279357 -14.875983 -5.189089 0.000000 0.000000 0.000000 4.335633 -2.202064 51.256757 -10.280088 2.218156 -35.027150 0.717228 2.299445 25.516086 11.727678 -11.277434 -3.336756 0.000000 0.000000 0.000000 -34.711108 -14.143878 8.596027 -34.581380 -6.071248 -4.803228 1.118384 -37.159301 1.329386 0.000000 0.000000 0.000000 38.699037 7.850725 2.662840 33.398412 10.594135 -2.473482 -2.146189 34.661740 0.649593 0.000000 0.000000 0.000000
0.022455 0.694409 0.051662 -3.895222 -10.092558 -9.391617 13.300659 2.899145 -38.437295 -11.750108 16.400263 91.583009 7.943161 13.089658 -17.843074 0.000000 0.000000 0.000000 -4.403089 4.443419 -41.552750 18.476010 -10.571018 87.689012 -8.959113 -23.084985 -12.366342 0.000000 0.000000 0.000000 3.382943 -1.596470 56.146771 -11.162938 2.272776 -35.900631 1.420626 1.457462 25.301999 11.463604 -11.812959 -1.137684 0.000000 0.000000 0.000000 -34.362614 -15.035177 9.563900 -32.465867 -6.086775 -4.686343 3.147804 -38.088537 0.643091 0.000000 0.000000 0.000000 40.293959 8.718019 2.836764 28.882151 12.196158 -1.808948 -3.806437 34.546144 0.024426 0.000000 0.000000 0.000000
0.027643 0.618764 0.040574 -5.152729 -10.793079 -11.584323 16.042728 4.748389 -42.770620 -10.325473 17.807259 106.908627 9.115721 13.783572 -28.091356 0.000000 0.000000 0.000000 -5.869486 4.947458 -47.890402 20.204554 -15.700061 98.192382 -9.828868 -28.938558 -20.271342 0.000000 0.000000 0.000000 2.109572 -0.750013 61.461273 -10.713616 2.116328 -37.322677 0.592922 1.676398 25.892264 11.620408 -11.885819 -1.511574 0.000000 0.000000 0.000000 -32.700762 -15.867843 9.779948 -30.880464 -7.193720 -4.251509 6.075801 -40.686472 -0.409035 0.000000 0.000000 0.000000 41.009067 10.031274 4.178798 24.478827 12.673811 -1.655385 -7.609058 37.058475 -1.262015 0.000000 0.000000 0.000000
0.034851 0.547866 0.023718 -6.647924 -11.782425 -14.293124 17.827280 6.677479 -47.899232 -9.155163 18.773798 120.490775 9.390434 14.709000 -29.286150 0.000000 0.000000 0.000000 -7.750662 5.453129 -55.395681 22.799361 -23.175437 105.554672 -11.700052 -37.298914 -20.689098 0.000000 0.000000 0.000000 -0.218942 0.916880 65.138937 -9.881893 2.033714 -35.202797 0.967219 2.366315 23.726439 12.032010 -12.741983 0.803747 0.000000 0.000000 0.000000 -30.855270 -17.867488 10.330151 -29.815417 -7.136367 -3.861092 11.084647 -44.503204 -2.579468 0.000000 0.000000 0.000000 40.584551 10.918929 5.124410 20.887822 13.086087 -1.399067 -8.450126 38.422049 -1.734410 0.000000 0.000000 0.000000
0.044524 0.485274 0.003424 -9.040092 -13.186989 -16.780767 19.610667 8.742361 -51.660508 -8.668999 20.850234 132.053296 9.637267 16.685854 -29.239110 0.000000 0.000000 0.000000 -8.861029 5.837197 -59.527395 24.266178 -28.223647 109.718364 -11.163889 -40.006898 -26.032682 0.000000 0.000000 0.000000 -3.159313 3.225760 68.543229 -7.865550 1.329599 -38.601948 1.256117 4.664820 26.622295 10.660321 -12.182871 3.319759 0.000000 0.000000 0.000000 -29.174474 -18.551860 9.930325 -27.962865 -8.000121 -3.553706 16.408367 -48.554228 -5.372549 0.000000 0.000000 0.000000 41.018883 11.772625 7.343579 16.981605 13.491605 -1.636933 -12.006512 38.405269 -2.971561 0.000000 0.000000 0.000000
0.056850 0.433546 -0.017768 -11.810778 -14.370195 -19.889892 21.126744 10.490452 -54.518780 -9.094898 24.430495 139.120395 9.898666 20.120585 -27.507891 0.000000 0.000000 0.000000 -9.458086 6.062930 -62.042279 23.722673 -29.400195 112.576320 -10.085971 -38.211063 -29.742116 0.000000 0.000000 0.000000 -7.227502 6.034395 69.760562 -5.461868 0.661775 -38.212303 3.229213 7.034816 26.420747 8.483191 -11.777498 10.540959 0.000000 0.000000 0.000000 -29.832696 -21.011234 10.607729 -25.665836 -6.609972 -3.275722 19.500568 -51.417846 -7.605667 0.000000 0.000000 0.000000 41.176628 11.921718 8.736770 15.203880 10.866810 -1.969440 -13.510533 39.794314 -3.681125 0.000000 0.000000 0.000000
0.071689 0.392039 -0.039077 -14.707627 -15.299714 -24.151508 22.401244 11.596405 -55.932983 -10.024587 30.410784 144.462971 10.911295 27.170804 -26.743410 0.000000 0.000000 0.000000 -10.127087 5.559633 -61.781810 24.946408 -31.992310 112.793691 -9.498642 -37.547832 -31.976875 0.000000 0.000000 0.000000 -11.666481 8.847769 71.064437 -1.780548 -0.410772 -40.149597 4.818800 10.410141 29.133469 6.222720 -9.788274 13.241606 0.000000 0.000000 0.000000 -29.238655 -22.092069 10.106839 -25.172802 -6.378233 -3.134159 24.245582 -53.740414 -10.804275 0.000000 0.000000 0.000000 41.823416 10.682085 9.943719 13.867579 8.756544 -2.447395 -13.305930 37.291877 -3.376594 0.000000 0.000000 0.000000
0.088644 0.365662 -0.060850 -17.787108 -14.772622 -26.897128 22.726047 11.393481 -57.442403 -11.542057 36.834221 145.798466 12.911038 34.877316 -20.959017 0.000000 0.000000 0.000000 -11.325142 4.200747 -61.740547 23.281115 -31.118131 114.665100 -8.486596 -29.054478 -31.786651 0.000000 0.000000 0.000000 -16.240365 9.866411 66.384965 2.409668 -1.643284 -31.466533 4.057989 14.028300 23.366283 2.885292 -6.891713 17.761326 0.000000 0.000000 0.000000 -28.739798 -23.145312 8.260949 -26.245003 -4.276843 -2.603638 26.015523 -56.003969 -13.298146 0.000000 0.000000 0.000000 42.067428 9.767632 10.600938 14.721831 3.638048 -2.911004 -10.538003 36.253818 -2.428293 0.000000 0.000000 0.000000
0.106546 0.348758 -0.084537 -20.608800 -15.408685 -29.212211 24.476889 11.954963 -56.121585 -12.311264 40.018736 146.585377 12.209419 33.222721 -20.411594 0.000000 0.000000 0.000000 -11.886003 3.497227 -60.446185 23.169372 -30.508971 113.946274 -8.115885 -25.202866 -30.397038 0.000000 0.000000 0.000000 -20.489005 10.576438 61.029658 5.855229 -3.049586 -24.572004 1.763332 17.902347 18.733268 1.855965 -6.824240 19.420204 0.000000 0.000000 0.000000 -26.360661 -23.110325 5.998328 -27.003666 -4.817155 -1.701155 23.465814 -57.967627 -13.635312 0.000000 0.000000 0.000000 40.956278 7.407616 10.094476 18.089880 -0.451122 -3.924686 -6.122668 36.448801 -0.916215 0.000000 0.000000 0.000000
0.126379 0.340263 -0.111456 -23.766945 -15.834092 -30.523387 26.373341 12.397872 -54.586957 -13.183515 42.259709 146.316111 13.171793 35.682017 -16.820004 0.000000 0.000000 0.000000 -11.637639 3.185986 -59.085759 21.545677 -27.360090 113.322056 -7.710119 -20.853100 -26.523970 0.000000 0.000000 0.000000 -24.084036 10.652637 55.635410 8.308292 -4.137519 -16.775097 -0.328216 19.442136 13.512712 1.057917 -6.239642 19.325888 0.000000 0.000000 0.000000 -23.208230 -23.525858 5.446430 -29.077456 -6.802031 -0.934888 22.797930 -54.859702 -13.075316 0.000000 0.000000 0.000000 36.986967 5.276705 8.234700 22.202341 -5.330616 -5.072899 -2.202928 38.080744 0.659728 0.000000 0.000000 0.000000
0.148669 0.337284 -0.143420 -26.350024 -18.557924 -31.398717 28.220740 13.622801 -51.852120 -11.849594 38.871033 148.084383 12.941992 33.840471 -11.483529 0.000000 0.000000 0.000000 -11.615264 3.650785 -58.061877 22.784596 -24.752452 107.249165 -8.019284 -21.672019 -20.432225 0.000000 0.000000 0.000000 -27.287546 11.194494 50.553297 8.217071 -4.159924 -13.999737 0.649439 19.928878 14.071487 1.558762 -4.784005 14.498992 0.000000 0.000000 0.000000 -19.420563 -22.736009 5.704163 -31.103963 -11.376909 -0.312058 21.370016 -49.410271 -10.819981 0.000000 0.000000 0.000000 30.212894 3.871941 5.675325 27.005093 -8.221372 -6.187899 3.369159 39.146094 2.959296 0.000000 0.000000 0.000000
0.175265 0.339103 -0.180726 -28.908317 -21.794562 -31.223556 28.853292 14.362101 -49.057009 -10.004403 32.697473 149.388275 10.836415 27.194508 -6.279446 0.000000 0.000000 0.000000 -12.519204 4.043343 -58.294732 27.274493 -25.708990 98.829833 -9.894632 -26.759515 -11.695869 0.000000 0.000000 0.000000 -29.242730 11.408783 46.001609 7.690914 -4.126035 -8.916125 1.327996 20.917552 11.604989 1.287038 -3.646692 11.855530 0.000000 0.000000 0.000000 -17.117570 -22.788591 5.890383 -31.798013 -14.243805 0.399013 18.151211 -42.911028 -7.776218 0.000000 0.000000 0.000000 24.781550 3.712204 4.648598 29.939358 -10.348788 -6.694313 7.722158 42.034088 5.127118 0.000000 0.000000 0.000000
0.205802 0.333760 -0.222160 -31.232187 -24.466759 -31.748185 25.390497 13.162937 -49.427644 -8.370087 27.558971 150.415157 10.218952 26.504720 -11.384040 0.000000 0.000000 0.000000 -13.908178 3.981119 -59.069466 33.921658 -26.871368 86.208674 -16.006269 -35.960491 4.222805 0.000000 0.000000 0.000000 -28.242467 9.911868 41.654181 2.836028 -1.860691 -5.353894 5.559596 17.390028 12.511572 0.941503 -1.715143 7.322169 0.000000 0.000000 0.000000 -16.852314 -21.263047 6.459723 -33.711567 -14.804982 0.137011 18.200636 -39.907036 -6.470834 0.000000 0.000000 0.000000 16.425704 4.036246 2.550372 32.744888 -11.135528 -6.810071 14.534326 50.160759 9.647487 0.000000 0.000000 0.000000
0.238700 0.324087 -0.264728 -32.097581 -30.199775 -31.822324 23.862992 14.734556 -49.597666 -7.410434 26.237834 150.056545 9.975139 27.060438 -15.583201 0.000000 0.000000 0.000000 -16.393630 5.093162 -61.374857 43.064429 -27.576708 73.638271 -24.823652 -41.914463 23.791568 0.000000 0.000000 0.000000 -27.751796 9.973981 37.834488 3.220535 -2.074880 -2.473281 3.013320 19.434792 10.304420 3.508246 -4.027847 6.307189 0.000000 0.000000 0.000000 -14.402396 -22.788388 7.204360 -35.474101 -10.959718 -0.919237 17.301011 -35.566755 -5.292173 0.000000 0.000000 0.000000 12.287985 6.773077 3.455789 36.298306 -8.057238 -6.379260 6.149986 61.440377 7.956745 0.000000 0.000000 0.000000
0.272187 0.308204 -0.304892 -33.448313 -33.194598 -31.861156 20.817608 15.018336 -53.035617 -6.676412 25.316886 150.823496 10.180103 29.197849 -22.135488 0.000000 0.000000 0.000000 -20.122820 4.480708 -63.351992 52.592723 -32.199253 68.136663 -28.570123 -48.195797 20.261154 0.000000 0.000000 0.000000 -24.179872 8.813072 36.918310 -1.732170 0.594323 -0.627272 5.400932 17.213791 7.152213 4.922747 -5.237085 5.731068 0.000000 0.000000 0.000000 -15.100729 -22.149255 7.490208 -37.670134 -6.856916 -2.105666 16.999391 -36.269328 -4.951594 0.000000 0.000000 0.000000 8.984278 9.449953 3.838081 34.702199 -6.362103 -5.266933 -29.320827 81.085373 -19.261709 0.000000 0.000000 0.000000
0.305747 0.290329 -0.341440 -31.054766 -35.706459 -35.047599 16.145142 13.239780 -54.220138 -6.323974 26.627143 149.409895 10.714683 32.570332 -25.174464 0.000000 0.000000 0.000000 -22.883938 4.511061 -66.246534 62.804501 -37.977517 63.994703 -35.444877 -57.846708 17.866165 0.000000 0.000000 0.000000 -24.402532 8.755922 35.639283 -2.170116 0.492593 -3.155536 7.016641 18.853922 12.653381 5.112355 -4.840715 3.552364 0.000000 0.000000 0.000000 -14.968134 -21.198340 7.153197 -41.533057 -3.181969 -4.016863 18.900777 -37.392505 -5.699879 0.000000 0.000000 0.000000 5.909043 10.365649 3.901301 33.912655 0.586484 -3.656657 -122.864356 74.384704 -99.905909 0.000000 0.000000 0.000000
0.339962 0.270887 -0.376758 -28.659332 -39.314979 -40.268409 15.226991 14.414046 -55.039354 -6.248469 27.275601 149.097562 10.562649 32.597607 -24.951427 0.000000 0.000000 0.000000 -22.701017 6.195213 -67.363215 69.087059 -39.439078 60.119039 -41.027903 -57.292305 28.508297 0.000000 0.000000 0.000000 -20.326163 7.089234 34.791653 -6.895552 4.175932 3.129861 6.352713 21.158121 6.146850 8.372707 -10.097567 9.769726 0.000000 0.000000 0.000000 -17.841972 -22.264115 6.614299 -40.766470 4.092921 -5.254945 14.894353 -39.048683 -4.998000 0.000000 0.000000 0.000000 9.532610 8.033961 3.564328 29.851869 5.877559 -1.909937 -127.905582 69.348248 -99.456012 0.000000 0.000000 0.000000
0.375517 0.252812 -0.412672 -25.228766 -39.312464 -45.726609 11.684303 12.350007 -57.189864 -7.941253 32.734667 144.792005 11.152611 37.493719 -25.048061 0.000000 0.000000 0.000000 -20.665338 7.340937 -67.887331 61.128256 -37.503604 66.707491 -35.457868 -50.817838 30.014602 0.000000 0.000000 0.000000 -20.936040 7.096675 35.496804 -7.901625 5.145413 3.828146 8.510481 22.886641 5.120525 10.246556 -13.203848 11.842264 0.000000 0.000000 0.000000 -20.574821 -20.165150 4.374911 -39.834506 11.586942 -6.929889 11.306084 -45.728117 -4.973947 0.000000 0.000000 0.000000 12.367937 7.769449 4.139005 26.261920 6.610409 -1.671456 -128.827130 70.414328 -101.421231 0.000000 0.000000 0.000000
0.411457 0.236963 -0.448795 -24.194145 -38.927591 -50.029624 7.402487 9.449625 -60.373097 -9.708686 37.001142 141.591294 13.353042 45.145034 -16.955488 0.000000 0.000000 0.000000 -18.793771 7.926297 -67.847229 53.216867 -34.512396 72.280032 -28.077693 -40.612561 36.314377 0.000000 0.000000 0.000000 -20.311901 6.533571 36.750883 -6.434804 5.330704 7.824111 7.833724 24.343076 0.323089 10.069650 -17.330625 19.524756 0.000000 0.000000 0.000000 -25.006176 -18.735325 0.697300 -35.086585 17.851613 -6.255386 4.385966 -49.902747 -3.235116 0.000000 0.000000 0.000000 15.904154 6.406731 4.815550 23.704737 7.336649 -1.349674 -126.832388 73.755051 -101.953552 0.000000 0.000000 0.000000
0.445840 0.217606 -0.482747 -19.296249 -39.462115 -57.685643 7.032626 9.122971 -58.732609 -15.773056 46.218460 131.904795 14.412549 57.575662 -23.517590 0.000000 0.000000 0.000000 -11.175520 11.333228 -62.553900 40.937222 -23.639528 76.086884 -24.859095 -36.512579 40.222711 0.000000 0.000000 0.000000 -19.800897 5.724254 36.613943 -6.683876 9.389679 16.249550 4.045596 22.775904 -11.553823 7.930986 -19.365273 28.394457 0.000000 0.000000 0.000000 -23.767183 -17.126682 -2.565744 -35.309351 24.819669 -6.195776 -2.934206 -56.961777 -2.092711 0.000000 0.000000 0.000000 23.881873 4.841700 6.396080 17.012545 2.257428 -1.020095 -112.650194 77.699389 -91.340531 0.000000 0.000000 0.000000
0.476434 0.200334 -0.512645 -16.203378 -38.339822 -63.490673 4.695697 7.311502 -60.391746 -17.844130 48.128377 129.192657 18.371123 58.502213 -12.240371 0.000000 0.000000 0.000000 -4.943513 12.770866 -56.844588 30.700289 -14.046362 75.087903 -19.629957 -32.557449 35.789610 0.000000 0.000000 0.000000 -21.559664 5.074004 37.360528 1.088457 6.935110 28.887937 -7.188750 21.910244 -28.950632 -0.196282 -20.096869 39.457215 0.000000 0.000000 0.000000 -21.838358 -13.429946 -7.574465 -29.989628 28.837681 -3.148834 -15.705535 -63.123319 3.572567 0.000000 0.000000 0.000000 27.554943 2.747081 11.741536 15.122524 1.619494 0.180919 -77.157549 76.520303 -51.949714 0.000000 0.000000 0.000000
0.502475 0.186302 -0.537179 -11.938856 -36.693742 -70.889050 3.749326 5.806042 -59.019936 -18.803825 46.616828 125.080980 20.126543 62.358389 -14.066532 0.000000 0.000000 0.000000 1.781199 12.825790 -47.397110 17.597916 -2.374579 68.744043 -12.159858 -25.259098 30.175739 0.000000 0.000000 0.000000 -19.254775 2.043672 33.890193 8.004969 14.417939 55.772520 -11.836899 5.738921 -50.613888 -3.478674 -15.464475 42.094537 0.000000 0.000000 0.000000 -13.467228 -9.500778 -2.711406 -40.628728 24.539528 -4.653457 -14.735729 -74.690761 4.101292 0.000000 0.000000 0.000000 21.525291 2.233897 6.385554 18.769634 -2.233116 0.707408 -41.515187 80.574000 -18.460318 0.000000 0.000000 0.000000
0.522943 0.171206 -0.556063 -9.270939 -35.538048 -76.541552 2.219538 4.651597 -60.806109 -19.164667 45.897087 123.793140 29.205590 60.549013 8.381496 0.000000 0.000000 0.000000 6.214187 12.164251 -39.682342 5.502249 5.888953 61.120497 -4.642184 -16.259608 27.063555 0.000000 0.000000 0.000000 -15.800106 -0.091315 31.286840 16.482755 3.766226 84.630102 -22.722208 -9.001394 -69.070138 0.537359 -16.170293 32.829422 0.000000 0.000000 0.000000 -4.070652 -4.441556 2.032073 -49.355751 11.554928 -3.318519 -9.717206 -79.382431 0.789692 0.000000 0.000000 0.000000 13.998207 0.320230 2.456747 26.286635 0.559458 1.511914 -35.154133 74.923282 -8.905469 0.000000 0.000000 0.000000
0.537658 0.159959 -0.569835 -5.601995 -34.590244 -83.496018 3.703374 5.127119 -56.738296 -16.848823 40.261083 121.423800 28.510204 59.624721 5.478099 0.000000 0.000000 0.000000 11.369093 11.173636 -30.141845 -7.310044 11.614850 49.009581 -0.489195 -11.225501 26.710821 0.000000 0.000000 0.000000 -8.671277 -0.883707 27.741701 12.384141 10.938842 77.204340 -11.678688 -6.780260 -59.204654 3.283592 -13.971913 38.273470 0.000000 0.000000 0.000000 -11.254699 -10.213547 -0.063177 -48.001716 12.942678 -1.271089 30.663782 -77.514541 -29.396754 0.000000 0.000000 0.000000 8.561956 1.487339 0.705319 29.657236 -2.307911 1.879131 -45.949340 71.478056 -19.206172 0.000000 0.000000 0.000000
0.547092 0.152370 -0.579823 -6.502522 -31.498608 -84.303859 0.856350 1.613421 -57.334321 -15.123360 36.274726 120.986540 25.251134 52.538816 5.730015 0.000000 0.000000 0.000000 9.750033 9.329729 -27.683969 -13.058173 12.242519 41.773953 1.039493 -6.961271 20.014327 0.000000 0.000000 0.000000 -6.860256 -1.737242 22.965557 12.960161 9.326682 86.945386 -5.720434 -7.947050 -66.404716 5.152562 -12.745496 36.702114 0.000000 0.000000 0.000000 -10.198978 -8.739178 0.223521 -50.866022 7.607362 0.403862 36.089181 -74.840145 -30.927942 0.000000 0.000000 0.000000 1.058202 1.473117 0.345938 34.690833 -2.630327 2.113539 -55.514684 69.302817 -26.329835 0.000000 0.000000 0.000000
0.553248 0.149806 -0.588090 -4.994786 -31.262981 -87.268316 1.048580 1.528250 -54.459658 -10.057381 26.916598 120.391857 20.180334 45.508785 -0.410141 0.000000 0.000000 0.000000 9.445794 7.948741 -23.720189 -14.756372 9.888012 31.476808 4.429719 -5.567234 28.149590 0.000000 0.000000 0.000000 0.391686 -0.495861 19.875952 6.630683 10.925685 64.947334 -2.541675 -6.196868 -44.535443 8.501295 -13.790860 41.680211 0.000000 0.000000 0.000000 -16.605834 -14.227085 2.950229 -45.819588 6.004877 0.777603 38.345006 -68.718244 -27.720023 0.000000 0.000000 0.000000 3.236571 0.044490 -0.386464 35.276543 -5.933947 0.696196 -71.607217 72.833918 -47.071848 0.000000 0.000000 0.000000
0.557193 0.150997 -0.596025 -4.007621 -30.270369 -88.745158 -0.186940 0.179067 -51.063332 -6.206947 20.544262 118.867598 16.057265 36.620628 -3.354420 0.000000 0.000000 0.000000 7.556617 6.321979 -20.902391 -13.570319 7.003726 23.328119 6.306901 -5.172890 32.300269 0.000000 0.000000 0.000000 4.678612 0.584204 15.695765 2.772307 10.615298 53.632859 0.351315 -6.986970 -31.172009 12.005267 -13.985584 37.972195 0.000000 0.000000 0.000000 -20.871730 -15.410765 5.786826 -41.016848 2.155413 0.287621 39.906795 -64.242734 -24.277015 0.000000 0.000000 0.000000 2.709973 0.144170 -0.450604 38.827455 -7.535089 -1.051748 -80.208102 72.897884 -59.551086 0.000000 0.000000 0.000000
0.559742 0.154711 -0.603961 -3.514210 -30.250475 -89.819882 -0.312028 -0.163761 -47.340383 -3.503502 15.438117 117.163759 14.107357 31.624754 -8.276063 0.000000 0.000000 0.000000 6.414638 5.087183 -17.596180 -10.767514 4.594704 17.570441 5.720910 -7.086278 34.982882 0.000000 0.000000 0.000000 6.972464 1.254426 14.417981 -0.124039 10.221563 42.662558 0.879660 -7.055334 -19.453270 11.584516 -13.336543 37.332520 0.000000 0.000000 0.000000 -21.167812 -14.478229 6.524495 -39.619818 -2.774126 0.334504 40.546764 -63.210363 -23.415689 0.000000 0.000000 0.000000 4.907160 -0.104433 -1.073991 37.828701 -7.311606 -1.909239 -76.729213 75.776453 -60.679684 0.000000 0.000000 0.000000
0.561436 0.153949 -0.612067 -1.743716 -28.881219 -90.610594 -0.425737 -0.379819 -45.399729 -2.062171 12.640377 112.970661 13.095123 27.957586 -7.652906 0.000000 0.000000 0.000000 4.655542 3.893017 -15.206420 -9.155902 3.524494 14.666084 6.233708 -6.806468 34.855732 0.000000 0.000000 0.000000 7.970205 1.726168 11.785416 -1.519893 11.742217 40.241746 1.885737 -9.404808 -17.087500 11.056874 -11.706033 36.331723 0.000000 0.000000 0.000000 -23.952783 -13.736792 7.342392 -37.588395 -6.036922 0.537603 46.554426 -60.682896 -25.252373 0.000000 0.000000 0.000000 6.999999 1.250043 -1.105483 36.555779 -10.239318 -2.955941 -79.446223 77.272677 -65.387056 0.000000 0.000000 0.000000
0.562268 0.151532 -0.619086 -1.426917 -27.162958 -91.629881 -0.926108 -1.196439 -42.524249 -3.765121 13.957388 108.080727 14.638676 29.801940 -5.114066 0.000000 0.000000 0.000000 2.819539 2.587404 -11.479740 -8.595300 3.176708 13.489026 7.332754 -5.561601 35.202310 0.000000 0.000000 0.000000 6.690580 1.427522 10.644832 -2.331427 11.889957 38.121144 2.614690 -8.553371 -15.564826 9.049305 -9.958371 35.722279 0.000000 0.000000 0.000000 -23.035287 -13.943634 7.325272 -40.411836 -8.207897 0.975324 50.070568 -59.344523 -27.009246 0.000000 0.000000 0.000000 8.644918 1.505728 -1.226848 35.752305 -12.025837 -3.492475 -70.905946 77.843604 -57.726534 0.000000 0.000000 0.000000
0.562512 0.148695 -0.624760 -0.665463 -25.274120 -91.044409 -1.754079 -1.908372 -42.973447 -4.029485 13.394781 102.980038 14.548132 28.232729 -0.276284 0.000000 0.000000 0.000000 0.591264 1.860491 -11.385719 -7.248872 3.009992 14.609256 9.191661 -4.093546 37.114069 0.000000 0.000000 0.000000 4.698789 0.853121 9.091843 -3.703428 9.521056 28.566429 1.241848 -5.240387 -5.392848 8.536850 -10.311242 32.895211 0.000000 0.000000 0.000000 -24.736354 -12.701955 6.590945 -38.696772 -9.021303 0.090977 50.354247 -60.669654 -27.653485 0.000000 0.000000 0.000000 9.945533 0.335994 -1.792579 35.426800 -11.076367 -3.940878 -61.110133 81.020493 -51.962396 0.000000 0.000000 0.000000
0.562583 0.145927 -0.629079 -0.644298 -25.265912 -91.436813 -1.533504 -1.834806 -41.767763 -5.540774 14.870588 98.571396 18.749818 34.059497 3.936005 0.000000 0.000000 0.000000 1.746138 2.203748 -11.452435 -7.179651 3.650945 18.194249 8.820376 -4.910987 39.031892 0.000000 0.000000 0.000000 5.848365 1.083856 10.631659 -3.015572 6.041703 22.858477 -1.713755 -3.816810 -0.406347 6.750332 -8.567363 31.825584 0.000000 0.000000 0.000000 -26.504836 -12.597476 6.609469 -36.146961 -7.359460 -0.817129 48.654295 -63.932234 -28.479009 0.000000 0.000000 0.000000 13.069871 2.465086 -1.346787 33.155745 -12.699447 -4.121514 -71.781271 81.115001 -62.856215 0.000000 0.000000 0.000000
0.562742 0.148481 -0.632572 -2.087259 -24.477460 -90.978733 -2.778284 -2.954626 -42.086240 -6.241745 14.412933 94.881882 18.786883 31.912751 12.273112 0.000000 0.000000 0.000000 -0.624785 1.778041 -13.174917 -4.734291 4.151448 24.976218 9.607704 -3.352933 37.980832 0.000000 0.000000 0.000000 3.653853 0.472880 11.057048 -2.552925 4.534038 19.876617 1.047614 -1.844542 1.264333 5.543992 -6.650411 26.252444 0.000000 0.000000 0.000000 -28.857047 -12.750147 6.741636 -35.718948 -5.114979 -1.451972 45.684698 -70.572468 -30.100678 0.000000 0.000000 0.000000 10.407751 1.213568 -1.343824 32.588411 -9.620095 -3.510190 -62.581726 82.345623 -55.026400 0.000000 0.000000 0.000000
0.562047 0.147933 -0.635381 -2.592185 -24.366573 -90.950639 -2.096432 -2.653885 -42.125488 -6.884585 13.817087 92.505951 18.471202 30.241591 17.933752 0.000000 0.000000 0.000000 -1.630061 2.246873 -17.968801 -2.879734 5.195571 33.885496 9.991461 -3.071323 39.894555 0.000000 0.000000 0.000000 3.221316 0.312854 11.412695 -1.563485 2.522917 17.124431 -0.438748 -0.547346 3.416154 5.424575 -6.760884 25.600101 0.000000 0.000000 0.000000 -28.998222 -11.958687 5.833128 -34.860290 -4.356991 -1.608167 30.671207 -75.673643 -21.238206 0.000000 0.000000 0.000000 11.816979 4.071823 -0.058979 31.358838 -7.429334 -2.847953 -55.611659 79.929434 -46.889786 0.000000 0.000000 0.000000
0.560620 0.150586 -0.638586 -3.654166 -23.838370 -91.035702 -1.631629 -2.627740 -40.939584 -7.594619 12.452185 87.707988 16.360859 26.338011 26.069632 0.000000 0.000000 0.000000 -3.274056 1.888712 -19.320203 -2.396523 6.182948 39.799430 9.421726 -3.079371 39.296327 0.000000 0.000000 0.000000 3.411728 0.420659 10.714112 -0.796606 1.225196 15.565376 0.086566 -0.936293 5.750634 3.342858 -3.990992 21.368346 0.000000 0.000000 0.000000 -28.078937 -14.254995 8.092477 -36.785294 -4.980577 -1.999530 44.199514 -75.174385 -31.440484 0.000000 0.000000 0.000000 8.992600 4.407891 0.418524 32.835396 -3.073901 -2.404230 -64.365761 76.865447 -52.334988 0.000000 0.000000 0.000000
0.558859 0.154758 -0.641613 -4.869667 -22.889671 -89.993930 -1.406805 -2.854333 -43.236644 -8.547887 12.475641 89.412110 11.376844 21.149203 30.252153 0.000000 0.000000 0.000000 -6.451260 1.205116 -22.658900 -0.629040 7.066304 48.467788 9.533358 -0.908440 34.862516 0.000000 0.000000 0.000000 1.605720 0.054118 8.184085 -1.846664 3.615471 19.116603 4.137001 -1.165766 2.123115 2.548683 -3.408638 23.233369 0.000000 0.000000 0.000000 -29.756834 -14.793721 8.394002 -36.128540 -5.560887 -1.398803 50.926001 -78.999553 -39.294093 0.000000 0.000000 0.000000 8.902585 4.386208 0.493667 32.452252 -0.976000 -1.714029 -69.598741 72.611529 -51.809307 0.000000 0.000000 0.000000
0.557064 0.159431 -0.643910 -6.617503 -22.827107 -88.362185 -1.385370 -3.142147 -45.448062 -8.361722 11.253652 89.468377 10.991508 20.733862 35.513643 0.000000 0.000000 0.000000 -5.957921 1.610562 -24.426125 -0.837170 7.607063 52.524634 8.839182 -1.670540 35.981399 0.000000 0.000000 0.000000 1.925862 0.178744 7.328093 -0.943528 2.035148 18.070641 3.933267 0.470947 4.689347 2.523646 -4.734185 29.530344 0.000000 0.000000 0.000000 -31.811123 -20.214625 12.305237 -34.657792 -8.615041 -0.720339 70.094772 -72.102501 -50.728907 0.000000 0.000000 0.000000 10.801881 2.913159 -0.108167 32.571914 3.800043 -0.900428 -78.154511 67.644655 -53.842387 0.000000 0.000000 0.000000
0.554985 0.172891 -0.644798 -7.605212 -23.118501 -87.171889 -1.598046 -3.337194 -46.230159 -6.201454 9.028178 93.567779 7.157900 17.253633 34.233476 0.000000 0.000000 0.000000 -7.060944 1.486759 -26.463627 2.609460 6.536679 59.215538 7.372205 -1.967227 32.739244 0.000000 0.000000 0.000000 2.764505 0.456203 6.931968 -1.632204 2.846160 17.678647 4.686317 0.012174 4.234376 1.820137 -4.818480 36.084112 0.000000 0.000000 0.000000 -34.795856 -21.637340 13.793855 -30.364526 -9.535833 -0.488539 56.416368 -70.893644 -38.674609 0.000000 0.000000 0.000000 14.884257 4.162682 0.101612 28.045110 3.828566 -0.761414 -77.196501 67.832400 -52.913979 0.000000 0.000000 0.000000
0.552256 0.178544 -0.643307 -7.954026 -23.319742 -85.899295 -1.421580 -3.217515 -46.704949 -4.436352 7.111907 95.747575 5.480144 15.345785 30.729874 0.000000 0.000000 0.000000 -8.720131 1.067813 -28.090267 6.483941 4.557514 63.076149 3.302271 -6.901633 33.549165 0.000000 0.000000 0.000000 3.296011 0.648500 6.478707 -3.153483 5.382840 20.143336 8.792031 -1.687838 2.698381 0.240720 -2.962854 43.192384 0.000000 0.000000 0.000000 -39.097469 -23.740172 17.331901 -27.013175 -12.008158 -0.214101 50.495030 -67.175041 -31.469793 0.000000 0.000000 0.000000 15.346029 3.666648 -0.474508 26.793027 5.429341 -0.384952 -80.358112 69.102464 -56.591694 0.000000 0.000000 0.000000
0.549053 0.196114 -0.640809 -7.858032 -23.538936 -82.937559 -1.349113 -2.885477 -47.384952 -2.633060 5.337921 98.515282 3.834709 12.594785 23.309791 0.000000 0.000000 0.000000 -8.741152 1.655668 -31.304128 9.093894 3.288908 68.842125 0.483992 -8.673356 27.679691 0.000000 0.000000 0.000000 4.141477 0.762887 6.901664 -2.080341 6.056793 27.554611 7.071464 -1.603221 -9.848577 0.042058 -3.926115 48.201077 0.000000 0.000000 0.000000 -41.104358 -24.219139 16.807420 -25.836318 -10.055111 0.796905 35.860250 -63.685880 -19.818645 0.000000 0.000000 0.000000 17.300661 4.530774 -0.390171 22.099545 2.215096 0.046703 -68.093017 72.670931 -47.865595 0.000000 0.000000 0.000000
0.545615 0.210886 -0.638052 -6.978567 -23.562453 -79.539857 -1.231479 -2.440797 -46.843607 -2.033190 5.940403 99.781218 6.039877 13.370492 9.615845 0.000000 0.000000 0.000000 -8.908613 2.352234 -35.238714 12.658530 1.100152 74.998453 -4.172915 -13.101603 18.484028 0.000000 0.000000 0.000000 4.164214 0.704046 6.839163 0.179467 10.752982 46.434872 10.022436 -3.219217 -31.843522 -2.095778 -1.451027 49.396381 0.000000 0.000000 0.000000 -41.709527 -25.473756 17.592223 -25.379701 -8.298425 1.985651 35.406392 -60.428959 -17.631817 0.000000 0.000000 0.000000 10.609237 3.201397 -0.446763 26.058217 1.204643 1.164294 -67.263240 78.344300 -50.274305 0.000000 0.000000 0.000000
0.543086 0.240297 -0.636416 -7.532859 -23.357898 -74.745010 -0.995128 -2.132877 -45.384157 -2.322546 6.874256 100.377937 7.528970 13.530132 -3.119719 0.000000 0.000000 0.000000 -9.144849 2.979351 -38.955749 15.907136 -2.227678 80.838493 -7.227357 -17.143731 10.504691 0.000000 0.000000 0.000000 2.760105 0.119278 8.278595 6.432803 10.068843 69.862352 7.722398 -3.390998 -58.972494 -4.423917 -1.008791 44.757674 0.000000 0.000000 0.000000 -31.217464 -26.508286 12.997313 -32.716486 -8.441478 4.921203 35.546559 -61.366280 -19.166481 0.000000 0.000000 0.000000 5.122184 3.821494 0.624801 26.024963 -0.269581 1.730754 -58.611620 79.927809 -40.549442 0.000000 0.000000 0.000000
0.541007 0.277462 -0.634656 -6.803292 -24.301465 -70.336383 0.738452 -0.752743 -40.883790 -2.235306 8.076669 93.054330 9.204077 14.674128 -15.507488 0.000000 0.000000 0.000000 -8.175993 3.766885 -39.278182 17.708643 -2.965781 79.462479 -8.584635 -19.896626 4.319692 0.000000 0.000000 0.000000 2.745298 0.006354 7.982946 6.794835 9.369189 66.598359 6.107009 -4.037893 -58.059906 -2.788699 -2.739101 45.718353 0.000000 0.000000 0.000000 -28.935939 -28.143478 13.905972 -30.066457 -8.358950 4.759889 33.814708 -59.285903 -16.908468 0.000000 0.000000 0.000000 4.599167 6.264531 1.243171 24.375499 -2.206164 1.451493 -52.298007 78.967192 -33.899495 0.000000 0.000000 0.000000
0.540291 0.329906 -0.633520 -4.958488 -24.614247 -66.009345 1.750466 -0.065893 -36.751251 -1.022817 8.344668 90.251090 7.784937 7.916403 -25.397233 0.000000 0.000000 0.000000 -8.706677 3.940206 -39.862082 20.836358 -4.989915 83.598399 -10.352002 -24.792161 -2.647589 0.000000 0.000000 0.000000 2.028866 -0.496352 12.946160 13.999080 -1.003805 96.270612 -3.297686 -11.256126 -88.900582 -4.374169 -3.906552 26.710892 0.000000 0.000000 0.000000 -7.022684 -24.307580 7.197864 -39.065945 -17.151303 11.278184 48.412216 -54.772563 -29.292628 0.000000 0.000000 0.000000 -4.565128 5.241511 1.177545 28.703834 1.062248 3.282289 -69.572237 70.699031 -41.886911 0.000000 0.000000 0.000000
0.540639 0.381041 -0.633225 -3.944050 -25.187548 -61.734342 1.808006 0.021453 -34.062207 -0.168193 8.825991 87.525043 7.977445 8.129149 -28.010560 0.000000 0.000000 0.000000 -9.851828 3.448055 -38.369785 23.782221 -6.543417 83.054314 -10.145540 -25.518479 -7.913702 0.000000 0.000000 0.000000 2.551087 -0.515046 15.639639 13.900448 0.169445 85.951866 -4.848456 -11.729038 -82.519657 -5.342217 -4.302020 27.150889 0.000000 0.000000 0.000000 -3.469563 -22.500456 7.437033 -36.049938 -18.676386 11.490197 59.298072 -58.336723 -38.998032 0.000000 0.000000 0.000000 -3.730343 5.464393 1.302598 27.521370 -1.272585 3.098700 -85.272581 67.433142 -50.817017 0.000000 0.000000 0.000000
0.542112 0.489058 -0.634624 -2.777940 -25.953349 -55.396780 1.792247 0.015376 -29.825328 3.049479 6.538860 82.976240 5.261708 1.063421 -25.046750 0.000000 0.000000 0.000000 -10.027889 3.092913 -35.279170 27.790920 -8.793160 80.597666 -11.499357 -28.254882 -1.237649 0.000000 0.000000 0.000000 1.385724 -0.703845 18.502136 15.040400 -1.643351 79.019927 -8.763913 -12.041363 -82.402414 -10.094135 -6.440280 26.043341 0.000000 0.000000 0.000000 4.837154 -21.067928 10.242717 -35.236243 -20.509965 11.864644 78.027823 -50.108684 -50.632974 0.000000 0.000000 0.000000 -5.317168 8.125889 2.780422 24.424980 -1.835433 2.981373 -85.327284 56.400108 -37.100518 0.000000 0.000000 0.000000
0.544062 0.568638 -0.637618 -0.648808 -27.607370 -48.971734 2.050978 0.286737 -28.653228 3.811563 7.239020 76.466330 2.593001 -3.476405 -20.429088 0.000000 0.000000 0.000000 -9.478191 2.970036 -31.814465 29.842611 -7.902171 75.417090 -13.526917 -32.248020 1.279007 0.000000 0.000000 0.000000 0.850652 -0.496585 21.161084 11.428808 3.410625 65.377559 -8.276542 -8.596789 -76.217753 -14.725480 -8.084691 30.720436 0.000000 0.000000 0.000000 5.664258 -19.637839 13.078465 -28.702001 -22.386648 10.726380 86.505549 -46.608091 -54.222593 0.000000 0.000000 0.000000 -5.013403 5.922216 4.340832 21.584410 -0.467917 3.858387 -88.549765 53.973443 -34.823357 0.000000 0.000000 0.000000
0.546631 0.663540 -0.641925 1.607735 -29.192563 -41.040161 3.862851 0.991474 -26.087281 -0.361258 9.893711 63.490617 1.410405 -0.964596 -12.509563 0.000000 0.000000 0.000000 -8.008729 2.930753 -28.185202 25.960085 -3.089313 65.513531 -11.211417 -27.236727 -1.637595 0.000000 0.000000 0.000000 -1.243441 0.001821 24.334968 72.801359 -69.558630 -65.718065 -98.278026 73.512074 -74.880677 -32.236161 -19.793156 40.581393 0.000000 0.000000 0.000000 3.165445 -13.321683 9.398599 2.699377 -21.412182 -5.064243 96.620452 -39.220682 -64.832942 0.000000 0.000000 0.000000 36.528758 -2.396761 57.817403 -19.053400 0.353506 3.999618 -85.711684 -22.021467 -7.461517 0.000000 0.000000 0.000000
0.548969 0.743938 -0.647204 1.384230 -27.388128 -34.672334 2.236324 -0.024290 -22.070280 -2.978481 7.925190 49.365062 -0.517439 0.065379 3.125245 0.000000 0.000000 0.000000 -7.038135 2.315068 -23.695949 18.804515 -0.065661 52.537171 -8.107782 -20.412723 5.406069 0.000000 0.000000 0.000000 -0.952444 0.190938 25.002940 -7.314335 -8.366978 -30.999792 14.514196 8.467347 26.621217 -2.885772 0.981916 37.373087 0.000000 0.000000 0.000000 -20.065765 -21.927678 11.745170 10.632512 -11.820141 -1.098307 104.478812 -41.467782 -60.847720 0.000000 0.000000 0.000000 14.445907 11.008077 3.578403 -8.984150 -5.511696 2.155422 -80.008422 36.866999 -34.218267 0.000000 0.000000 0.000000
