HIERARCHY
ROOT Hips
{
	OFFSET -0.001795 -0.223333 0.028219
	CHANNELS 6 Xposition Yposition Zposition Zrotation Yrotation Xrotation
	JOINT LeftUpLeg
	{
		OFFSET 0.069520 -0.091406 -0.006815
		CHANNELS 3 Zrotation Yrotation Xrotation
		JOINT LeftLeg
		{
			OFFSET 0.034277 -0.375199 -0.004496
			CHANNELS 3 Zrotation Yrotation Xrotation
			JOINT LeftFoot
			{
				OFFSET -0.013596 -0.397961 -0.043693
				CHANNELS 3 Zrotation Yrotation Xrotation
				JOINT LeftToe
				{
					OFFSET 0.026358 -0.055791 0.119288
					CHANNELS 3 Zrotation Yrotation Xrotation
					End Site
					{
						OFFSET 0.000000 0.000000 0.000000
					}
				}
			}
		}
	}
	JOINT RightUpLeg
	{
		OFFSET -0.067670 -0.090522 -0.004320
		CHANNELS 3 Zrotation Yrotation Xrotation
		JOINT RightLeg
		{
			OFFSET -0.038290 -0.382569 -0.008850
			CHANNELS 3 Zrotation Yrotation Xrotation
			JOINT RightFoot
			{
				OFFSET 0.015774 -0.398415 -0.042312
				CHANNELS 3 Zrotation Yrotation Xrotation
				JOINT RightToe
				{
					OFFSET -0.025372 -0.048144 0.123348
					CHANNELS 3 Zrotation Yrotation Xrotation
					End Site
					{
						OFFSET 0.000000 0.000000 0.000000
					}
				}
			}
		}
	}
	JOINT Spine
	{
		OFFSET -0.002533 0.108963 -0.026696
		CHANNELS 3 Zrotation Yrotation Xrotation
		JOINT Spine1
		{
			OFFSET 0.005487 0.135180 0.001092
			CHANNELS 3 Zrotation Yrotation Xrotation
			JOINT Spine2
			{
				OFFSET 0.001457 0.052922 0.025425
				CHANNELS 3 Zrotation Yrotation Xrotation
				JOINT Neck
				{
					OFFSET -0.002778 0.213870 -0.042857
					CHANNELS 3 Zrotation Yrotation Xrotation
					JOINT Head
					{
						OFFSET 0.005152 0.064970 0.051349
						CHANNELS 3 Zrotation Yrotation Xrotation
						End Site
						{
							OFFSET 0.000000 0.000000 0.000000
						}
					}
				}
				JOINT LeftShoulder
				{
					OFFSET 0.078845 0.121749 -0.034090
					CHANNELS 3 Zrotation Yrotation Xrotation
					JOINT LeftArm
					{
						OFFSET 0.090977 0.030469 -0.008868
						CHANNELS 3 Zrotation Yrotation Xrotation
						JOINT LeftForeArm
						{
							OFFSET 0.259612 -0.012772 -0.027456
							CHANNELS 3 Zrotation Yrotation Xrotation
							JOINT LeftHand
							{
								OFFSET 0.249234 0.008986 -0.001171
								CHANNELS 3 Zrotation Yrotation Xrotation
								End Site
								{
									OFFSET 0.000000 0.000000 0.000000
								}
							}
						}
					}
				}
				JOINT RightShoulder
				{
					OFFSET -0.081759 0.118833 -0.038615
					CHANNELS 3 Zrotation Yrotation Xrotation
					JOINT RightArm
					{
						OFFSET -0.096012 0.032551 -0.009143
						CHANNELS 3 Zrotation Yrotation Xrotation
						JOINT RightForeArm
						{
							OFFSET -0.253742 -0.013329 -0.021401
							CHANNELS 3 Zrotation Yrotation Xrotation
							JOINT RightHand
							{
								OFFSET -0.255298 0.007772 -0.005559
								CHANNELS 3 Zrotation Yrotation Xrotation
								End Site
								{
									OFFSET 0.000000 0.000000 0.000000
								}
							}
						}
					}
				}
			}
		}
	}
}
MOTION
Frames: 32
Frame Time: 0.050000
0.000000 0.648897 0.000000 -24.039826 20.884054 -12.042530 49.379704 -8.515890 0.351968 -11.239492 0.106237 54.372615 20.940509 -19.874562 -77.383562 0.000000 0.000000 0.000000 -9.972372 -0.758414 -2.249141 16.710544 -21.711057 59.651922 -6.588576 -5.660825 -38.015151 0.000000 0.000000 0.000000 -23.340263 -2.291128 -2.076725 -0.819992 1.289468 -17.409980 -5.312719 1.820708 26.124195 2.751964 1.483318 -16.717178 0.000000 0.000000 0.000000 4.246745 -3.824023 1.836905 -63.871703 -21.065190 -1.288123 -128.174140 -41.468447 72.271499 0.000000 0.000000 0.000000 10.598255 4.849029 4.220757 78.603348 0.474445 -6.577511 119.925230 45.477307 92.323224 0.000000 0.000000 0.000000
-0.000250 0.667720 0.002043 -22.861902 20.488209 -11.828391 46.881310 -6.604768 -1.825916 -8.361976 -2.119650 55.412045 21.482835 -27.537434 -74.835612 0.000000 0.000000 0.000000 -8.948900 -0.554229 -5.567171 13.685469 -20.872753 65.106829 -6.130620 -8.150716 -28.535638 0.000000 0.000000 0.000000 -26.922771 -3.347676 -4.048982 -0.465747 1.148088 -17.746254 -5.255749 7.580376 25.965261 3.931424 0.905602 -14.148916 0.000000 0.000000 0.000000 7.019430 -4.031478 2.665005 -65.113668 -21.220529 -2.800754 -124.346298 -42.193273 65.551569 0.000000 0.000000 0.000000 11.190378 0.540351 2.773629 80.284264 -5.882884 -9.809660 109.902045 36.888418 70.637092 0.000000 0.000000 0.000000
-0.000094 0.689242 0.004133 -22.945968 19.461458 -11.746961 45.155116 -5.191974 -3.893056 -5.646472 -3.829756 55.077382 21.349841 -36.913507 -70.938076 0.000000 0.000000 0.000000 -4.745638 0.048887 -5.491770 11.569263 -17.020250 61.249161 -6.043010 -12.324887 -25.375214 0.000000 0.000000 0.000000 -23.945535 -3.412656 -7.512753 0.891201 0.609468 -14.045014 -8.844948 7.116374 24.650544 3.808886 -1.326200 -4.947374 0.000000 0.000000 0.000000 0.598883 -2.778489 0.736066 -60.809114 -16.685368 -3.564673 -118.235661 -48.525007 68.253810 0.000000 0.000000 0.000000 16.829650 1.450743 4.243750 72.979770 -3.965314 -9.870503 103.358878 37.682856 63.651273 0.000000 0.000000 0.000000
-0.001070 0.710495 0.006362 -22.647070 17.435244 -12.706963 43.941669 -5.139568 -1.344008 -5.713449 -3.316985 53.447515 16.362738 -37.181989 -60.794102 0.000000 0.000000 0.000000 -4.470270 0.114967 -5.738280 9.670541 -13.716838 59.650390 -3.768824 -5.595694 -15.432559 0.000000 0.000000 0.000000 -23.182864 -3.265369 -7.817106 0.051923 0.872059 -15.198565 -8.732734 8.208486 25.511556 0.678446 2.450350 -10.178095 0.000000 0.000000 0.000000 2.983290 -1.223172 0.920348 -62.316146 -14.712988 -5.449351 -115.739498 -47.621622 65.341784 0.000000 0.000000 0.000000 15.122450 3.584459 4.914743 75.417459 -4.729681 -10.199613 99.570720 40.444954 62.742495 0.000000 0.000000 0.000000
-0.003043 0.730871 0.010292 -20.820083 16.399563 -13.044031 40.264244 -4.554849 0.274330 -5.494543 -3.028523 50.123115 11.896182 -35.290598 -51.485276 0.000000 0.000000 0.000000 -4.265756 0.060429 -4.347656 8.112136 -11.595941 58.910235 -3.272503 -4.868271 -12.754697 0.000000 0.000000 0.000000 -23.537102 -3.747622 -9.817937 -0.219121 0.887140 -12.992543 -8.263968 8.343154 25.389713 0.481838 2.542066 -10.250105 0.000000 0.000000 0.000000 -0.203153 -2.363512 0.447714 -58.107829 -11.394434 -5.819792 -114.179698 -50.048312 66.898062 0.000000 0.000000 0.000000 15.223959 3.265689 4.623356 75.087611 -4.229554 -10.061855 92.247051 38.463844 53.714640 0.000000 0.000000 0.000000
-0.006217 0.747754 0.017020 -19.405270 15.395346 -13.805207 38.281357 -4.256379 1.876455 -5.129762 -2.947819 48.591632 4.186845 -37.445795 -36.559544 0.000000 0.000000 0.000000 -4.897311 -0.035352 -3.792926 7.590779 -10.721051 59.770723 -2.387431 -3.853299 -7.160079 0.000000 0.000000 0.000000 -22.908738 -3.897581 -11.129507 0.181687 0.634023 -10.625179 -8.102228 7.570229 23.392385 -0.904989 2.995216 -8.008173 0.000000 0.000000 0.000000 -3.108537 -1.936084 -0.343981 -55.888856 -7.885855 -6.393305 -102.776866 -48.713623 55.207656 0.000000 0.000000 0.000000 13.272733 4.951945 4.730410 75.929231 -6.214669 -11.225613 88.466728 39.757069 50.677966 0.000000 0.000000 0.000000
-0.010654 0.758128 0.027451 -17.955248 15.295739 -14.253386 37.282304 -4.634416 4.255668 -6.266192 -1.887798 45.224190 -0.432561 -34.515772 -26.717055 0.000000 0.000000 0.000000 -6.345761 -0.221260 -3.126184 7.702077 -10.335617 58.850812 -1.756540 2.897947 -16.085589 0.000000 0.000000 0.000000 -22.031811 -3.845201 -11.594690 0.190203 0.678063 -11.499011 -7.938759 6.450669 22.690840 -1.055310 2.582903 -5.311511 0.000000 0.000000 0.000000 -5.104720 -1.837014 -0.804190 -55.228990 -3.883179 -7.651509 -99.648927 -44.927029 48.599067 0.000000 0.000000 0.000000 14.106051 5.209057 4.872419 74.658089 -8.064834 -12.687592 82.824947 39.377634 45.431543 0.000000 0.000000 0.000000
-0.017270 0.757520 0.041706 -16.833399 16.745065 -14.754822 36.408606 -4.666729 4.186661 -7.453359 -1.611417 46.000901 -1.396714 -22.046850 -18.249929 0.000000 0.000000 0.000000 -5.273443 -0.298227 -0.753486 6.032865 -9.302412 57.733692 -2.961182 10.664018 -29.643467 0.000000 0.000000 0.000000 -20.899003 -4.090837 -13.372059 0.750998 0.436572 -10.157042 -8.000572 6.000935 20.182275 1.953721 -1.350679 0.569836 0.000000 0.000000 0.000000 -4.181195 -2.003793 -0.584151 -55.775884 -1.766277 -8.496650 -98.448673 -40.289315 41.429897 0.000000 0.000000 0.000000 12.609175 4.278600 4.168848 74.847900 -9.499360 -13.043054 79.306256 39.654869 43.028216 0.000000 0.000000 0.000000
-0.026803 0.742568 0.057730 -15.862571 20.061952 -15.830725 37.953112 -5.987041 5.262211 -9.799770 -0.857553 46.166417 3.615932 -15.750674 -26.122507 0.000000 0.000000 0.000000 -6.590569 -0.682221 2.189323 6.792542 -10.870635 56.624397 -4.251402 18.337536 -37.762265 0.000000 0.000000 0.000000 -21.440039 -4.783484 -14.322142 1.155716 0.443468 -11.714375 -6.718947 5.060657 21.732726 1.384679 -1.338517 2.559202 0.000000 0.000000 0.000000 -1.512867 -1.499811 -0.138853 -57.415286 -0.660959 -9.865525 -102.675274 -37.039250 39.978074 0.000000 0.000000 0.000000 12.546530 5.141862 4.805954 73.556467 -9.567047 -13.104863 76.448804 43.098202 44.687094 0.000000 0.000000 0.000000
-0.038876 0.721194 0.072856 -15.262102 23.120771 -16.786903 39.745447 -6.952203 4.698509 -11.759821 -0.586142 49.396242 6.782226 -9.353831 -31.099166 0.000000 0.000000 0.000000 -6.322596 -1.088686 6.130231 6.893206 -11.721092 55.119795 -6.626932 17.567022 -46.642340 0.000000 0.000000 0.000000 -21.696458 -5.788455 -16.651654 1.300712 0.329036 -9.580486 -5.636149 5.538785 20.294034 0.750891 -2.146739 7.058007 0.000000 0.000000 0.000000 2.666931 0.249147 0.402501 -56.975489 -2.349697 -9.510746 -107.010609 -36.432664 40.478548 0.000000 0.000000 0.000000 15.541696 5.032963 5.802692 68.829109 -7.342525 -11.599653 70.379168 45.670128 42.917919 0.000000 0.000000 0.000000
-0.050576 0.693145 0.085161 -15.292019 26.372507 -18.993331 41.114644 -7.980207 4.623890 -13.292319 -0.740899 53.282103 10.475498 2.493113 -37.003015 0.000000 0.000000 0.000000 -5.545543 -1.371447 7.809597 4.498633 -12.571599 59.297434 -8.905601 19.337146 -53.695109 0.000000 0.000000 0.000000 -20.824195 -5.986991 -16.696428 0.661226 0.610208 -8.714913 -4.133902 6.144715 19.140618 -0.217164 -3.203692 12.356840 0.000000 0.000000 0.000000 4.970155 0.437124 1.038117 -55.117867 -5.476825 -8.130920 -110.382113 -43.432066 50.700856 0.000000 0.000000 0.000000 21.180671 4.291038 7.431917 62.502965 -3.475631 -9.959217 60.706661 50.212772 40.128246 0.000000 0.000000 0.000000
-0.058773 0.662458 0.095247 -15.939578 29.949195 -20.532266 42.792023 -9.142134 3.650133 -17.451954 0.641865 57.398811 13.007172 18.358519 -41.130689 0.000000 0.000000 0.000000 -4.503626 -1.619637 8.986683 2.849447 -14.840824 63.992320 -11.000727 17.411172 -60.386875 0.000000 0.000000 0.000000 -20.697716 -6.419101 -16.810906 0.375388 0.924939 -10.179032 -1.967733 4.498569 19.128703 -1.496448 -4.460290 18.863543 0.000000 0.000000 0.000000 4.484205 -0.446592 1.088592 -52.403543 -5.149132 -7.599131 -115.521783 -53.773098 69.068901 0.000000 0.000000 0.000000 24.068368 4.718906 8.609615 57.465376 -1.677730 -9.320603 54.370809 50.664846 35.456708 0.000000 0.000000 0.000000
-0.062128 0.636989 0.104306 -15.899934 30.756914 -22.207580 44.461098 -10.424626 4.824834 -22.098175 3.333555 59.970225 13.431674 27.287341 -42.849375 0.000000 0.000000 0.000000 -4.880474 -1.728561 9.175574 -0.341975 -14.334001 69.848684 -13.333673 21.116225 -64.790626 0.000000 0.000000 0.000000 -18.831211 -6.297332 -18.112014 0.310948 0.903157 -9.218296 -1.037428 5.441067 18.304408 -3.164406 -5.882198 26.113017 0.000000 0.000000 0.000000 4.789286 1.440338 0.700522 -50.298025 -7.497301 -6.344376 -118.310366 -59.860886 78.770361 0.000000 0.000000 0.000000 25.553510 4.228675 9.165237 55.396876 -0.485959 -8.865798 47.475684 51.595627 31.518420 0.000000 0.000000 0.000000
-0.061246 0.620477 0.113143 -15.954867 31.371877 -22.166096 45.530270 -12.049981 6.816170 -26.562182 6.015928 55.975668 13.822318 36.489504 -46.183876 0.000000 0.000000 0.000000 -5.370299 -1.760824 9.015917 -2.050625 -13.973755 72.475920 -15.410726 24.720915 -68.637737 0.000000 0.000000 0.000000 -16.924217 -6.389896 -20.664201 -1.357776 1.594587 -9.761758 0.094906 5.089688 18.152664 -5.547520 -4.497665 30.417736 0.000000 0.000000 0.000000 4.550185 2.475034 0.321160 -50.318798 -7.224527 -6.369438 -121.982735 -64.555673 88.424580 0.000000 0.000000 0.000000 26.137270 3.400321 8.956445 56.450476 -3.310618 -10.242933 48.031201 47.805368 29.323078 0.000000 0.000000 0.000000
-0.057671 0.616523 0.119913 -15.702001 31.851246 -21.799092 42.982413 -12.505671 9.607172 -25.654981 5.237450 52.185065 14.317242 42.463898 -48.401095 0.000000 0.000000 0.000000 -5.715106 -1.562912 7.285055 -4.194256 -13.326756 75.729772 -15.259233 28.968845 -66.234424 0.000000 0.000000 0.000000 -15.855107 -6.270451 -21.616069 -1.129331 1.510807 -9.922513 -1.490959 5.745089 17.671352 -4.069250 -5.751970 27.182220 0.000000 0.000000 0.000000 8.305126 3.442771 1.442889 -53.517807 -10.269668 -6.356029 -134.870014 -67.496137 106.265551 0.000000 0.000000 0.000000 23.462919 1.265650 7.361570 59.362277 -4.627614 -10.570670 52.405126 44.660836 30.752844 0.000000 0.000000 0.000000
-0.053409 0.628426 0.120025 -15.308162 33.116803 -20.899165 41.845424 -13.391170 11.592628 -26.545123 5.137282 44.249620 15.026573 44.282626 -49.366495 0.000000 0.000000 0.000000 -5.838179 -1.400691 5.660392 -4.027686 -14.342317 75.035441 -12.384068 28.428101 -60.236117 0.000000 0.000000 0.000000 -16.065145 -6.507808 -21.909856 -1.151597 1.539238 -10.101702 -2.406026 5.422927 17.759329 -2.353433 -3.564236 17.354096 0.000000 0.000000 0.000000 10.486039 6.224317 1.615764 -55.461017 -13.272657 -5.964659 -150.906591 -64.757858 125.429166 0.000000 0.000000 0.000000 19.537726 -1.170937 4.824151 60.093819 -8.864486 -11.648055 66.975090 41.708919 38.312580 0.000000 0.000000 0.000000
-0.049251 0.649319 0.111657 -14.598259 34.159723 -18.674128 37.829565 -11.878564 11.714247 -22.838452 3.257546 42.429376 16.064122 41.660657 -48.090683 0.000000 0.000000 0.000000 -5.693155 -1.231059 4.340743 -4.064491 -14.073907 72.472378 -10.459964 27.707163 -56.563663 0.000000 0.000000 0.000000 -15.958595 -6.935962 -23.346534 -1.507624 1.569036 -8.522841 -2.684187 5.401377 17.552228 -0.407279 -4.299006 13.897034 0.000000 0.000000 0.000000 9.530372 3.678631 1.866755 -56.091284 -13.950161 -5.684768 -163.935476 -58.126388 142.020359 0.000000 0.000000 0.000000 17.652147 -0.968231 4.257292 59.395253 -11.750329 -12.343571 81.806360 40.342931 47.336372 0.000000 0.000000 0.000000
-0.045159 0.678989 0.093926 -13.683904 34.221777 -17.633192 32.761911 -9.221520 10.617490 -18.825661 1.155870 44.874963 17.434586 40.407331 -43.104907 0.000000 0.000000 0.000000 -7.491141 -1.135821 0.569203 -2.963859 -15.167425 72.900416 -4.983217 25.097728 -41.716939 0.000000 0.000000 0.000000 -15.271853 -6.024566 -21.538711 -2.105529 1.825903 -8.965374 -2.550211 5.437940 17.551740 0.531214 -7.047981 17.253913 0.000000 0.000000 0.000000 9.781465 1.662537 2.461992 -59.852182 -15.635360 -5.723260 -164.211848 -54.214099 140.587753 0.000000 0.000000 0.000000 12.476464 1.029903 4.014723 61.307099 -14.382741 -12.855153 94.673258 40.502683 58.579669 0.000000 0.000000 0.000000
-0.040407 0.712098 0.073624 -13.007147 32.979459 -15.897532 29.535345 -7.699884 10.648997 -18.912488 1.242857 43.227530 18.041074 39.177924 -39.332570 0.000000 0.000000 0.000000 -7.456957 -0.842495 -5.315021 -2.163689 -15.301329 73.499503 -1.077099 15.302086 -25.300584 0.000000 0.000000 0.000000 -14.065471 -5.035553 -20.310467 -1.673856 1.702486 -9.895183 -3.872809 5.635816 17.578889 0.287698 -4.164028 11.869975 0.000000 0.000000 0.000000 6.552224 -0.172890 1.840797 -60.420761 -15.001398 -5.452550 -164.876911 -49.890546 139.311499 0.000000 0.000000 0.000000 10.935832 3.189100 4.581648 57.508058 -14.040590 -11.902707 108.822787 40.815674 72.592319 0.000000 0.000000 0.000000
-0.034663 0.729729 0.056770 -11.132616 31.447345 -13.969515 25.286303 -5.754891 10.066357 -18.851686 1.123203 44.652015 15.605869 25.288265 -44.712714 0.000000 0.000000 0.000000 -7.199496 -0.682319 -8.604740 -1.053047 -14.832862 72.592366 -3.176037 0.108925 -20.339561 0.000000 0.000000 0.000000 -13.124561 -4.528294 -20.357125 -1.747966 1.619088 -8.347591 -4.742391 5.328700 15.348526 2.600189 -6.477597 11.722814 0.000000 0.000000 0.000000 5.556297 -2.263255 2.044617 -63.246206 -16.246847 -4.610964 -166.743469 -47.455931 143.091791 0.000000 0.000000 0.000000 9.575416 7.725287 6.154213 52.836992 -12.034297 -10.175615 121.727949 42.490842 88.815031 0.000000 0.000000 0.000000
-0.029273 0.742972 0.043689 -9.405124 31.345336 -12.832845 23.235504 -5.254529 10.905203 -19.873283 1.638108 41.943273 14.557704 13.828114 -44.278284 0.000000 0.000000 0.000000 -8.092969 -0.831049 -7.968925 1.782023 -15.589073 67.897020 -5.594703 -11.361766 -20.587346 0.000000 0.000000 0.000000 -13.010828 -4.418778 -20.301287 -1.540417 1.638550 -10.166067 -5.383352 4.497749 17.572324 3.720165 -4.878475 5.406480 0.000000 0.000000 0.000000 5.161430 -3.540010 2.204618 -66.153375 -17.999957 -4.156206 -169.710248 -43.549426 149.852429 0.000000 0.000000 0.000000 7.707966 10.476002 6.830414 51.020314 -7.245023 -8.116184 135.996377 41.900081 110.431642 0.000000 0.000000 0.000000
-0.024529 0.752796 0.035184 -7.855212 31.357273 -11.384270 20.566355 -4.460828 11.054724 -19.767542 1.637348 39.064101 15.023201 16.563896 -42.710283 0.000000 0.000000 0.000000 -8.381328 -0.862820 -7.906931 2.538891 -14.496424 63.613691 -6.822012 -17.881203 -20.137520 0.000000 0.000000 0.000000 -13.062881 -4.695614 -21.546977 -2.070003 1.787816 -9.854373 -4.579152 3.848757 17.817398 5.043880 -4.922686 2.289056 0.000000 0.000000 0.000000 5.470491 -4.684634 2.543975 -67.917400 -20.467725 -2.843570 -171.542822 -41.713646 154.932208 0.000000 0.000000 0.000000 5.148066 12.379809 6.768208 49.070655 -2.738503 -5.991466 149.411659 40.283380 134.633469 0.000000 0.000000 0.000000
-0.021520 0.763940 0.030177 -7.722900 31.509500 -11.620193 19.352331 -4.510975 12.912008 -18.392724 1.351794 35.442863 15.296590 15.949708 -41.551138 0.000000 0.000000 0.000000 -7.833516 -0.756235 -5.943346 4.486812 -14.303258 58.178422 -8.088451 -24.325138 -19.228799 0.000000 0.000000 0.000000 -12.724112 -4.766942 -22.218252 -1.622557 1.669806 -10.982335 -4.195031 2.639523 19.224280 5.654739 -4.141117 -1.393001 0.000000 0.000000 0.000000 7.809631 -4.374066 3.014093 -70.397649 -23.433931 -1.678158 -173.147682 -38.810110 160.068676 0.000000 0.000000 0.000000 1.341277 13.752078 6.093074 49.709921 1.615527 -4.044824 158.275463 39.007701 155.448525 0.000000 0.000000 0.000000
-0.020290 0.776991 0.028108 -7.127869 30.551444 -11.394567 16.798638 -3.890408 14.137149 -16.413351 0.999015 32.674982 15.788085 19.290333 -37.609797 0.000000 0.000000 0.000000 -7.047292 -0.579636 -5.353680 5.239447 -12.899698 53.981670 -9.981259 -30.482407 -15.240138 0.000000 0.000000 0.000000 -12.207420 -4.799110 -23.418518 -1.124915 1.472669 -11.207181 -3.365421 1.418517 19.676791 5.532136 -3.796842 -2.284494 0.000000 0.000000 0.000000 7.128456 -3.971930 2.654486 -68.877681 -23.717508 -0.749807 -173.349637 -33.049737 159.852766 0.000000 0.000000 0.000000 -1.534638 15.816676 5.920582 50.455940 5.953069 -2.199746 163.383371 37.399932 167.498337 0.000000 0.000000 0.000000
-0.020674 0.793022 0.027449 -7.020790 29.647232 -11.116777 14.794945 -3.300272 14.573114 -13.425183 0.362817 30.728359 15.766183 19.847183 -32.757899 0.000000 0.000000 0.000000 -5.830148 -0.337664 -5.525949 6.225499 -12.300483 51.189276 -12.655105 -35.635298 -9.214758 0.000000 0.000000 0.000000 -11.041887 -4.438782 -23.967311 -0.333179 1.146896 -10.759659 -3.183767 0.566327 19.086879 5.942629 -4.280469 -2.085810 0.000000 0.000000 0.000000 6.489107 -4.340288 2.548473 -65.362722 -23.803106 0.022900 -173.475353 -26.717688 157.888526 0.000000 0.000000 0.000000 -4.003489 15.939237 5.195325 50.469967 9.536677 -0.461729 167.383129 37.472696 178.015971 0.000000 0.000000 0.000000
-0.021949 0.808484 0.027067 -6.909198 29.056758 -11.079731 13.087889 -2.797410 14.701170 -10.658048 -0.248733 29.271135 15.583518 20.237323 -27.268495 0.000000 0.000000 0.000000 -5.095996 -0.199549 -5.682988 6.954757 -11.612610 48.387963 -16.269892 -39.603868 -0.955861 0.000000 0.000000 0.000000 -10.468459 -4.234812 -24.169035 0.208971 0.981890 -11.602349 -2.869287 -1.194143 19.975517 5.548783 -3.647289 -3.450968 0.000000 0.000000 0.000000 5.495779 -5.209834 2.473226 -61.235546 -25.000276 1.280697 -174.197982 -23.217804 160.685611 0.000000 0.000000 0.000000 -5.142261 16.895581 5.166655 49.739837 12.679391 0.678198 171.279162 38.002360 -172.115521 0.000000 0.000000 0.000000
-0.023425 0.822783 0.025749 -6.510483 27.629297 -10.781562 11.508785 -2.157978 13.991148 -9.085795 -0.582204 29.092368 15.135298 21.238527 -20.600773 0.000000 0.000000 0.000000 -4.439384 -0.051704 -6.098556 6.673656 -10.200688 46.446327 -18.719944 -40.888156 5.396675 0.000000 0.000000 0.000000 -9.005260 -3.521302 -23.695016 0.564529 0.845036 -12.033123 -2.151039 -2.709775 20.201012 4.189672 -3.323865 -0.644032 0.000000 0.000000 0.000000 3.855960 -6.947716 2.602420 -56.462312 -27.926811 3.169601 -175.654727 -21.470615 169.405501 0.000000 0.000000 0.000000 -6.012015 18.842396 5.558374 48.708672 15.244259 1.457202 173.231330 38.005053 -168.483357 0.000000 0.000000 0.000000
-0.024672 0.835421 0.022699 -5.916188 28.194610 -10.012769 10.267006 -1.690994 12.131428 -7.783402 -1.099679 29.433698 14.635168 21.132100 -15.065372 0.000000 0.000000 0.000000 -4.980838 -0.120561 -6.307647 7.078817 -9.900085 44.281127 -20.212882 -40.827469 10.369810 0.000000 0.000000 0.000000 -9.138191 -3.268538 -22.139113 1.749008 0.447106 -12.176872 -2.214646 -4.131541 20.801803 3.645232 -2.500944 -2.280238 0.000000 0.000000 0.000000 2.775870 -8.193774 2.778156 -53.184774 -33.092399 5.432541 -176.669251 -22.255706 175.625387 0.000000 0.000000 0.000000 -5.998558 19.688567 5.811472 45.994038 18.906952 2.470737 178.343170 39.075756 -154.855602 0.000000 0.000000 0.000000
-0.025523 0.847185 0.018484 -5.243781 28.618912 -9.409246 9.482893 -1.414242 10.829948 -7.043791 -1.379320 29.370256 13.159973 19.185578 -10.671687 0.000000 0.000000 0.000000 -5.365485 -0.174681 -6.357477 7.225841 -9.425126 42.273539 -21.771976 -41.045085 14.834797 0.000000 0.000000 0.000000 -8.318635 -2.727190 -20.423312 2.557397 0.235121 -13.081713 -2.000238 -5.692200 21.768270 3.461305 -2.573480 -1.681153 0.000000 0.000000 0.000000 0.753377 -10.252870 3.164919 -49.600894 -35.173426 5.983445 179.847885 -23.905464 -166.587998 0.000000 0.000000 0.000000 -5.650742 21.264986 6.376761 43.892881 22.759324 3.504513 -177.074992 40.225413 -143.939020 0.000000 0.000000 0.000000
-0.026169 0.858822 0.014155 -4.737280 30.174109 -9.150602 9.285406 -1.303175 9.255703 -6.800691 -1.604131 29.338167 11.707625 17.890751 -5.331340 0.000000 0.000000 0.000000 -5.926692 -0.288565 -6.379226 7.527181 -9.503934 40.793688 -23.892461 -40.870910 21.350020 0.000000 0.000000 0.000000 -8.349538 -2.438996 -18.298251 3.620014 -0.128874 -12.704229 -1.680769 -5.983621 21.352277 3.287532 -1.952625 -3.689826 0.000000 0.000000 0.000000 -0.141341 -11.547337 3.452600 -48.843470 -35.763331 6.110163 175.972060 -26.432460 -152.887870 0.000000 0.000000 0.000000 -3.883803 21.578371 6.989813 42.609772 23.785366 3.629613 -173.968894 43.766698 -138.905616 0.000000 0.000000 0.000000
-0.027283 0.868916 0.009978 -4.482016 31.751866 -8.181906 8.773476 -1.107777 6.985706 -6.742498 -1.773627 29.176557 12.340332 20.167558 -0.207942 0.000000 0.000000 0.000000 -5.317490 -0.198650 -7.336655 7.523979 -9.295928 38.923113 -28.612421 -43.186596 29.082790 0.000000 0.000000 0.000000 -8.170437 -2.051985 -15.942541 4.896965 -0.583076 -12.380089 -1.629336 -6.799099 20.926093 2.052065 -1.319554 -1.697741 0.000000 0.000000 0.000000 -5.189855 -11.328476 2.851384 -48.678261 -32.872579 5.336904 172.978744 -32.739900 -149.815224 0.000000 0.000000 0.000000 -1.521052 20.734255 7.383275 43.064635 23.295765 3.341200 -174.277605 44.972869 -140.859446 0.000000 0.000000 0.000000
-0.029311 0.881449 0.006197 -3.853995 33.421085 -7.360337 8.505142 -0.991382 4.939108 -6.613618 -1.918708 28.766470 11.027180 19.869596 6.335536 0.000000 0.000000 0.000000 -5.609018 -0.282055 -7.109616 8.123719 -8.946258 35.673265 -32.735994 -44.176960 36.743860 0.000000 0.000000 0.000000 -7.343380 -1.393306 -12.320688 4.971398 -0.596631 -11.879902 -1.547783 -7.097967 20.132196 2.388039 -1.365427 -2.751208 0.000000 0.000000 0.000000 -8.733223 -10.753716 2.103523 -47.967630 -27.769904 3.544833 169.531702 -43.654094 -151.700382 0.000000 0.000000 0.000000 1.497948 17.860368 7.202424 45.331879 20.733635 2.475354 -176.391036 53.219774 -150.325044 0.000000 0.000000 0.000000
