HIERARCHY
ROOT Hips
{
	OFFSET -0.001795 -0.223333 0.028219
	CHANNELS 6 Xposition Yposition Zposition Zrotation Yrotation Xrotation
	JOINT LeftUpLeg
	{
		OFFSET 0.069520 -0.091406 -0.006815
		CHANNELS 3 Zrotation Yrotation Xrotation
		JOINT LeftLeg
		{
			OFFSET 0.034277 -0.375199 -0.004496
			CHANNELS 3 Zrotation Yrotation Xrotation
			JOINT LeftFoot
			{
				OFFSET -0.013596 -0.397961 -0.043693
				CHANNELS 3 Zrotation Yrotation Xrotation
				JOINT LeftToe
				{
					OFFSET 0.026358 -0.055791 0.119288
					CHANNELS 3 Zrotation Yrotation Xrotation
					End Site
					{
						OFFSET 0.000000 0.000000 0.000000
					}
				}
			}
		}
	}
	JOINT RightUpLeg
	{
		OFFSET -0.067670 -0.090522 -0.004320
		CHANNELS 3 Zrotation Yrotation Xrotation
		JOINT RightLeg
		{
			OFFSET -0.038290 -0.382569 -0.008850
			CHANNELS 3 Zrotation Yrotation Xrotation
			JOINT RightFoot
			{
				OFFSET 0.015774 -0.398415 -0.042312
				CHANNELS 3 Zrotation Yrotation Xrotation
				JOINT RightToe
				{
					OFFSET -0.025372 -0.048144 0.123348
					CHANNELS 3 Zrotation Yrotation Xrotation
					End Site
					{
						OFFSET 0.000000 0.000000 0.000000
					}
				}
			}
		}
	}
	JOINT Spine
	{
		OFFSET -0.002533 0.108963 -0.026696
		CHANNELS 3 Zrotation Yrotation Xrotation
		JOINT Spine1
		{
			OFFSET 0.005487 0.135180 0.001092
			CHANNELS 3 Zrotation Yrotation Xrotation
			JOINT Spine2
			{
				OFFSET 0.001457 0.052922 0.025425
				CHANNELS 3 Zrotation Yrotation Xrotation
				JOINT Neck
				{
					OFFSET -0.002778 0.213870 -0.042857
					CHANNELS 3 Zrotation Yrotation Xrotation
					JOINT Head
					{
						OFFSET 0.005152 0.064970 0.051349
						CHANNELS 3 Zrotation Yrotation Xrotation
						End Site
						{
							OFFSET 0.000000 0.000000 0.000000
						}
					}
				}
				JOINT LeftShoulder
				{
					OFFSET 0.078845 0.121749 -0.034090
					CHANNELS 3 Zrotation Yrotation Xrotation
					JOINT LeftArm
					{
						OFFSET 0.090977 0.030469 -0.008868
						CHANNELS 3 Zrotation Yrotation Xrotation
						JOINT LeftForeArm
						{
							OFFSET 0.259612 -0.012772 -0.027456
							CHANNELS 3 Zrotation Yrotation Xrotation
							JOINT LeftHand
							{
								OFFSET 0.249234 0.008986 -0.001171
								CHANNELS 3 Zrotation Yrotation Xrotation
								End Site
								{
									OFFSET 0.000000 0.000000 0.000000
								}
							}
						}
					}
				}
				JOINT RightShoulder
				{
					OFFSET -0.081759 0.118833 -0.038615
					CHANNELS 3 Zrotation Yrotation Xrotation
					JOINT RightArm
					{
						OFFSET -0.096012 0.032551 -0.009143
						CHANNELS 3 Zrotation Yrotation Xrotation
						JOINT RightForeArm
						{
							OFFSET -0.253742 -0.013329 -0.021401
							CHANNELS 3 Zrotation Yrotation Xrotation
							JOINT RightHand
							{
								OFFSET -0.255298 0.007772 -0.005559
								CHANNELS 3 Zrotation Yrotation Xrotation
								End Site
								{
									OFFSET 0.000000 0.000000 0.000000
								}
							}
						}
					}
				}
			}
		}
	}
}
MOTION
Frames: 32
Frame Time: 0.050000
0.000000 0.842221 0.000000 -7.843136 11.483650 -18.376687 13.874489 -0.091030 -6.895542 -19.141422 4.588035 43.426804 12.336484 22.756543 -25.455498 0.000000 0.000000 0.000000 -5.111359 0.471366 -20.272587 12.660448 -9.118056 47.653137 -7.090730 -16.980193 10.669626 0.000000 0.000000 0.000000 -7.621191 -0.283265 14.503361 4.956527 -0.479996 -22.257611 -0.787621 0.326334 25.813859 1.603193 -3.855948 12.572402 0.000000 0.000000 0.000000 -12.014033 1.346299 -2.280102 -29.733562 -21.404646 -0.221183 120.376700 -59.675072 -88.553193 0.000000 0.000000 0.000000 2.641934 3.971330 1.616969 38.713190 5.431197 -4.241131 -162.945978 70.602003 -142.194797 0.000000 0.000000 0.000000
0.002687 0.825309 0.003096 -8.702537 12.706965 -18.064034 16.489135 -0.002951 -10.980822 -23.179969 6.426253 47.999750 12.501704 24.270979 -26.060794 0.000000 0.000000 0.000000 -5.336849 0.353127 -21.465931 13.728725 -11.174493 51.327852 -7.764007 -18.493345 2.962124 0.000000 0.000000 0.000000 -7.901111 -0.266982 12.701016 6.207498 -0.806764 -21.858655 -1.750089 -2.050045 26.975207 0.688673 -3.249619 15.271113 0.000000 0.000000 0.000000 -13.133403 4.325476 -3.588119 -32.019868 -23.267416 0.081208 119.290920 -60.295056 -86.765843 0.000000 0.000000 0.000000 1.356533 3.691920 1.397275 44.981386 2.936212 -5.668392 174.715535 72.381510 -173.365504 0.000000 0.000000 0.000000
0.005972 0.803698 0.006378 -7.972012 11.275709 -20.407639 17.400799 0.279325 -13.217377 -25.508886 8.824279 55.187301 12.771397 26.803409 -23.315835 0.000000 0.000000 0.000000 -6.295102 0.172561 -20.410159 13.911958 -11.580849 54.790131 -7.869880 -18.831674 -1.872134 0.000000 0.000000 0.000000 -7.505551 -0.332044 14.735832 6.405262 -0.947206 -22.118605 -2.047040 -1.442983 28.720943 0.638310 -2.102822 10.332720 0.000000 0.000000 0.000000 -14.427575 3.732399 -3.405557 -31.544628 -23.325799 -0.026383 121.680055 -60.429508 -89.277369 0.000000 0.000000 0.000000 -0.685219 1.329735 0.386298 48.560942 1.504560 -6.572382 156.586088 74.393219 163.080620 0.000000 0.000000 0.000000
0.009336 0.780810 0.009955 -8.782103 10.955057 -22.969678 19.494811 0.539540 -14.101992 -27.624368 10.969982 61.720690 12.457349 27.130159 -24.594876 0.000000 0.000000 0.000000 -5.369525 0.367882 -19.883054 13.321127 -12.552070 60.220596 -8.324119 -20.158560 -7.103086 0.000000 0.000000 0.000000 -7.387652 -0.404834 15.331505 7.714522 -1.510983 -20.851246 -3.701494 -2.066825 30.414649 0.099212 -1.594023 11.415809 0.000000 0.000000 0.000000 -16.378241 6.346891 -4.846646 -29.266466 -25.897305 0.286599 119.548579 -58.236689 -84.114371 0.000000 0.000000 0.000000 -0.944688 0.563955 0.112888 51.211717 1.728711 -7.009088 147.013625 78.784340 153.296625 0.000000 0.000000 0.000000
0.013058 0.757028 0.013924 -8.580509 10.529539 -25.326855 19.822538 0.776397 -16.286535 -28.810427 12.830587 67.138897 13.861115 31.406938 -19.653432 0.000000 0.000000 0.000000 -5.453606 0.340989 -20.607951 12.378249 -12.787958 65.086074 -9.695570 -23.453801 -6.423032 0.000000 0.000000 0.000000 -8.355472 -0.428815 17.972413 8.864071 -1.972805 -21.160277 -3.582836 -1.096409 30.777019 -0.458730 -1.115113 13.078375 0.000000 0.000000 0.000000 -16.983681 4.697082 -4.159081 -26.251068 -26.677307 0.240618 119.346204 -56.291380 -82.337370 0.000000 0.000000 0.000000 0.106251 0.162574 -0.000405 51.534604 -0.731419 -8.200986 139.087998 81.825670 146.213249 0.000000 0.000000 0.000000
0.017463 0.736222 0.018693 -9.379498 10.456665 -26.482633 20.764013 0.971744 -18.087972 -29.027864 13.802997 71.686919 13.911073 32.164497 -19.437601 0.000000 0.000000 0.000000 -4.037616 0.706003 -22.287639 11.334417 -13.393328 70.448389 -11.224199 -27.311901 -6.670877 0.000000 0.000000 0.000000 -8.247416 -0.493414 19.141411 9.175642 -2.002083 -22.257288 -2.927780 -2.324524 31.988020 -1.180065 -0.397150 15.235927 0.000000 0.000000 0.000000 -18.333135 5.010424 -4.229095 -24.486748 -28.860658 0.307447 121.754170 -53.702646 -81.505089 0.000000 0.000000 0.000000 0.314090 0.002761 -0.029817 51.421697 -2.276074 -9.154344 117.840265 85.006406 125.058769 0.000000 0.000000 0.000000
0.022987 0.722152 0.024604 -9.440352 10.716671 -27.340964 19.861948 0.892431 -18.883975 -28.541122 13.644113 73.929905 14.955290 34.877816 -18.058604 0.000000 0.000000 0.000000 -3.540717 0.827067 -23.129264 9.980518 -13.437429 74.844978 -11.912905 -29.055278 -7.023401 0.000000 0.000000 0.000000 -9.017157 -0.479017 19.531646 9.368359 -2.107434 -22.013639 -3.183884 -2.966627 31.561875 -1.338114 -0.441447 17.378175 0.000000 0.000000 0.000000 -18.011006 4.240614 -3.641009 -21.814211 -29.874136 0.174562 124.871585 -49.357244 -79.808475 0.000000 0.000000 0.000000 1.794920 -0.262188 -0.056897 49.921694 -5.425976 -10.295306 77.501819 84.831155 82.969653 0.000000 0.000000 0.000000
0.029590 0.718709 0.031670 -9.674653 11.454587 -27.589296 18.696365 0.660343 -17.971506 -27.278532 12.047940 73.788366 14.638495 34.992466 -20.839742 0.000000 0.000000 0.000000 -2.589345 1.063850 -24.703779 8.370728 -13.199727 78.254643 -13.586904 -31.553029 -1.922971 0.000000 0.000000 0.000000 -9.688674 -0.472409 20.126186 9.870986 -2.316881 -21.579198 -3.388554 -2.888362 30.628824 -1.581454 -0.747564 21.144660 0.000000 0.000000 0.000000 -18.641820 2.896763 -3.158508 -20.003234 -31.748631 0.294963 127.584148 -46.739698 -80.084145 0.000000 0.000000 0.000000 3.438633 -1.174149 -0.336609 48.766426 -8.284441 -11.174083 74.613279 83.818960 78.990448 0.000000 0.000000 0.000000
0.037067 0.723147 0.039591 -10.247309 13.418482 -28.203117 16.906618 0.297151 -16.967676 -25.634692 9.440886 73.870620 14.285131 33.934315 -21.672876 0.000000 0.000000 0.000000 -2.616770 0.906072 -25.159368 7.724606 -14.312426 79.709049 -16.223590 -34.448792 5.781245 0.000000 0.000000 0.000000 -9.969732 -0.558595 20.428617 9.671531 -2.110099 -22.018383 -3.818656 -3.802112 31.530532 -1.044900 -1.347136 19.108492 0.000000 0.000000 0.000000 -15.697402 1.568913 -2.133848 -20.652917 -34.118618 0.664384 127.141516 -45.379915 -77.832701 0.000000 0.000000 0.000000 1.426664 -3.029725 -1.041457 49.840259 -10.587581 -12.167002 74.932255 79.867532 75.856798 0.000000 0.000000 0.000000
0.045228 0.735111 0.048649 -10.463088 14.868820 -28.623926 14.262707 -0.038304 -15.832543 -23.662463 6.789007 72.376208 16.613912 37.377124 -16.135245 0.000000 0.000000 0.000000 -3.694730 0.415036 -27.789764 6.246607 -14.221644 82.783118 -14.495874 -29.448289 15.395973 0.000000 0.000000 0.000000 -10.179912 -0.618707 20.771921 7.355582 -1.258829 -21.376950 -2.793828 -6.336451 31.730619 -2.056340 0.753180 15.090905 0.000000 0.000000 0.000000 -14.530572 1.674273 -1.756265 -21.395239 -35.529833 0.924518 124.528386 -43.700135 -71.612910 0.000000 0.000000 0.000000 -0.278097 -3.150239 -1.053095 51.445663 -11.479790 -12.874260 67.631176 78.671962 67.049199 0.000000 0.000000 0.000000
0.053762 0.753874 0.061092 -10.690228 15.545067 -28.226364 13.174718 -0.145381 -14.534711 -21.869174 4.841870 69.233114 18.876439 38.489117 -8.023706 0.000000 0.000000 0.000000 -4.588434 -0.137869 -32.246398 7.515450 -15.970446 84.131881 -15.407322 -29.232324 24.972570 0.000000 0.000000 0.000000 -10.129365 -0.665309 21.224275 6.895436 -1.015616 -22.224777 -3.113720 -7.636617 31.816945 -2.791437 1.830846 14.703462 0.000000 0.000000 0.000000 -12.954349 1.653100 -1.464899 -23.661987 -34.244714 1.049363 125.842203 -45.726135 -74.953452 0.000000 0.000000 0.000000 -1.482256 -5.536162 -1.809596 51.620199 -11.175993 -12.770787 87.935120 74.564126 82.064803 0.000000 0.000000 0.000000
0.062442 0.777254 0.078403 -10.777829 16.342619 -27.617277 11.638279 -0.249783 -12.452035 -18.967696 2.368005 64.794341 22.023737 39.621069 2.490417 0.000000 0.000000 0.000000 -4.351404 -0.288399 -34.658255 10.069679 -17.941616 80.203233 -16.295366 -30.167728 24.736777 0.000000 0.000000 0.000000 -10.599741 -0.626257 20.332900 7.859780 -1.471293 -20.199404 -4.165112 -8.959702 29.551996 -4.041486 3.445165 16.976911 0.000000 0.000000 0.000000 -13.809175 2.105770 -1.696069 -24.619257 -31.207471 0.778576 127.153590 -48.619121 -79.815420 0.000000 0.000000 0.000000 -0.965518 -4.535621 -1.434961 50.560967 -11.559949 -12.503204 101.489921 72.668955 92.581196 0.000000 0.000000 0.000000
0.072268 0.803122 0.101573 -10.560492 16.366519 -26.743852 11.083542 -0.209732 -8.313485 -15.977869 0.784800 57.785869 23.589144 38.993142 9.939753 0.000000 0.000000 0.000000 -3.221245 0.187335 -34.382877 12.650641 -18.500412 73.303594 -13.993809 -28.240758 15.358474 0.000000 0.000000 0.000000 -10.684546 -0.563715 18.658504 8.539189 -1.883199 -18.166634 -5.326603 -8.586892 27.852394 -4.393493 3.746072 19.671941 0.000000 0.000000 0.000000 -15.461665 3.023405 -2.426903 -25.784522 -29.836411 0.792588 129.912611 -55.391182 -91.845958 0.000000 0.000000 0.000000 -0.198067 -5.285404 -1.743323 50.079446 -10.806535 -11.872785 110.363779 69.113878 98.013981 0.000000 0.000000 0.000000
0.083748 0.830106 0.129755 -10.504934 16.239853 -26.114216 11.062560 -0.218994 -3.900673 -13.748992 0.103732 50.941941 24.832627 37.294375 20.914511 0.000000 0.000000 0.000000 -1.851455 0.841745 -31.214061 13.987968 -16.388046 62.354518 -10.769481 -23.323852 10.534323 0.000000 0.000000 0.000000 -10.453043 -0.522118 16.433423 9.220376 -2.188480 -17.692693 -6.582300 -8.342137 27.460301 -3.816768 2.726783 21.513525 0.000000 0.000000 0.000000 -14.511149 3.769518 -2.770124 -29.752696 -27.855736 0.824269 136.699229 -62.021031 -107.636962 0.000000 0.000000 0.000000 -2.515817 -5.116867 -1.592910 52.259804 -11.192215 -12.287520 110.884252 65.452059 94.905401 0.000000 0.000000 0.000000
0.096974 0.852647 0.161199 -9.726090 16.384382 -23.646672 10.216435 -0.316996 1.358233 -11.609171 0.048242 41.210285 24.043481 36.099395 20.493456 0.000000 0.000000 0.000000 0.747053 1.719045 -26.497551 13.334229 -12.517576 50.925818 -10.418910 -22.354468 11.705721 0.000000 0.000000 0.000000 -9.999677 -0.435230 12.971411 8.494799 -1.959195 -16.661749 -6.632232 -9.656162 26.129071 -3.198023 1.886409 22.688372 0.000000 0.000000 0.000000 -15.075702 5.133581 -3.360529 -33.496880 -26.068485 0.726467 148.579254 -66.346612 -126.415930 0.000000 0.000000 0.000000 -3.693399 -4.025106 -1.126994 53.366332 -11.477053 -12.531136 111.945916 62.924979 92.183025 0.000000 0.000000 0.000000
0.110671 0.869782 0.193263 -7.971946 15.822523 -21.573354 8.602862 -0.316568 6.219391 -11.340123 0.695966 33.790342 22.809518 34.180411 22.684695 0.000000 0.000000 0.000000 2.823313 2.107045 -21.097431 10.153240 -8.077679 42.767107 -9.217050 -20.269493 11.721949 0.000000 0.000000 0.000000 -9.423501 -0.373518 10.077030 6.991889 -1.323849 -17.379099 -7.152803 -9.876223 26.944485 -1.001877 -1.224775 21.877461 0.000000 0.000000 0.000000 -14.236488 5.107740 -3.153850 -36.124556 -25.504236 0.657205 157.922993 -69.792558 -140.850229 0.000000 0.000000 0.000000 -4.331867 -4.113012 -1.118606 55.128502 -10.551387 -12.595537 108.702127 63.227756 88.886437 0.000000 0.000000 0.000000
0.123712 0.878918 0.224829 -7.293829 16.402280 -20.278471 7.946657 -0.384127 9.644903 -11.202306 0.872485 29.325736 21.184682 32.120066 24.542069 0.000000 0.000000 0.000000 4.133785 2.056532 -16.858261 7.668060 -5.977309 39.006854 -9.394169 -20.757635 11.068384 0.000000 0.000000 0.000000 -9.111727 -0.365028 7.755133 6.950766 -1.325554 -16.831295 -7.047551 -10.395081 26.856360 0.031885 -2.581151 20.684523 0.000000 0.000000 0.000000 -13.807073 5.013514 -3.060058 -38.263158 -25.346381 0.829311 167.153645 -71.276331 -153.890428 0.000000 0.000000 0.000000 -4.694309 -4.111801 -1.089925 54.580143 -10.225800 -12.263422 112.243611 63.451059 92.819161 0.000000 0.000000 0.000000
0.135403 0.887362 0.255814 -6.751928 16.519987 -19.311765 7.175528 -0.380594 12.023888 -10.802434 0.853764 27.645942 17.964779 28.862286 26.387610 0.000000 0.000000 0.000000 5.015464 1.829041 -12.953741 6.109572 -4.543484 35.571180 -9.617782 -21.621190 9.439682 0.000000 0.000000 0.000000 -8.001885 -0.336391 6.220404 6.357592 -1.069148 -17.135356 -6.961016 -11.200356 27.324716 1.184068 -3.828669 18.446515 0.000000 0.000000 0.000000 -13.381104 4.898135 -2.875790 -40.019351 -24.435109 0.651075 176.414948 -72.177845 -166.197057 0.000000 0.000000 0.000000 -5.099185 -4.282322 -1.088492 54.157220 -10.482982 -12.291306 118.555128 62.835251 98.902240 0.000000 0.000000 0.000000
0.145208 0.894296 0.285756 -6.661730 16.136067 -18.503520 7.465356 -0.436881 12.720132 -11.431804 1.077955 28.298415 15.673781 26.471346 31.514418 0.000000 0.000000 0.000000 5.158834 1.619305 -10.881913 6.094952 -4.153995 33.711549 -10.057679 -22.413310 10.393721 0.000000 0.000000 0.000000 -6.627931 -0.290823 4.935758 6.588203 -1.198124 -16.767621 -6.650697 -11.562389 27.014846 1.587216 -3.938866 15.963582 0.000000 0.000000 0.000000 -13.245606 4.867966 -2.792654 -41.961436 -22.892003 0.295239 -175.045311 -72.712066 -177.327599 0.000000 0.000000 0.000000 -4.530392 -4.277699 -1.100649 53.741900 -9.330899 -11.716672 122.840788 64.923865 106.023803 0.000000 0.000000 0.000000
0.153452 0.903883 0.313455 -5.856968 15.656476 -17.103651 8.053511 -0.457785 11.808265 -13.579947 1.776188 30.379170 12.715196 23.968181 29.096384 0.000000 0.000000 0.000000 4.117838 1.356395 -9.724147 6.583188 -4.072147 32.587237 -9.903643 -22.014471 11.464722 0.000000 0.000000 0.000000 -6.331228 -0.259041 3.978313 8.519184 -1.862108 -17.143963 -7.232139 -10.100506 25.164966 2.321557 -4.728302 14.868951 0.000000 0.000000 0.000000 -13.874813 4.713923 -2.993754 -43.636660 -19.841954 -0.481935 -164.216185 -73.271582 167.439821 0.000000 0.000000 0.000000 -4.176253 -4.418514 -1.214387 52.965425 -8.047348 -10.710180 126.023576 66.437325 111.923154 0.000000 0.000000 0.000000
0.160294 0.909429 0.336374 -5.502540 14.644847 -16.673986 9.085519 -0.503915 10.849694 -15.729029 2.636291 34.272651 11.841050 23.083101 21.046239 0.000000 0.000000 0.000000 3.970458 1.148498 -8.017077 6.503560 -3.716853 31.678632 -9.585710 -21.539964 11.574441 0.000000 0.000000 0.000000 -4.227355 -0.194420 3.672035 7.785617 -1.559933 -17.985735 -7.393365 -10.183788 25.797759 2.923003 -5.085938 12.540073 0.000000 0.000000 0.000000 -14.222791 5.490205 -3.319363 -45.229321 -17.499507 -1.364072 -155.025274 -72.991551 155.757215 0.000000 0.000000 0.000000 -3.940959 -3.775713 -1.014599 53.159548 -6.280408 -10.127941 132.004227 70.196819 123.044435 0.000000 0.000000 0.000000
0.165280 0.914151 0.353281 -4.778472 12.443965 -16.735625 9.073338 -0.276846 7.917488 -17.217550 3.716989 40.228143 13.039036 24.541445 16.463201 0.000000 0.000000 0.000000 4.200001 0.975716 -6.449176 6.434020 -3.364179 32.203152 -9.540380 -22.049037 9.194185 0.000000 0.000000 0.000000 -2.810342 -0.178506 4.241340 7.303840 -1.509528 -17.645657 -6.467586 -8.650181 25.150152 2.792665 -4.211638 8.549948 0.000000 0.000000 0.000000 -14.114342 5.105371 -3.147101 -46.946679 -15.312014 -2.080630 -152.867643 -73.528008 153.253454 0.000000 0.000000 0.000000 -3.939530 -3.124287 -0.809510 53.002679 -2.953998 -8.630363 146.072376 74.465809 144.349202 0.000000 0.000000 0.000000
0.168268 0.918493 0.366310 -4.264307 10.530793 -16.585958 8.547725 -0.109707 5.144304 -17.462699 4.311403 42.092561 12.831780 24.514454 4.810219 0.000000 0.000000 0.000000 4.288020 0.832294 -5.330577 5.557955 -2.513851 30.907998 -9.123465 -21.333648 9.193934 0.000000 0.000000 0.000000 -1.895747 -0.224612 5.935096 6.893758 -1.279451 -19.624283 -5.404595 -7.790256 25.970811 3.028855 -4.153576 6.302911 0.000000 0.000000 0.000000 -14.224462 4.884238 -2.959863 -47.407222 -14.460060 -2.515729 -158.777280 -74.427385 161.785786 0.000000 0.000000 0.000000 -3.659107 -1.987367 -0.457003 52.510098 0.053913 -7.433881 172.110034 78.298918 178.459559 0.000000 0.000000 0.000000
0.169402 0.924691 0.378389 -3.647729 10.249203 -15.682622 6.596012 -0.010955 3.048208 -14.413600 2.959763 38.964938 10.774151 20.785787 -1.341062 0.000000 0.000000 0.000000 3.889104 0.655543 -4.254217 4.831677 -1.930241 28.447074 -9.412187 -21.803592 10.171558 0.000000 0.000000 0.000000 -1.864828 -0.226055 6.127013 6.669494 -1.197556 -19.818234 -4.844746 -7.776234 25.467686 2.800557 -3.968848 7.093337 0.000000 0.000000 0.000000 -13.864693 4.509077 -2.726196 -48.249129 -15.979074 -1.837925 -166.793308 -74.845154 172.448608 0.000000 0.000000 0.000000 -3.079355 -1.411764 -0.292969 52.581931 2.541564 -6.386458 -167.800289 77.505161 -156.576474 0.000000 0.000000 0.000000
0.169318 0.932044 0.390254 -3.270003 10.016859 -14.981557 4.605069 0.063607 2.833178 -10.322207 1.371104 33.651236 9.828781 19.116717 -0.064471 0.000000 0.000000 0.000000 3.152858 0.440362 -2.935614 4.603467 -1.630114 26.245755 -9.106351 -21.126165 11.339523 0.000000 0.000000 0.000000 -1.967381 -0.203054 5.635836 6.527014 -1.152719 -19.714541 -4.245238 -6.856083 24.647421 3.248920 -4.535908 7.861036 0.000000 0.000000 0.000000 -14.091366 2.671842 -1.974856 -47.280647 -17.334212 -1.257237 178.664498 -72.570399 -168.762746 0.000000 0.000000 0.000000 -2.107427 -2.492001 -0.722969 52.795418 3.090020 -6.055277 -163.238255 76.186427 -149.836649 0.000000 0.000000 0.000000
0.168497 0.935854 0.401677 -3.701092 11.001009 -14.037792 3.603784 0.118905 3.854893 -6.399828 0.040161 28.044854 9.800058 19.161293 1.919879 0.000000 0.000000 0.000000 3.125926 0.366185 -2.382596 4.735147 -1.628283 24.009634 -9.123418 -20.856593 13.365101 0.000000 0.000000 0.000000 -2.163006 -0.174756 4.920378 6.462147 -0.921324 -21.973972 -3.917053 -8.103818 26.292760 2.499700 -3.952470 9.052052 0.000000 0.000000 0.000000 -13.677843 1.665928 -1.314382 -47.295566 -19.693896 -0.554103 163.643414 -70.387641 -146.711176 0.000000 0.000000 0.000000 -2.192907 -1.679790 -0.448543 53.500823 2.770284 -6.547150 -155.337814 74.251655 -138.449882 0.000000 0.000000 0.000000
0.167360 0.936684 0.411806 -4.045962 11.293927 -13.595074 3.717888 0.168013 5.716161 -4.658346 -0.292691 23.861400 9.371263 18.494377 2.885438 0.000000 0.000000 0.000000 3.523611 0.283208 -1.656015 4.649014 -1.588788 23.449917 -8.294321 -19.488425 11.912300 0.000000 0.000000 0.000000 -2.847058 -0.151280 4.076560 6.662158 -0.943907 -22.297970 -3.183736 -8.525373 26.473680 1.876075 -3.179989 8.538104 0.000000 0.000000 0.000000 -12.417789 1.680409 -1.196162 -48.342466 -21.532867 0.231942 157.345281 -68.290753 -136.333669 0.000000 0.000000 0.000000 -3.509452 -1.754379 -0.401982 54.250162 2.953293 -6.595891 -150.911682 74.626036 -133.125328 0.000000 0.000000 0.000000
0.166329 0.935256 0.419965 -3.963461 11.910070 -13.020182 3.778430 0.169366 6.414195 -4.403729 -0.241347 21.182949 9.890139 19.464791 4.185727 0.000000 0.000000 0.000000 3.528818 0.312545 -1.873267 4.342840 -1.537094 23.520164 -8.138354 -19.145534 11.910249 0.000000 0.000000 0.000000 -3.206093 -0.135267 3.207250 6.007645 -0.729842 -22.313708 -2.897270 -8.731068 27.203326 1.087083 -2.351597 8.914296 0.000000 0.000000 0.000000 -11.578484 1.638053 -1.134012 -48.871185 -23.278172 0.914698 152.150195 -67.320307 -128.336498 0.000000 0.000000 0.000000 -2.844142 -1.872462 -0.490336 54.079675 2.705099 -6.778539 -149.866078 75.311434 -131.988059 0.000000 0.000000 0.000000
0.166107 0.933009 0.426094 -3.738324 12.185664 -12.403739 3.752494 0.149519 5.925340 -4.228700 -0.280509 20.800108 9.874643 19.573404 5.285202 0.000000 0.000000 0.000000 3.023768 0.407851 -2.765866 4.498814 -1.706522 24.712643 -7.698306 -18.309870 11.490947 0.000000 0.000000 0.000000 -3.337012 -0.129495 3.077128 5.402864 -0.551096 -22.133172 -2.460566 -9.090689 27.329428 0.777778 -2.052596 9.364148 0.000000 0.000000 0.000000 -11.780669 1.853239 -1.216837 -49.059766 -23.311670 0.917146 150.147318 -66.850040 -125.046703 0.000000 0.000000 0.000000 -2.343382 -1.327597 -0.330934 54.202073 2.659662 -6.890491 -152.420629 75.155046 -134.993551 0.000000 0.000000 0.000000
0.166717 0.930133 0.430662 -3.310952 13.090654 -11.910743 3.755801 0.125135 5.659411 -3.840157 -0.432679 20.817000 8.178782 16.664388 4.306020 0.000000 0.000000 0.000000 2.083860 0.472324 -3.663859 4.698181 -1.979292 26.061431 -7.291495 -17.465186 11.312724 0.000000 0.000000 0.000000 -3.958657 -0.147392 4.240464 5.106783 -0.383387 -23.228589 -2.632994 -9.596144 27.888351 -0.177865 -0.773069 6.970966 0.000000 0.000000 0.000000 -11.417751 2.356564 -1.423073 -49.375578 -23.189447 0.832923 150.099512 -67.971277 -125.870525 0.000000 0.000000 0.000000 -1.859410 -1.512437 -0.413253 54.304070 3.065680 -6.803292 -156.857808 76.238212 -141.045821 0.000000 0.000000 0.000000
0.168036 0.927193 0.434017 -3.112330 13.168171 -11.306905 4.009690 0.082176 4.896991 -4.227911 -0.338588 20.882804 7.820021 16.221173 4.934653 0.000000 0.000000 0.000000 1.485432 0.613377 -5.281116 5.344405 -2.399972 27.718264 -7.924624 -18.545754 12.361703 0.000000 0.000000 0.000000 -3.774281 -0.158193 5.354692 4.963667 -0.362420 -22.652853 -2.601444 -9.199557 27.425943 -0.145781 -0.879915 7.909645 0.000000 0.000000 0.000000 -12.793105 1.981366 -1.398633 -48.136179 -21.746298 0.137049 147.832545 -68.903362 -124.147756 0.000000 0.000000 0.000000 -0.156410 -0.934000 -0.287815 53.014149 3.083602 -6.655729 -157.717931 77.521762 -142.752582 0.000000 0.000000 0.000000
0.169144 0.925695 0.436598 -2.803616 12.800918 -10.817319 3.486277 0.110198 4.526815 -4.224276 -0.278970 20.299344 8.863867 18.203700 6.700580 0.000000 0.000000 0.000000 0.898471 0.692893 -6.494047 5.654592 -2.543440 28.459140 -8.440092 -19.299323 14.464700 0.000000 0.000000 0.000000 -3.779638 -0.189272 7.102829 4.429569 -0.225410 -22.555480 -2.432421 -8.597901 26.957103 -0.641647 -0.332498 8.452474 0.000000 0.000000 0.000000 -13.451772 1.807403 -1.415969 -46.548160 -19.804193 -0.681331 146.294414 -71.712410 -125.087637 0.000000 0.000000 0.000000 1.551979 -0.369574 -0.142392 52.155891 2.238452 -6.866697 -163.245780 80.060234 -150.897835 0.000000 0.000000 0.000000
