HIERARCHY
ROOT Hips
{
	OFFSET -0.001795 -0.223333 0.028219
	CHANNELS 6 Xposition Yposition Zposition Zrotation Yrotation Xrotation
	JOINT LeftUpLeg
	{
		OFFSET 0.069520 -0.091406 -0.006815
		CHANNELS 3 Zrotation Yrotation Xrotation
		JOINT LeftLeg
		{
			OFFSET 0.034277 -0.375199 -0.004496
			CHANNELS 3 Zrotation Yrotation Xrotation
			JOINT LeftFoot
			{
				OFFSET -0.013596 -0.397961 -0.043693
				CHANNELS 3 Zrotation Yrotation Xrotation
				JOINT LeftToe
				{
					OFFSET 0.026358 -0.055791 0.119288
					CHANNELS 3 Zrotation Yrotation Xrotation
					End Site
					{
						OFFSET 0.000000 0.000000 0.000000
					}
				}
			}
		}
	}
	JOINT RightUpLeg
	{
		OFFSET -0.067670 -0.090522 -0.004320
		CHANNELS 3 Zrotation Yrotation Xrotation
		JOINT RightLeg
		{
			OFFSET -0.038290 -0.382569 -0.008850
			CHANNELS 3 Zrotation Yrotation Xrotation
			JOINT RightFoot
			{
				OFFSET 0.015774 -0.398415 -0.042312
				CHANNELS 3 Zrotation Yrotation Xrotation
				JOINT RightToe
				{
					OFFSET -0.025372 -0.048144 0.123348
					CHANNELS 3 Zrotation Yrotation Xrotation
					End Site
					{
						OFFSET 0.000000 0.000000 0.000000
					}
				}
			}
		}
	}
	JOINT Spine
	{
		OFFSET -0.002533 0.108963 -0.026696
		CHANNELS 3 Zrotation Yrotation Xrotation
		JOINT Spine1
		{
			OFFSET 0.005487 0.135180 0.001092
			CHANNELS 3 Zrotation Yrotation Xrotation
			JOINT Spine2
			{
				OFFSET 0.001457 0.052922 0.025425
				CHANNELS 3 Zrotation Yrotation Xrotation
				JOINT Neck
				{
					OFFSET -0.002778 0.213870 -0.042857
					CHANNELS 3 Zrotation Yrotation Xrotation
					JOINT Head
					{
						OFFSET 0.005152 0.064970 0.051349
						CHANNELS 3 Zrotation Yrotation Xrotation
						End Site
						{
							OFFSET 0.000000 0.000000 0.000000
						}
					}
				}
				JOINT LeftShoulder
				{
					OFFSET 0.078845 0.121749 -0.034090
					CHANNELS 3 Zrotation Yrotation Xrotation
					JOINT LeftArm
					{
						OFFSET 0.090977 0.030469 -0.008868
						CHANNELS 3 Zrotation Yrotation Xrotation
						JOINT LeftForeArm
						{
							OFFSET 0.259612 -0.012772 -0.027456
							CHANNELS 3 Zrotation Yrotation Xrotation
							JOINT LeftHand
							{
								OFFSET 0.249234 0.008986 -0.001171
								CHANNELS 3 Zrotation Yrotation Xrotation
								End Site
								{
									OFFSET 0.000000 0.000000 0.000000
								}
							}
						}
					}
				}
				JOINT RightShoulder
				{
					OFFSET -0.081759 0.118833 -0.038615
					CHANNELS 3 Zrotation Yrotation Xrotation
					JOINT RightArm
					{
						OFFSET -0.096012 0.032551 -0.009143
						CHANNELS 3 Zrotation Yrotation Xrotation
						JOINT RightForeArm
						{
							OFFSET -0.253742 -0.013329 -0.021401
							CHANNELS 3 Zrotation Yrotation Xrotation
							JOINT RightHand
							{
								OFFSET -0.255298 0.007772 -0.005559
								CHANNELS 3 Zrotation Yrotation Xrotation
								End Site
								{
									OFFSET 0.000000 0.000000 0.000000
								}
							}
						}
					}
				}
			}
		}
	}
}
MOTION
Frames: 32
Frame Time: 0.050000
0.000000 0.848784 0.000000 -2.750166 -10.915411 -10.241978 18.806766 1.212814 -3.442709 -10.487499 4.374396 30.394699 7.129119 14.131911 -13.944941 0.000000 0.000000 0.000000 -16.369130 0.265904 -8.900658 5.554366 0.972381 38.529713 -10.054483 -23.685032 10.886755 0.000000 0.000000 0.000000 -1.722146 -0.118212 2.567795 0.831031 -0.343267 -13.058655 -0.921380 5.464370 9.094625 2.541692 -1.856448 -2.424174 0.000000 0.000000 0.000000 -18.390784 -5.293173 1.424953 -1.147683 -18.568457 -0.998342 58.053308 -15.329217 -7.875263 0.000000 0.000000 0.000000 7.817621 7.887928 2.604729 10.467556 9.534713 -0.743949 -29.985583 15.030693 -3.056134 0.000000 0.000000 0.000000
0.004394 0.832711 -0.008304 -2.433872 -12.322776 -11.381975 19.908302 1.595431 -4.722522 -12.246490 6.029193 34.877439 7.418669 14.725591 -17.300306 0.000000 0.000000 0.000000 -17.816664 0.224804 -10.394470 6.750876 1.080562 43.551295 -8.512090 -20.541479 3.779717 0.000000 0.000000 0.000000 -1.252929 -0.074721 0.772779 0.646257 -0.378578 -12.314494 0.176372 6.410563 9.897364 0.769199 -0.574757 -0.049489 0.000000 0.000000 0.000000 -22.634729 -3.958168 0.547531 -1.918827 -21.557810 -1.127554 64.171743 -17.412860 -10.191000 0.000000 0.000000 0.000000 11.699673 9.850879 3.494884 11.127756 4.521331 -0.997763 -35.828305 22.344878 -6.007752 0.000000 0.000000 0.000000
0.008060 0.810398 -0.014836 -1.300731 -11.864648 -13.063041 20.255704 1.725271 -4.973553 -14.236582 7.483798 37.885688 7.644269 14.246065 -24.446252 0.000000 0.000000 0.000000 -20.081457 0.045300 -11.052349 7.901582 0.716517 46.841453 -9.615080 -22.629031 0.384847 0.000000 0.000000 0.000000 -1.779041 -0.098484 0.796691 3.266279 -1.341585 -13.458793 -1.722425 7.619570 10.112871 1.277640 -1.253348 2.748754 0.000000 0.000000 0.000000 -24.990933 -4.994938 0.531423 -1.628267 -23.252892 -1.210721 68.477059 -18.850239 -12.291471 0.000000 0.000000 0.000000 18.216914 11.160435 4.685291 11.201554 0.039719 -1.275953 -43.810703 26.581924 -9.124521 0.000000 0.000000 0.000000
0.010617 0.789263 -0.018586 -0.910585 -11.298361 -14.784981 19.977513 1.799250 -5.922397 -13.657077 7.912435 42.838638 8.002940 14.126554 -30.351343 0.000000 0.000000 0.000000 -22.494988 -0.181548 -11.492133 9.789169 -0.226581 49.452339 -10.314432 -24.186201 -0.738847 0.000000 0.000000 0.000000 -1.650493 -0.075492 -0.283500 4.115308 -1.682761 -13.305478 -1.807902 6.143136 11.246279 -0.243170 0.013206 4.580913 0.000000 0.000000 0.000000 -26.303218 -5.283862 1.124397 -5.289928 -26.791354 -1.050662 78.942673 -19.837899 -15.398086 0.000000 0.000000 0.000000 24.307319 12.530399 5.418527 13.707763 -4.043576 -1.795618 -47.018508 31.077990 -11.974424 0.000000 0.000000 0.000000
0.012702 0.762756 -0.019012 0.707044 -11.384726 -16.760024 19.937678 2.070649 -7.668675 -14.590665 9.992233 49.934235 8.314849 13.783933 -33.671382 0.000000 0.000000 0.000000 -25.695491 -0.422309 -12.546276 11.213883 -0.702123 53.461189 -11.287031 -26.606960 -3.958896 0.000000 0.000000 0.000000 -2.002376 -0.088545 -0.875719 6.046045 -2.571048 -11.413874 -3.289712 7.796639 10.224412 -0.399656 0.121879 4.798998 0.000000 0.000000 0.000000 -26.316045 -6.114824 0.997469 -8.431828 -30.628995 -0.530344 87.860997 -25.939537 -23.635401 0.000000 0.000000 0.000000 30.323018 9.810572 4.468115 18.088545 -6.480354 -2.753149 -48.426221 36.265567 -14.473082 0.000000 0.000000 0.000000
0.014658 0.736860 -0.016815 1.591971 -11.370424 -18.474677 18.810648 2.098951 -9.057713 -12.910314 10.345025 56.744124 8.789668 14.514234 -38.075235 0.000000 0.000000 0.000000 -27.960961 -0.508203 -12.171416 11.836357 -0.826482 56.605711 -11.135857 -26.891734 -10.719836 0.000000 0.000000 0.000000 -1.832524 -0.106047 -0.516017 7.806757 -3.173587 -12.975911 -2.988497 7.256724 11.905954 -1.655961 1.290059 6.467249 0.000000 0.000000 0.000000 -27.003444 -6.279823 1.510584 -10.174759 -34.078089 -0.290224 99.220358 -30.468669 -33.208309 0.000000 0.000000 0.000000 35.194222 9.817322 4.209163 21.152734 -7.547487 -3.424756 -44.989252 36.113919 -13.209436 0.000000 0.000000 0.000000
0.015998 0.710955 -0.013294 1.767962 -11.154594 -20.304300 17.631695 1.967936 -9.261739 -10.348865 9.465745 62.482152 9.274037 15.601065 -44.181580 0.000000 0.000000 0.000000 -28.839689 -0.610975 -11.982380 11.564826 -0.379478 60.960919 -10.983908 -27.308317 -15.715091 0.000000 0.000000 0.000000 -1.038836 -0.020260 -1.938613 10.164231 -4.113049 -12.756772 -3.124505 6.371947 12.922552 -2.273757 1.905859 7.937713 0.000000 0.000000 0.000000 -27.411907 -6.700391 2.196164 -10.342277 -37.184542 -0.291537 105.926120 -36.544683 -43.878848 0.000000 0.000000 0.000000 40.176521 10.757372 4.522550 21.001065 -8.356883 -3.429714 -39.003311 34.277790 -10.562296 0.000000 0.000000 0.000000
0.015280 0.691467 -0.009666 2.208769 -11.311167 -21.159226 15.975209 1.744225 -9.522113 -7.868018 8.362450 66.419166 9.535715 17.211180 -48.560911 0.000000 0.000000 0.000000 -28.866682 -0.772307 -13.286612 10.571015 0.785759 65.502266 -10.908927 -27.809384 -17.962185 0.000000 0.000000 0.000000 -0.778248 -0.044739 -1.003966 13.952574 -5.100086 -15.820791 -3.292530 5.612119 15.050409 -2.614557 2.392551 9.177199 0.000000 0.000000 0.000000 -27.369236 -7.116925 3.144177 -9.039403 -38.767920 -0.775091 112.953847 -38.152386 -50.732200 0.000000 0.000000 0.000000 43.592536 11.254621 4.292634 20.093474 -8.993142 -3.306712 -35.451888 30.628357 -8.331507 0.000000 0.000000 0.000000
0.012415 0.681375 -0.007097 2.024869 -11.304229 -21.106660 15.601575 1.752651 -10.909027 -6.137007 7.381307 69.557630 9.614905 17.797644 -48.817022 0.000000 0.000000 0.000000 -27.997381 -0.857867 -14.357673 9.981803 1.458795 68.222920 -11.016273 -28.689669 -18.590956 0.000000 0.000000 0.000000 -1.087785 -0.067477 -0.875405 18.440737 -6.296616 -16.562167 -3.916981 4.716201 15.552096 -2.149290 1.994686 5.460542 0.000000 0.000000 0.000000 -24.944634 -6.708856 3.302116 -5.193132 -41.809735 -1.745739 113.586576 -38.037034 -50.823294 0.000000 0.000000 0.000000 42.755176 10.840444 3.356338 20.845193 -8.806787 -3.355092 -33.188367 26.212149 -6.456338 0.000000 0.000000 0.000000
0.008009 0.682304 -0.006117 2.191487 -10.316109 -20.394263 15.058963 1.651300 -12.603967 -5.587290 6.594621 70.357278 9.580176 17.502971 -46.807577 0.000000 0.000000 0.000000 -26.864635 -0.945574 -14.922653 8.704819 2.169182 69.144398 -11.399357 -29.916926 -17.150045 0.000000 0.000000 0.000000 -1.092938 -0.093795 0.076339 21.353908 -6.360173 -20.001099 -3.732737 1.733695 17.741686 -2.219005 2.052197 0.340058 0.000000 0.000000 0.000000 -22.105634 -5.684347 3.713108 -1.387729 -43.390692 -2.942020 112.647638 -34.764254 -44.849288 0.000000 0.000000 0.000000 39.927573 9.064311 0.525914 23.185382 -11.113841 -3.993940 -31.733278 21.956228 -5.088363 0.000000 0.000000 0.000000
0.004405 0.697716 -0.007056 1.781962 -8.348182 -18.686517 14.176286 1.415816 -15.012959 -5.033481 4.943252 68.990196 9.388376 16.621155 -41.788160 0.000000 0.000000 0.000000 -25.483800 -1.011945 -14.488271 7.840371 1.729551 66.858111 -12.094297 -31.215144 -13.595046 0.000000 0.000000 0.000000 -1.212715 -0.133114 1.640142 26.444222 -6.518230 -24.487075 -5.138887 1.607385 19.879678 -2.179650 2.093531 -0.560906 0.000000 0.000000 0.000000 -21.276129 -4.951213 2.996334 5.872946 -42.824366 -4.769446 108.791601 -33.341291 -41.811455 0.000000 0.000000 0.000000 37.976477 6.136577 -0.718578 23.659780 -13.926435 -4.823914 -32.320934 16.572128 -3.715181 0.000000 0.000000 0.000000
0.002841 0.721815 -0.009396 2.070595 -5.794573 -15.831332 11.803466 0.824081 -18.653718 -4.350846 3.129297 66.515113 9.023076 15.699216 -33.694744 0.000000 0.000000 0.000000 -25.398105 -1.078622 -13.503155 7.535755 0.458393 61.323858 -12.783582 -32.428072 -10.845934 0.000000 0.000000 0.000000 0.428042 -0.125985 3.078525 27.287886 -7.117038 -23.576787 -4.562247 2.463327 14.331350 0.294477 -0.390015 3.085686 0.000000 0.000000 0.000000 -20.935588 -6.254588 2.397131 10.045165 -39.408763 -5.079374 106.023296 -33.739580 -41.676920 0.000000 0.000000 0.000000 34.945291 3.526893 -1.100712 27.452581 -17.910523 -6.495658 -32.092570 9.087437 -1.618070 0.000000 0.000000 0.000000
0.003766 0.747213 -0.012281 3.685225 -4.246531 -13.876364 9.369478 0.202994 -20.067025 -5.152816 3.082225 62.520328 8.526576 14.829067 -25.982623 0.000000 0.000000 0.000000 -26.122300 -1.245284 -13.672809 6.414267 0.517938 57.425355 -13.344612 -32.155971 -4.883686 0.000000 0.000000 0.000000 4.697380 -0.232348 5.372079 24.934748 -6.440641 -24.130964 -3.745380 4.799589 12.367167 -0.066041 -0.362167 6.087067 0.000000 0.000000 0.000000 -24.583859 -5.770928 0.681565 13.124148 -36.029287 -5.182529 102.870680 -39.073828 -46.474610 0.000000 0.000000 0.000000 33.421136 -0.418567 -2.369463 29.407502 -19.897941 -7.617821 -31.688113 8.250725 -1.229135 0.000000 0.000000 0.000000
0.005492 0.767107 -0.014626 5.176735 -3.330759 -11.307603 7.616004 -0.273971 -21.777998 -6.229208 3.448792 58.786742 8.118605 14.328726 -20.468155 0.000000 0.000000 0.000000 -28.449005 -1.326065 -13.015896 7.718164 -0.861142 51.306958 -13.493447 -32.282858 -3.908988 0.000000 0.000000 0.000000 9.397283 -0.525886 7.146685 19.613353 -5.069520 -23.243438 -0.781747 7.649944 9.973476 2.705119 -2.442977 1.671625 0.000000 0.000000 0.000000 -27.347676 -6.413497 -0.549362 11.281359 -33.202323 -4.230897 103.049202 -48.606012 -57.161199 0.000000 0.000000 0.000000 31.316301 -1.838691 -2.071412 31.980726 -18.703140 -8.118410 -27.676078 6.341814 -0.483838 0.000000 0.000000 0.000000
0.005572 0.779306 -0.016218 7.693600 -4.031939 -10.082601 5.616985 -0.669564 -21.277137 -7.685956 4.610104 54.790015 8.112250 15.027874 -17.855426 0.000000 0.000000 0.000000 -31.639323 -1.504164 -14.074425 7.311297 -0.500978 49.111434 -11.463075 -27.377670 -2.799080 0.000000 0.000000 0.000000 14.517874 -1.203456 10.439189 10.139180 -2.450827 -22.592615 5.091387 10.014062 9.578334 2.858144 -2.024750 -1.454495 0.000000 0.000000 0.000000 -30.102178 -5.975755 -1.669147 5.387344 -27.736079 -2.244347 97.933637 -54.657389 -59.305492 0.000000 0.000000 0.000000 27.888727 -2.679441 -2.072857 33.631133 -13.792067 -7.413950 -26.147734 6.179221 -0.319150 0.000000 0.000000 0.000000
0.001883 0.784505 -0.017235 8.978849 -4.351448 -9.756930 3.980412 -0.985097 -20.806789 -7.134454 4.287449 53.048909 8.170340 15.542492 -16.562153 0.000000 0.000000 0.000000 -34.114673 -1.358568 -12.958975 7.408974 -0.549154 46.543830 -8.693911 -20.637511 -6.244103 0.000000 0.000000 0.000000 17.370551 -1.629958 11.979494 7.685785 -2.086404 -19.197723 5.269391 15.488561 7.589954 3.748920 -1.849620 -4.927033 0.000000 0.000000 0.000000 -31.094838 -6.118456 -4.205476 -1.406628 -17.075031 -0.556746 98.339841 -67.233980 -72.974928 0.000000 0.000000 0.000000 28.768239 -0.185555 1.276123 30.569399 -4.434786 -5.029288 -25.027576 3.410131 0.401772 0.000000 0.000000 0.000000
-0.006512 0.781395 -0.018803 10.104041 -5.807767 -9.491611 4.264650 -0.841910 -20.158639 -8.097908 5.296652 51.554481 8.402931 16.454453 -17.964290 0.000000 0.000000 0.000000 -35.703719 -1.462171 -14.725197 7.361785 -0.208715 47.887602 -6.739196 -14.536504 -9.432321 0.000000 0.000000 0.000000 19.146044 -2.482356 16.109775 2.432368 -0.238180 -22.923969 10.040094 19.108988 12.854376 4.096044 -0.323056 -12.590049 0.000000 0.000000 0.000000 -28.713374 -3.809679 -5.819795 -12.680343 -9.498227 -0.159262 65.309125 -66.568664 -45.447572 0.000000 0.000000 0.000000 27.034408 4.440832 5.315814 25.213180 9.639975 -2.368792 -24.476157 3.582183 0.425461 0.000000 0.000000 0.000000
-0.018678 0.778509 -0.021378 10.410028 -7.886759 -8.857556 4.271670 -0.737810 -19.584631 -6.863644 4.980579 50.029343 8.750689 18.086457 -19.993214 0.000000 0.000000 0.000000 -36.056704 -1.625250 -17.867098 7.627764 0.024250 48.480594 -5.363031 -10.257694 -9.285048 0.000000 0.000000 0.000000 20.520311 -3.136780 19.233803 1.946548 -0.130769 -22.727806 9.461969 23.758836 14.086047 4.979374 0.674591 -18.704085 0.000000 0.000000 0.000000 -22.079124 -2.372992 -6.054476 -20.867587 -0.605018 -1.264614 28.909887 -46.253450 -13.470368 0.000000 0.000000 0.000000 21.365364 10.665386 9.416758 21.262407 24.716672 -0.210409 -27.815567 0.181572 1.354576 0.000000 0.000000 0.000000
-0.032103 0.777757 -0.024784 9.513081 -9.068665 -8.281451 5.965790 -0.345797 -20.168216 -5.936409 4.681032 50.286442 8.728429 18.140985 -18.674564 0.000000 0.000000 0.000000 -34.442932 -1.761071 -20.580810 7.070626 0.643974 50.477103 -3.319064 -4.312412 -8.301741 0.000000 0.000000 0.000000 20.951425 -3.650856 21.919677 0.180345 0.375482 -23.679334 10.655018 25.533144 15.646571 6.314816 0.633395 -22.238170 0.000000 0.000000 0.000000 -18.576375 -1.759039 -5.578286 -25.689684 6.667878 -3.161502 19.361100 -26.081614 -4.963075 0.000000 0.000000 0.000000 17.951456 16.797889 12.309251 12.541797 34.795706 -0.058419 -29.029165 -3.913481 2.184097 0.000000 0.000000 0.000000
-0.044331 0.787314 -0.028236 8.738839 -10.180083 -7.049403 7.314495 -0.014352 -20.109292 -5.394847 4.280947 47.839431 8.629075 18.031821 -15.489479 0.000000 0.000000 0.000000 -32.989789 -1.679027 -22.472248 7.834486 0.273995 49.152232 -4.870774 -9.878539 -6.644402 0.000000 0.000000 0.000000 20.948229 -3.819134 22.788134 -0.630067 0.552182 -23.118105 10.214661 28.736206 15.257180 6.935189 0.604453 -21.816748 0.000000 0.000000 0.000000 -14.907865 -2.431884 -4.695127 -30.097625 9.378335 -4.505472 18.281153 -18.470284 -3.521824 0.000000 0.000000 0.000000 12.733342 20.536902 13.016659 5.653771 39.481683 -0.812765 -27.853851 -8.052879 2.966090 0.000000 0.000000 0.000000
-0.053654 0.803487 -0.031218 7.323268 -9.770093 -5.759918 7.930717 0.061791 -19.115520 -3.752595 2.878065 45.476300 7.591012 15.167882 -15.191703 0.000000 0.000000 0.000000 -32.093384 -1.521920 -21.664200 9.847561 -1.110225 44.951131 -6.426004 -14.791502 -5.019484 0.000000 0.000000 0.000000 20.261459 -3.919279 23.127757 -0.358136 0.478952 -23.249018 10.504772 29.017283 15.075476 8.290039 -0.307699 -20.994434 0.000000 0.000000 0.000000 -16.526114 -3.431144 -4.985962 -31.048959 11.754112 -5.182403 17.618374 -12.986022 -2.389842 0.000000 0.000000 0.000000 9.213183 23.018339 12.922282 -0.575988 40.728716 -1.966015 -27.052341 -8.907166 2.937431 0.000000 0.000000 0.000000
-0.059531 0.820769 -0.032759 6.569042 -9.924882 -4.334711 8.111953 0.067574 -18.170768 -4.152075 2.853265 42.611956 8.069442 16.746314 -15.284395 0.000000 0.000000 0.000000 -31.366023 -1.413250 -21.941629 10.543800 -1.544624 41.655555 -8.285460 -19.869808 -3.611353 0.000000 0.000000 0.000000 18.658402 -3.425187 21.088106 0.222036 0.237243 -21.243101 10.155215 28.651434 14.922153 7.516616 -0.198904 -19.585731 0.000000 0.000000 0.000000 -17.940729 -3.086209 -5.477592 -31.789648 14.707950 -6.178617 12.898034 -13.530569 -1.660003 0.000000 0.000000 0.000000 5.714176 24.259759 12.012343 -3.736394 40.216126 -2.459527 -28.018657 -5.295119 2.186787 0.000000 0.000000 0.000000
-0.062952 0.838752 -0.032792 5.780502 -8.503787 -3.325668 8.338587 0.014174 -17.084384 -5.296706 2.802305 38.820459 8.207725 17.027368 -14.592441 0.000000 0.000000 0.000000 -30.290495 -1.292371 -20.250376 10.990772 -1.990909 37.519216 -8.995264 -21.730323 -0.995332 0.000000 0.000000 0.000000 16.734432 -2.976673 18.987617 0.912291 0.039746 -20.316519 8.592662 27.201259 14.042535 8.237345 -0.917417 -18.834353 0.000000 0.000000 0.000000 -20.184618 -3.461590 -5.888377 -31.209983 17.291193 -6.628741 8.271700 -21.471085 -1.603037 0.000000 0.000000 0.000000 7.675758 22.790399 12.097357 -5.252628 39.858834 -3.012753 -36.029345 0.902964 1.146555 0.000000 0.000000 0.000000
-0.065166 0.855070 -0.031401 5.290280 -7.242274 -2.466557 8.272005 -0.075438 -14.972777 -7.320114 2.979538 32.476358 8.952082 18.888994 -10.585210 0.000000 0.000000 0.000000 -28.763553 -1.130158 -18.794099 10.614220 -1.982067 33.973004 -8.243820 -20.188937 1.888749 0.000000 0.000000 0.000000 14.415774 -2.357784 16.094675 1.609241 -0.119168 -20.417546 7.062627 23.130497 15.531484 8.283866 -1.314466 -19.325206 0.000000 0.000000 0.000000 -22.765901 -2.947529 -5.912848 -32.189092 18.276766 -7.369244 3.706399 -30.422418 -0.895044 0.000000 0.000000 0.000000 7.837992 21.497197 11.067498 -5.834599 39.245526 -3.294515 -50.598415 6.055460 -0.358584 0.000000 0.000000 0.000000
-0.067057 0.869916 -0.029580 4.260310 -5.229740 -2.157785 8.485872 -0.110855 -12.313892 -7.318714 2.206424 25.988878 8.627142 17.855842 -6.529071 0.000000 0.000000 0.000000 -26.643930 -0.780999 -15.143184 10.259788 -1.973132 28.562991 -7.962743 -19.737349 5.359267 0.000000 0.000000 0.000000 12.490058 -1.791759 12.960271 1.918190 -0.182862 -19.822894 5.239434 19.975656 16.086365 8.884485 -2.254679 -18.033996 0.000000 0.000000 0.000000 -26.147150 -3.757217 -5.761165 -32.424044 14.414095 -6.471814 1.108998 -40.706359 -0.215671 0.000000 0.000000 0.000000 9.829606 19.584953 10.598017 -5.428662 35.765518 -3.082484 -66.443007 10.113898 -2.896990 0.000000 0.000000 0.000000
-0.068580 0.879581 -0.027679 3.528947 -2.863185 -2.226878 9.269332 -0.086750 -10.617131 -7.761439 1.876968 21.747430 7.647106 15.695318 -2.062354 0.000000 0.000000 0.000000 -25.338653 -0.723774 -12.838676 9.133108 -1.745577 25.605843 -6.910443 -17.987182 11.005659 0.000000 0.000000 0.000000 9.832038 -1.291055 10.634528 2.872898 -0.379970 -19.995295 3.191259 15.953895 17.311923 9.694191 -3.069864 -18.592858 0.000000 0.000000 0.000000 -29.780679 -5.693449 -4.445761 -32.706556 8.323846 -5.200580 0.990072 -50.859890 0.079895 0.000000 0.000000 0.000000 12.220231 17.868147 10.111652 -6.102241 31.615683 -2.929477 -76.949018 9.553920 -3.726299 0.000000 0.000000 0.000000
-0.069393 0.887550 -0.026101 2.899476 -1.411339 -2.314825 9.518753 -0.099032 -9.352895 -6.926210 1.399175 19.281414 6.816951 14.092163 -0.428139 0.000000 0.000000 0.000000 -24.050345 -0.499570 -10.031148 9.110287 -1.743986 21.828313 -6.921880 -18.036880 13.283741 0.000000 0.000000 0.000000 7.454061 -0.887344 8.580084 1.593674 0.036557 -20.302020 2.455836 12.621418 17.571684 10.081632 -3.572564 -19.200715 0.000000 0.000000 0.000000 -29.734287 -6.251954 -2.994910 -34.769712 1.360739 -4.116643 -5.755388 -60.667543 4.280362 0.000000 0.000000 0.000000 12.119912 16.632565 9.044092 -2.317057 27.041774 -2.028350 -79.849304 7.947647 -2.850613 0.000000 0.000000 0.000000
-0.069464 0.893420 -0.025203 2.214241 0.289933 -2.302291 9.526614 -0.146580 -8.987206 -5.597695 0.883769 18.019052 5.974303 12.530768 0.686841 0.000000 0.000000 0.000000 -22.620198 -0.392832 -8.019330 8.071289 -1.476780 19.186310 -7.424188 -18.829939 15.873605 0.000000 0.000000 0.000000 5.110529 -0.662128 7.810810 2.157711 -0.026657 -21.413152 0.932703 10.023379 18.533578 9.791433 -3.374323 -20.465537 0.000000 0.000000 0.000000 -30.156553 -6.987086 -1.935868 -35.791200 -5.134204 -2.778034 -11.726513 -67.049802 9.105259 0.000000 0.000000 0.000000 15.013460 14.917583 8.655730 -1.301338 23.620229 -1.747800 -80.519288 4.829355 -0.885117 0.000000 0.000000 0.000000
-0.069451 0.897656 -0.025070 1.621605 0.615669 -2.742596 9.952280 -0.109390 -7.586615 -5.202331 0.737014 16.218991 5.609629 11.955977 1.488145 0.000000 0.000000 0.000000 -20.751332 -0.303832 -7.522133 7.369843 -1.284544 18.541708 -9.984008 -22.778785 18.721369 0.000000 0.000000 0.000000 3.330222 -0.514456 7.483032 1.739064 0.097111 -21.485031 0.307142 7.910134 18.876349 9.885542 -3.603223 -21.175130 0.000000 0.000000 0.000000 -30.277942 -8.503137 -0.115979 -36.871629 -10.737406 -1.594675 -10.073632 -69.417309 8.856239 0.000000 0.000000 0.000000 14.927965 13.624859 7.591664 1.528804 20.299415 -1.367583 -76.968876 4.073475 -0.448574 0.000000 0.000000 0.000000
-0.069881 0.901279 -0.025177 1.184376 0.423029 -3.158129 10.517010 -0.061076 -6.436125 -5.308323 0.757364 14.975876 5.423934 11.790765 2.485904 0.000000 0.000000 0.000000 -19.478496 -0.199175 -6.928618 7.182200 -1.191274 17.303738 -12.194697 -25.816603 21.221088 0.000000 0.000000 0.000000 1.575959 -0.449400 8.404896 2.243316 -0.039774 -21.668305 -0.689898 6.223214 18.980919 9.194493 -3.417765 -21.227132 0.000000 0.000000 0.000000 -29.698142 -8.098130 0.435147 -37.581739 -14.333651 -0.857395 -8.731779 -72.756457 8.866953 0.000000 0.000000 0.000000 15.610276 13.472408 7.244871 4.621331 17.831634 -1.157741 -74.613938 6.135254 -2.109157 0.000000 0.000000 0.000000
-0.071304 0.903057 -0.025802 0.526132 -0.785295 -3.017421 11.364146 0.017885 -6.405269 -5.409585 0.834329 15.052040 5.768192 12.583373 3.321166 0.000000 0.000000 0.000000 -17.820986 -0.089753 -7.881610 6.463210 -0.951864 18.039655 -12.572058 -26.495709 20.743671 0.000000 0.000000 0.000000 0.328035 -0.368977 8.657849 3.225470 -0.405661 -20.484331 -1.492385 5.702953 18.267827 9.008350 -3.385271 -21.574623 0.000000 0.000000 0.000000 -29.722940 -8.376244 1.088806 -36.639072 -15.750098 -0.552169 -2.290817 -76.163600 4.641667 0.000000 0.000000 0.000000 17.033476 12.500682 6.667966 8.006597 16.709190 -1.081853 -73.277257 9.493769 -4.408702 0.000000 0.000000 0.000000
-0.073785 0.905826 -0.026214 -0.318736 -2.527116 -2.934189 12.687554 0.149511 -6.022332 -5.883922 1.026249 14.933423 6.230243 13.603676 4.676483 0.000000 0.000000 0.000000 -16.685293 0.055567 -8.274048 7.085607 -1.004934 16.795487 -13.544546 -27.791946 22.230153 0.000000 0.000000 0.000000 -0.346267 -0.346579 9.622686 2.803538 -0.409366 -19.103846 -1.190539 5.049627 16.830833 8.497410 -3.294852 -21.260594 0.000000 0.000000 0.000000 -28.616145 -8.034987 1.551913 -35.766740 -15.078405 -0.825749 2.191727 -78.347976 1.481016 0.000000 0.000000 0.000000 19.097132 12.129808 6.221277 12.007682 14.729316 -1.009104 -72.123574 15.985764 -8.921601 0.000000 0.000000 0.000000
