HIERARCHY
ROOT Hips
{
	OFFSET -0.001795 -0.223333 0.028219
	CHANNELS 6 Xposition Yposition Zposition Zrotation Yrotation Xrotation
	JOINT LeftUpLeg
	{
		OFFSET 0.069520 -0.091406 -0.006815
		CHANNELS 3 Zrotation Yrotation Xrotation
		JOINT LeftLeg
		{
			OFFSET 0.034277 -0.375199 -0.004496
			CHANNELS 3 Zrotation Yrotation Xrotation
			JOINT LeftFoot
			{
				OFFSET -0.013596 -0.397961 -0.043693
				CHANNELS 3 Zrotation Yrotation Xrotation
				JOINT LeftToe
				{
					OFFSET 0.026358 -0.055791 0.119288
					CHANNELS 3 Zrotation Yrotation Xrotation
					End Site
					{
						OFFSET 0.000000 0.000000 0.000000
					}
				}
			}
		}
	}
	JOINT RightUpLeg
	{
		OFFSET -0.067670 -0.090522 -0.004320
		CHANNELS 3 Zrotation Yrotation Xrotation
		JOINT RightLeg
		{
			OFFSET -0.038290 -0.382569 -0.008850
			CHANNELS 3 Zrotation Yrotation Xrotation
			JOINT RightFoot
			{
				OFFSET 0.015774 -0.398415 -0.042312
				CHANNELS 3 Zrotation Yrotation Xrotation
				JOINT RightToe
				{
					OFFSET -0.025372 -0.048144 0.123348
					CHANNELS 3 Zrotation Yrotation Xrotation
					End Site
					{
						OFFSET 0.000000 0.000000 0.000000
					}
				}
			}
		}
	}
	JOINT Spine
	{
		OFFSET -0.002533 0.108963 -0.026696
		CHANNELS 3 Zrotation Yrotation Xrotation
		JOINT Spine1
		{
			OFFSET 0.005487 0.135180 0.001092
			CHANNELS 3 Zrotation Yrotation Xrotation
			JOINT Spine2
			{
				OFFSET 0.001457 0.052922 0.025425
				CHANNELS 3 Zrotation Yrotation Xrotation
				JOINT Neck
				{
					OFFSET -0.002778 0.213870 -0.042857
					CHANNELS 3 Zrotation Yrotation Xrotation
					JOINT Head
					{
						OFFSET 0.005152 0.064970 0.051349
						CHANNELS 3 Zrotation Yrotation Xrotation
						End Site
						{
							OFFSET 0.000000 0.000000 0.000000
						}
					}
				}
				JOINT LeftShoulder
				{
					OFFSET 0.078845 0.121749 -0.034090
					CHANNELS 3 Zrotation Yrotation Xrotation
					JOINT LeftArm
					{
						OFFSET 0.090977 0.030469 -0.008868
						CHANNELS 3 Zrotation Yrotation Xrotation
						JOINT LeftForeArm
						{
							OFFSET 0.259612 -0.012772 -0.027456
							CHANNELS 3 Zrotation Yrotation Xrotation
							JOINT LeftHand
							{
								OFFSET 0.249234 0.008986 -0.001171
								CHANNELS 3 Zrotation Yrotation Xrotation
								End Site
								{
									OFFSET 0.000000 0.000000 0.000000
								}
							}
						}
					}
				}
				JOINT RightShoulder
				{
					OFFSET -0.081759 0.118833 -0.038615
					CHANNELS 3 Zrotation Yrotation Xrotation
					JOINT RightArm
					{
						OFFSET -0.096012 0.032551 -0.009143
						CHANNELS 3 Zrotation Yrotation Xrotation
						JOINT RightForeArm
						{
							OFFSET -0.253742 -0.013329 -0.021401
							CHANNELS 3 Zrotation Yrotation Xrotation
							JOINT RightHand
							{
								OFFSET -0.255298 0.007772 -0.005559
								CHANNELS 3 Zrotation Yrotation Xrotation
								End Site
								{
									OFFSET 0.000000 0.000000 0.000000
								}
							}
						}
					}
				}
			}
		}
	}
}
MOTION
Frames: 32
Frame Time: 0.050000
0.000000 0.809656 0.000000 -1.356488 17.524625 3.090637 -3.753604 -4.876545 -29.271023 -13.492675 0.610943 57.750447 11.454629 22.490990 -18.967833 0.000000 0.000000 0.000000 2.664736 1.867334 -55.137433 -1.030129 -2.727193 80.112896 -7.381273 -14.870069 -28.129846 0.000000 0.000000 0.000000 -9.439842 -2.737120 59.017839 29.786129 -1.135975 -40.358305 -7.896590 8.835821 14.874669 -18.620796 21.302098 31.907152 0.000000 0.000000 0.000000 -44.751179 -29.227625 13.641967 3.827986 -18.107110 -0.994166 11.154115 -55.800049 -3.547304 0.000000 0.000000 0.000000 46.357944 21.723272 24.478170 16.955627 -3.379090 -3.308351 -16.107745 62.597340 -8.728800 0.000000 0.000000 0.000000
0.040502 0.828626 0.084454 -4.467107 20.735813 -0.924150 -0.727368 -3.328348 -24.382458 -16.188757 0.667049 63.606375 9.009364 18.564911 0.070545 0.000000 0.000000 0.000000 6.801628 2.953992 -60.574987 0.225718 -3.441830 70.729114 -6.441464 -12.695751 -20.858647 0.000000 0.000000 0.000000 -7.931173 -4.205912 57.840198 73.023023 20.868454 -79.374916 -45.219047 49.908949 56.716577 -80.287614 39.100939 -80.744065 0.000000 0.000000 0.000000 -25.257546 -20.507169 0.055984 -0.021895 -32.902288 -4.321167 22.061549 -58.283047 -16.229244 0.000000 0.000000 0.000000 49.256412 17.971658 40.708846 4.806150 17.530794 -5.988707 -41.309898 52.424120 -26.224009 0.000000 0.000000 0.000000
0.082228 0.848552 0.178927 -4.967601 20.125706 -7.465659 0.666951 -1.852612 -17.177702 -16.089717 0.370687 66.026209 2.432896 12.511192 25.096557 0.000000 0.000000 0.000000 6.330827 2.980630 -59.849608 3.690288 -5.709980 64.644621 -5.223566 -10.501516 -10.505900 0.000000 0.000000 0.000000 -7.322148 -3.553152 53.139200 143.700138 -1.088206 -56.826679 -135.240806 33.479253 -50.786561 -21.404191 14.032797 -40.136983 0.000000 0.000000 0.000000 -11.395847 -27.058687 -23.468292 -28.602929 -8.541720 3.085257 -27.322076 -64.707767 3.350645 0.000000 0.000000 0.000000 22.774232 4.542960 60.956122 7.722557 44.047881 -4.797940 -54.894116 41.210104 -24.398188 0.000000 0.000000 0.000000
0.124815 0.855182 0.287007 -3.673952 19.508758 -15.630998 2.161204 -0.465197 -5.963594 -16.238023 0.371958 69.143986 -3.264808 5.542185 26.678379 0.000000 0.000000 0.000000 6.997136 3.802637 -51.578839 2.426289 -5.609466 64.333900 -4.318447 -7.966381 -10.652374 0.000000 0.000000 0.000000 -7.374541 -1.244334 34.452734 -34.525485 -55.451872 170.727663 -55.073189 -12.873545 -143.589303 -168.123421 -48.090421 90.878722 0.000000 0.000000 0.000000 -24.707902 -16.019620 9.872975 -37.114361 -16.534173 17.639695 19.338661 -63.680782 -17.374382 0.000000 0.000000 0.000000 8.280608 4.873236 51.800824 39.040551 35.112468 22.218735 -63.897170 43.218433 -20.335306 0.000000 0.000000 0.000000
0.169788 0.851498 0.403298 -5.805196 23.052070 -24.432288 4.646012 -0.145194 7.102174 -13.873758 -2.855219 67.781429 1.939364 9.459731 14.674248 0.000000 0.000000 0.000000 6.365276 3.002346 -39.088254 4.856223 -10.998742 64.664991 -5.667442 -11.614456 -16.188540 0.000000 0.000000 0.000000 -7.650682 -0.426578 9.447373 -18.024874 -25.088791 145.542593 -24.127143 13.790240 -142.963687 -89.939196 -36.628048 31.286221 0.000000 0.000000 0.000000 -29.425640 -17.839227 -4.987584 -42.211682 14.622983 8.289159 -54.716885 -59.821575 20.918055 0.000000 0.000000 0.000000 6.728122 13.384524 7.685184 43.743387 -19.978980 12.199733 2.976235 79.486760 0.201654 0.000000 0.000000 0.000000
0.213647 0.827134 0.513689 -6.459814 21.320732 -29.802836 8.140959 -1.229407 18.592203 -14.840689 -0.761490 65.555874 8.095829 12.847361 -12.032950 0.000000 0.000000 0.000000 7.174753 3.390014 -27.828259 7.171153 -13.517864 63.918407 -6.936881 -16.225585 -18.127175 0.000000 0.000000 0.000000 -5.913048 -1.050133 -8.971414 -20.038367 -22.211973 108.967890 -12.448303 18.824361 -110.162766 -39.834221 -9.961889 29.973874 0.000000 0.000000 0.000000 -20.838097 -11.708007 -3.218454 -53.511432 22.570817 -3.841772 -73.951163 -37.858795 14.117895 0.000000 0.000000 0.000000 1.227806 6.164413 3.250933 42.882580 -29.053658 -3.286240 66.624864 56.155268 35.019277 0.000000 0.000000 0.000000
0.252711 0.786505 0.605884 -7.538254 24.246033 -33.738666 13.282315 -3.174214 21.620070 -19.432011 1.477237 65.609970 13.345706 27.121156 -37.572985 0.000000 0.000000 0.000000 5.245682 2.322485 -18.405240 7.747658 -14.848451 59.594094 -6.627033 -16.392288 -17.905468 0.000000 0.000000 0.000000 -7.898685 -2.634177 -17.179755 6.113765 -19.395450 36.297916 -6.187317 1.923332 -45.500700 -12.281963 6.583969 51.743127 0.000000 0.000000 0.000000 -38.312857 -13.209809 0.505673 -43.323331 18.702614 -5.541865 -74.929410 -39.301657 27.393620 0.000000 0.000000 0.000000 18.088007 8.292149 1.364578 27.219635 -36.060657 -5.597528 38.085023 47.477834 18.386408 0.000000 0.000000 0.000000
0.284301 0.748932 0.677622 -6.710471 26.923489 -33.329944 14.328222 -3.049698 18.249510 -23.411998 3.034489 68.927711 12.908994 29.191363 -42.985187 0.000000 0.000000 0.000000 2.216161 1.420372 -16.382055 5.294447 -15.092369 63.485170 -6.807401 -16.675484 -21.123352 0.000000 0.000000 0.000000 -9.770728 -3.995850 -20.303395 7.269859 -13.860561 25.047662 -4.318761 -0.517129 -29.033161 -9.920364 5.368337 48.269655 0.000000 0.000000 0.000000 -39.657794 -16.689085 4.393800 -46.741747 -0.807870 -0.090665 -68.871144 -55.694426 37.650736 0.000000 0.000000 0.000000 18.609407 2.979071 -0.846640 32.214808 -31.198572 -7.230663 17.409990 44.723544 8.301875 0.000000 0.000000 0.000000
0.309391 0.715027 0.734623 -6.097607 27.401281 -32.856391 15.989928 -2.477729 12.394479 -26.507700 4.814961 78.588759 11.727911 25.531114 -30.325476 0.000000 0.000000 0.000000 -0.175226 0.830085 -17.535425 1.592203 -16.234188 76.914502 -7.158475 -14.415201 -22.411996 0.000000 0.000000 0.000000 -8.386747 -3.242749 -19.251982 11.227423 -10.617936 11.319982 -9.046469 -6.158185 -13.959582 -9.377263 6.111699 45.281643 0.000000 0.000000 0.000000 -36.157822 -19.596057 7.615126 -44.845959 -22.271751 6.112616 -32.314976 -58.749091 18.808349 0.000000 0.000000 0.000000 22.685162 3.146749 -0.367212 36.697401 -32.660751 -10.298378 3.326029 37.405075 2.157374 0.000000 0.000000 0.000000
0.329123 0.697181 0.782197 -6.422599 27.871156 -31.540062 17.939669 -1.722863 4.347644 -29.633802 7.764524 87.100196 9.763488 21.775675 -27.517279 0.000000 0.000000 0.000000 -0.891739 0.607419 -18.849959 -1.190019 -15.789986 85.070744 -7.002721 -12.304818 -20.061145 0.000000 0.000000 0.000000 -7.992825 -3.329338 -20.387162 10.693527 -11.891193 15.328857 -5.308709 -6.496331 -16.769100 -12.010754 10.056958 35.185994 0.000000 0.000000 0.000000 -30.354695 -24.264960 11.453067 -43.234388 -38.114291 11.786678 4.906051 -51.757618 -1.536607 0.000000 0.000000 0.000000 20.192864 -0.078537 -2.567801 36.602478 -38.192135 -11.744516 3.994427 29.996119 1.811053 0.000000 0.000000 0.000000
0.345573 0.695399 0.824334 -7.270733 27.941640 -31.615746 21.703187 -1.694995 -1.014582 -31.677437 9.902106 89.378479 7.737922 12.691669 -35.512641 0.000000 0.000000 0.000000 0.607862 1.009301 -17.256730 -2.945382 -15.279517 87.052019 -6.676418 -12.138388 -15.700931 0.000000 0.000000 0.000000 -6.078300 -1.956426 -16.284579 12.603314 -5.025449 -6.591075 -9.978103 -11.973922 4.990886 -11.228014 10.541748 30.699989 0.000000 0.000000 0.000000 -22.527210 -30.732198 14.791294 -32.977659 -50.558198 10.042460 19.667200 -40.436448 -5.797791 0.000000 0.000000 0.000000 23.164481 -2.537824 -2.794488 33.879689 -38.246537 -12.195977 5.342894 23.405888 1.763965 0.000000 0.000000 0.000000
0.361118 0.706674 0.863087 -6.986157 27.289907 -29.268226 22.488179 -1.329249 -4.956929 -31.977796 10.027537 85.066142 8.230350 10.367687 -41.396740 0.000000 0.000000 0.000000 1.598689 1.198704 -14.585900 -2.333255 -15.481980 86.730364 -6.861043 -11.916966 -19.012113 0.000000 0.000000 0.000000 -6.421775 -2.267642 -18.054650 12.262281 -5.262306 -5.001636 -5.467378 -11.517510 4.165188 -13.582303 13.373365 24.482159 0.000000 0.000000 0.000000 -13.392898 -31.265498 13.623830 -24.839458 -59.026807 8.422216 26.511615 -30.284710 -5.976251 0.000000 0.000000 0.000000 19.482821 -2.772313 -2.825981 37.837712 -40.337653 -14.577481 4.205103 18.842664 1.209843 0.000000 0.000000 0.000000
0.377680 0.724504 0.898762 -6.307343 29.345960 -28.080590 18.926383 -1.113605 -5.421331 -28.673496 4.662569 76.325800 9.632279 8.782387 -42.124164 0.000000 0.000000 0.000000 1.653909 0.900759 -9.135717 -3.131362 -14.936931 81.352379 -6.429969 -11.406026 -20.931920 0.000000 0.000000 0.000000 -8.545184 -2.903093 -17.563556 11.815240 -4.523082 -6.753257 -4.227694 -12.262872 6.964757 -13.202455 12.763473 21.055394 0.000000 0.000000 0.000000 -9.155844 -30.877272 12.393350 -11.653446 -60.918925 1.701438 30.934691 -29.143973 -6.956650 0.000000 0.000000 0.000000 16.656034 -2.646570 -2.218261 41.643670 -40.024618 -16.527492 0.029206 17.849263 0.596272 0.000000 0.000000 0.000000
0.397030 0.752469 0.932917 -6.449707 31.057238 -27.207634 16.261912 -1.078223 -4.282727 -24.264636 0.729213 66.101746 10.521965 8.835380 -35.810054 0.000000 0.000000 0.000000 1.358536 0.357553 -3.351193 -1.848575 -14.837329 72.928794 -5.050250 -9.285456 -18.518671 0.000000 0.000000 0.000000 -10.597584 -4.355151 -20.858263 12.114726 -5.436420 -3.986536 -3.145069 -10.043681 7.389036 -11.222782 9.282508 4.898834 0.000000 0.000000 0.000000 -4.514351 -24.852420 8.693286 -20.255374 -64.324536 6.166827 35.488309 -36.405441 -10.676514 0.000000 0.000000 0.000000 11.634807 -4.484868 -2.249980 42.491903 -38.421031 -16.237967 -5.651584 20.140534 -0.111594 0.000000 0.000000 0.000000
0.418712 0.777900 0.965045 -6.721465 33.807597 -26.144888 13.539853 -1.180360 -0.810889 -19.772194 -2.406999 60.467145 11.549531 10.535753 -32.019704 0.000000 0.000000 0.000000 -0.286735 -0.351768 1.366823 1.902326 -16.950649 64.790588 -5.010023 -12.328818 -11.869859 0.000000 0.000000 0.000000 -11.297647 -5.567097 -23.684594 9.250488 -3.912325 -3.578842 -3.038031 -10.245473 8.951856 -8.708309 7.077632 3.538459 0.000000 0.000000 0.000000 -3.597760 -19.318244 6.297748 -34.193093 -60.057635 12.071065 38.413955 -53.522468 -18.439833 0.000000 0.000000 0.000000 7.303505 -1.689317 -0.489707 42.668650 -33.940950 -14.889255 -13.278090 25.100498 -1.507496 0.000000 0.000000 0.000000
0.439253 0.811367 0.991523 -6.511695 35.356638 -25.206341 10.795012 -1.152008 2.993100 -15.257979 -4.069473 53.828032 11.664031 12.474489 -22.956158 0.000000 0.000000 0.000000 0.337212 -1.059073 6.386048 4.330856 -14.958123 53.847157 -6.467102 -17.704614 -1.570793 0.000000 0.000000 0.000000 -10.498201 -5.771202 -25.009360 5.023440 -1.338426 -5.423569 -2.912207 -7.864642 12.020620 -5.349626 4.790197 -3.584278 0.000000 0.000000 0.000000 -1.921712 -10.585938 2.933543 -49.873032 -50.120774 13.908459 8.293002 -79.162213 -6.640878 0.000000 0.000000 0.000000 2.258379 -0.597694 0.118599 41.149128 -22.901190 -11.043146 -26.427285 29.676721 -4.157722 0.000000 0.000000 0.000000
0.455770 0.845375 1.011089 -6.730936 34.970374 -24.765054 10.077360 -1.557625 8.538758 -11.111364 -3.448567 43.096670 10.616563 11.880634 -14.666799 0.000000 0.000000 0.000000 1.449542 -1.691840 9.807373 6.386102 -12.396539 44.872953 -9.331445 -24.274051 4.070389 0.000000 0.000000 0.000000 -7.126882 -4.749416 -26.232163 1.861553 0.202855 -6.257951 -3.647719 -2.489480 10.674123 -0.379548 1.382976 -4.636545 0.000000 0.000000 0.000000 -1.213728 -2.427081 0.086379 -55.482164 -30.601626 5.553889 -95.830740 -64.886999 64.962753 0.000000 0.000000 0.000000 0.967625 2.730388 1.488951 35.002365 -8.986744 -6.115199 -37.357847 40.627313 -8.385345 0.000000 0.000000 0.000000
0.467287 0.864804 1.024139 -6.607490 35.227982 -23.945142 9.585263 -1.901223 11.937226 -10.766769 -2.496480 38.147176 10.510057 12.541091 -11.981544 0.000000 0.000000 0.000000 0.533951 -1.701508 9.869268 7.468557 -12.726632 43.824466 -7.300549 -19.529069 2.815328 0.000000 0.000000 0.000000 -5.316487 -4.072570 -26.046988 -1.064306 1.224310 -4.480759 -3.706488 3.159976 8.799918 3.506954 -1.635109 -3.565144 0.000000 0.000000 0.000000 -5.830592 0.587646 -2.822517 -44.468391 -8.014240 -2.477801 -104.631222 -45.220744 45.394354 0.000000 0.000000 0.000000 0.111205 5.861049 2.777550 25.578712 2.614132 -2.747944 -39.261866 40.515337 -8.258161 0.000000 0.000000 0.000000
0.474661 0.885850 1.031458 -7.012008 35.556362 -22.243512 10.696191 -2.259278 12.365462 -11.077223 -1.583146 33.149957 7.995901 10.324697 -6.313236 0.000000 0.000000 0.000000 1.344203 -1.255035 7.660067 7.224711 -11.878167 41.699965 -5.032111 -13.823297 1.423151 0.000000 0.000000 0.000000 -3.919849 -2.939411 -23.190120 -3.115217 2.230178 -5.975156 -4.224396 7.374326 7.352523 6.297729 -3.446452 -4.240230 0.000000 0.000000 0.000000 -9.462031 4.871412 -6.385885 -29.283530 6.991852 -4.113114 -96.531255 -36.862166 30.128764 0.000000 0.000000 0.000000 2.800412 7.980213 4.736304 13.954488 10.295854 -1.393739 -39.443194 32.811695 -6.215050 0.000000 0.000000 0.000000
0.480911 0.890680 1.036546 -6.976522 38.302266 -20.429805 10.666538 -2.313135 11.444870 -11.619180 -1.502506 31.575082 8.476403 10.438914 -6.831199 0.000000 0.000000 0.000000 1.196946 -0.802619 5.069987 6.491009 -12.224240 41.588904 -3.958283 -11.111434 -0.026793 0.000000 0.000000 0.000000 -4.759143 -3.035901 -21.523381 -4.580592 2.803953 -5.914059 -4.721511 8.924214 6.316228 7.862073 -6.971357 0.983588 0.000000 0.000000 0.000000 -10.715331 6.276000 -7.786909 -16.574587 17.091239 -3.365866 -74.390990 -35.345132 20.922140 0.000000 0.000000 0.000000 3.542358 11.381322 6.857837 1.863202 12.936473 -0.874449 -40.656465 22.303426 -3.764602 0.000000 0.000000 0.000000
0.485453 0.897233 1.039678 -6.308047 40.686755 -18.104458 10.540461 -2.224366 9.931961 -11.589445 -1.892245 32.171468 6.670681 5.896805 -8.183998 0.000000 0.000000 0.000000 1.413983 -0.341340 2.233091 5.850679 -11.802829 39.925376 -5.939120 -14.498919 6.773643 0.000000 0.000000 0.000000 -5.381215 -2.487891 -17.567018 -7.149379 3.973198 -10.040068 -2.809129 9.006632 8.563217 8.824547 -8.157018 1.449072 0.000000 0.000000 0.000000 -12.660855 6.803401 -9.419525 -7.017180 21.038328 -1.502253 -43.722575 -33.171865 11.254351 0.000000 0.000000 0.000000 -0.383056 13.477863 6.419272 -2.869989 13.608448 -0.585579 -44.427352 14.041157 -1.003281 0.000000 0.000000 0.000000
0.489039 0.902943 1.042308 -6.199139 43.113754 -15.235548 10.481363 -2.158249 8.284348 -10.566910 -2.081011 30.070406 5.784759 3.885126 -7.798743 0.000000 0.000000 0.000000 2.107105 -0.012359 0.220893 5.293031 -10.571075 36.394636 -6.817478 -18.053419 2.142455 0.000000 0.000000 0.000000 -6.587609 -2.470889 -15.615146 -7.096728 4.037304 -13.630446 -1.690849 7.922134 11.002742 7.617864 -8.083564 3.300051 0.000000 0.000000 0.000000 -13.448480 8.356733 -10.699433 -0.732170 22.876999 -0.120552 -21.566259 -26.875251 4.548509 0.000000 0.000000 0.000000 -2.037583 16.083777 6.852678 -8.166928 11.736364 0.041012 -46.504446 10.600963 -0.007904 0.000000 0.000000 0.000000
0.491992 0.905855 1.044859 -6.134789 44.113779 -13.914707 10.320191 -2.100613 7.630427 -9.263500 -2.379599 29.410376 5.497389 3.610386 -7.108405 0.000000 0.000000 0.000000 2.215531 0.045935 -0.158746 5.074216 -9.482503 33.634882 -7.411894 -20.247391 1.053431 0.000000 0.000000 0.000000 -7.092616 -2.138907 -13.290402 -6.639995 3.972009 -16.700368 -1.004514 7.506241 13.297338 8.441051 -8.913425 3.143092 0.000000 0.000000 0.000000 -13.047084 10.327810 -11.488190 2.229128 22.054907 0.524859 -6.039581 -19.718781 0.979112 0.000000 0.000000 0.000000 -1.998120 14.046395 5.934680 -10.502628 14.577483 -0.001447 -50.528241 6.652896 1.718622 0.000000 0.000000 0.000000
0.495498 0.908723 1.046963 -5.281040 45.936856 -10.885368 9.406966 -1.769486 5.719459 -7.105304 -2.886422 28.350765 4.741899 3.809262 -4.613228 0.000000 0.000000 0.000000 1.821462 0.043199 -0.403890 5.525741 -8.027362 28.528569 -8.773228 -22.908692 2.915575 0.000000 0.000000 0.000000 -7.645799 -2.287767 -13.174281 -6.691441 3.885660 -17.995188 0.171760 6.411245 15.199684 8.783342 -8.918053 2.572631 0.000000 0.000000 0.000000 -12.345096 12.319697 -12.091199 2.045085 21.481507 0.423585 2.720302 -14.155257 -0.301448 0.000000 0.000000 0.000000 -4.854819 12.012715 3.773929 -8.960923 16.036199 -0.125972 -52.748398 7.551059 2.069546 0.000000 0.000000 0.000000
0.500272 0.912814 1.047968 -4.921613 45.554110 -8.806949 7.987304 -1.427480 5.308521 -5.450241 -2.932679 26.734650 5.201332 5.276907 -3.566129 0.000000 0.000000 0.000000 1.280780 0.058515 -0.869701 5.009703 -6.723884 25.995212 -7.928204 -19.853635 4.150338 0.000000 0.000000 0.000000 -7.193496 -2.096090 -12.935104 -4.659490 3.330058 -20.367274 0.035408 7.144344 18.138513 11.346782 -9.165049 -1.404246 0.000000 0.000000 0.000000 -10.679771 14.776805 -12.479200 0.075838 20.827595 -0.111760 5.112032 -6.865944 -0.279726 0.000000 0.000000 0.000000 -8.710105 9.516950 1.127641 -5.157067 18.189807 -0.288745 -56.547849 10.000288 2.544795 0.000000 0.000000 0.000000
0.506189 0.915927 1.047440 -5.055594 45.989569 -6.975592 6.918159 -1.192288 4.709351 -3.456947 -3.090921 25.139399 3.924606 5.681039 -0.014183 0.000000 0.000000 0.000000 0.743525 0.073264 -1.433234 4.745143 -5.565728 22.834923 -7.486315 -17.027412 7.097759 0.000000 0.000000 0.000000 -6.767198 -1.813244 -12.041627 -2.993489 2.857898 -21.845014 -1.149084 6.308584 19.342216 13.255294 -9.614605 -3.777946 0.000000 0.000000 0.000000 -7.650804 18.741874 -12.220146 -2.975410 21.545124 -1.055006 2.979848 -5.302219 -0.119120 0.000000 0.000000 0.000000 -12.474672 7.460833 -1.089711 -1.034673 18.851632 -0.270045 -55.243162 13.438603 2.047262 0.000000 0.000000 0.000000
0.512411 0.918397 1.045323 -4.631292 44.817978 -4.977618 5.636775 -0.843573 3.401248 -3.323500 -2.953471 24.514462 4.071338 6.664582 0.925433 0.000000 0.000000 0.000000 -0.097598 0.093394 -2.420451 4.445169 -5.020498 22.105696 -6.049801 -13.966264 6.005846 0.000000 0.000000 0.000000 -5.574878 -1.392703 -11.272716 -1.900015 2.443251 -23.624751 -1.143810 6.392505 20.897301 13.885889 -9.309354 -5.205426 0.000000 0.000000 0.000000 -6.990730 21.126438 -12.844684 -4.662886 24.260882 -1.793704 -2.485612 -4.002783 0.058798 0.000000 0.000000 0.000000 -15.741629 6.155691 -2.780481 2.108210 17.388672 -0.256887 -55.230181 19.941691 0.107863 0.000000 0.000000 0.000000
0.518311 0.918857 1.042895 -3.916721 44.556858 -3.383275 4.346880 -0.586003 2.250986 -2.398755 -3.212433 24.616121 3.698903 6.364082 1.247959 0.000000 0.000000 0.000000 -1.379395 -0.003783 -3.013779 4.510304 -4.947543 21.941422 -4.881583 -11.645238 4.581437 0.000000 0.000000 0.000000 -5.410765 -1.110580 -9.836206 -1.194209 2.157736 -24.454456 -1.373190 5.051403 21.671108 13.201908 -7.716008 -6.901998 0.000000 0.000000 0.000000 -5.304160 25.547187 -13.379448 -8.129919 26.511858 -3.263716 -10.302358 -7.422281 0.288398 0.000000 0.000000 0.000000 -17.955193 3.840561 -4.159768 5.110822 17.853027 -0.176698 -56.158285 23.505580 -0.723812 0.000000 0.000000 0.000000
0.523746 0.920178 1.041249 -3.934137 44.856574 -2.310907 3.806088 -0.493279 1.042387 -2.561862 -3.318082 25.010212 3.453404 6.248319 1.588297 0.000000 0.000000 0.000000 -2.018241 -0.012519 -4.357751 4.164493 -4.818941 22.000446 -4.287920 -9.248906 7.067105 0.000000 0.000000 0.000000 -5.239528 -0.832871 -8.038490 -0.212431 1.849946 -26.326854 -2.159618 3.948845 22.774709 12.340101 -7.498551 -5.894741 0.000000 0.000000 0.000000 -4.810182 26.332439 -13.356687 -10.340167 29.813601 -4.594424 -20.020637 -8.736110 0.475339 0.000000 0.000000 0.000000 -17.535984 0.728908 -4.959404 6.649771 16.908174 -0.340372 -58.275567 32.937436 -4.692229 0.000000 0.000000 0.000000
0.528562 0.920319 1.040555 -3.355632 45.261838 -1.487090 2.798217 -0.374383 -0.769690 -2.774913 -3.731351 26.592710 3.710510 5.628850 0.091698 0.000000 0.000000 0.000000 -2.579771 -0.081627 -4.756128 3.862220 -4.566103 21.569821 -4.783601 -9.646251 9.144030 0.000000 0.000000 0.000000 -5.544498 -0.714375 -6.768839 0.338339 1.740430 -25.741600 -2.249948 1.856927 22.976015 11.401292 -6.834125 -5.807160 0.000000 0.000000 0.000000 -4.344368 26.295271 -12.818378 -14.168408 29.631566 -5.948443 -30.332326 -14.443313 1.789817 0.000000 0.000000 0.000000 -15.441204 -1.028606 -4.668348 7.482743 15.404645 -0.584228 -58.934979 39.334358 -8.374201 0.000000 0.000000 0.000000
0.532010 0.918485 1.039600 -2.967702 44.578652 -0.651921 3.018794 -0.455569 -3.018231 -4.570543 -3.937264 29.286044 4.276801 6.768750 0.078129 0.000000 0.000000 0.000000 -3.206199 -0.119375 -6.226456 3.619132 -4.621703 22.603601 -5.532859 -11.420757 8.596349 0.000000 0.000000 0.000000 -5.055561 -0.528806 -5.793733 1.312965 1.546121 -24.934549 -3.006575 1.440275 23.188404 10.419701 -6.626980 -4.616176 0.000000 0.000000 0.000000 -8.458488 23.894563 -14.435410 -16.596079 30.447784 -6.660510 -41.231672 -25.119067 6.206856 0.000000 0.000000 0.000000 -10.473041 -2.130764 -3.639903 7.734310 15.528833 -0.820219 -60.833976 48.347260 -14.687863 0.000000 0.000000 0.000000
0.533765 0.918691 1.037833 -2.660519 43.175026 -1.179631 2.868693 -0.459838 -3.736356 -5.918127 -3.714692 30.359783 5.032077 8.234106 0.077648 0.000000 0.000000 0.000000 -3.837021 -0.194664 -6.518861 3.789985 -4.769411 23.614980 -6.026109 -12.811167 8.083043 0.000000 0.000000 0.000000 -4.039644 -0.224966 -3.138699 1.398611 1.581027 -22.757022 -3.347003 1.044495 21.449980 10.606773 -7.300997 -3.952076 0.000000 0.000000 0.000000 -12.177754 19.001043 -14.303588 -21.383111 29.135408 -7.724806 -52.546470 -38.273610 15.068749 0.000000 0.000000 0.000000 -2.421877 -2.858655 -1.681397 8.086590 15.889923 -1.136267 -65.283484 56.284968 -23.597335 0.000000 0.000000 0.000000
