HIERARCHY
ROOT Hips
{
	OFFSET -0.001795 -0.223333 0.028219
	CHANNELS 6 Xposition Yposition Zposition Zrotation Yrotation Xrotation
	JOINT LeftUpLeg
	{
		OFFSET 0.069520 -0.091406 -0.006815
		CHANNELS 3 Zrotation Yrotation Xrotation
		JOINT LeftLeg
		{
			OFFSET 0.034277 -0.375199 -0.004496
			CHANNELS 3 Zrotation Yrotation Xrotation
			JOINT LeftFoot
			{
				OFFSET -0.013596 -0.397961 -0.043693
				CHANNELS 3 Zrotation Yrotation Xrotation
				JOINT LeftToe
				{
					OFFSET 0.026358 -0.055791 0.119288
					CHANNELS 3 Zrotation Yrotation Xrotation
					End Site
					{
						OFFSET 0.000000 0.000000 0.000000
					}
				}
			}
		}
	}
	JOINT RightUpLeg
	{
		OFFSET -0.067670 -0.090522 -0.004320
		CHANNELS 3 Zrotation Yrotation Xrotation
		JOINT RightLeg
		{
			OFFSET -0.038290 -0.382569 -0.008850
			CHANNELS 3 Zrotation Yrotation Xrotation
			JOINT RightFoot
			{
				OFFSET 0.015774 -0.398415 -0.042312
				CHANNELS 3 Zrotation Yrotation Xrotation
				JOINT RightToe
				{
					OFFSET -0.025372 -0.048144 0.123348
					CHANNELS 3 Zrotation Yrotation Xrotation
					End Site
					{
						OFFSET 0.000000 0.000000 0.000000
					}
				}
			}
		}
	}
	JOINT Spine
	{
		OFFSET -0.002533 0.108963 -0.026696
		CHANNELS 3 Zrotation Yrotation Xrotation
		JOINT Spine1
		{
			OFFSET 0.005487 0.135180 0.001092
			CHANNELS 3 Zrotation Yrotation Xrotation
			JOINT Spine2
			{
				OFFSET 0.001457 0.052922 0.025425
				CHANNELS 3 Zrotation Yrotation Xrotation
				JOINT Neck
				{
					OFFSET -0.002778 0.213870 -0.042857
					CHANNELS 3 Zrotation Yrotation Xrotation
					JOINT Head
					{
						OFFSET 0.005152 0.064970 0.051349
						CHANNELS 3 Zrotation Yrotation Xrotation
						End Site
						{
							OFFSET 0.000000 0.000000 0.000000
						}
					}
				}
				JOINT LeftShoulder
				{
					OFFSET 0.078845 0.121749 -0.034090
					CHANNELS 3 Zrotation Yrotation Xrotation
					JOINT LeftArm
					{
						OFFSET 0.090977 0.030469 -0.008868
						CHANNELS 3 Zrotation Yrotation Xrotation
						JOINT LeftForeArm
						{
							OFFSET 0.259612 -0.012772 -0.027456
							CHANNELS 3 Zrotation Yrotation Xrotation
							JOINT LeftHand
							{
								OFFSET 0.249234 0.008986 -0.001171
								CHANNELS 3 Zrotation Yrotation Xrotation
								End Site
								{
									OFFSET 0.000000 0.000000 0.000000
								}
							}
						}
					}
				}
				JOINT RightShoulder
				{
					OFFSET -0.081759 0.118833 -0.038615
					CHANNELS 3 Zrotation Yrotation Xrotation
					JOINT RightArm
					{
						OFFSET -0.096012 0.032551 -0.009143
						CHANNELS 3 Zrotation Yrotation Xrotation
						JOINT RightForeArm
						{
							OFFSET -0.253742 -0.013329 -0.021401
							CHANNELS 3 Zrotation Yrotation Xrotation
							JOINT RightHand
							{
								OFFSET -0.255298 0.007772 -0.005559
								CHANNELS 3 Zrotation Yrotation Xrotation
								End Site
								{
									OFFSET 0.000000 0.000000 0.000000
								}
							}
						}
					}
				}
			}
		}
	}
}
MOTION
Frames: 68
Frame Time: 0.050000
0.000000 0.919360 0.000000 -3.358530 9.335290 -5.004594 9.019360 -0.242422 1.498095 -6.826124 0.697217 15.541723 5.568369 10.248575 -2.693060 0.000000 0.000000 0.000000 -4.005775 0.497345 -8.758088 5.727200 -1.470518 19.552132 -8.661810 -20.315243 10.096940 0.000000 0.000000 0.000000 6.390523 -0.858647 8.515930 -4.677370 2.176152 -16.532201 -3.391036 -0.320661 25.620978 13.225887 -6.796365 -20.094901 0.000000 0.000000 0.000000 -4.828433 -25.601283 8.975438 -23.214792 -38.907456 2.152746 128.706630 -64.482865 -101.941301 0.000000 0.000000 0.000000 9.434759 2.764447 1.517051 17.898695 15.903717 -1.310922 -70.097995 20.602805 -10.225828 0.000000 0.000000 0.000000
-0.001217 0.919942 0.000354 -3.903602 10.044015 -3.971006 9.694968 -0.313185 0.442998 -6.709095 0.645108 14.985481 5.384746 9.765635 -2.852587 0.000000 0.000000 0.000000 -3.025110 0.625719 -9.370321 5.265662 -1.324508 18.603457 -9.109105 -21.069315 10.485992 0.000000 0.000000 0.000000 6.686507 -0.727748 6.891348 -4.062276 1.990385 -16.386181 -3.273485 0.065952 25.905786 13.012326 -6.859314 -18.623212 0.000000 0.000000 0.000000 -4.796465 -24.658634 8.555174 -23.808723 -39.236062 2.259657 130.252629 -64.595085 -104.297802 0.000000 0.000000 0.000000 9.528168 2.022682 1.282716 18.542339 14.762125 -1.459339 -72.771690 21.984292 -11.404032 0.000000 0.000000 0.000000
-0.002040 0.922736 0.000306 -3.543169 8.825424 -4.140156 8.966528 -0.242073 1.485287 -6.296557 0.620977 13.930206 5.570368 10.643891 -1.659455 0.000000 0.000000 0.000000 -3.100318 0.610351 -9.021289 4.832058 -1.092603 18.148556 -8.491990 -19.964379 10.738834 0.000000 0.000000 0.000000 6.469978 -0.803410 7.838907 -3.680025 1.822932 -18.088598 -3.638270 2.792387 27.645130 14.872296 -7.664369 -19.761353 0.000000 0.000000 0.000000 -4.559049 -26.036070 8.840032 -22.042060 -37.701830 1.498992 129.099156 -62.603714 -101.898050 0.000000 0.000000 0.000000 11.354067 2.399077 1.891784 17.549518 13.636739 -1.766707 -74.269839 19.174851 -9.249226 0.000000 0.000000 0.000000
-0.002805 0.927553 -0.000012 -3.889731 9.043341 -3.822742 8.731079 -0.240642 1.724190 -5.101059 0.391728 12.554433 5.242575 10.412000 -0.357406 0.000000 0.000000 0.000000 -2.661735 0.628928 -8.693121 4.834124 -1.046663 16.736166 -8.487197 -19.808978 12.333201 0.000000 0.000000 0.000000 6.934461 -0.746741 6.952648 -3.977083 1.918010 -17.490831 -3.661297 2.865336 27.568423 14.408958 -7.387364 -19.300937 0.000000 0.000000 0.000000 -2.643985 -25.631221 8.459394 -22.581574 -37.856739 1.576963 127.763583 -64.199621 -102.249759 0.000000 0.000000 0.000000 10.091294 1.672617 1.456946 18.317274 13.318723 -1.786572 -71.822998 19.391595 -8.726630 0.000000 0.000000 0.000000
-0.003381 0.933018 -0.000204 -3.854541 9.222067 -3.488639 8.168945 -0.221650 1.798960 -4.091951 0.214990 11.540721 4.822046 10.192008 1.402769 0.000000 0.000000 0.000000 -2.491235 0.601069 -8.062868 4.562953 -0.908474 14.902735 -8.419954 -19.554839 13.881135 0.000000 0.000000 0.000000 6.365939 -0.752792 7.292092 -3.917117 1.888282 -18.345496 -3.251279 3.270057 27.457291 14.624891 -7.715892 -18.385796 0.000000 0.000000 0.000000 -2.159489 -25.988616 8.490213 -21.596610 -36.967978 1.243085 126.720034 -64.080538 -101.290382 0.000000 0.000000 0.000000 10.381885 1.787490 1.600548 18.122634 11.071051 -2.019619 -71.811926 20.401961 -9.369389 0.000000 0.000000 0.000000
-0.003647 0.937301 -0.000092 -3.713575 8.794347 -2.555828 7.488522 -0.191139 1.700653 -3.281950 0.118780 10.008161 4.731884 10.521875 2.897552 0.000000 0.000000 0.000000 -2.527969 0.614344 -8.144985 4.404631 -0.787841 13.145709 -8.102310 -18.972386 14.902751 0.000000 0.000000 0.000000 6.038937 -0.667521 6.559731 -4.095597 1.898425 -19.071574 -2.655568 3.642730 27.867689 14.138833 -7.282187 -18.594718 0.000000 0.000000 0.000000 -0.911315 -25.520517 8.210063 -22.123262 -37.359248 1.314417 124.692324 -64.137372 -98.977212 0.000000 0.000000 0.000000 9.648088 1.549202 1.439066 18.847305 10.779598 -2.093506 -71.918318 21.055122 -9.663875 0.000000 0.000000 0.000000
-0.003500 0.939704 0.000344 -3.651886 8.604113 -2.288819 7.371759 -0.175819 2.381594 -3.240381 0.157860 8.373690 4.584873 10.507668 3.714111 0.000000 0.000000 0.000000 -2.740087 0.585990 -7.912781 4.493342 -0.779012 12.328088 -7.609114 -18.119506 15.278857 0.000000 0.000000 0.000000 6.093740 -0.659445 6.405012 -4.152543 1.905283 -19.163359 -2.593039 3.772003 27.571288 13.978320 -7.120903 -18.649943 0.000000 0.000000 0.000000 -0.814329 -25.140219 8.083359 -21.940615 -37.208233 1.268918 124.947355 -64.309251 -99.517383 0.000000 0.000000 0.000000 9.595971 1.634352 1.464639 19.389966 10.665548 -2.109585 -73.090295 21.873942 -10.410708 0.000000 0.000000 0.000000
-0.003206 0.940412 0.001010 -3.654573 8.298619 -2.233196 7.503147 -0.175019 2.591684 -3.556745 0.220888 8.057964 4.625797 10.676306 4.033811 0.000000 0.000000 0.000000 -3.074503 0.564195 -7.902236 4.678999 -0.808833 12.190451 -6.886000 -16.896755 15.532848 0.000000 0.000000 0.000000 6.251116 -0.642142 6.143246 -4.256268 1.921773 -19.357523 -2.193025 4.385477 28.004101 14.221898 -7.449117 -17.949584 0.000000 0.000000 0.000000 -1.189938 -25.656353 8.267399 -21.646999 -37.002178 1.154670 125.587956 -64.475126 -100.650339 0.000000 0.000000 0.000000 9.683501 1.577092 1.497810 19.435918 11.036277 -2.104209 -74.169901 22.314989 -10.813257 0.000000 0.000000 0.000000
-0.003059 0.939435 0.001703 -3.556911 7.912414 -2.531739 7.536838 -0.158923 2.986367 -3.888597 0.278205 8.201297 4.809620 10.941304 3.834650 0.000000 0.000000 0.000000 -3.387031 0.541501 -7.886681 4.521492 -0.775549 12.891674 -5.927902 -15.268499 14.984680 0.000000 0.000000 0.000000 6.526434 -0.640964 6.045133 -4.362387 1.947139 -19.296578 -2.118887 4.604903 28.359594 13.904443 -7.500505 -16.976093 0.000000 0.000000 0.000000 -1.425243 -25.543442 8.255682 -21.676411 -37.514391 1.197041 124.323908 -65.088672 -99.762553 0.000000 0.000000 0.000000 9.683315 2.053924 1.717288 19.147076 11.821799 -2.008362 -74.213425 22.515922 -11.043370 0.000000 0.000000 0.000000
-0.003293 0.938152 0.002271 -3.587135 7.251618 -2.824583 7.589987 -0.140767 3.149407 -4.049668 0.307486 8.788179 5.166231 11.509377 3.580198 0.000000 0.000000 0.000000 -3.426621 0.552905 -8.042033 4.341444 -0.725119 13.634703 -5.198831 -14.045726 14.611353 0.000000 0.000000 0.000000 6.781135 -0.636294 5.945267 -4.365171 1.946089 -18.891681 -1.885618 4.842226 28.308804 13.438350 -7.732858 -14.942588 0.000000 0.000000 0.000000 -1.814084 -25.817470 8.398400 -21.310076 -37.125657 1.114523 123.466783 -64.941606 -98.539288 0.000000 0.000000 0.000000 9.581486 2.551217 1.909286 18.419948 12.491163 -1.883040 -74.044401 22.651321 -11.271580 0.000000 0.000000 0.000000
-0.003906 0.936414 0.002720 -3.539581 6.852291 -3.202165 7.651307 -0.128957 3.145826 -4.261454 0.338414 9.750409 5.434918 11.889465 3.178242 0.000000 0.000000 0.000000 -3.614720 0.552749 -8.251320 4.276062 -0.717203 14.678758 -4.551072 -12.913552 14.212620 0.000000 0.000000 0.000000 6.955253 -0.675678 6.304329 -4.124277 1.872490 -18.835665 -1.810400 4.904965 28.485317 12.897961 -7.660034 -13.810390 0.000000 0.000000 0.000000 -1.961458 -26.264363 8.572024 -20.769779 -36.946990 1.003415 122.005651 -64.434501 -96.229316 0.000000 0.000000 0.000000 9.572833 3.555605 2.348624 17.514920 13.490718 -1.743353 -75.162045 22.573683 -11.658802 0.000000 0.000000 0.000000
-0.004606 0.935568 0.003283 -3.430879 6.150681 -3.188838 7.799397 -0.123521 2.897537 -4.820838 0.448535 10.475781 5.739367 12.465755 3.231408 0.000000 0.000000 0.000000 -3.695852 0.578437 -8.641996 4.309195 -0.713743 15.486634 -4.221779 -12.325412 13.315268 0.000000 0.000000 0.000000 7.276281 -0.698475 6.366058 -4.079256 1.841638 -18.876547 -1.797777 5.137595 28.486013 12.410134 -7.496664 -13.040731 0.000000 0.000000 0.000000 -1.350509 -26.423067 8.571322 -20.770967 -36.503222 0.959138 120.343635 -63.326478 -93.052624 0.000000 0.000000 0.000000 9.124920 3.848435 2.397372 17.056831 14.764388 -1.578472 -77.116820 23.461774 -12.872983 0.000000 0.000000 0.000000
-0.005214 0.936170 0.004394 -3.304343 5.516556 -2.878133 7.590242 -0.107472 2.619236 -4.804278 0.460561 10.688511 5.976178 13.014439 3.718847 0.000000 0.000000 0.000000 -3.806650 0.614711 -9.210214 4.249808 -0.676171 15.875200 -3.803340 -11.648687 13.387528 0.000000 0.000000 0.000000 7.624160 -0.693039 6.101662 -3.907071 1.778953 -18.640971 -2.109476 5.330268 28.252395 11.995900 -7.428629 -12.100980 0.000000 0.000000 0.000000 -1.390013 -26.282386 8.552624 -20.254699 -35.897373 0.823291 119.810121 -62.179640 -91.115562 0.000000 0.000000 0.000000 9.049005 4.230477 2.531137 16.383390 15.936757 -1.441968 -80.081613 24.039337 -14.204886 0.000000 0.000000 0.000000
-0.005756 0.938399 0.006155 -3.171577 5.019431 -2.417797 7.520498 -0.092794 3.047825 -4.992319 0.514428 9.360105 5.987222 13.231869 4.634859 0.000000 0.000000 0.000000 -3.819085 0.627279 -9.258205 4.151248 -0.614119 15.164650 -3.578819 -11.352856 13.751228 0.000000 0.000000 0.000000 7.925428 -0.661483 5.605554 -3.869381 1.753690 -18.588933 -2.307532 5.399489 27.704138 11.381593 -7.147588 -11.265100 0.000000 0.000000 0.000000 -1.132897 -26.049221 8.472653 -20.184529 -35.276022 0.782509 118.443767 -61.262512 -88.476743 0.000000 0.000000 0.000000 8.695126 4.355987 2.506052 15.951909 16.998853 -1.301094 -82.012404 25.639888 -16.169410 0.000000 0.000000 0.000000
-0.006456 0.942338 0.008518 -3.103275 4.602580 -1.750217 7.311190 -0.079718 3.236153 -4.786669 0.491039 8.033373 5.909781 13.392573 6.115702 0.000000 0.000000 0.000000 -3.702707 0.631120 -8.989782 3.960245 -0.528273 13.710053 -3.232908 -10.851075 14.225637 0.000000 0.000000 0.000000 8.253671 -0.605174 4.841209 -3.831360 1.721601 -18.874023 -2.316388 5.544255 27.627582 11.044235 -6.821944 -11.443473 0.000000 0.000000 0.000000 -0.651415 -25.307199 8.195942 -19.845269 -34.783967 0.659301 117.406427 -60.123057 -86.046402 0.000000 0.000000 0.000000 8.464232 4.326988 2.452376 14.909180 18.304313 -1.194627 -82.754356 27.242598 -17.884010 0.000000 0.000000 0.000000
-0.007391 0.946361 0.011108 -2.965412 4.410285 -1.321977 7.187845 -0.059911 3.992737 -4.750827 0.490537 6.137673 5.661623 13.252320 7.596311 0.000000 0.000000 0.000000 -3.730424 0.576560 -8.055446 3.804697 -0.465119 11.604006 -2.798026 -10.191480 14.802385 0.000000 0.000000 0.000000 8.507041 -0.601254 4.609231 -3.811433 1.700209 -19.312542 -2.460050 5.771689 27.061878 10.487240 -6.337178 -11.386637 0.000000 0.000000 0.000000 0.186641 -24.700644 7.914333 -19.358384 -34.658392 0.560290 116.422846 -59.273861 -84.168583 0.000000 0.000000 0.000000 7.901448 4.162445 2.319020 14.104814 19.166837 -1.110766 -83.247668 28.666093 -19.266878 0.000000 0.000000 0.000000
-0.008450 0.950513 0.013818 -2.917974 4.707587 -0.894974 7.138064 -0.057027 4.666737 -4.362795 0.432133 4.068902 5.031091 12.581290 9.384651 0.000000 0.000000 0.000000 -3.753008 0.482034 -6.575375 3.727465 -0.439300 8.802156 -2.323318 -9.386685 15.288489 0.000000 0.000000 0.000000 8.551956 -0.560642 4.132412 -3.666335 1.657827 -19.600271 -2.353557 5.546043 26.707300 10.578682 -6.241899 -12.019655 0.000000 0.000000 0.000000 0.873528 -24.052357 7.650132 -18.861394 -34.866682 0.486165 116.000197 -58.721173 -83.134140 0.000000 0.000000 0.000000 7.285793 3.970821 2.164614 12.901293 20.709783 -1.025511 -82.276395 29.300384 -19.528772 0.000000 0.000000 0.000000
-0.009221 0.953614 0.016592 -2.805384 4.671244 -0.522481 6.776077 -0.021249 5.381680 -3.771649 0.365032 2.097981 4.779531 12.532203 11.156370 0.000000 0.000000 0.000000 -3.975073 0.399818 -5.380881 3.728751 -0.430330 6.338002 -1.646256 -8.346805 16.072144 0.000000 0.000000 0.000000 9.012495 -0.565974 3.901439 -3.873557 1.696869 -20.426522 -2.476298 5.827783 26.721008 10.578208 -6.045838 -12.648205 0.000000 0.000000 0.000000 1.911074 -23.716704 7.445484 -18.928984 -35.042542 0.465276 115.273810 -58.910783 -82.744643 0.000000 0.000000 0.000000 6.687714 3.474053 1.909113 12.127697 22.121678 -0.971419 -80.498217 29.490893 -18.994919 0.000000 0.000000 0.000000
-0.009524 0.956116 0.019134 -2.495270 4.505493 -0.364707 6.247320 0.044573 6.308235 -3.394962 0.336663 0.037588 4.729248 12.846728 13.285150 0.000000 0.000000 0.000000 -4.223427 0.332789 -4.408777 3.499297 -0.389164 4.706133 -1.196305 -7.679327 16.504257 0.000000 0.000000 0.000000 8.950328 -0.534883 3.654224 -4.060974 1.740545 -20.573795 -2.534650 5.870956 26.360106 10.625872 -6.035824 -12.802749 0.000000 0.000000 0.000000 2.580854 -23.152161 7.223615 -19.805313 -35.175351 0.632490 115.814387 -58.861951 -83.224971 0.000000 0.000000 0.000000 5.958533 3.442716 1.813850 11.811740 22.989305 -0.911396 -79.566812 28.868234 -18.153202 0.000000 0.000000 0.000000
-0.009407 0.957344 0.020882 -2.260594 3.943986 -0.380530 6.108204 0.084615 6.807798 -3.526321 0.358158 -0.968448 4.690132 13.090474 15.255884 0.000000 0.000000 0.000000 -4.092360 0.323512 -4.133289 2.830729 -0.278151 4.420170 -0.939083 -7.315298 16.466729 0.000000 0.000000 0.000000 9.152668 -0.525643 3.547610 -4.170031 1.754320 -20.789401 -2.746555 6.198868 26.342257 10.760342 -6.041509 -13.172898 0.000000 0.000000 0.000000 3.080846 -22.525116 7.001648 -21.406963 -35.715542 0.956419 115.697875 -59.313219 -83.496369 0.000000 0.000000 0.000000 5.724266 3.446787 1.790084 11.618259 24.394478 -0.847602 -78.912779 28.205139 -17.386299 0.000000 0.000000 0.000000
-0.009106 0.957203 0.021162 -2.117275 3.421817 -0.651467 6.214985 0.094293 6.847219 -4.115256 0.417691 -0.373591 4.879801 13.354313 15.481716 0.000000 0.000000 0.000000 -4.284372 0.339424 -4.440666 2.891544 -0.270471 5.731019 -0.771498 -6.884454 15.501420 0.000000 0.000000 0.000000 9.270632 -0.577655 4.021785 -4.287855 1.771582 -21.020856 -2.810529 6.512506 26.429120 11.034390 -6.229441 -13.278549 0.000000 0.000000 0.000000 3.622742 -22.638134 6.983972 -23.167668 -36.605019 1.371431 115.091339 -58.449545 -81.683087 0.000000 0.000000 0.000000 5.253501 3.963255 1.953392 11.813440 24.638622 -0.796187 -78.859451 26.422210 -15.937809 0.000000 0.000000 0.000000
-0.008922 0.955220 0.019913 -1.985298 3.006597 -1.319991 6.476604 0.077404 6.257917 -5.225946 0.556316 2.074759 5.654205 14.297758 14.507712 0.000000 0.000000 0.000000 -4.441958 0.408993 -5.723819 2.841854 -0.225303 9.521509 -0.671915 -6.326800 13.730821 0.000000 0.000000 0.000000 9.239666 -0.680646 5.051854 -4.261012 1.758567 -21.185673 -2.938890 6.081731 26.839488 11.359324 -6.313914 -14.412647 0.000000 0.000000 0.000000 3.802973 -22.565363 6.937735 -24.173265 -37.580695 1.714996 115.098217 -56.888365 -79.353885 0.000000 0.000000 0.000000 4.994692 4.601072 2.150410 11.556304 25.051719 -0.808210 -79.823612 24.866567 -15.211935 0.000000 0.000000 0.000000
-0.009088 0.950038 0.018649 -2.010490 2.866226 -2.116361 6.856277 0.031130 4.896840 -6.132541 0.733165 6.121635 6.539601 15.338123 12.483120 0.000000 0.000000 0.000000 -4.419083 0.471389 -6.870454 2.890299 -0.210668 13.068092 -0.949658 -6.414413 11.997755 0.000000 0.000000 0.000000 9.386906 -0.777108 5.953650 -4.269941 1.773385 -20.796961 -3.246703 5.686036 26.687832 11.541674 -6.520363 -14.416952 0.000000 0.000000 0.000000 3.777514 -23.716768 7.249242 -24.016707 -38.175322 1.834611 112.426984 -55.037199 -74.151262 0.000000 0.000000 0.000000 4.849421 5.429853 2.439147 11.178062 24.748702 -0.832020 -79.870561 23.600102 -14.456798 0.000000 0.000000 0.000000
-0.010237 0.940343 0.019075 -2.174351 2.655043 -3.750454 7.428033 0.014869 4.283418 -7.036843 0.974955 10.507297 7.914013 17.180012 10.047461 0.000000 0.000000 0.000000 -4.397039 0.494518 -7.485866 3.194951 -0.267452 17.307997 -1.234364 -6.340668 9.561292 0.000000 0.000000 0.000000 9.368122 -0.857364 6.995982 -4.173663 1.764407 -20.405181 -3.264807 5.464520 27.535885 12.147225 -6.947650 -14.972788 0.000000 0.000000 0.000000 3.693371 -25.247317 7.651836 -22.695621 -38.800758 1.648409 110.326427 -53.184539 -69.793868 0.000000 0.000000 0.000000 5.225562 6.465905 2.880029 10.240670 24.149418 -0.951632 -79.977085 22.175621 -13.654992 0.000000 0.000000 0.000000
-0.012505 0.926161 0.021661 -2.191368 2.322413 -5.537553 8.192060 0.014725 4.169605 -8.083520 1.307028 14.488752 9.119916 18.890954 7.226608 0.000000 0.000000 0.000000 -4.406018 0.499321 -7.821877 3.310832 -0.280947 21.426466 -1.637923 -6.259448 6.231523 0.000000 0.000000 0.000000 9.282422 -0.936480 8.115188 -4.191316 1.789148 -19.804225 -3.533746 5.353452 27.592087 12.111754 -7.146098 -14.326261 0.000000 0.000000 0.000000 3.362847 -27.059679 8.173515 -20.859336 -38.987477 1.344284 106.981009 -51.216119 -64.370246 0.000000 0.000000 0.000000 5.492816 7.564869 3.327445 10.631898 23.215269 -0.948127 -80.485239 21.537282 -13.408720 0.000000 0.000000 0.000000
-0.016156 0.910805 0.025182 -2.326837 2.464072 -7.422362 9.265404 -0.001442 4.287413 -8.991715 1.649808 18.726030 9.660186 19.565707 2.966367 0.000000 0.000000 0.000000 -4.174796 0.496046 -7.854882 3.483888 -0.358702 25.303454 -2.407858 -6.985047 2.877091 0.000000 0.000000 0.000000 9.008672 -0.967335 8.928396 -4.010702 1.767967 -19.248295 -3.639683 5.078512 28.154535 12.518683 -7.631760 -13.952731 0.000000 0.000000 0.000000 3.101665 -28.229924 8.503183 -19.555634 -39.477493 1.130333 103.929079 -50.209334 -60.520459 0.000000 0.000000 0.000000 5.849618 8.196862 3.612256 11.074943 22.407152 -0.965892 -81.066684 21.237783 -13.385316 0.000000 0.000000 0.000000
-0.020902 0.898442 0.028080 -2.471138 2.811888 -8.370699 10.379706 -0.038657 3.620874 -9.791725 1.967490 22.293318 9.950883 19.902525 -0.242106 0.000000 0.000000 0.000000 -3.944757 0.521277 -8.200725 3.922463 -0.581454 28.463997 -3.156158 -7.705809 -0.871863 0.000000 0.000000 0.000000 8.745797 -0.965486 9.239417 -3.784197 1.724251 -18.893447 -3.711909 5.098821 28.481520 12.716104 -7.750640 -14.106435 0.000000 0.000000 0.000000 2.632838 -29.720436 8.972493 -18.731925 -40.079670 1.003820 100.089643 -49.040808 -56.086495 0.000000 0.000000 0.000000 6.875918 8.521663 3.904733 11.647881 21.708973 -1.004173 -81.802144 21.098902 -13.381161 0.000000 0.000000 0.000000
-0.026121 0.891880 0.029736 -2.671665 2.823320 -9.064394 11.236908 -0.051098 3.143325 -10.084423 2.139349 24.771696 10.103627 20.133116 -1.349394 0.000000 0.000000 0.000000 -3.189377 0.600062 -8.568902 3.692001 -0.527949 30.788503 -3.526488 -8.157239 -2.631412 0.000000 0.000000 0.000000 8.523928 -1.008810 9.857385 -3.518956 1.655087 -18.588545 -3.932863 5.269925 28.476021 13.085043 -8.031140 -14.116555 0.000000 0.000000 0.000000 2.099260 -30.156259 9.173031 -18.006687 -40.775974 0.899350 97.322173 -48.750894 -53.636071 0.000000 0.000000 0.000000 7.919384 8.869597 4.210647 11.956110 21.284549 -1.031909 -81.667069 20.824894 -13.111401 0.000000 0.000000 0.000000
-0.030876 0.889957 0.030375 -2.851307 2.876182 -8.801570 11.800991 -0.066372 2.386221 -10.108988 2.171509 25.628270 10.132453 20.179576 -1.484461 0.000000 0.000000 0.000000 -2.779382 0.695636 -9.397414 3.944234 -0.658540 31.798042 -3.671746 -8.449876 -2.959241 0.000000 0.000000 0.000000 8.448074 -0.996113 9.725364 -3.598626 1.676015 -18.762917 -3.755227 5.304349 28.711917 12.862063 -7.765337 -14.448257 0.000000 0.000000 0.000000 1.523836 -30.404094 9.352125 -18.261575 -41.415158 1.006977 95.126002 -49.466564 -52.558369 0.000000 0.000000 0.000000 8.423542 8.877934 4.301834 12.677891 21.151676 -1.038546 -81.065410 21.281261 -13.250716 0.000000 0.000000 0.000000
-0.034710 0.890556 0.030705 -3.150293 3.113489 -8.382662 12.380983 -0.089900 1.657638 -10.026797 2.128095 25.930130 10.005019 19.937230 -1.057872 0.000000 0.000000 0.000000 -2.116128 0.824393 -10.290169 3.899780 -0.694246 32.518727 -3.753843 -8.874917 -2.227179 0.000000 0.000000 0.000000 8.469882 -0.993360 9.553082 -3.537013 1.662182 -18.517620 -3.707791 5.663669 28.154818 13.108132 -7.831285 -14.512547 0.000000 0.000000 0.000000 0.764023 -30.578777 9.538430 -18.960314 -41.825454 1.223925 92.935896 -50.467813 -51.980838 0.000000 0.000000 0.000000 9.213382 8.879513 4.478691 12.993502 20.639526 -1.071180 -79.932850 21.434525 -12.917213 0.000000 0.000000 0.000000
-0.037241 0.891516 0.031320 -3.178606 3.170716 -8.075716 12.441046 -0.091666 1.216270 -9.788935 2.049372 26.081187 9.954505 19.873312 -0.459260 0.000000 0.000000 0.000000 -1.975997 0.869971 -10.687535 4.031736 -0.761728 32.634137 -3.748194 -8.965180 -1.819500 0.000000 0.000000 0.000000 8.579773 -1.022251 9.646462 -3.702383 1.705508 -18.905757 -3.664145 6.065934 28.323890 13.276506 -7.886327 -14.591637 0.000000 0.000000 0.000000 -0.267258 -30.330168 9.628715 -19.700120 -41.628203 1.366600 93.325650 -52.848999 -54.763306 0.000000 0.000000 0.000000 9.623935 8.461165 4.414176 13.022602 19.872515 -1.149054 -78.516411 22.032488 -12.939919 0.000000 0.000000 0.000000
-0.038622 0.892213 0.032331 -3.270376 4.081573 -7.718636 12.482177 -0.123897 0.607750 -9.349520 1.811798 26.177321 9.652941 19.230828 -0.486649 0.000000 0.000000 0.000000 -1.944847 0.869444 -10.746279 4.309531 -0.998792 32.286238 -4.006008 -9.712440 -1.607645 0.000000 0.000000 0.000000 8.771507 -1.026924 9.399019 -4.118725 1.858306 -18.473864 -3.667818 5.851685 27.938141 13.320469 -7.808428 -14.778097 0.000000 0.000000 0.000000 -1.350394 -30.186567 9.749206 -20.408389 -41.378111 1.541839 92.960747 -55.282940 -56.972860 0.000000 0.000000 0.000000 9.864630 7.772637 4.188520 13.319806 18.609529 -1.228526 -75.979237 22.797471 -12.800666 0.000000 0.000000 0.000000
-0.039245 0.891806 0.033460 -3.201061 4.917746 -7.815437 12.334020 -0.145654 0.453750 -8.950770 1.596892 26.457497 9.398326 18.651309 -0.783535 0.000000 0.000000 0.000000 -2.140056 0.838715 -10.735846 4.564116 -1.238529 32.720377 -4.233363 -10.360525 -1.390986 0.000000 0.000000 0.000000 8.926425 -1.079003 9.658596 -4.394336 1.967136 -18.418767 -3.851673 5.766852 28.184241 13.514732 -7.806277 -15.187117 0.000000 0.000000 0.000000 -2.803993 -30.165003 9.938624 -20.671245 -40.594946 1.530471 94.898131 -58.287473 -61.788797 0.000000 0.000000 0.000000 10.268657 7.167994 4.034668 12.757672 17.728238 -1.314917 -72.439970 23.632174 -12.571857 0.000000 0.000000 0.000000
-0.039600 0.892280 0.034515 -3.072089 6.091628 -7.841632 12.158204 -0.181859 0.315557 -8.577430 1.354169 26.415309 8.979776 17.730315 -1.015691 0.000000 0.000000 0.000000 -2.402632 0.769088 -10.342349 4.794838 -1.491000 32.430582 -4.547640 -11.222731 -1.248626 0.000000 0.000000 0.000000 8.990151 -1.114002 9.766359 -4.483434 2.035381 -17.805728 -4.211027 5.669096 27.946904 13.424675 -7.540993 -15.553427 0.000000 0.000000 0.000000 -3.885007 -30.184753 10.048099 -20.790914 -40.760513 1.599111 96.022231 -60.698419 -65.464738 0.000000 0.000000 0.000000 10.717747 6.552773 3.903856 12.659021 16.407359 -1.411823 -69.839504 24.825864 -12.654422 0.000000 0.000000 0.000000
-0.040128 0.894158 0.035297 -3.063784 7.315717 -7.870549 12.148057 -0.220398 0.055510 -8.223192 1.115935 26.427402 8.438611 16.657775 -0.659697 0.000000 0.000000 0.000000 -2.607436 0.715968 -10.095625 5.167449 -1.818197 32.263105 -4.808134 -12.041777 -0.267974 0.000000 0.000000 0.000000 8.962421 -1.144265 9.886476 -4.540898 2.089025 -17.563186 -4.374524 5.399541 28.050163 13.571840 -7.566338 -15.695082 0.000000 0.000000 0.000000 -4.355016 -30.246234 10.083359 -20.728682 -41.488998 1.647392 96.804105 -62.218875 -67.881269 0.000000 0.000000 0.000000 10.875681 5.851597 3.671266 12.534779 15.508154 -1.481449 -67.279874 25.852251 -12.620224 0.000000 0.000000 0.000000
-0.041068 0.896487 0.035783 -3.029228 8.466062 -7.709955 12.198725 -0.260619 -0.275204 -8.008898 0.938764 26.169849 7.881745 15.613505 -0.196329 0.000000 0.000000 0.000000 -2.775867 0.651644 -9.582859 5.518247 -2.066477 31.251504 -5.088639 -12.815412 0.283426 0.000000 0.000000 0.000000 8.735732 -1.171566 10.080180 -4.380806 2.069323 -17.511115 -4.636797 5.452888 27.951873 13.747791 -7.217078 -16.975161 0.000000 0.000000 0.000000 -3.971260 -30.316074 9.975152 -20.624511 -42.751264 1.691896 98.315108 -62.274949 -69.625185 0.000000 0.000000 0.000000 10.831707 5.252174 3.483538 12.735642 14.663322 -1.550275 -65.071745 26.570436 -12.328575 0.000000 0.000000 0.000000
-0.042271 0.900056 0.036207 -3.032222 9.229389 -7.253626 12.156720 -0.292150 -0.610239 -7.657792 0.771878 25.460503 7.417072 14.879484 0.629994 0.000000 0.000000 0.000000 -2.622818 0.652325 -9.447637 5.477916 -2.079478 30.204487 -5.276738 -13.353575 1.238498 0.000000 0.000000 0.000000 8.437739 -1.164785 10.045974 -4.544673 2.134042 -17.418427 -4.562134 5.336049 27.435138 13.468557 -6.707273 -17.751568 0.000000 0.000000 0.000000 -3.902321 -30.192143 9.890730 -19.809436 -43.671354 1.556118 98.785406 -61.988711 -69.925354 0.000000 0.000000 0.000000 10.823077 5.082622 3.448659 12.968371 14.193445 -1.585391 -64.066736 27.056174 -12.247268 0.000000 0.000000 0.000000
-0.043158 0.904663 0.036800 -2.955267 10.153572 -6.655521 12.063035 -0.330945 -0.805492 -7.357205 0.634991 24.194433 6.814041 13.952837 1.566015 0.000000 0.000000 0.000000 -2.548329 0.619583 -8.931504 5.434248 -2.031424 28.297011 -5.514551 -13.973521 2.147010 0.000000 0.000000 0.000000 8.131159 -1.160497 10.017131 -4.744593 2.185010 -18.246927 -4.588490 5.488026 27.470337 13.892461 -6.609622 -18.828901 0.000000 0.000000 0.000000 -3.286439 -30.261541 9.772225 -19.380923 -44.486102 1.413504 100.359336 -61.394333 -71.097206 0.000000 0.000000 0.000000 10.651105 4.385288 3.190264 13.477951 14.244421 -1.623260 -63.005585 26.969139 -11.679889 0.000000 0.000000 0.000000
-0.043060 0.911625 0.037746 -2.848575 10.399559 -6.044724 11.742618 -0.350293 -0.366644 -6.968745 0.562340 22.095338 6.300109 13.442248 3.239741 0.000000 0.000000 0.000000 -2.487919 0.588754 -8.353073 5.232354 -1.816003 26.132846 -5.456863 -13.899429 3.844015 0.000000 0.000000 0.000000 7.910314 -1.107886 9.634929 -5.202466 2.303027 -18.622348 -4.361455 5.693611 27.379850 14.118809 -6.495021 -19.577596 0.000000 0.000000 0.000000 -3.134955 -29.892688 9.605305 -19.448481 -45.062824 1.435263 100.646541 -61.016738 -71.104412 0.000000 0.000000 0.000000 10.081815 4.434386 3.173587 14.198550 13.956728 -1.665101 -62.584347 26.552422 -11.119006 0.000000 0.000000 0.000000
-0.041563 0.921047 0.038785 -2.578047 10.314012 -4.894312 10.976029 -0.347400 0.078240 -6.495841 0.508905 19.631627 5.762196 12.856825 4.594694 0.000000 0.000000 0.000000 -2.449914 0.542240 -7.492575 4.629265 -1.345008 22.457540 -5.238874 -13.493463 5.825796 0.000000 0.000000 0.000000 7.864099 -1.027333 8.838959 -5.603357 2.367195 -19.469230 -4.330807 6.308841 27.153112 14.181172 -6.174224 -20.422175 0.000000 0.000000 0.000000 -2.937363 -29.466923 9.409585 -20.614835 -44.557262 1.678555 101.437312 -60.812964 -71.896424 0.000000 0.000000 0.000000 9.028069 3.707681 2.732414 15.852187 13.883753 -1.710340 -62.542955 27.835184 -11.409478 0.000000 0.000000 0.000000
-0.039275 0.931325 0.039620 -2.389969 9.978840 -3.883412 10.191045 -0.327971 0.499414 -6.165642 0.494673 17.545805 5.520521 12.877105 6.267458 0.000000 0.000000 0.000000 -2.599732 0.496522 -6.853545 4.021214 -0.983584 19.850342 -4.177410 -11.348998 7.508270 0.000000 0.000000 0.000000 7.822444 -0.940701 8.007981 -5.663192 2.331342 -20.224578 -4.379874 6.800638 27.199044 14.569411 -6.280121 -20.774174 0.000000 0.000000 0.000000 -2.144574 -28.516376 9.010104 -22.409791 -43.867073 2.025923 102.533718 -60.669643 -72.976305 0.000000 0.000000 0.000000 7.935928 3.486834 2.490323 16.752424 13.793053 -1.719088 -60.964173 28.429205 -11.121538 0.000000 0.000000 0.000000
-0.037178 0.938684 0.039971 -2.050249 9.083974 -3.007907 9.526283 -0.289265 0.516599 -6.112532 0.555205 15.942045 5.384376 13.293086 9.029489 0.000000 0.000000 0.000000 -2.917959 0.468339 -6.558825 3.592716 -0.713883 17.711590 -3.431049 -10.018304 8.908689 0.000000 0.000000 0.000000 7.739397 -0.872115 7.407264 -5.987048 2.384201 -20.399476 -4.166576 7.206368 26.707636 14.251684 -6.125835 -20.477159 0.000000 0.000000 0.000000 -1.531722 -27.882600 8.781446 -23.472788 -42.870862 2.199924 102.100958 -59.783463 -71.595036 0.000000 0.000000 0.000000 6.939536 3.499681 2.312592 17.344040 13.724932 -1.667837 -60.787506 29.465519 -11.597232 0.000000 0.000000 0.000000
-0.036014 0.940878 0.040038 -2.197257 8.487488 -2.669078 9.410620 -0.276695 0.525025 -6.009187 0.568016 15.129252 5.759271 14.131971 10.344455 0.000000 0.000000 0.000000 -2.847910 0.484107 -6.604238 3.665140 -0.680724 16.918993 -3.244451 -9.774774 9.558282 0.000000 0.000000 0.000000 7.851580 -0.828913 6.941904 -5.773303 2.310526 -20.466826 -4.248400 7.200266 26.553535 14.223193 -6.225263 -20.181022 0.000000 0.000000 0.000000 -0.681980 -26.909169 8.436972 -23.775127 -41.933553 2.134118 101.561602 -58.576094 -69.736282 0.000000 0.000000 0.000000 6.449335 3.429496 2.170769 17.292265 14.226010 -1.568642 -61.072827 30.122849 -12.114508 0.000000 0.000000 0.000000
-0.035717 0.936831 0.039844 -2.215342 8.004059 -3.182583 9.316345 -0.250684 0.580079 -6.061957 0.592599 15.746504 6.656761 15.527970 10.613801 0.000000 0.000000 0.000000 -2.992242 0.489887 -6.823060 4.074549 -0.803711 17.911649 -3.599806 -10.473876 9.023714 0.000000 0.000000 0.000000 7.778777 -0.884837 7.586682 -5.700912 2.287214 -20.537868 -3.793501 6.757488 26.923846 14.176788 -6.307798 -20.301918 0.000000 0.000000 0.000000 -0.507301 -26.711883 8.401299 -22.244014 -40.632814 1.630704 101.556864 -57.168811 -68.025825 0.000000 0.000000 0.000000 6.670314 3.585756 2.210452 16.431676 15.061669 -1.477413 -63.058920 28.959202 -12.233422 0.000000 0.000000 0.000000
-0.036009 0.928006 0.039351 -2.330030 7.507554 -4.462071 9.426156 -0.216913 0.729803 -6.164172 0.620640 17.277742 8.164708 17.795173 10.798298 0.000000 0.000000 0.000000 -2.981995 0.512593 -7.228089 4.373706 -0.955345 20.554928 -4.092648 -11.368744 7.660929 0.000000 0.000000 0.000000 7.657056 -1.012631 9.013835 -5.300381 2.199218 -20.083902 -3.798777 6.540915 26.872236 13.846263 -6.227779 -20.112218 0.000000 0.000000 0.000000 -0.599726 -27.196794 8.571862 -19.500087 -39.401361 0.943113 99.956266 -54.614680 -63.843559 0.000000 0.000000 0.000000 7.294489 4.383369 2.595050 15.646278 15.125965 -1.456682 -66.588784 27.259295 -12.369238 0.000000 0.000000 0.000000
-0.036454 0.918296 0.038486 -2.546471 7.342739 -5.727735 9.572785 -0.193646 0.457100 -5.907433 0.525534 19.667216 9.280562 19.380479 10.112973 0.000000 0.000000 0.000000 -2.720940 0.551612 -7.629351 4.334482 -1.055156 23.741827 -4.368397 -11.676499 5.091034 0.000000 0.000000 0.000000 7.827661 -1.136463 10.153060 -5.128393 2.186217 -19.416787 -3.679535 6.109183 27.135629 13.980810 -6.407003 -20.240071 0.000000 0.000000 0.000000 -0.975702 -27.430023 8.694564 -17.215816 -38.413095 0.419421 99.420980 -53.491838 -62.126479 0.000000 0.000000 0.000000 7.923444 4.461153 2.670394 15.150000 15.997005 -1.406673 -69.787034 25.559973 -12.233038 0.000000 0.000000 0.000000
-0.036966 0.911379 0.037414 -2.641275 7.418823 -6.368579 9.956599 -0.193172 -0.117232 -6.303371 0.586512 21.919771 9.632727 19.776123 8.414041 0.000000 0.000000 0.000000 -2.525409 0.610888 -8.327647 4.209526 -1.122906 26.227048 -4.639475 -12.095945 3.475966 0.000000 0.000000 0.000000 7.936640 -1.205782 10.740632 -4.688792 2.087274 -18.871131 -3.740166 6.005047 27.205967 13.744205 -6.342093 -19.919864 0.000000 0.000000 0.000000 -0.735380 -27.988669 8.836165 -15.861128 -37.784634 0.110867 97.659045 -51.951106 -59.085076 0.000000 0.000000 0.000000 8.299743 4.829415 2.880233 15.091656 16.170337 -1.403712 -71.291770 24.574471 -11.962371 0.000000 0.000000 0.000000
-0.037477 0.908238 0.036414 -2.738283 7.413317 -6.731919 10.108257 -0.189850 -0.265056 -6.327292 0.573755 22.835226 9.817397 19.995958 7.576512 0.000000 0.000000 0.000000 -2.289403 0.663891 -8.819569 4.029619 -1.121452 27.703460 -4.747524 -12.283500 2.977763 0.000000 0.000000 0.000000 7.963138 -1.198395 10.728102 -4.042657 1.915274 -18.222372 -3.927414 5.871066 27.007316 13.980844 -6.585451 -19.690410 0.000000 0.000000 0.000000 -0.950572 -28.165397 8.918432 -15.062660 -36.794954 -0.053986 97.263161 -51.031572 -57.837391 0.000000 0.000000 0.000000 8.708878 5.409176 3.185119 14.470127 16.642102 -1.364276 -71.581698 24.105323 -11.840745 0.000000 0.000000 0.000000
-0.038089 0.907876 0.035559 -2.778297 7.273078 -6.514979 10.160662 -0.191493 -0.464341 -6.334234 0.589114 22.725653 9.925658 20.157177 7.410382 0.000000 0.000000 0.000000 -2.026929 0.723725 -9.283394 3.738881 -1.006011 27.967604 -4.755862 -12.294630 2.926902 0.000000 0.000000 0.000000 8.195890 -1.186990 10.441008 -4.036121 1.904756 -18.384474 -3.682013 5.928000 27.259405 14.078425 -6.737498 -19.436308 0.000000 0.000000 0.000000 -1.153416 -27.930350 8.875487 -14.585426 -36.617566 -0.168660 96.781470 -50.174627 -56.543869 0.000000 0.000000 0.000000 8.610125 5.412004 3.175914 14.443703 17.213156 -1.336246 -71.568874 24.648841 -12.196663 0.000000 0.000000 0.000000
-0.038970 0.908862 0.034840 -2.956742 7.569504 -6.274100 10.263690 -0.208283 -0.493523 -6.031560 0.493396 22.057072 9.782624 19.916394 7.235056 0.000000 0.000000 0.000000 -1.642883 0.797271 -9.808955 3.544267 -0.979658 28.281947 -4.862658 -12.593449 3.639366 0.000000 0.000000 0.000000 8.420477 -1.176989 10.113723 -3.863673 1.856975 -18.370930 -3.639970 5.832213 27.343543 14.600476 -7.136046 -19.296946 0.000000 0.000000 0.000000 -1.046097 -27.953858 8.868097 -14.491371 -36.605502 -0.200344 96.167266 -48.968852 -54.842698 0.000000 0.000000 0.000000 8.559529 5.638285 3.286389 14.325768 17.266456 -1.337444 -71.250865 24.938037 -12.297639 0.000000 0.000000 0.000000
-0.040073 0.909244 0.034111 -2.965885 7.678285 -5.922896 10.214114 -0.217606 -0.531871 -5.810928 0.441217 21.323063 9.760097 19.858436 6.972526 0.000000 0.000000 0.000000 -1.364237 0.843780 -10.062195 3.242051 -0.862848 27.979289 -4.950154 -12.782594 3.599834 0.000000 0.000000 0.000000 8.561304 -1.162418 9.822186 -3.766161 1.825607 -18.465337 -3.539704 5.889843 27.347232 14.777429 -7.207275 -19.436883 0.000000 0.000000 0.000000 -1.286087 -27.798880 8.844180 -14.387932 -36.594829 -0.229123 96.274946 -48.216902 -54.184877 0.000000 0.000000 0.000000 8.993866 5.799205 3.446518 13.788533 17.248389 -1.360501 -70.921339 25.743024 -12.830676 0.000000 0.000000 0.000000
-0.041054 0.908605 0.033483 -3.088307 7.769744 -5.793545 10.493191 -0.230174 -0.693213 -5.933291 0.471439 21.225996 9.756723 19.824224 6.617899 0.000000 0.000000 0.000000 -1.187648 0.883597 -10.355135 3.283548 -0.897926 28.147399 -5.023310 -12.933862 3.496347 0.000000 0.000000 0.000000 8.680260 -1.165281 9.717518 -3.687986 1.802577 -18.480777 -3.597463 5.825031 27.254224 14.934638 -7.263892 -19.617506 0.000000 0.000000 0.000000 -1.387828 -27.577160 8.786268 -14.577553 -36.738524 -0.185036 96.634209 -47.658090 -53.878386 0.000000 0.000000 0.000000 9.387286 5.694737 3.463337 13.627735 17.199074 -1.376863 -70.495038 26.360566 -13.183138 0.000000 0.000000 0.000000
-0.041732 0.907478 0.033184 -3.129105 7.877745 -5.903743 10.462920 -0.231475 -0.518446 -5.700582 0.402218 21.095163 9.800042 19.834724 6.023806 0.000000 0.000000 0.000000 -1.161821 0.884579 -10.351213 3.389344 -0.960370 28.343662 -5.096491 -13.072048 3.169509 0.000000 0.000000 0.000000 8.705190 -1.179438 9.817372 -3.678306 1.801537 -18.604526 -3.386323 5.702049 27.498647 15.203086 -7.390818 -19.942380 0.000000 0.000000 0.000000 -1.907868 -27.763607 8.905173 -14.781044 -36.637153 -0.136728 98.067723 -47.958672 -55.281663 0.000000 0.000000 0.000000 9.978014 5.678129 3.552859 13.113755 17.389787 -1.399821 -69.807351 25.827640 -12.743574 0.000000 0.000000 0.000000
-0.042057 0.905450 0.033394 -3.208169 7.772649 -6.091668 10.752711 -0.235332 -0.254181 -5.997607 0.490061 21.109371 9.939116 19.990581 5.251582 0.000000 0.000000 0.000000 -1.301116 0.891578 -10.616354 3.777656 -1.139959 29.164985 -5.084808 -13.017480 2.844304 0.000000 0.000000 0.000000 8.964440 -1.204987 9.877002 -3.721246 1.816986 -18.423936 -3.425457 5.579418 27.576146 15.136975 -7.350494 -20.066607 0.000000 0.000000 0.000000 -2.649627 -27.743417 8.992969 -14.827686 -36.451582 -0.107667 99.144083 -48.558634 -56.676917 0.000000 0.000000 0.000000 10.556083 6.107458 3.822442 12.777935 17.217996 -1.421267 -69.108702 25.477460 -12.499944 0.000000 0.000000 0.000000
-0.042023 0.904073 0.034014 -3.228615 7.812474 -6.407857 10.959609 -0.236612 -0.214703 -6.268056 0.548627 21.723669 9.950728 19.987095 5.008859 0.000000 0.000000 0.000000 -1.581187 0.846981 -10.426390 4.255169 -1.355907 29.524543 -5.084161 -12.992033 2.542820 0.000000 0.000000 0.000000 9.120684 -1.241668 10.098499 -3.922668 1.883475 -18.293949 -3.452556 5.539856 27.573472 15.227822 -7.295504 -20.506631 0.000000 0.000000 0.000000 -3.005262 -27.920309 9.087799 -15.367221 -36.895143 0.033598 100.910132 -49.445627 -59.047144 0.000000 0.000000 0.000000 11.007276 5.853903 3.772855 13.029248 17.236059 -1.437024 -68.361701 24.955385 -11.972891 0.000000 0.000000 0.000000
-0.041740 0.902261 0.034740 -3.143505 7.313390 -6.716600 10.967613 -0.215498 -0.021327 -6.545629 0.651765 22.337189 10.221476 20.435631 4.861127 0.000000 0.000000 0.000000 -1.866404 0.817817 -10.369758 4.512447 -1.424514 30.083138 -4.924956 -12.577071 1.992666 0.000000 0.000000 0.000000 9.317389 -1.287090 10.422196 -4.222263 1.963362 -18.348796 -3.489997 5.417970 27.959164 15.129161 -7.076966 -21.398477 0.000000 0.000000 0.000000 -3.733697 -27.793393 9.165350 -15.664872 -37.074359 0.116652 102.893666 -50.271543 -61.397279 0.000000 0.000000 0.000000 11.443417 6.321260 4.006661 13.122570 17.407274 -1.441472 -67.382167 24.061423 -11.331040 0.000000 0.000000 0.000000
-0.041239 0.900681 0.035466 -3.028845 7.051483 -6.891935 10.828779 -0.197385 -0.147053 -6.628821 0.682790 23.156194 10.408912 20.753518 4.820060 0.000000 0.000000 0.000000 -2.120709 0.796164 -10.403307 4.648830 -1.470076 30.589833 -4.855784 -12.367196 1.548008 0.000000 0.000000 0.000000 9.307162 -1.313312 10.691769 -4.362916 2.006249 -18.130419 -3.653412 5.347155 27.939554 15.261791 -7.132878 -21.695954 0.000000 0.000000 0.000000 -4.165102 -28.256211 9.400167 -16.244305 -36.930165 0.259066 104.750041 -50.417657 -63.036989 0.000000 0.000000 0.000000 11.737186 6.601071 4.142960 13.660041 17.113598 -1.452718 -66.669160 23.554700 -10.910262 0.000000 0.000000 0.000000
-0.040540 0.899096 0.036251 -2.748727 6.586823 -7.134226 10.455978 -0.166771 -0.245959 -6.699126 0.727349 24.169010 10.675216 21.225791 5.077258 0.000000 0.000000 0.000000 -2.672174 0.738812 -10.332786 4.930941 -1.542276 31.051648 -4.694220 -11.912831 0.982532 0.000000 0.000000 0.000000 9.191077 -1.344852 11.123756 -4.534697 2.055277 -17.929523 -3.871831 5.134313 27.820229 15.435642 -7.176088 -22.317208 0.000000 0.000000 0.000000 -4.979538 -28.028630 9.472060 -16.952632 -36.964796 0.447429 107.370557 -51.014338 -65.791444 0.000000 0.000000 0.000000 12.218644 7.102951 4.371861 14.022570 17.319750 -1.430250 -65.896404 22.749195 -10.384044 0.000000 0.000000 0.000000
-0.039854 0.897147 0.037176 -2.596062 6.305688 -7.117500 10.172430 -0.151081 -0.431506 -6.659730 0.731908 24.788158 10.936146 21.655202 4.818472 0.000000 0.000000 0.000000 -3.057408 0.724054 -10.658671 5.183559 -1.639491 31.717275 -4.628418 -11.682547 0.510744 0.000000 0.000000 0.000000 9.124820 -1.361708 11.333167 -4.599886 2.068123 -17.886889 -4.070796 5.157113 27.853701 15.753678 -7.335629 -22.652807 0.000000 0.000000 0.000000 -5.390182 -28.475340 9.707500 -18.148083 -36.672573 0.689443 110.358150 -50.913652 -68.330179 0.000000 0.000000 0.000000 12.562856 7.088236 4.391310 14.598182 17.674151 -1.415204 -65.481382 22.023044 -9.841991 0.000000 0.000000 0.000000
-0.039362 0.894918 0.038173 -2.485882 5.604875 -7.199123 10.148957 -0.128726 -0.596598 -7.027644 0.904216 25.686304 11.322686 22.326468 4.894113 0.000000 0.000000 0.000000 -3.153083 0.731014 -10.778157 5.082267 -1.518713 32.174881 -4.494556 -11.209494 -0.373098 0.000000 0.000000 0.000000 8.978789 -1.336658 11.362149 -4.746099 2.103263 -17.605314 -4.035109 5.117191 27.868156 15.811887 -7.291509 -23.257044 0.000000 0.000000 0.000000 -5.930642 -28.457795 9.834182 -19.103286 -36.093367 0.850029 113.133004 -51.309408 -71.215386 0.000000 0.000000 0.000000 13.067733 7.441789 4.554719 14.952737 18.362450 -1.356236 -65.902470 21.428468 -9.662525 0.000000 0.000000 0.000000
-0.039222 0.892041 0.039127 -2.417975 4.676104 -7.423214 10.328478 -0.098748 -0.613303 -7.636257 1.194462 26.668132 11.787419 23.132735 4.938860 0.000000 0.000000 0.000000 -3.186729 0.748657 -10.922271 4.995467 -1.376305 32.892830 -4.322305 -10.571734 -1.385237 0.000000 0.000000 0.000000 8.771869 -1.299404 11.407625 -4.896503 2.134203 -17.478813 -3.875423 5.153699 28.143889 15.700480 -7.228435 -23.604550 0.000000 0.000000 0.000000 -6.322071 -28.209219 9.867389 -19.828084 -35.504592 0.927547 115.141613 -51.657150 -73.337793 0.000000 0.000000 0.000000 13.623997 7.863142 4.743645 15.159597 19.642790 -1.255505 -65.990002 20.828829 -9.448586 0.000000 0.000000 0.000000
-0.039285 0.889271 0.039933 -2.359194 3.834265 -7.730129 10.564818 -0.069168 -0.573571 -8.260013 1.504314 27.640459 12.181441 23.817487 5.044662 0.000000 0.000000 0.000000 -3.402888 0.737309 -10.932612 5.234210 -1.375226 33.506832 -4.153796 -9.906705 -2.326713 0.000000 0.000000 0.000000 8.511525 -1.247972 11.374864 -5.068669 2.181993 -17.048313 -3.601121 5.172581 28.229826 15.577400 -7.221305 -23.647247 0.000000 0.000000 0.000000 -6.438086 -28.264384 9.967188 -20.284982 -34.280126 0.889810 115.902334 -52.513621 -74.921955 0.000000 0.000000 0.000000 13.904802 8.463893 4.980550 14.996520 20.389501 -1.183747 -65.978406 19.762760 -8.949218 0.000000 0.000000 0.000000
-0.039496 0.885674 0.040434 -2.269897 2.540937 -8.203158 10.876533 -0.020751 -0.065344 -9.108580 1.963952 28.279953 12.757110 24.828674 4.863930 0.000000 0.000000 0.000000 -3.589721 0.742775 -11.071630 5.395580 -1.276424 34.544808 -3.905737 -8.906436 -3.406944 0.000000 0.000000 0.000000 8.301625 -1.238183 11.733347 -5.129709 2.182515 -16.629905 -3.457186 5.608573 27.995855 15.520682 -7.284567 -23.459750 0.000000 0.000000 0.000000 -6.518797 -28.217598 10.001494 -20.447846 -32.811850 0.777908 115.727832 -53.552147 -75.890333 0.000000 0.000000 0.000000 14.142335 9.217114 5.292164 14.495623 21.456848 -1.086731 -67.810236 19.254809 -9.121875 0.000000 0.000000 0.000000
-0.039742 0.882531 0.040543 -2.141268 1.817010 -8.901302 10.954162 0.017236 0.330244 -9.499890 2.223040 29.276663 13.086348 25.408006 4.840363 0.000000 0.000000 0.000000 -3.718910 0.733565 -11.055845 5.400273 -1.188057 35.789784 -3.789116 -8.355017 -4.033812 0.000000 0.000000 0.000000 7.956064 -1.274234 12.577027 -4.830278 2.072133 -16.838974 -3.343444 5.648533 27.838895 15.559561 -7.435555 -23.252630 0.000000 0.000000 0.000000 -7.053531 -28.527381 10.244439 -20.226930 -30.571809 0.533963 114.775847 -54.734612 -76.211830 0.000000 0.000000 0.000000 14.300704 10.559797 5.871990 13.400799 22.366109 -1.031330 -69.324064 19.577182 -9.868916 0.000000 0.000000 0.000000
-0.039927 0.878951 0.040214 -2.000294 0.851522 -8.921162 11.471394 0.050781 0.415382 -10.726573 2.824252 29.552726 13.474872 26.156489 4.298323 0.000000 0.000000 0.000000 -4.024362 0.765516 -11.803197 5.690010 -1.173721 36.942075 -3.658780 -7.652648 -4.851500 0.000000 0.000000 0.000000 8.058357 -1.282997 12.753283 -5.197328 2.158792 -17.104281 -2.826722 6.503447 28.174862 15.552651 -7.234655 -23.976554 0.000000 0.000000 0.000000 -7.675621 -28.491002 10.309885 -19.993986 -29.956404 0.420427 114.065204 -54.545027 -75.365974 0.000000 0.000000 0.000000 14.319741 10.772479 6.013796 11.981299 23.458057 -1.056548 -72.092917 19.894505 -10.737253 0.000000 0.000000 0.000000
-0.040208 0.876559 0.039449 -1.957439 0.118846 -8.500353 11.829263 0.076953 -0.383469 -11.513753 3.281095 30.308769 13.829293 26.766169 4.476839 0.000000 0.000000 0.000000 -4.268657 0.811356 -12.657788 6.077330 -1.231499 37.404684 -3.589383 -7.140651 -5.563508 0.000000 0.000000 0.000000 7.847120 -1.327519 13.348833 -5.013546 2.082095 -16.820184 -2.926246 6.080253 26.891497 15.008914 -7.284399 -22.617334 0.000000 0.000000 0.000000 -7.803868 -27.369674 10.003281 -20.397600 -29.311953 0.447357 115.068980 -55.354390 -76.995417 0.000000 0.000000 0.000000 14.356402 11.515974 6.187709 11.549546 24.645315 -0.956560 -76.591376 22.543195 -13.920033 0.000000 0.000000 0.000000
-0.040580 0.875060 0.038546 -1.843509 -0.254453 -7.617074 12.215182 0.087645 -1.177575 -12.465508 3.700484 30.036751 14.002147 27.140638 4.015028 0.000000 0.000000 0.000000 -4.346169 0.925737 -14.367432 6.104637 -1.189014 38.459694 -3.555807 -7.078094 -5.397544 0.000000 0.000000 0.000000 7.442066 -1.357160 13.915853 -4.677891 1.924901 -18.255461 -2.826708 6.236614 26.261169 14.846871 -7.315764 -21.875253 0.000000 0.000000 0.000000 -8.215844 -26.845029 9.880510 -21.837840 -28.403697 0.537016 117.811258 -52.672700 -76.522652 0.000000 0.000000 0.000000 12.562697 13.245678 6.687774 12.940152 23.444958 -0.840209 -78.972211 23.400682 -15.037787 0.000000 0.000000 0.000000
-0.041125 0.875253 0.037497 -1.179972 -0.363726 -7.352279 11.534988 0.081272 -2.052441 -12.557571 3.838602 30.836738 14.103663 27.148646 5.315909 0.000000 0.000000 0.000000 -5.523433 0.793904 -14.417000 6.818841 -1.474902 37.879421 -3.503402 -6.692619 -5.953470 0.000000 0.000000 0.000000 6.811855 -1.364197 14.605788 -4.163516 1.759217 -18.072867 -3.347658 5.464667 25.486903 14.013411 -7.207020 -20.497168 0.000000 0.000000 0.000000 -7.710146 -25.856866 9.527297 -21.663608 -25.627160 0.176104 120.016048 -51.348644 -76.991315 0.000000 0.000000 0.000000 11.832575 13.435693 6.512391 12.886006 24.962934 -0.711434 -80.847139 23.486015 -15.744412 0.000000 0.000000 0.000000
