HIERARCHY
ROOT Hips
{
	OFFSET -0.001795 -0.223333 0.028219
	CHANNELS 6 Xposition Yposition Zposition Zrotation Yrotation Xrotation
	JOINT LeftUpLeg
	{
		OFFSET 0.069520 -0.091406 -0.006815
		CHANNELS 3 Zrotation Yrotation Xrotation
		JOINT LeftLeg
		{
			OFFSET 0.034277 -0.375199 -0.004496
			CHANNELS 3 Zrotation Yrotation Xrotation
			JOINT LeftFoot
			{
				OFFSET -0.013596 -0.397961 -0.043693
				CHANNELS 3 Zrotation Yrotation Xrotation
				JOINT LeftToe
				{
					OFFSET 0.026358 -0.055791 0.119288
					CHANNELS 3 Zrotation Yrotation Xrotation
					End Site
					{
						OFFSET 0.000000 0.000000 0.000000
					}
				}
			}
		}
	}
	JOINT RightUpLeg
	{
		OFFSET -0.067670 -0.090522 -0.004320
		CHANNELS 3 Zrotation Yrotation Xrotation
		JOINT RightLeg
		{
			OFFSET -0.038290 -0.382569 -0.008850
			CHANNELS 3 Zrotation Yrotation Xrotation
			JOINT RightFoot
			{
				OFFSET 0.015774 -0.398415 -0.042312
				CHANNELS 3 Zrotation Yrotation Xrotation
				JOINT RightToe
				{
					OFFSET -0.025372 -0.048144 0.123348
					CHANNELS 3 Zrotation Yrotation Xrotation
					End Site
					{
						OFFSET 0.000000 0.000000 0.000000
					}
				}
			}
		}
	}
	JOINT Spine
	{
		OFFSET -0.002533 0.108963 -0.026696
		CHANNELS 3 Zrotation Yrotation Xrotation
		JOINT Spine1
		{
			OFFSET 0.005487 0.135180 0.001092
			CHANNELS 3 Zrotation Yrotation Xrotation
			JOINT Spine2
			{
				OFFSET 0.001457 0.052922 0.025425
				CHANNELS 3 Zrotation Yrotation Xrotation
				JOINT Neck
				{
					OFFSET -0.002778 0.213870 -0.042857
					CHANNELS 3 Zrotation Yrotation Xrotation
					JOINT Head
					{
						OFFSET 0.005152 0.064970 0.051349
						CHANNELS 3 Zrotation Yrotation Xrotation
						End Site
						{
							OFFSET 0.000000 0.000000 0.000000
						}
					}
				}
				JOINT LeftShoulder
				{
					OFFSET 0.078845 0.121749 -0.034090
					CHANNELS 3 Zrotation Yrotation Xrotation
					JOINT LeftArm
					{
						OFFSET 0.090977 0.030469 -0.008868
						CHANNELS 3 Zrotation Yrotation Xrotation
						JOINT LeftForeArm
						{
							OFFSET 0.259612 -0.012772 -0.027456
							CHANNELS 3 Zrotation Yrotation Xrotation
							JOINT LeftHand
							{
								OFFSET 0.249234 0.008986 -0.001171
								CHANNELS 3 Zrotation Yrotation Xrotation
								End Site
								{
									OFFSET 0.000000 0.000000 0.000000
								}
							}
						}
					}
				}
				JOINT RightShoulder
				{
					OFFSET -0.081759 0.118833 -0.038615
					CHANNELS 3 Zrotation Yrotation Xrotation
					JOINT RightArm
					{
						OFFSET -0.096012 0.032551 -0.009143
						CHANNELS 3 Zrotation Yrotation Xrotation
						JOINT RightForeArm
						{
							OFFSET -0.253742 -0.013329 -0.021401
							CHANNELS 3 Zrotation Yrotation Xrotation
							JOINT RightHand
							{
								OFFSET -0.255298 0.007772 -0.005559
								CHANNELS 3 Zrotation Yrotation Xrotation
								End Site
								{
									OFFSET 0.000000 0.000000 0.000000
								}
							}
						}
					}
				}
			}
		}
	}
}
MOTION
Frames: 68
Frame Time: 0.050000
0.000000 0.918819 0.000000 -2.867967 10.160926 -5.446056 10.712127 -0.505747 8.104753 -11.173331 1.193717 5.515052 9.765465 19.215661 3.020479 0.000000 0.000000 0.000000 -8.576539 -0.086586 -2.753200 6.068704 -0.894659 3.304623 -7.302307 -17.520771 14.557558 0.000000 0.000000 0.000000 1.327201 -0.437770 7.836933 2.173425 0.244893 -22.192266 -1.265549 -3.231070 23.512517 8.965323 -4.317517 -19.854367 0.000000 0.000000 0.000000 -19.622458 -12.117150 4.471427 -46.290696 -31.007074 4.549743 -54.134445 -73.186881 45.809808 0.000000 0.000000 0.000000 17.382787 2.285070 1.042330 40.038368 21.248529 0.634955 -73.255946 48.648341 -30.501969 0.000000 0.000000 0.000000
-0.000602 0.919117 0.001599 -2.830805 9.892365 -4.962122 10.702768 -0.502409 8.187853 -11.227738 1.168794 4.687259 9.832314 19.383366 3.318192 0.000000 0.000000 0.000000 -9.046831 -0.084271 -3.164989 6.966425 -1.036273 3.173531 -7.170470 -17.317782 14.571431 0.000000 0.000000 0.000000 0.171246 -0.399673 8.363542 3.510467 -0.090461 -23.245255 -0.708690 -3.748388 23.205253 10.610555 -5.628581 -19.411518 0.000000 0.000000 0.000000 -20.125681 -12.266055 4.762960 -43.386833 -33.118793 4.877618 -65.170933 -73.817292 55.833547 0.000000 0.000000 0.000000 16.426440 2.327565 0.867396 41.762135 21.920905 1.118982 -75.795806 46.284731 -30.301940 0.000000 0.000000 0.000000
-0.001049 0.918153 0.002259 -2.515482 8.441361 -5.125058 10.205655 -0.394340 9.018101 -11.269042 1.201618 4.194865 10.416187 20.474191 3.569090 0.000000 0.000000 0.000000 -9.712624 -0.076014 -3.807460 7.705498 -1.172459 4.297511 -6.501290 -16.295968 13.728482 0.000000 0.000000 0.000000 0.484946 -0.446454 8.956080 3.890368 -0.179881 -24.069877 -1.458368 -1.941096 23.763763 10.944168 -5.571046 -20.138432 0.000000 0.000000 0.000000 -18.349874 -12.506779 4.635612 -43.002124 -35.584710 5.693462 -59.738416 -75.433525 52.107275 0.000000 0.000000 0.000000 17.950859 2.334827 1.089100 39.932754 21.836768 0.797680 -78.593504 45.095857 -30.587761 0.000000 0.000000 0.000000
-0.001714 0.917684 0.002537 -2.462823 8.298936 -5.823425 10.520960 -0.418536 9.507028 -11.800939 1.304234 4.770364 10.388412 20.441098 3.586912 0.000000 0.000000 0.000000 -9.647622 -0.093124 -3.359943 7.561304 -1.167220 4.867968 -6.411756 -16.161379 13.309515 0.000000 0.000000 0.000000 0.494802 -0.523413 10.228841 3.864295 -0.214186 -23.462353 -1.329152 -2.658054 22.654183 10.138539 -5.174749 -19.721619 0.000000 0.000000 0.000000 -17.873960 -12.689627 4.886120 -42.030741 -37.478316 6.291636 -58.558847 -75.981101 51.631013 0.000000 0.000000 0.000000 17.674153 2.913642 1.165319 39.850111 21.616763 0.877271 -79.773119 43.642972 -30.464864 0.000000 0.000000 0.000000
-0.002526 0.916958 0.002741 -2.304832 8.209164 -6.190642 10.359338 -0.382883 9.440906 -11.697049 1.350999 5.703150 10.469472 20.574741 3.437106 0.000000 0.000000 0.000000 -9.705094 -0.108198 -3.014124 7.450915 -1.150249 5.001833 -6.371066 -16.103565 12.866578 0.000000 0.000000 0.000000 0.088841 -0.546895 11.202255 4.631918 -0.404156 -23.773176 -1.334330 -2.678896 22.446155 9.178541 -4.487559 -19.971182 0.000000 0.000000 0.000000 -17.224382 -13.483277 5.290826 -40.249731 -39.140244 6.495610 -61.128968 -78.879827 56.231309 0.000000 0.000000 0.000000 17.474282 3.391078 1.381499 39.512025 21.013305 0.687723 -81.008880 44.190136 -31.723162 0.000000 0.000000 0.000000
-0.003193 0.917268 0.003044 -2.384003 7.764395 -6.327425 10.419827 -0.359400 9.183838 -11.653101 1.410395 6.543087 10.665827 20.961046 3.749048 0.000000 0.000000 0.000000 -9.358835 -0.080364 -3.048308 7.122912 -1.086011 5.183736 -6.190138 -15.812509 12.778046 0.000000 0.000000 0.000000 -0.386397 -0.538192 11.825431 5.462479 -0.623284 -24.017998 -0.936701 -2.400894 22.729625 8.176633 -3.823451 -19.992642 0.000000 0.000000 0.000000 -17.422480 -13.404482 5.286186 -39.416760 -40.661840 6.787813 -62.747015 -80.510897 59.141380 0.000000 0.000000 0.000000 17.152496 3.759941 1.564019 39.394663 21.148796 0.709322 -81.911208 43.325596 -31.521727 0.000000 0.000000 0.000000
-0.003770 0.917180 0.003391 -2.212537 7.718776 -6.318009 10.301170 -0.339814 9.102504 -11.700988 1.431693 6.756110 10.673046 20.987047 3.851389 0.000000 0.000000 0.000000 -9.334649 -0.080211 -2.949641 6.828972 -1.027096 5.052783 -6.185586 -15.808089 12.602456 0.000000 0.000000 0.000000 -0.628776 -0.530277 12.106023 5.581086 -0.687187 -23.507279 -0.906430 -2.238346 22.341152 7.685422 -3.477954 -19.928328 0.000000 0.000000 0.000000 -17.650052 -13.471623 5.293885 -39.451740 -41.283054 7.059722 -71.375687 -82.439384 69.001804 0.000000 0.000000 0.000000 17.445094 3.995937 1.697160 39.309579 21.219314 0.748531 -82.799454 42.220420 -31.037276 0.000000 0.000000 0.000000
-0.004178 0.917805 0.003856 -2.320442 7.914458 -6.287287 10.552696 -0.371042 8.830561 -11.810531 1.457664 7.104600 10.557050 20.800295 4.063296 0.000000 0.000000 0.000000 -8.967505 -0.072618 -2.704130 6.438394 -0.950085 4.646952 -6.277777 -15.960697 12.817550 0.000000 0.000000 0.000000 -0.727544 -0.545561 12.512818 5.854362 -0.740620 -23.711722 -0.740968 -1.800549 22.676125 7.074055 -2.982107 -20.074839 0.000000 0.000000 0.000000 -18.481468 -13.430773 5.181618 -40.367937 -41.739979 7.454106 -82.177417 -83.778308 80.766522 0.000000 0.000000 0.000000 17.465594 3.430478 1.531855 39.464910 21.483022 0.773285 -83.758855 41.642602 -30.760600 0.000000 0.000000 0.000000
-0.004554 0.918343 0.004286 -2.262661 8.405929 -6.368841 10.773306 -0.420888 9.006814 -12.104410 1.462412 6.835124 10.246122 20.266601 4.188338 0.000000 0.000000 0.000000 -9.067940 -0.104968 -2.121403 6.513463 -0.955004 3.994773 -6.448847 -16.237982 13.069772 0.000000 0.000000 0.000000 -0.698198 -0.578069 12.943600 5.749757 -0.702174 -23.722510 -0.919315 -1.893971 22.693157 6.298154 -2.359668 -20.620800 0.000000 0.000000 0.000000 -19.232637 -12.800805 4.808200 -42.383472 -41.891606 8.095732 -89.942104 -83.487054 88.249863 0.000000 0.000000 0.000000 17.828438 3.211377 1.469166 39.704519 21.664912 0.823493 -84.162335 40.869873 -30.159548 0.000000 0.000000 0.000000
-0.004920 0.918632 0.004592 -2.249261 8.958427 -6.474698 11.248680 -0.496145 8.924559 -12.730598 1.532939 7.011955 9.901044 19.682862 4.296042 0.000000 0.000000 0.000000 -8.967838 -0.132222 -1.517083 6.312781 -0.914752 3.351042 -6.671909 -16.598749 13.261998 0.000000 0.000000 0.000000 -0.760555 -0.604347 13.383737 6.032483 -0.776437 -23.566015 -1.260957 -1.498678 22.355506 5.746664 -1.886556 -20.514527 0.000000 0.000000 0.000000 -19.900378 -12.818452 4.608207 -43.700976 -41.350532 8.326671 -98.382062 -83.721261 96.766883 0.000000 0.000000 0.000000 18.240325 3.130992 1.593059 39.694090 21.427226 0.724838 -84.442095 40.560089 -29.734782 0.000000 0.000000 0.000000
-0.005310 0.918200 0.004891 -2.216148 9.654439 -6.625725 11.334940 -0.535454 8.885812 -12.697363 1.509245 7.204379 9.626533 19.152830 3.953335 0.000000 0.000000 0.000000 -9.038345 -0.169670 -1.003460 6.357326 -0.927033 3.017044 -6.972075 -17.090939 13.228185 0.000000 0.000000 0.000000 -0.558382 -0.654186 13.708406 5.374274 -0.601170 -23.262075 -1.272031 -1.930066 22.180184 5.053695 -1.447381 -20.471437 0.000000 0.000000 0.000000 -20.698274 -12.493376 4.428351 -44.508013 -41.288564 8.566683 -90.638891 -83.909855 89.162427 0.000000 0.000000 0.000000 18.039643 3.414730 1.740304 40.089558 21.085514 0.659522 -84.060219 40.573646 -29.517960 0.000000 0.000000 0.000000
-0.005616 0.917562 0.005221 -2.277189 10.213054 -6.700106 11.202043 -0.554333 9.093738 -12.183258 1.398006 6.857738 9.484470 18.805243 3.402422 0.000000 0.000000 0.000000 -8.990758 -0.193344 -0.670989 6.382336 -0.936119 2.783625 -7.233357 -17.526477 13.134896 0.000000 0.000000 0.000000 -0.303357 -0.721732 14.186903 5.022994 -0.481282 -23.540367 -1.475653 -1.657863 22.040993 4.220010 -0.852629 -20.010757 0.000000 0.000000 0.000000 -20.824487 -12.783219 4.391300 -45.088884 -40.596755 8.486752 -84.298958 -83.875376 82.548060 0.000000 0.000000 0.000000 18.159140 3.234752 1.797504 39.761146 20.190905 0.309085 -83.174916 41.492727 -29.629572 0.000000 0.000000 0.000000
-0.005795 0.916929 0.005547 -2.403451 10.923788 -6.768467 11.216825 -0.593799 9.121094 -11.774263 1.309642 6.733579 9.287200 18.339897 2.827950 0.000000 0.000000 0.000000 -8.799306 -0.203251 -0.760717 6.247319 -0.942745 3.334147 -7.602047 -18.138243 12.996456 0.000000 0.000000 0.000000 -0.273869 -0.769975 14.658719 5.128320 -0.495008 -23.504512 -1.708882 -1.972168 21.403538 3.094351 -0.131856 -19.596566 0.000000 0.000000 0.000000 -21.331995 -12.352611 4.081823 -44.784584 -40.215419 8.338768 -71.780627 -83.468974 69.732800 0.000000 0.000000 0.000000 17.600168 3.545338 1.962151 39.392571 18.803355 -0.093056 -82.465419 42.678891 -30.316425 0.000000 0.000000 0.000000
-0.005896 0.916243 0.005839 -2.482501 11.398357 -6.779144 11.053728 -0.611509 9.461205 -11.230027 1.191797 6.042456 9.187805 18.039448 2.279370 0.000000 0.000000 0.000000 -8.701408 -0.211102 -0.782780 6.201582 -0.951308 3.572540 -7.849929 -18.562561 12.844598 0.000000 0.000000 0.000000 -0.092214 -0.833066 15.115237 4.959701 -0.417625 -23.930266 -2.056577 -1.947860 21.364736 2.625695 0.220566 -19.527620 0.000000 0.000000 0.000000 -21.171853 -12.201567 3.895442 -45.012954 -40.131822 8.379301 -63.737972 -82.747573 61.235040 0.000000 0.000000 0.000000 17.436563 3.273781 1.893896 38.994223 17.510913 -0.535385 -82.218228 44.590787 -31.729195 0.000000 0.000000 0.000000
-0.005795 0.915844 0.006051 -2.581300 11.576319 -6.622941 10.784690 -0.600360 9.704681 -10.573577 1.075182 5.273253 9.215347 17.998924 1.911921 0.000000 0.000000 0.000000 -8.698796 -0.197753 -1.268727 6.364045 -1.003344 4.193597 -7.971539 -18.767434 12.741961 0.000000 0.000000 0.000000 -0.177132 -0.829508 15.139931 4.748867 -0.341647 -24.288247 -2.171063 -2.209975 21.322281 2.525653 0.259727 -19.485522 0.000000 0.000000 0.000000 -20.999110 -12.023795 3.835902 -44.939378 -40.351371 8.445993 -50.674332 -82.272435 48.694390 0.000000 0.000000 0.000000 16.793404 3.375472 1.898601 39.120237 16.207669 -0.899727 -81.598989 45.696872 -32.388438 0.000000 0.000000 0.000000
-0.005572 0.914814 0.006127 -2.582514 11.906781 -6.418174 10.369833 -0.577720 9.979061 -9.829656 0.946605 4.346556 9.224363 17.867593 1.306665 0.000000 0.000000 0.000000 -8.572069 -0.185817 -1.603636 6.092531 -0.970659 4.529545 -8.191949 -19.161088 12.466804 0.000000 0.000000 0.000000 -0.278836 -0.834380 15.287483 4.817326 -0.335310 -24.588438 -2.461802 -2.190218 21.083519 1.953039 0.719997 -19.960767 0.000000 0.000000 0.000000 -20.590055 -11.842362 3.666901 -45.379146 -40.486639 8.640598 -44.071570 -81.638299 42.131808 0.000000 0.000000 0.000000 16.840571 3.263899 1.887214 38.654690 15.035290 -1.259763 -81.892778 46.606118 -33.311409 0.000000 0.000000 0.000000
-0.005182 0.913801 0.006229 -2.693545 12.201134 -6.192244 10.014495 -0.557081 10.144832 -9.004569 0.825798 3.538935 9.269565 17.794217 0.701556 0.000000 0.000000 0.000000 -8.374055 -0.162258 -2.130002 5.888629 -0.956927 5.119973 -8.404945 -19.540775 12.228303 0.000000 0.000000 0.000000 -0.341628 -0.824580 15.168777 4.696439 -0.296453 -24.594641 -2.660106 -2.399326 20.629235 1.710166 0.863793 -19.812007 0.000000 0.000000 0.000000 -20.114361 -11.929359 3.707332 -45.895243 -40.832617 8.961916 -36.456159 -80.621960 34.697746 0.000000 0.000000 0.000000 17.021677 3.194230 1.839460 38.163243 14.269721 -1.450018 -81.161237 46.641180 -33.030514 0.000000 0.000000 0.000000
-0.004585 0.912605 0.006408 -2.891588 12.693365 -6.010473 9.674084 -0.536798 9.994721 -7.996863 0.708116 3.291712 9.303972 17.638297 -0.090391 0.000000 0.000000 0.000000 -8.064407 -0.147671 -2.283617 5.621672 -0.917869 5.172325 -8.699341 -20.064538 12.058358 0.000000 0.000000 0.000000 -0.186585 -0.834760 14.917544 4.160003 -0.146104 -24.622123 -2.485769 -2.728222 20.787441 0.905259 1.372919 -19.731305 0.000000 0.000000 0.000000 -19.792379 -12.096753 3.812568 -46.005211 -41.326775 9.171287 -30.716284 -79.917752 29.368234 0.000000 0.000000 0.000000 16.884983 2.859645 1.665443 37.964931 13.836628 -1.591201 -80.843259 46.449099 -32.686689 0.000000 0.000000 0.000000
-0.003402 0.911184 0.006784 -3.031504 13.377853 -5.893989 9.329104 -0.522952 9.885231 -7.093408 0.603284 3.094358 9.266994 17.296103 -0.987446 0.000000 0.000000 0.000000 -7.956913 -0.150935 -2.400599 5.515126 -0.919369 5.415917 -9.058010 -20.710805 11.854955 0.000000 0.000000 0.000000 -0.130838 -0.851788 14.883607 4.137173 -0.121647 -24.662957 -2.549601 -2.878965 20.774178 0.661778 1.580206 -19.889560 0.000000 0.000000 0.000000 -19.271067 -12.267933 3.834788 -46.638917 -41.800348 9.546165 -29.631971 -79.213368 28.025173 0.000000 0.000000 0.000000 16.712800 2.568616 1.564736 38.194737 13.565845 -1.671563 -81.764618 45.745411 -32.462435 0.000000 0.000000 0.000000
-0.001551 0.908902 0.007506 -3.200510 14.442889 -5.771466 8.719727 -0.489116 9.753269 -5.630502 0.445862 2.864171 9.223542 16.737847 -2.354768 0.000000 0.000000 0.000000 -8.002583 -0.163582 -2.809087 5.628001 -1.000507 6.358629 -9.594269 -21.701457 11.468366 0.000000 0.000000 0.000000 -0.181811 -0.832476 14.468889 4.126436 -0.105160 -24.361341 -2.689893 -3.617237 21.168102 0.149593 1.958038 -20.781314 0.000000 0.000000 0.000000 -19.151088 -12.613603 4.037370 -46.582624 -42.025332 9.595419 -30.322754 -79.175068 28.643434 0.000000 0.000000 0.000000 16.745917 2.407661 1.492555 37.982017 13.547289 -1.712271 -80.526579 44.499695 -30.701228 0.000000 0.000000 0.000000
0.001235 0.906830 0.008871 -3.083345 15.211431 -5.388013 8.239819 -0.450653 9.352127 -5.105527 0.385461 2.933499 9.206724 16.310542 -3.438196 0.000000 0.000000 0.000000 -8.378403 -0.160222 -4.533986 5.678562 -1.161713 9.309037 -10.009025 -22.460210 11.058641 0.000000 0.000000 0.000000 -0.253856 -0.830101 14.394102 3.880539 -0.002580 -25.049652 -2.675205 -4.393733 21.640042 -0.488176 2.324785 -21.075982 0.000000 0.000000 0.000000 -18.718367 -12.473397 4.067028 -47.124060 -42.233522 9.771823 -33.555588 -78.543211 31.244131 0.000000 0.000000 0.000000 16.078434 2.597240 1.532377 38.303454 12.769928 -1.946459 -79.678752 44.508018 -30.307694 0.000000 0.000000 0.000000
0.004795 0.904494 0.010516 -2.977707 17.006260 -5.351451 8.084722 -0.496762 9.135157 -4.931045 0.344806 3.056113 8.844903 14.899380 -4.883984 0.000000 0.000000 0.000000 -8.589914 -0.197384 -6.684995 5.254999 -1.403687 14.148276 -10.857694 -23.812269 11.347113 0.000000 0.000000 0.000000 -0.436623 -0.884448 14.927884 3.647279 0.103874 -25.626781 -2.967868 -5.537615 22.438913 -0.997152 2.721823 -22.832768 0.000000 0.000000 0.000000 -17.878102 -12.416050 4.065464 -48.794882 -43.239352 10.642067 -34.472475 -78.090814 31.913175 0.000000 0.000000 0.000000 15.846326 2.466212 1.492863 38.261379 12.041442 -2.229149 -79.002880 43.462777 -29.008860 0.000000 0.000000 0.000000
0.008959 0.903290 0.012632 -3.253518 17.988749 -6.191078 8.172917 -0.565703 9.839228 -4.696217 0.310547 3.382186 8.700546 14.097308 -5.838434 0.000000 0.000000 0.000000 -8.862397 -0.273568 -8.366055 5.495319 -1.959485 19.333867 -11.165924 -23.957468 12.581361 0.000000 0.000000 0.000000 -0.404608 -1.040029 16.302122 3.503726 0.151494 -26.249847 -3.035233 -5.868267 23.782259 -1.327623 3.047592 -24.567099 0.000000 0.000000 0.000000 -17.414850 -13.431774 4.552979 -47.685467 -43.892974 10.458237 -32.183568 -78.011233 29.903274 0.000000 0.000000 0.000000 16.020313 2.366690 1.553321 36.795253 11.523446 -2.504387 -76.865719 42.840085 -27.387959 0.000000 0.000000 0.000000
0.013583 0.902232 0.016697 -3.881390 18.967924 -6.314905 7.936999 -0.583114 9.972442 -3.218673 0.167150 3.345089 8.713330 13.528420 -6.800848 0.000000 0.000000 0.000000 -9.355819 -0.451050 -13.048223 6.948310 -3.672604 28.076311 -12.267852 -24.869283 16.205595 0.000000 0.000000 0.000000 0.163858 -1.283708 17.623400 2.826747 0.333404 -26.912364 -2.698089 -6.811183 23.908042 -2.600430 3.733127 -24.739007 0.000000 0.000000 0.000000 -17.283098 -13.636353 4.752318 -47.243818 -43.784934 10.268887 -30.590742 -77.011504 28.206592 0.000000 0.000000 0.000000 14.579636 1.852857 1.179873 36.845849 9.035338 -3.141277 -75.659428 44.548612 -28.238629 0.000000 0.000000 0.000000
0.018747 0.901975 0.025096 -4.395620 20.149274 -6.352408 7.558371 -0.628387 11.014803 -1.516512 0.048374 1.940399 8.483517 12.661409 -7.065019 0.000000 0.000000 0.000000 -9.318346 -0.706011 -18.273117 7.641560 -5.391768 35.402421 -13.414607 -25.542650 20.730988 0.000000 0.000000 0.000000 0.345877 -1.465919 18.606393 3.152640 0.267326 -27.674270 -2.949520 -8.150999 24.512795 -4.346872 4.674722 -26.412578 0.000000 0.000000 0.000000 -16.594771 -13.686187 4.931210 -47.767941 -43.782292 10.379128 -24.138840 -75.185865 22.483898 0.000000 0.000000 0.000000 12.911983 2.013065 1.129699 36.509512 8.466975 -3.248402 -73.198919 43.295967 -26.258614 0.000000 0.000000 0.000000
0.024579 0.899097 0.038561 -5.033637 21.651139 -6.598829 7.708603 -0.772712 11.769333 -0.269025 -0.058362 1.892843 8.476818 11.696983 -8.338847 0.000000 0.000000 0.000000 -8.815451 -0.969834 -22.682473 8.539585 -6.580629 37.676802 -15.404904 -27.260194 24.652591 0.000000 0.000000 0.000000 0.907045 -1.829162 20.228178 2.886497 0.328406 -28.721790 -2.487082 -9.848548 24.759008 -6.345180 5.657283 -27.570890 0.000000 0.000000 0.000000 -16.463566 -13.925796 5.246331 -47.923638 -44.561414 10.784271 -18.831866 -73.692806 18.134705 0.000000 0.000000 0.000000 11.858663 2.026807 1.002012 36.549229 7.322108 -3.529841 -72.609280 43.055082 -26.069524 0.000000 0.000000 0.000000
0.031083 0.893502 0.056959 -5.366194 22.338132 -6.280003 7.321154 -0.770283 12.153065 1.362702 -0.243862 2.623657 9.038406 11.768067 -10.119087 0.000000 0.000000 0.000000 -8.147670 -1.216107 -27.309928 10.173920 -6.773211 34.482559 -17.385421 -29.350559 25.210859 0.000000 0.000000 0.000000 1.059710 -2.044178 21.314938 3.755585 0.164115 -28.494223 -3.135695 -9.799493 24.221681 -5.065891 4.981952 -27.517941 0.000000 0.000000 0.000000 -16.411351 -14.558057 5.459400 -47.010088 -44.723947 10.627030 -13.607162 -72.319839 13.621173 0.000000 0.000000 0.000000 12.989308 1.154550 0.631660 35.576706 6.468773 -3.670859 -70.206797 43.046403 -24.913275 0.000000 0.000000 0.000000
0.038998 0.884580 0.081036 -5.373753 23.641633 -6.194214 7.233568 -0.904931 13.385186 2.227413 -0.354909 3.049227 9.651948 11.347454 -12.718710 0.000000 0.000000 0.000000 -8.365092 -1.818936 -30.795833 12.498150 -6.575312 28.038805 -11.192806 -22.271094 14.007718 0.000000 0.000000 0.000000 1.051123 -2.430045 23.371777 3.610897 0.203792 -28.882503 -2.460781 -11.280353 23.381749 -6.125075 5.387263 -28.674409 0.000000 0.000000 0.000000 -15.706294 -15.013408 5.837208 -46.517092 -44.610967 10.511507 -7.772321 -71.581596 9.392269 0.000000 0.000000 0.000000 12.068072 1.305307 0.530588 37.483485 4.641611 -4.168578 -68.027344 44.728233 -25.320064 0.000000 0.000000 0.000000
0.049699 0.871858 0.112411 -5.529822 24.086612 -6.276934 7.034960 -1.036076 15.188539 3.367311 -0.565441 4.175979 10.852949 12.229694 -15.785872 0.000000 0.000000 0.000000 -7.691979 -1.922739 -33.025788 14.441100 -5.425099 18.662820 -13.324549 -24.242607 19.576168 0.000000 0.000000 0.000000 0.498182 -2.535732 24.542846 5.360727 -0.159746 -28.492627 -3.094161 -11.589657 22.752781 -5.858222 5.196286 -29.493339 0.000000 0.000000 0.000000 -15.565699 -15.062461 5.875270 -45.019990 -44.337736 9.967655 -1.798241 -69.717794 4.843518 0.000000 0.000000 0.000000 13.345213 2.053811 0.843253 37.258047 3.185916 -4.497465 -64.881886 46.758430 -25.336966 0.000000 0.000000 0.000000
0.064317 0.858372 0.152372 -5.399529 26.029768 -5.667811 6.297408 -1.190372 17.285886 5.716959 -0.836353 4.082786 11.591268 12.033743 -17.788813 0.000000 0.000000 0.000000 -8.345503 -2.677540 -34.479470 17.140244 -4.733081 9.456982 -13.334437 -22.091784 30.228411 0.000000 0.000000 0.000000 0.499539 -2.743466 25.074161 5.104498 -0.078942 -28.771403 -2.348541 -14.893279 22.270764 -7.836175 5.812424 -31.431441 0.000000 0.000000 0.000000 -14.692388 -15.567497 6.540412 -43.428266 -44.145139 9.441695 5.602981 -68.285092 0.272505 0.000000 0.000000 0.000000 11.725093 2.873718 0.866320 39.990194 1.187839 -5.166083 -59.981284 50.364421 -25.824371 0.000000 0.000000 0.000000
0.084295 0.843604 0.202026 -5.586058 26.945952 -5.029792 6.154054 -1.635276 21.118676 6.921427 -0.793043 2.303557 12.033708 12.746972 -17.824190 0.000000 0.000000 0.000000 -7.315189 -2.657208 -36.182664 18.116407 -4.654576 7.157593 -13.837659 -21.953435 35.845606 0.000000 0.000000 0.000000 0.813823 -2.777013 24.586437 7.458898 -0.591048 -28.503354 -3.012192 -15.371149 22.600626 -9.020454 6.412340 -31.353871 0.000000 0.000000 0.000000 -13.979111 -15.193526 6.320587 -43.043663 -44.003201 9.200922 11.890863 -66.386541 -3.802613 0.000000 0.000000 0.000000 13.425005 2.962283 0.878216 39.978544 1.865620 -4.988186 -57.974841 55.490312 -27.833927 0.000000 0.000000 0.000000
0.109228 0.832712 0.260985 -5.191686 26.577702 -3.241353 5.622826 -1.643013 22.823939 3.601221 -0.748564 5.950339 14.445209 19.913047 -14.256203 0.000000 0.000000 0.000000 -6.944090 -2.890745 -39.217266 18.786268 -5.630369 11.631435 -13.729035 -22.142617 34.988876 0.000000 0.000000 0.000000 1.666717 -2.564692 22.586467 8.633917 -0.784647 -29.191123 -4.358229 -17.037358 22.343292 -10.148464 6.781207 -29.778515 0.000000 0.000000 0.000000 -14.371956 -15.088624 6.715891 -41.685851 -41.406265 7.721344 11.635881 -63.395268 -3.054119 0.000000 0.000000 0.000000 13.589533 5.250168 1.643995 39.531420 2.707839 -4.531794 -53.773664 57.086658 -27.014301 0.000000 0.000000 0.000000
0.135887 0.821623 0.326662 -5.010905 26.184490 -2.992550 8.453790 -2.123882 20.385673 -3.970033 -0.717414 19.597280 12.087853 17.732575 -8.568360 0.000000 0.000000 0.000000 -6.029567 -2.685443 -40.601587 17.927807 -7.133364 19.910584 -13.611214 -23.265492 26.357702 0.000000 0.000000 0.000000 4.107377 -2.966200 21.989942 8.283723 -0.763890 -27.523664 -5.250063 -17.072335 20.898236 -11.481805 7.401845 -29.920352 0.000000 0.000000 0.000000 -14.886271 -13.742282 6.120642 -43.036758 -41.626105 8.339736 12.338735 -60.313429 -3.289651 0.000000 0.000000 0.000000 12.115503 6.773708 2.318452 44.337260 3.558453 -4.584663 -48.188636 58.430821 -24.233546 0.000000 0.000000 0.000000
0.160927 0.811105 0.391145 -4.751281 24.458965 -4.915099 11.823773 -1.889014 12.759242 -13.876765 0.283184 43.790853 8.664308 17.617492 8.084205 0.000000 0.000000 0.000000 -3.788756 -1.470429 -41.186659 14.346624 -8.512634 32.979622 -12.727022 -24.636571 13.830414 0.000000 0.000000 0.000000 5.067839 -3.392995 23.607357 6.130363 -0.272988 -28.038590 -3.917125 -15.633570 21.617076 -8.639406 6.123225 -27.147491 0.000000 0.000000 0.000000 -15.519138 -14.045171 6.246992 -39.943093 -40.625152 6.996118 10.250822 -57.428988 -2.240388 0.000000 0.000000 0.000000 12.941026 7.752543 2.847047 44.401515 6.898815 -3.589910 -42.363827 59.827179 -21.275269 0.000000 0.000000 0.000000
0.184209 0.802993 0.448625 -4.869794 22.877227 -6.919911 14.972404 -1.251061 1.155028 -24.441441 5.621448 66.032108 10.403431 21.148111 17.635936 0.000000 0.000000 0.000000 -2.540884 -0.644074 -40.926469 11.973935 -9.808132 43.990947 -11.513689 -24.422020 6.488812 0.000000 0.000000 0.000000 4.926396 -3.864147 26.563826 4.881460 -0.031822 -27.645383 -1.910642 -14.116480 21.570402 -9.179707 6.459050 -28.452646 0.000000 0.000000 0.000000 -15.800604 -15.449941 6.870861 -39.023103 -39.640864 6.400680 13.356593 -51.953612 -3.666839 0.000000 0.000000 0.000000 13.363303 11.713226 4.792494 42.928509 12.604138 -1.662453 -38.647363 54.183618 -16.877892 0.000000 0.000000 0.000000
0.208646 0.803083 0.499099 -4.282405 20.401938 -8.017363 16.837790 -0.622486 -11.401047 -30.090201 12.492581 76.611445 15.460828 27.790996 17.005971 0.000000 0.000000 0.000000 -2.058223 0.193283 -38.409484 10.339641 -9.721801 49.526129 -10.293618 -23.362279 1.248000 0.000000 0.000000 0.000000 3.626879 -3.668678 28.244611 5.081289 -0.130579 -27.652150 -0.622508 -10.927971 22.438299 -7.772014 6.002066 -28.104933 0.000000 0.000000 0.000000 -17.694152 -16.474259 7.210217 -36.008827 -38.636227 5.300179 14.080790 -45.312227 -3.768782 0.000000 0.000000 0.000000 11.940107 15.333479 6.634134 40.976206 20.178140 0.712153 -39.008130 47.894946 -14.480939 0.000000 0.000000 0.000000
0.235415 0.811883 0.544696 -2.848326 18.735527 -8.472384 18.318494 -0.315240 -22.176702 -29.701760 13.696629 77.206969 16.604148 31.071842 8.266434 0.000000 0.000000 0.000000 -3.516112 0.140162 -34.445919 9.701801 -9.450054 51.510655 -9.216330 -21.696110 -1.715038 0.000000 0.000000 0.000000 1.806357 -3.248799 29.418937 4.713961 -0.108863 -26.356012 0.645680 -7.208086 22.116060 -6.428478 5.718572 -26.921327 0.000000 0.000000 0.000000 -18.499976 -17.550395 7.181181 -35.168567 -37.421571 4.870201 16.512335 -40.529924 -4.524695 0.000000 0.000000 0.000000 10.750625 16.900954 7.549418 39.315839 25.687287 2.376428 -43.468165 45.153239 -14.980918 0.000000 0.000000 0.000000
0.265189 0.826984 0.587475 -1.189898 15.180396 -8.774138 19.746275 0.293578 -27.303511 -27.016589 11.471455 65.945916 14.250892 29.546529 -5.987603 0.000000 0.000000 0.000000 -4.716287 0.362604 -29.944720 8.667827 -7.679452 51.518003 -7.788982 -18.665168 -2.838404 0.000000 0.000000 0.000000 0.099722 -2.490682 29.467353 4.509763 -0.138932 -26.147898 0.951775 -2.435704 23.522006 -4.495598 5.109835 -24.615107 0.000000 0.000000 0.000000 -20.420597 -18.165157 6.926552 -33.471605 -35.514047 4.072763 18.866950 -37.998231 -5.307193 0.000000 0.000000 0.000000 10.049021 18.845009 8.650532 37.686257 31.701273 4.060867 -47.667835 40.878342 -14.447438 0.000000 0.000000 0.000000
0.297224 0.842040 0.628693 -0.095800 12.057552 -7.840243 19.606883 0.659309 -27.968248 -18.523618 5.231606 46.020046 10.748868 21.235094 -7.406773 0.000000 0.000000 0.000000 -6.175957 0.309745 -27.055094 7.798835 -5.991808 50.748455 -6.533207 -15.706426 -2.205070 0.000000 0.000000 0.000000 -0.367796 -1.982567 28.357597 3.204050 0.110456 -25.795389 0.766509 0.284222 23.378215 -2.700603 4.192037 -23.558565 0.000000 0.000000 0.000000 -20.510103 -16.373268 5.689349 -34.582321 -32.711036 3.577404 19.759440 -39.510366 -5.965290 0.000000 0.000000 0.000000 7.441759 19.866448 8.619556 37.292883 34.107687 5.008414 -51.879628 42.026263 -16.413761 0.000000 0.000000 0.000000
0.331233 0.856501 0.670242 0.309133 8.947403 -7.121851 19.434643 0.905109 -24.758807 -11.855901 2.190251 25.654570 7.501596 16.685539 7.931214 0.000000 0.000000 0.000000 -8.191042 0.093123 -24.746696 8.634121 -5.479282 50.185470 -5.952171 -14.587396 1.008691 0.000000 0.000000 0.000000 -0.941423 -1.375673 25.565427 2.880973 0.087486 -24.449642 0.605126 3.785005 23.384418 -1.635858 3.890482 -24.320419 0.000000 0.000000 0.000000 -20.510456 -15.180194 4.516536 -36.548041 -30.838975 3.468781 19.591630 -43.832034 -6.856406 0.000000 0.000000 0.000000 8.244330 18.067648 8.277429 36.060841 36.374695 5.489364 -58.765338 44.050004 -19.807275 0.000000 0.000000 0.000000
0.367049 0.868463 0.713316 -0.599830 6.717108 -7.797157 18.997839 0.935061 -20.813904 -8.626002 1.301720 19.400274 4.997743 14.219665 17.016744 0.000000 0.000000 0.000000 -8.965694 0.094514 -19.842720 9.281416 -5.075983 48.573391 -5.708650 -14.143034 1.279324 0.000000 0.000000 0.000000 -0.798687 -1.134403 23.296718 2.013862 0.209654 -23.018047 1.101575 4.592931 24.419019 0.351563 2.622403 -23.384999 0.000000 0.000000 0.000000 -19.189274 -14.967584 4.584767 -38.610283 -28.208923 2.798254 22.463877 -48.548251 -8.955177 0.000000 0.000000 0.000000 8.363642 17.645756 8.055012 32.762236 37.091903 4.842944 -64.752746 46.171468 -24.015764 0.000000 0.000000 0.000000
0.403105 0.874174 0.757170 -1.103671 4.427431 -9.613949 17.890857 0.891544 -17.491415 -8.672060 1.534362 24.056367 6.655359 16.194613 16.742268 0.000000 0.000000 0.000000 -12.206713 -0.390339 -17.887731 12.135076 -6.421302 51.414916 -5.618463 -14.943991 10.080197 0.000000 0.000000 0.000000 -2.262045 -0.723893 22.379310 3.735594 -0.384278 -21.891965 0.796762 5.160973 25.549881 2.101279 1.445520 -23.374918 0.000000 0.000000 0.000000 -20.101494 -12.418671 3.485907 -38.593989 -26.369833 2.090771 21.635940 -53.287320 -9.393030 0.000000 0.000000 0.000000 8.899014 15.375279 7.056761 31.826141 37.311061 4.537650 -76.264326 49.855131 -32.879939 0.000000 0.000000 0.000000
0.436125 0.877303 0.797387 -2.300673 3.023889 -10.615140 17.483459 0.888753 -15.764723 -9.561338 2.088158 30.131442 8.584534 18.219198 9.847751 0.000000 0.000000 0.000000 -14.428341 -0.727312 -18.274709 16.028097 -8.517300 51.935133 -9.861677 -22.142835 22.369658 0.000000 0.000000 0.000000 -3.072650 -0.530167 21.704922 5.558815 -0.972517 -21.615002 0.736787 4.597203 25.840548 2.425865 0.964033 -22.649292 0.000000 0.000000 0.000000 -21.322815 -11.888330 3.575769 -37.627456 -24.566226 1.356464 16.587924 -59.060079 -7.444443 0.000000 0.000000 0.000000 9.361167 13.973262 6.355765 30.595548 36.150223 3.839799 -80.703029 49.199822 -35.464309 0.000000 0.000000 0.000000
0.463082 0.880193 0.831969 -3.025745 1.420027 -11.939255 17.522896 0.865053 -12.261454 -10.586494 2.717160 31.802733 9.616026 19.637427 7.379469 0.000000 0.000000 0.000000 -15.312458 -0.813860 -18.482761 17.909332 -8.406265 47.311204 -17.805504 -30.286869 35.495422 0.000000 0.000000 0.000000 -2.953778 -0.507310 21.931634 6.316401 -1.258954 -21.489886 -0.249141 3.163061 24.957645 0.888138 1.331823 -19.419241 0.000000 0.000000 0.000000 -23.578701 -9.634048 2.937245 -36.405218 -21.955416 0.415193 3.042478 -65.145397 0.686454 0.000000 0.000000 0.000000 9.997257 12.302925 5.396621 30.822367 34.085601 3.337967 -87.209908 48.585034 -39.872940 0.000000 0.000000 0.000000
0.484338 0.885794 0.861321 -2.723876 -1.366951 -11.819813 16.980492 0.831710 -9.351438 -12.058520 3.715259 31.535125 10.952954 21.751926 7.580559 0.000000 0.000000 0.000000 -14.199358 -0.410183 -18.602571 15.880567 -5.511954 38.753625 -20.421690 -34.192355 30.903591 0.000000 0.000000 0.000000 -2.716976 -0.395896 20.451681 5.655131 -1.027736 -22.839199 -0.518929 3.219072 25.620287 1.097060 0.869690 -18.326305 0.000000 0.000000 0.000000 -24.010704 -7.706540 2.372529 -37.938070 -20.934745 -0.046003 -11.159108 -67.820380 10.802513 0.000000 0.000000 0.000000 11.987140 11.068861 4.842916 29.620620 32.666067 2.641365 -91.535930 46.553395 -41.459844 0.000000 0.000000 0.000000
0.500111 0.889012 0.885172 -2.356807 -2.468427 -11.890560 15.400277 0.628130 -6.729186 -11.942724 3.777767 30.579690 11.763716 23.114063 6.736635 0.000000 0.000000 0.000000 -12.703605 -0.092263 -16.572136 11.957235 -2.969127 29.960542 -12.469663 -27.014997 14.203799 0.000000 0.000000 0.000000 -2.782942 -0.328487 19.003246 5.682207 -1.086441 -22.614879 -0.805846 3.204029 24.497787 0.917951 0.731072 -16.093478 0.000000 0.000000 0.000000 -24.729934 -6.301953 1.704887 -38.077980 -18.065452 -0.886798 -28.934763 -67.830387 23.188284 0.000000 0.000000 0.000000 13.296960 8.926990 3.820094 29.823033 32.385356 2.636882 -94.241301 47.459417 -44.548254 0.000000 0.000000 0.000000
0.511421 0.889987 0.903012 -1.979665 -2.589902 -12.680226 14.440102 0.512585 -4.793352 -12.276074 3.964907 30.861051 11.921138 23.417276 6.431380 0.000000 0.000000 0.000000 -12.250029 -0.044530 -14.588429 9.735226 -1.993437 26.404763 -8.961102 -21.435359 9.193080 0.000000 0.000000 0.000000 -3.097873 -0.276652 18.596525 5.282850 -0.960043 -22.931854 -0.842773 2.188619 24.149652 1.050238 0.354852 -14.771834 0.000000 0.000000 0.000000 -24.965341 -5.231265 1.416678 -38.800549 -16.973468 -1.297171 -31.940513 -64.297922 23.986392 0.000000 0.000000 0.000000 12.927267 8.302490 3.312517 31.011462 31.952697 2.772957 -93.768475 47.057660 -44.209226 0.000000 0.000000 0.000000
0.518877 0.889532 0.914704 -1.957198 -2.413288 -12.676195 13.878423 0.449250 -4.169661 -12.285950 3.972443 31.129513 12.035973 23.659658 5.742311 0.000000 0.000000 0.000000 -12.972708 -0.135951 -13.608693 9.414981 -1.829099 24.050528 -9.270344 -21.972502 11.417300 0.000000 0.000000 0.000000 -3.073198 -0.285116 18.352147 5.700562 -1.034758 -23.452255 -1.212123 1.519533 24.659056 0.863212 0.288751 -13.228219 0.000000 0.000000 0.000000 -24.828522 -4.752616 1.344446 -38.695622 -15.520446 -1.843213 -34.783175 -63.615414 25.729063 0.000000 0.000000 0.000000 13.111189 7.335781 2.796789 32.221325 30.959095 2.674674 -97.052663 49.583219 -49.345809 0.000000 0.000000 0.000000
0.522611 0.888880 0.920880 -2.093881 -3.315529 -12.630657 13.874860 0.454175 -2.990142 -12.502279 4.106606 30.187331 12.474214 24.504309 4.844108 0.000000 0.000000 0.000000 -13.137764 -0.105029 -13.338254 9.439036 -1.711421 22.379752 -9.022302 -21.622660 13.761523 0.000000 0.000000 0.000000 -3.296338 -0.229768 17.971545 6.034415 -1.213432 -22.648060 -0.776466 1.506367 24.031319 0.024853 0.878672 -13.442268 0.000000 0.000000 0.000000 -25.181699 -4.285733 1.203554 -38.210619 -14.285557 -2.192671 -32.246258 -61.969361 23.339916 0.000000 0.000000 0.000000 13.869263 7.656125 2.833924 33.477447 29.838524 2.657932 -97.979249 53.708518 -54.739203 0.000000 0.000000 0.000000
0.523723 0.889047 0.922938 -2.391470 -4.591365 -11.653651 14.113285 0.492399 -2.889878 -12.676066 4.249279 28.977340 13.091025 25.645109 4.444067 0.000000 0.000000 0.000000 -12.948533 0.008322 -13.994682 9.513154 -1.595045 20.774925 -8.780099 -21.390059 16.663928 0.000000 0.000000 0.000000 -3.316486 -0.183498 17.487417 6.537790 -1.333031 -23.001799 -0.683121 1.907884 24.770168 0.310480 0.668034 -14.270396 0.000000 0.000000 0.000000 -25.078502 -4.301244 1.395148 -36.708809 -13.612144 -2.462041 -28.009799 -61.161666 20.333746 0.000000 0.000000 0.000000 15.074186 8.428099 3.166586 33.215996 29.752900 2.539209 -98.319406 57.547942 -59.306900 0.000000 0.000000 0.000000
0.522720 0.888347 0.922837 -2.389147 -5.192275 -11.162781 14.052260 0.492969 -2.651474 -12.627275 4.213554 27.945516 13.409651 26.330534 3.748210 0.000000 0.000000 0.000000 -12.928022 0.058856 -14.618172 9.369105 -1.491811 19.879130 -8.796617 -21.533465 20.249475 0.000000 0.000000 0.000000 -3.432196 -0.147973 17.301136 6.504874 -1.395856 -22.308127 -0.262132 1.587265 25.030649 -0.073510 0.882621 -14.805124 0.000000 0.000000 0.000000 -25.263575 -4.504964 1.759582 -35.128902 -13.307337 -2.572209 -21.628228 -60.218141 16.095604 0.000000 0.000000 0.000000 15.576750 9.356322 3.488304 34.083727 29.969909 2.734978 -100.142939 60.787754 -64.664124 0.000000 0.000000 0.000000
0.520632 0.886369 0.922705 -2.521950 -5.077356 -10.551267 14.449262 0.493577 -2.805891 -12.904436 4.220173 27.128513 13.395144 26.510250 2.427137 0.000000 0.000000 0.000000 -12.670271 0.100300 -15.091037 9.379924 -1.489132 19.170310 -9.868598 -22.987891 23.442913 0.000000 0.000000 0.000000 -3.851755 -0.087116 17.395283 7.014290 -1.472042 -22.797284 -0.279240 1.584032 25.777137 1.107515 0.012561 -15.061416 0.000000 0.000000 0.000000 -25.346480 -4.699389 1.909463 -34.072154 -13.014260 -2.667359 -17.756924 -59.109621 13.418358 0.000000 0.000000 0.000000 15.483705 10.048008 3.857610 34.817929 30.802327 3.011755 -101.832355 61.403601 -66.703916 0.000000 0.000000 0.000000
0.517421 0.884367 0.923620 -2.502528 -5.110954 -10.164889 14.539299 0.471070 -2.351820 -12.860107 4.075961 25.885583 13.434103 26.845642 0.950876 0.000000 0.000000 0.000000 -12.569007 0.125167 -14.942451 9.275964 -1.463776 19.396933 -8.695025 -21.379727 19.621290 0.000000 0.000000 0.000000 -3.844010 -0.080787 17.580086 6.701110 -1.397699 -22.644794 0.202929 1.721211 25.710250 1.318600 -0.104441 -15.370459 0.000000 0.000000 0.000000 -25.327322 -4.440515 1.719793 -33.362321 -12.693942 -2.706453 -18.020998 -57.705430 13.122602 0.000000 0.000000 0.000000 15.234369 10.265323 3.977715 35.477947 31.189375 3.231764 -104.370757 61.608630 -69.193190 0.000000 0.000000 0.000000
0.513567 0.882769 0.925797 -2.706806 -5.184896 -9.947712 14.684965 0.442849 -1.478516 -12.410569 3.765148 24.452137 13.450839 27.178983 -0.571886 0.000000 0.000000 0.000000 -12.343160 0.159682 -15.203705 9.491689 -1.540266 20.406377 -8.011939 -20.302436 17.283382 0.000000 0.000000 0.000000 -3.822917 -0.081739 17.465067 6.809405 -1.446683 -22.401064 0.452602 2.327148 26.059238 2.076109 -0.650407 -14.486193 0.000000 0.000000 0.000000 -25.267531 -4.589858 1.636385 -33.096454 -12.177660 -2.783823 -16.402351 -56.567445 11.808357 0.000000 0.000000 0.000000 15.296657 10.525422 4.230065 35.780450 32.282664 3.563781 -106.222585 60.556487 -69.398550 0.000000 0.000000 0.000000
0.509795 0.881578 0.928438 -2.709636 -4.913706 -9.808857 14.898758 0.398290 -0.508827 -12.411979 3.568421 22.818259 13.277262 27.084234 -1.887748 0.000000 0.000000 0.000000 -12.297419 0.153062 -15.002199 9.734737 -1.636406 20.749408 -7.960685 -20.112172 15.295812 0.000000 0.000000 0.000000 -3.827984 -0.089621 17.269929 6.819470 -1.488407 -21.912312 0.503557 2.963205 25.839907 2.394787 -0.836500 -13.683665 0.000000 0.000000 0.000000 -25.507029 -4.564852 1.329790 -33.109048 -11.841227 -2.764174 -17.153518 -56.036709 11.951973 0.000000 0.000000 0.000000 14.977728 10.700580 4.459226 36.261187 33.091101 3.901732 -106.970606 59.011676 -67.868605 0.000000 0.000000 0.000000
0.506722 0.882343 0.930624 -2.751691 -4.756523 -9.593946 15.302116 0.346722 0.737332 -12.768373 3.430742 20.443812 13.080520 26.828050 -2.503267 0.000000 0.000000 0.000000 -11.909563 0.190723 -14.706401 9.472518 -1.572160 20.560379 -7.923767 -19.989439 14.173175 0.000000 0.000000 0.000000 -3.604306 -0.123237 16.858463 6.651855 -1.514002 -21.019357 0.516056 3.459886 25.572542 2.969562 -1.260667 -12.938025 0.000000 0.000000 0.000000 -25.636438 -4.739791 1.209345 -33.479798 -11.833267 -2.698949 -16.369260 -54.788213 11.136336 0.000000 0.000000 0.000000 14.721264 11.401969 4.897615 36.209487 34.319171 4.290437 -107.334311 57.386412 -66.019380 0.000000 0.000000 0.000000
0.504340 0.883968 0.931976 -2.817329 -4.612649 -9.189112 15.447686 0.307536 1.249341 -12.721122 3.246728 18.849976 12.984916 26.624497 -2.359042 0.000000 0.000000 0.000000 -11.861995 0.197896 -14.559485 9.751774 -1.640233 19.772922 -8.023868 -20.149454 14.300761 0.000000 0.000000 0.000000 -3.339297 -0.158828 16.485095 6.446344 -1.502481 -20.384341 0.461317 3.859439 25.314592 3.471309 -1.664162 -12.120290 0.000000 0.000000 0.000000 -25.510758 -4.998132 1.181775 -34.314136 -11.238424 -2.818204 -16.264574 -53.605503 10.748703 0.000000 0.000000 0.000000 14.845497 12.120861 5.350623 35.741783 35.211511 4.487974 -107.320186 56.482795 -64.752509 0.000000 0.000000 0.000000
0.502493 0.886041 0.932715 -2.999020 -4.657502 -8.771704 15.875510 0.288168 1.567118 -12.973523 3.196845 17.554190 12.930096 26.439447 -1.773955 0.000000 0.000000 0.000000 -11.610542 0.235584 -14.441535 9.902963 -1.653506 18.880395 -8.019135 -20.162808 14.640248 0.000000 0.000000 0.000000 -3.089359 -0.186863 16.208954 6.221030 -1.476803 -19.863227 0.751971 4.297416 24.791582 3.790307 -1.888045 -11.751366 0.000000 0.000000 0.000000 -25.696899 -5.194740 1.116757 -34.795952 -10.736762 -2.880533 -15.874903 -52.036929 10.127397 0.000000 0.000000 0.000000 14.536064 12.696866 5.675361 35.204063 36.019400 4.667279 -106.657428 55.730534 -63.143339 0.000000 0.000000 0.000000
0.500671 0.887914 0.933598 -3.006211 -4.393645 -8.329343 15.915393 0.258115 1.544498 -12.877197 3.065474 16.680219 12.830087 26.141236 -1.207238 0.000000 0.000000 0.000000 -11.835920 0.209960 -14.129861 10.448264 -1.770845 17.679876 -8.134878 -20.342849 14.949740 0.000000 0.000000 0.000000 -3.115723 -0.184880 15.783163 6.124663 -1.455321 -19.619664 0.739824 4.326880 24.671825 3.687744 -1.786154 -11.703565 0.000000 0.000000 0.000000 -25.754407 -5.118000 0.991794 -34.988798 -10.457712 -2.928391 -15.370263 -51.160030 9.661272 0.000000 0.000000 0.000000 14.734881 13.113526 5.938261 34.585436 36.525971 4.682477 -107.435000 55.485184 -63.512494 0.000000 0.000000 0.000000
0.498793 0.889071 0.935082 -2.973782 -4.151482 -8.012510 16.105718 0.232502 1.610350 -13.072090 3.034023 15.980212 12.703178 25.817924 -0.796469 0.000000 0.000000 0.000000 -12.043343 0.183629 -13.631139 10.900348 -1.848244 16.460167 -8.258599 -20.523648 14.949931 0.000000 0.000000 0.000000 -3.185191 -0.178265 15.287400 5.900897 -1.415731 -19.183689 1.010458 4.304090 24.601109 3.653589 -1.863142 -10.734039 0.000000 0.000000 0.000000 -26.288481 -5.107550 0.914079 -35.102294 -10.270637 -2.960329 -14.030102 -50.833246 8.942316 0.000000 0.000000 0.000000 14.499273 13.286959 6.023514 34.426758 36.592530 4.677348 -106.906923 55.749694 -63.294104 0.000000 0.000000 0.000000
0.496936 0.889863 0.937137 -2.876520 -3.505765 -7.677510 16.068579 0.179185 1.679196 -12.986849 2.886517 15.139981 12.465392 25.302484 -0.752503 0.000000 0.000000 0.000000 -12.197829 0.147177 -13.107480 11.019551 -1.868898 15.392083 -8.578773 -20.983936 14.851324 0.000000 0.000000 0.000000 -3.357494 -0.165680 14.840039 5.947281 -1.434986 -18.858625 0.954427 3.923132 24.458638 3.584916 -1.962060 -9.569398 0.000000 0.000000 0.000000 -26.932327 -4.903927 0.735031 -34.602831 -9.979368 -2.979027 -13.164948 -51.152446 8.567428 0.000000 0.000000 0.000000 14.703508 13.290238 6.052049 33.584139 36.409832 4.431091 -107.256848 56.412092 -64.474866 0.000000 0.000000 0.000000
0.495345 0.890265 0.939485 -2.824410 -2.699850 -7.484124 16.037404 0.124012 1.688710 -12.802080 2.738468 14.657647 12.171132 24.676645 -0.880867 0.000000 0.000000 0.000000 -12.518037 0.085031 -12.595891 11.438948 -1.981325 14.700315 -8.965242 -21.539058 14.799955 0.000000 0.000000 0.000000 -3.607308 -0.148088 14.473759 6.412644 -1.551301 -18.822467 0.767482 3.645121 24.661323 3.229547 -1.697675 -9.266507 0.000000 0.000000 0.000000 -27.344611 -4.890745 0.634981 -34.793201 -10.307226 -2.900999 -12.232148 -51.359797 8.146878 0.000000 0.000000 0.000000 14.330378 13.435754 6.133424 33.284233 36.243618 4.302593 -107.282587 56.336684 -64.336502 0.000000 0.000000 0.000000
0.494140 0.890799 0.941935 -2.811177 -2.172484 -7.449218 16.173133 0.089119 1.737235 -12.853719 2.703925 14.536753 11.942685 24.172635 -0.757178 0.000000 0.000000 0.000000 -12.343339 0.078864 -12.108075 11.112919 -1.918376 14.309037 -9.215464 -21.900062 14.634359 0.000000 0.000000 0.000000 -3.540180 -0.163973 14.188056 6.365376 -1.520433 -18.845096 0.799571 3.251488 24.619789 2.985579 -1.548926 -8.989033 0.000000 0.000000 0.000000 -27.334992 -4.428065 0.362994 -35.655223 -10.570748 -2.889132 -11.187595 -51.331862 7.683758 0.000000 0.000000 0.000000 13.897842 13.486286 6.093506 32.458159 35.723704 3.995289 -106.228052 56.080145 -63.247039 0.000000 0.000000 0.000000
0.493234 0.891245 0.944322 -2.642269 -1.545246 -7.343221 15.997725 0.058838 1.534587 -12.703875 2.635959 14.670376 11.719694 23.677753 -0.645541 0.000000 0.000000 0.000000 -12.374488 0.052258 -11.776960 10.788948 -1.868321 14.069222 -9.505580 -22.324164 14.497825 0.000000 0.000000 0.000000 -3.441898 -0.184832 14.252921 6.493007 -1.457807 -19.825023 0.324587 3.129545 24.990448 3.547160 -1.780686 -10.675054 0.000000 0.000000 0.000000 -27.236768 -4.650856 0.429449 -35.978696 -10.634099 -2.898488 -10.675296 -51.266525 7.410566 0.000000 0.000000 0.000000 14.421043 12.989252 5.976915 31.571630 35.464052 3.677177 -105.837051 55.943350 -62.664694 0.000000 0.000000 0.000000
0.492378 0.891001 0.946843 -2.745132 -1.255020 -7.177571 16.557571 0.025480 1.668660 -13.334266 2.735152 14.265983 11.551894 23.335348 -0.757412 0.000000 0.000000 0.000000 -12.239996 0.055033 -11.745723 10.773572 -1.886348 14.129400 -9.695446 -22.617693 14.265494 0.000000 0.000000 0.000000 -3.465790 -0.185765 14.172093 6.811016 -1.474902 -20.558873 0.630826 2.821868 25.336875 3.525127 -1.702285 -11.455434 0.000000 0.000000 0.000000 -27.864091 -4.393407 0.289632 -35.817799 -11.475930 -2.706861 -10.959429 -50.959099 7.521940 0.000000 0.000000 0.000000 13.686726 12.952927 5.868641 30.815570 35.816772 3.580747 -103.252210 55.587408 -60.076840 0.000000 0.000000 0.000000
0.491590 0.890896 0.949355 -2.429373 -0.561146 -6.866507 16.088629 0.009755 1.024263 -12.979844 2.648785 14.790772 11.378634 22.945670 -0.782265 0.000000 0.000000 0.000000 -12.061282 0.050161 -11.906041 9.775993 -1.706249 14.434426 -10.060495 -23.178110 13.941757 0.000000 0.000000 0.000000 -3.350493 -0.202074 13.892992 6.811504 -1.444881 -20.670272 0.204376 2.617415 24.996527 3.760700 -1.770056 -12.201332 0.000000 0.000000 0.000000 -27.041592 -4.580605 0.361576 -36.907425 -11.361842 -2.745747 -10.955208 -51.037235 7.527658 0.000000 0.000000 0.000000 14.135318 12.023286 5.517951 31.316996 35.078034 3.493105 -100.824029 57.786666 -60.236226 0.000000 0.000000 0.000000
0.490954 0.888542 0.951416 -2.853489 -0.908099 -5.771387 17.625035 0.018101 0.439241 -14.852342 3.064972 14.106359 11.496185 23.241272 -1.338930 0.000000 0.000000 0.000000 -11.625789 0.135647 -13.917561 9.944696 -1.800651 15.982632 -10.160494 -23.393495 13.500057 0.000000 0.000000 0.000000 -2.538916 -0.262164 12.886392 6.286409 -1.186984 -21.856244 0.460793 2.285247 25.633566 4.474464 -2.594424 -10.849936 0.000000 0.000000 0.000000 -26.859549 -3.743905 0.074407 -37.459926 -11.113006 -2.968689 -12.456331 -52.051814 8.588576 0.000000 0.000000 0.000000 14.371733 12.852033 5.882436 30.238461 33.739440 2.881859 -99.413059 59.391559 -60.982891 0.000000 0.000000 0.000000
0.490530 0.888013 0.952932 -2.508776 0.699078 -6.514404 16.985022 -0.045256 0.228367 -14.061258 2.869063 15.380679 10.951581 22.028967 -1.841418 0.000000 0.000000 0.000000 -12.316848 -0.033239 -13.282209 10.138438 -2.009737 17.122165 -10.784686 -24.296085 13.582572 0.000000 0.000000 0.000000 -1.837521 -0.364286 13.116319 5.772825 -1.130844 -20.355785 -0.705761 1.149935 24.742165 4.027020 -1.987753 -12.979219 0.000000 0.000000 0.000000 -25.444770 -4.773183 0.801221 -39.306608 -12.103106 -2.718397 -9.596085 -52.636505 7.365333 0.000000 0.000000 0.000000 14.029457 12.616586 5.710685 32.659612 31.287755 2.781989 -97.236637 61.923509 -61.598431 0.000000 0.000000 0.000000
