HIERARCHY
ROOT Hips
{
	OFFSET -0.001795 -0.223333 0.028219
	CHANNELS 6 Xposition Yposition Zposition Zrotation Yrotation Xrotation
	JOINT LeftUpLeg
	{
		OFFSET 0.069520 -0.091406 -0.006815
		CHANNELS 3 Zrotation Yrotation Xrotation
		JOINT LeftLeg
		{
			OFFSET 0.034277 -0.375199 -0.004496
			CHANNELS 3 Zrotation Yrotation Xrotation
			JOINT LeftFoot
			{
				OFFSET -0.013596 -0.397961 -0.043693
				CHANNELS 3 Zrotation Yrotation Xrotation
				JOINT LeftToe
				{
					OFFSET 0.026358 -0.055791 0.119288
					CHANNELS 3 Zrotation Yrotation Xrotation
					End Site
					{
						OFFSET 0.000000 0.000000 0.000000
					}
				}
			}
		}
	}
	JOINT RightUpLeg
	{
		OFFSET -0.067670 -0.090522 -0.004320
		CHANNELS 3 Zrotation Yrotation Xrotation
		JOINT RightLeg
		{
			OFFSET -0.038290 -0.382569 -0.008850
			CHANNELS 3 Zrotation Yrotation Xrotation
			JOINT RightFoot
			{
				OFFSET 0.015774 -0.398415 -0.042312
				CHANNELS 3 Zrotation Yrotation Xrotation
				JOINT RightToe
				{
					OFFSET -0.025372 -0.048144 0.123348
					CHANNELS 3 Zrotation Yrotation Xrotation
					End Site
					{
						OFFSET 0.000000 0.000000 0.000000
					}
				}
			}
		}
	}
	JOINT Spine
	{
		OFFSET -0.002533 0.108963 -0.026696
		CHANNELS 3 Zrotation Yrotation Xrotation
		JOINT Spine1
		{
			OFFSET 0.005487 0.135180 0.001092
			CHANNELS 3 Zrotation Yrotation Xrotation
			JOINT Spine2
			{
				OFFSET 0.001457 0.052922 0.025425
				CHANNELS 3 Zrotation Yrotation Xrotation
				JOINT Neck
				{
					OFFSET -0.002778 0.213870 -0.042857
					CHANNELS 3 Zrotation Yrotation Xrotation
					JOINT Head
					{
						OFFSET 0.005152 0.064970 0.051349
						CHANNELS 3 Zrotation Yrotation Xrotation
						End Site
						{
							OFFSET 0.000000 0.000000 0.000000
						}
					}
				}
				JOINT LeftShoulder
				{
					OFFSET 0.078845 0.121749 -0.034090
					CHANNELS 3 Zrotation Yrotation Xrotation
					JOINT LeftArm
					{
						OFFSET 0.090977 0.030469 -0.008868
						CHANNELS 3 Zrotation Yrotation Xrotation
						JOINT LeftForeArm
						{
							OFFSET 0.259612 -0.012772 -0.027456
							CHANNELS 3 Zrotation Yrotation Xrotation
							JOINT LeftHand
							{
								OFFSET 0.249234 0.008986 -0.001171
								CHANNELS 3 Zrotation Yrotation Xrotation
								End Site
								{
									OFFSET 0.000000 0.000000 0.000000
								}
							}
						}
					}
				}
				JOINT RightShoulder
				{
					OFFSET -0.081759 0.118833 -0.038615
					CHANNELS 3 Zrotation Yrotation Xrotation
					JOINT RightArm
					{
						OFFSET -0.096012 0.032551 -0.009143
						CHANNELS 3 Zrotation Yrotation Xrotation
						JOINT RightForeArm
						{
							OFFSET -0.253742 -0.013329 -0.021401
							CHANNELS 3 Zrotation Yrotation Xrotation
							JOINT RightHand
							{
								OFFSET -0.255298 0.007772 -0.005559
								CHANNELS 3 Zrotation Yrotation Xrotation
								End Site
								{
									OFFSET 0.000000 0.000000 0.000000
								}
							}
						}
					}
				}
			}
		}
	}
}
MOTION
Frames: 68
Frame Time: 0.050000
0.000000 0.860079 0.000000 -5.351002 -3.976116 -2.514114 28.703483 1.841388 -9.447389 -12.450298 3.788244 25.973725 12.394350 24.793988 1.742169 0.000000 0.000000 0.000000 -16.069406 -0.207923 -21.061415 8.895568 -1.615984 25.691189 -0.521228 -2.372220 2.016665 0.000000 0.000000 0.000000 1.707091 -1.316593 25.996001 -10.743755 3.256009 -22.966119 -2.940581 5.643531 20.305364 18.370854 -11.557396 -16.186881 0.000000 0.000000 0.000000 -24.057380 -22.696654 10.621988 -27.069913 -5.719349 -2.752299 1.156616 -22.067231 0.470898 0.000000 0.000000 0.000000 27.413036 12.890757 7.785762 26.779763 48.174374 5.352000 9.580846 75.054749 11.765134 0.000000 0.000000 0.000000
0.000598 0.859068 -0.003819 -5.270499 -6.548584 -2.172496 30.898203 2.445436 -9.257846 -16.153899 5.553521 26.526677 12.979196 25.703428 3.161669 0.000000 0.000000 0.000000 -16.075250 -0.012099 -24.298199 8.979234 -1.428239 28.637353 0.630279 -0.308946 3.196581 0.000000 0.000000 0.000000 2.200491 -1.214366 24.218634 -11.891416 3.591130 -21.882909 -3.598043 6.256958 18.921180 19.118044 -13.453382 -11.950511 0.000000 0.000000 0.000000 -27.490836 -22.642362 11.273998 -23.889893 -4.389472 -2.617602 4.229375 -20.558565 -0.097881 0.000000 0.000000 0.000000 28.112248 14.315269 8.435800 28.225249 46.693152 5.650438 5.579012 73.662791 8.324780 0.000000 0.000000 0.000000
0.001173 0.855943 -0.007547 -4.865796 -4.653120 -2.602362 30.778711 2.368369 -10.432395 -16.110080 5.471885 27.825904 11.599814 23.376755 1.160608 0.000000 0.000000 0.000000 -16.125308 -0.205002 -23.341835 7.536832 -1.117468 28.583674 0.193316 -0.597615 1.915065 0.000000 0.000000 0.000000 2.027392 -1.267992 24.193010 -9.858968 3.258884 -19.074278 -4.783966 3.199223 16.490090 19.411878 -13.967010 -10.944740 0.000000 0.000000 0.000000 -27.661766 -21.531099 11.148306 -24.956667 -4.402270 -2.752264 5.544497 -18.916639 -0.271007 0.000000 0.000000 0.000000 29.295651 15.833716 8.772787 27.205537 47.411995 5.785582 5.492593 70.660159 7.244484 0.000000 0.000000 0.000000
0.001675 0.853985 -0.010981 -4.982120 -4.693836 -3.174212 31.560158 2.484818 -10.386853 -16.192466 5.680914 29.215196 10.176220 20.741193 -0.331470 0.000000 0.000000 0.000000 -16.686036 -0.311993 -23.177775 7.513097 -1.107373 28.865371 1.421106 2.236175 2.218481 0.000000 0.000000 0.000000 3.284751 -1.505930 23.747897 -11.608073 3.891541 -18.193238 -4.811541 2.106086 16.422923 19.453289 -13.756424 -11.822640 0.000000 0.000000 0.000000 -28.074384 -21.495923 11.556906 -22.786201 -4.262850 -2.606261 5.429938 -17.721267 -0.240093 0.000000 0.000000 0.000000 27.985810 15.455408 7.924353 28.838786 48.020432 6.633376 4.649847 69.451710 6.275215 0.000000 0.000000 0.000000
0.002045 0.853153 -0.013339 -4.764128 -4.129278 -4.021639 30.946665 2.392708 -10.579443 -15.211001 5.397073 30.797167 9.488939 19.365892 -1.354157 0.000000 0.000000 0.000000 -16.749420 -0.383648 -22.348257 7.050295 -0.995476 29.241689 1.276340 2.231558 1.660087 0.000000 0.000000 0.000000 3.348761 -1.546355 23.903141 -10.417147 3.633957 -17.113612 -5.489179 2.299962 16.005176 19.925781 -13.974965 -11.964814 0.000000 0.000000 0.000000 -28.989800 -21.699180 11.545913 -21.547020 -4.919679 -2.320594 5.220294 -17.797150 -0.216148 0.000000 0.000000 0.000000 28.009556 15.522226 8.173223 27.610179 47.635829 6.102867 -1.175349 68.590386 2.251548 0.000000 0.000000 0.000000
0.002224 0.852367 -0.014763 -4.841687 -4.217354 -4.501062 31.288165 2.429815 -10.374562 -15.150007 5.509584 31.886143 8.791851 17.912765 -2.459819 0.000000 0.000000 0.000000 -16.593064 -0.357078 -22.017919 6.867179 -0.916489 29.548888 1.337625 2.622578 1.277169 0.000000 0.000000 0.000000 3.496339 -1.545941 23.513314 -10.260577 3.619344 -16.756264 -5.239197 2.216455 16.277114 20.383790 -14.098846 -12.781563 0.000000 0.000000 0.000000 -28.915482 -21.641086 11.552678 -21.669517 -5.194379 -2.316206 5.295355 -18.338167 -0.236507 0.000000 0.000000 0.000000 27.208271 15.341956 7.912301 27.093966 47.350785 5.852918 -2.538901 67.293053 1.220079 0.000000 0.000000 0.000000
0.002412 0.852659 -0.015706 -4.734546 -4.320393 -4.901749 30.789054 2.430543 -10.495406 -14.655456 5.442551 32.936089 8.908797 18.148334 -2.520642 0.000000 0.000000 0.000000 -16.221561 -0.291766 -21.621908 6.667167 -0.827634 29.488239 0.797113 1.390826 1.070619 0.000000 0.000000 0.000000 3.372241 -1.474006 22.884174 -9.791667 3.530110 -15.939373 -5.209794 2.276468 15.736877 19.803620 -13.861683 -11.972540 0.000000 0.000000 0.000000 -28.838880 -21.266219 11.244938 -21.864738 -4.850517 -2.353666 5.077921 -19.860442 -0.221061 0.000000 0.000000 0.000000 27.396422 15.225118 7.832734 26.591288 45.575318 5.333425 -3.595796 67.215578 0.462659 0.000000 0.000000 0.000000
0.002741 0.851483 -0.016689 -4.675956 -4.444011 -5.691744 30.554956 2.501527 -10.722058 -14.355390 5.476467 34.282183 9.236579 18.821635 -1.682031 0.000000 0.000000 0.000000 -15.916201 -0.252227 -21.301058 6.300765 -0.667272 30.315340 0.576403 1.073462 0.673967 0.000000 0.000000 0.000000 3.284946 -1.462805 23.224313 -9.204571 3.352526 -15.828488 -5.289060 2.441572 15.507265 19.977435 -13.701178 -12.815561 0.000000 0.000000 0.000000 -28.920136 -20.816589 10.876217 -21.554886 -4.126473 -2.403420 4.781403 -21.580930 -0.192176 0.000000 0.000000 0.000000 27.791123 15.133545 7.831615 25.668154 43.779280 4.674936 -2.034084 66.651735 1.389772 0.000000 0.000000 0.000000
0.003249 0.850040 -0.018183 -4.679149 -4.450035 -6.124575 30.447585 2.563140 -11.014235 -14.621746 5.697033 35.167147 9.893477 20.125067 -1.459809 0.000000 0.000000 0.000000 -15.747677 -0.245100 -21.535840 6.107639 -0.588916 30.670191 0.582103 0.520249 1.632229 0.000000 0.000000 0.000000 3.225023 -1.450428 23.289244 -9.072125 3.304072 -16.021041 -5.147073 2.576662 15.723003 19.853712 -13.448973 -13.381597 0.000000 0.000000 0.000000 -29.143748 -20.623127 10.729370 -21.438845 -3.835023 -2.430983 4.488430 -23.199442 -0.155783 0.000000 0.000000 0.000000 28.350445 14.581838 7.570113 25.113080 41.364551 4.002450 1.084114 66.733369 3.378889 0.000000 0.000000 0.000000
0.003833 0.847099 -0.020014 -4.559668 -4.326216 -6.660381 30.296958 2.635784 -11.485431 -14.715419 5.874232 36.491465 10.228333 20.769815 -1.552375 0.000000 0.000000 0.000000 -15.639884 -0.266234 -22.067402 6.088968 -0.580803 31.806732 0.109706 -0.973199 2.254635 0.000000 0.000000 0.000000 3.014097 -1.436575 23.787010 -8.789152 3.212557 -16.180493 -5.178718 2.762023 15.760419 19.917008 -13.029198 -14.800764 0.000000 0.000000 0.000000 -29.325620 -20.163668 10.335800 -21.020208 -3.575393 -2.406977 3.810418 -24.978783 -0.030487 0.000000 0.000000 0.000000 29.409728 14.236982 7.530099 24.115346 38.906018 3.251821 2.096439 66.045512 3.943157 0.000000 0.000000 0.000000
0.004374 0.844200 -0.021631 -4.525356 -3.736658 -7.049872 30.389755 2.748318 -12.469543 -14.690129 5.940870 38.127307 10.001036 20.280830 -1.593849 0.000000 0.000000 0.000000 -15.934907 -0.393468 -22.510757 6.034335 -0.622279 32.794453 0.264392 -1.038269 3.119912 0.000000 0.000000 0.000000 3.244930 -1.507043 23.747423 -8.943115 3.298487 -16.058806 -5.017111 2.598696 15.919552 19.591056 -12.765544 -14.943924 0.000000 0.000000 0.000000 -29.651503 -20.168864 10.314812 -20.414143 -3.575564 -2.335485 3.636015 -26.013307 -0.001479 0.000000 0.000000 0.000000 29.909119 13.732921 7.305553 24.428871 35.957598 2.769905 5.791195 65.789364 6.285724 0.000000 0.000000 0.000000
0.004579 0.840281 -0.022664 -4.503824 -2.967455 -7.620901 30.583360 2.828846 -13.325469 -15.033128 6.128357 39.710091 10.066945 20.365636 -1.784701 0.000000 0.000000 0.000000 -16.460209 -0.593180 -22.916857 6.083739 -0.734646 34.260857 0.634348 -0.525255 3.866876 0.000000 0.000000 0.000000 2.995205 -1.507043 23.998758 -8.329054 3.116995 -16.248495 -4.937615 2.730729 16.117805 19.848984 -12.555924 -16.138930 0.000000 0.000000 0.000000 -29.906253 -19.938378 9.966785 -19.903191 -4.011348 -2.196748 2.955518 -26.645927 0.146297 0.000000 0.000000 0.000000 31.251356 13.325224 7.370783 24.293941 33.320082 2.206442 9.118947 63.831667 8.123012 0.000000 0.000000 0.000000
0.004302 0.836389 -0.022923 -4.488491 -2.188224 -8.156003 30.837091 2.921942 -14.235958 -15.065854 6.187503 41.626895 9.634509 19.455310 -2.163490 0.000000 0.000000 0.000000 -16.556449 -0.732966 -23.592956 6.016175 -0.813425 36.068356 0.395093 -1.541825 4.901746 0.000000 0.000000 0.000000 2.927953 -1.534289 24.051748 -8.060483 3.066142 -16.187801 -4.901068 2.609193 16.253368 19.880940 -12.506356 -16.411612 0.000000 0.000000 0.000000 -30.032364 -20.352125 10.131066 -19.441169 -3.806625 -2.157803 3.254639 -27.325278 0.069140 0.000000 0.000000 0.000000 32.204034 12.847608 7.254949 25.409925 30.114651 1.780767 12.488364 62.148738 9.906889 0.000000 0.000000 0.000000
0.003487 0.832118 -0.022352 -4.590248 -1.107257 -8.722970 31.081279 2.947224 -15.092195 -15.046366 6.108518 43.398382 9.298749 18.701350 -2.862796 0.000000 0.000000 0.000000 -16.668227 -0.905221 -23.925949 6.077914 -1.021218 38.085635 -0.021029 -2.470994 5.018674 0.000000 0.000000 0.000000 2.864326 -1.580572 24.121329 -7.290389 2.851904 -16.204834 -5.080388 2.638452 16.296313 19.891210 -12.140375 -17.433639 0.000000 0.000000 0.000000 -30.523955 -20.169693 9.770055 -18.616740 -4.460648 -1.948670 3.041389 -27.944144 0.109402 0.000000 0.000000 0.000000 33.477213 12.336501 7.295267 26.166314 27.493002 1.319734 15.194862 59.367860 10.956452 0.000000 0.000000 0.000000
0.002198 0.827688 -0.021119 -4.665242 -0.234913 -9.438849 30.971521 2.937613 -15.808545 -14.444794 5.718104 45.050738 9.154723 18.368949 -2.841004 0.000000 0.000000 0.000000 -16.589914 -1.019664 -24.146456 5.959195 -1.134838 39.979219 -0.496794 -3.606393 5.325872 0.000000 0.000000 0.000000 2.714077 -1.601880 24.221075 -7.278788 2.912873 -15.791472 -4.574766 2.161771 16.145259 19.168994 -11.692596 -17.262321 0.000000 0.000000 0.000000 -30.692207 -20.347513 9.895666 -18.070176 -5.417919 -1.787480 3.632234 -28.220421 -0.039267 0.000000 0.000000 0.000000 33.981549 12.127713 7.154276 27.287216 25.204057 1.026850 16.871144 56.532399 11.198698 0.000000 0.000000 0.000000
0.000676 0.823199 -0.019340 -4.915199 0.680416 -10.251285 31.073421 2.811276 -15.773665 -13.990687 5.318259 46.360577 8.892730 17.641607 -4.558895 0.000000 0.000000 0.000000 -16.435384 -1.113738 -24.062900 5.940915 -1.335587 41.891775 -0.952742 -4.489072 5.136849 0.000000 0.000000 0.000000 2.775331 -1.669349 24.321550 -6.762708 2.780598 -15.884899 -4.745712 2.084648 16.691617 19.357608 -11.752793 -17.636930 0.000000 0.000000 0.000000 -30.769807 -20.588530 9.878973 -17.379185 -6.239704 -1.630957 3.926666 -28.864029 -0.133765 0.000000 0.000000 0.000000 34.947839 11.774812 7.213727 28.238376 23.946826 0.764637 16.904464 53.942167 10.648187 0.000000 0.000000 0.000000
-0.000690 0.819441 -0.017468 -5.153957 0.975789 -10.969277 31.090218 2.743718 -15.529216 -13.555265 5.046884 47.526984 9.024559 17.789684 -5.745509 0.000000 0.000000 0.000000 -16.174190 -1.111632 -23.974306 5.789950 -1.351865 43.279279 -1.038288 -4.596995 4.962335 0.000000 0.000000 0.000000 2.779125 -1.693482 24.397879 -6.647380 2.769607 -15.747943 -4.629243 1.924854 16.835588 19.535120 -11.918924 -17.652694 0.000000 0.000000 0.000000 -30.439857 -21.047919 10.136314 -17.169327 -6.740997 -1.568924 4.192959 -29.165289 -0.212222 0.000000 0.000000 0.000000 35.076905 11.344764 6.918943 29.370204 22.853994 0.617990 15.997054 52.414602 9.864908 0.000000 0.000000 0.000000
-0.001549 0.814482 -0.015892 -5.259181 0.865842 -11.660461 31.297629 2.772613 -15.274849 -13.339439 4.992984 48.732509 9.105628 17.885817 -6.566036 0.000000 0.000000 0.000000 -15.999874 -1.113948 -24.578016 5.407544 -1.152436 44.939712 -0.662931 -4.185070 6.072922 0.000000 0.000000 0.000000 2.840909 -1.700542 24.447918 -6.371181 2.682834 -15.870000 -4.654216 1.908922 17.104061 19.998627 -12.212690 -17.917550 0.000000 0.000000 0.000000 -30.145324 -21.419666 10.370322 -17.033185 -7.077279 -1.537275 4.277259 -29.387400 -0.242890 0.000000 0.000000 0.000000 35.335544 11.003638 6.665460 30.248131 22.587038 0.616223 14.060781 51.492361 8.752414 0.000000 0.000000 0.000000
-0.001673 0.810608 -0.014860 -5.226228 0.585485 -12.243005 31.214687 2.840004 -15.291697 -13.270532 5.092474 50.094018 9.512675 18.800173 -6.627732 0.000000 0.000000 0.000000 -15.991216 -1.124810 -25.141280 5.130551 -0.943910 46.074868 -0.225722 -3.832121 7.592678 0.000000 0.000000 0.000000 2.992775 -1.736147 24.767351 -6.443509 2.682725 -16.587941 -4.694430 1.772081 17.791281 20.377407 -12.536609 -18.168081 0.000000 0.000000 0.000000 -29.853209 -21.982166 10.848653 -16.987248 -7.444148 -1.544917 4.443479 -29.457815 -0.293594 0.000000 0.000000 0.000000 35.567446 10.730651 6.372382 30.605920 22.649367 0.637885 12.300391 51.563144 7.925759 0.000000 0.000000 0.000000
-0.001361 0.806902 -0.014223 -5.148053 0.111685 -12.608470 31.035216 2.856702 -14.959953 -12.897305 5.045845 50.959411 9.634923 19.045612 -7.461305 0.000000 0.000000 0.000000 -15.794284 -1.055283 -25.605613 4.631149 -0.550580 46.916759 0.080735 -3.383175 8.015859 0.000000 0.000000 0.000000 3.079036 -1.692683 24.378942 -6.256092 2.609727 -16.402144 -4.915425 1.613278 18.181278 20.608413 -12.590103 -18.757261 0.000000 0.000000 0.000000 -29.594596 -22.553430 11.366032 -16.749300 -7.546608 -1.556460 4.256239 -29.262469 -0.246836 0.000000 0.000000 0.000000 35.355349 10.772295 6.216623 31.008384 23.050546 0.790206 10.028969 52.243585 6.949153 0.000000 0.000000 0.000000
-0.001014 0.804781 -0.013601 -5.198556 -0.437462 -12.894601 30.929541 2.868329 -14.520797 -12.690540 5.077862 51.290788 10.035972 19.971871 -7.749695 0.000000 0.000000 0.000000 -15.681213 -0.990955 -26.018622 4.402544 -0.293974 46.866241 0.748252 -2.878857 10.133392 0.000000 0.000000 0.000000 3.391457 -1.680614 23.872330 -6.219237 2.608671 -15.714351 -5.045301 1.310720 18.101393 20.982340 -12.882070 -18.791693 0.000000 0.000000 0.000000 -29.219128 -23.196698 11.951005 -16.904339 -7.386998 -1.613119 4.230472 -28.634747 -0.227086 0.000000 0.000000 0.000000 35.060476 11.099014 6.157853 31.066345 23.898358 1.086736 7.886686 51.990843 5.824857 0.000000 0.000000 0.000000
-0.000977 0.803193 -0.012696 -5.097740 -0.997680 -13.172372 31.042097 2.890247 -13.948948 -12.710439 5.233340 51.306644 10.143937 20.245210 -7.758247 0.000000 0.000000 0.000000 -15.524653 -0.909910 -26.415316 4.086182 0.025978 47.101711 1.196036 -2.648489 11.680642 0.000000 0.000000 0.000000 3.509487 -1.627562 23.333355 -6.232272 2.601801 -15.573152 -5.195449 0.943689 18.552649 21.294471 -12.965739 -19.522062 0.000000 0.000000 0.000000 -28.455998 -23.424136 12.258568 -17.115773 -7.531467 -1.676761 4.229514 -28.790946 -0.227310 0.000000 0.000000 0.000000 34.352519 11.444386 6.075420 31.953997 24.760556 1.440645 5.744510 51.642169 4.743847 0.000000 0.000000 0.000000
-0.001416 0.802147 -0.011582 -5.108848 -1.502171 -13.540886 31.293132 2.902360 -13.273255 -12.565703 5.243581 51.187614 10.097879 20.162215 -7.589099 0.000000 0.000000 0.000000 -15.103542 -0.777155 -26.853107 3.895643 0.254786 47.420005 1.160276 -3.641513 14.060404 0.000000 0.000000 0.000000 3.386407 -1.561791 23.090994 -5.779705 2.434914 -15.354867 -5.534234 0.945512 18.440695 21.325590 -13.057653 -19.329346 0.000000 0.000000 0.000000 -28.215953 -23.516373 12.356540 -16.972083 -7.146683 -1.711341 4.128845 -29.304389 -0.209262 0.000000 0.000000 0.000000 34.290303 11.643915 6.092902 31.765854 25.636112 1.680808 5.152218 51.588214 4.419831 0.000000 0.000000 0.000000
-0.002241 0.800413 -0.010353 -4.916892 -2.119010 -13.898929 31.413771 2.971052 -12.864004 -12.265766 5.232850 51.431702 9.941197 19.855190 -6.848844 0.000000 0.000000 0.000000 -14.955940 -0.688445 -27.243902 3.719623 0.523692 47.804402 1.363130 -3.890580 15.612957 0.000000 0.000000 0.000000 3.306820 -1.502053 22.949077 -5.934018 2.477458 -15.240372 -5.699465 0.392971 18.554480 21.220018 -13.016042 -19.499614 0.000000 0.000000 0.000000 -28.046229 -23.109470 12.398268 -16.230349 -7.256657 -1.695283 3.575759 -29.396936 -0.070506 0.000000 0.000000 0.000000 33.609602 12.075702 5.952908 32.015300 26.598009 2.065844 5.218568 51.135563 4.309224 0.000000 0.000000 0.000000
-0.003164 0.798410 -0.009249 -4.739901 -2.611909 -14.177740 31.186878 2.933280 -12.270354 -11.496144 4.884537 51.419433 9.717045 19.376013 -6.945176 0.000000 0.000000 0.000000 -14.754851 -0.593951 -27.473591 3.605956 0.731962 48.327498 1.096723 -4.422753 15.657668 0.000000 0.000000 0.000000 3.310539 -1.469530 22.864070 -6.190546 2.554229 -15.247462 -5.909762 0.305834 18.608815 21.161833 -12.954020 -19.673024 0.000000 0.000000 0.000000 -27.886285 -23.367506 12.664306 -15.769410 -7.061742 -1.692584 3.501812 -30.005932 -0.060704 0.000000 0.000000 0.000000 33.266299 12.351623 5.968389 31.922440 27.861788 2.414553 4.698037 50.120110 3.921417 0.000000 0.000000 0.000000
-0.003931 0.796340 -0.008271 -4.639638 -2.968288 -14.387960 30.935118 2.883376 -11.782065 -10.731407 4.531197 51.818718 9.405345 18.651108 -7.853806 0.000000 0.000000 0.000000 -14.368419 -0.470803 -28.043612 3.308326 1.015253 48.913903 0.765282 -5.551627 17.256730 0.000000 0.000000 0.000000 3.412025 -1.489775 23.180212 -6.604738 2.670006 -15.799325 -6.089714 0.098764 18.901342 21.189968 -12.969864 -19.932885 0.000000 0.000000 0.000000 -28.005725 -23.338829 12.826494 -14.729189 -7.049792 -1.636814 3.324689 -30.031919 -0.028884 0.000000 0.000000 0.000000 32.853968 12.649697 5.989557 31.628621 28.587163 2.578610 5.197966 49.320914 4.015338 0.000000 0.000000 0.000000
-0.004669 0.795211 -0.007215 -4.495628 -3.169865 -14.481060 30.852585 2.876990 -11.573826 -10.134379 4.218434 51.884240 8.948952 17.610866 -7.821177 0.000000 0.000000 0.000000 -14.446182 -0.468036 -28.111924 3.388240 1.049634 49.437798 0.715348 -5.336285 16.251021 0.000000 0.000000 0.000000 3.564815 -1.516571 23.408331 -7.086897 2.831798 -15.988586 -6.239961 -0.134117 18.938487 21.130393 -12.912630 -20.112902 0.000000 0.000000 0.000000 -27.539066 -23.488918 12.956455 -14.315469 -7.149462 -1.611077 3.226748 -30.447679 -0.010194 0.000000 0.000000 0.000000 32.506229 12.748640 5.887834 31.279319 28.729300 2.603263 5.862447 49.080013 4.232247 0.000000 0.000000 0.000000
-0.005563 0.793600 -0.005889 -4.290074 -3.328565 -14.312664 30.888465 2.866022 -11.347054 -9.642353 3.943949 51.403334 8.347452 16.200481 -8.030286 0.000000 0.000000 0.000000 -14.411777 -0.439809 -28.837598 3.427708 1.096048 49.989296 0.179438 -6.538973 17.125819 0.000000 0.000000 0.000000 3.225196 -1.475505 23.859151 -7.040711 2.795384 -16.225294 -6.634043 -0.304062 18.508173 20.715656 -12.441715 -20.560355 0.000000 0.000000 0.000000 -27.522085 -23.028953 12.732322 -13.763787 -7.385049 -1.546619 2.794762 -31.106846 0.103742 0.000000 0.000000 0.000000 32.599172 12.718086 5.737347 30.884435 28.272090 2.501401 7.444029 49.177750 4.897273 0.000000 0.000000 0.000000
-0.006940 0.792531 -0.004258 -4.268050 -3.497956 -14.228500 30.794313 2.797575 -10.895493 -9.324953 3.769601 50.920368 8.410871 16.309960 -8.548551 0.000000 0.000000 0.000000 -14.243834 -0.376887 -28.966284 3.237003 1.233239 49.640188 0.191814 -6.805556 18.045909 0.000000 0.000000 0.000000 3.056380 -1.460009 24.230898 -7.385631 2.901723 -16.393544 -6.507633 -0.640743 18.434373 20.294921 -12.153898 -20.668655 0.000000 0.000000 0.000000 -27.401251 -23.134581 12.934504 -13.403505 -7.387013 -1.535491 2.914166 -31.871232 0.067485 0.000000 0.000000 0.000000 32.202100 12.841463 5.605480 30.495111 27.511622 2.326185 8.303152 49.767070 5.290070 0.000000 0.000000 0.000000
-0.008787 0.791478 -0.002583 -4.215083 -3.410697 -13.932891 30.887073 2.740849 -10.665476 -8.987572 3.527321 50.412142 7.982604 15.168060 -9.422739 0.000000 0.000000 0.000000 -14.240105 -0.380752 -29.575333 3.139891 1.275991 49.884321 0.340340 -6.919169 19.346502 0.000000 0.000000 0.000000 2.615938 -1.431523 25.028169 -7.575325 2.942585 -16.868623 -6.726357 -0.825075 18.223878 20.248719 -11.873757 -21.400372 0.000000 0.000000 0.000000 -27.225600 -22.772598 12.706767 -13.010796 -7.693795 -1.482315 3.130788 -33.054241 -0.000249 0.000000 0.000000 0.000000 32.218331 12.481996 5.288968 29.757960 26.810247 2.096464 10.344023 49.736791 6.167771 0.000000 0.000000 0.000000
-0.010936 0.792554 -0.000932 -4.264025 -3.435372 -13.581028 30.693817 2.684678 -10.558260 -8.452114 3.199302 49.807372 7.935764 15.088552 -9.285094 0.000000 0.000000 0.000000 -13.778032 -0.252510 -30.169086 3.073627 1.296013 49.694144 -0.503972 -8.901893 21.906944 0.000000 0.000000 0.000000 2.441066 -1.427005 25.520848 -7.970715 3.048633 -17.221865 -7.004814 -0.855149 18.276525 20.484980 -11.851582 -21.980520 0.000000 0.000000 0.000000 -27.179671 -22.806570 12.741339 -12.513700 -8.204901 -1.415874 4.000373 -34.232936 -0.273126 0.000000 0.000000 0.000000 31.712626 12.723182 5.435206 29.108889 26.174761 1.870228 11.613508 49.572777 6.698594 0.000000 0.000000 0.000000
-0.013088 0.793758 0.000753 -4.165500 -3.205933 -13.027931 30.548328 2.668011 -10.894125 -8.208276 3.012327 49.398955 7.713906 14.588343 -9.001277 0.000000 0.000000 0.000000 -13.652235 -0.233045 -30.924455 3.190148 1.153899 49.572065 -1.029536 -8.646080 17.480710 0.000000 0.000000 0.000000 2.208899 -1.422891 26.038563 -8.667187 3.279587 -17.357417 -7.125831 -1.208501 17.648447 20.626251 -11.707548 -22.512838 0.000000 0.000000 0.000000 -26.998509 -22.570105 12.615694 -12.359911 -8.978403 -1.354252 4.142256 -35.736549 -0.322254 0.000000 0.000000 0.000000 30.781174 12.889884 5.401259 28.273950 26.093388 1.816500 12.762053 49.440921 7.133472 0.000000 0.000000 0.000000
-0.015379 0.795982 0.002778 -4.115118 -3.148039 -12.462765 30.634015 2.663432 -10.997424 -8.024744 2.883462 48.591181 7.327980 13.773669 -8.331687 0.000000 0.000000 0.000000 -13.484875 -0.180213 -31.411164 3.446427 0.968195 49.337856 -1.045809 -6.238710 9.022779 0.000000 0.000000 0.000000 2.042606 -1.420989 26.564945 -9.040213 3.341680 -18.181123 -7.563949 -1.128155 17.778305 21.090733 -11.690127 -23.482100 0.000000 0.000000 0.000000 -26.838144 -22.659047 12.618578 -12.470008 -9.715854 -1.323203 4.986945 -36.946245 -0.614280 0.000000 0.000000 0.000000 30.134775 13.396261 5.781901 26.776022 26.715542 1.722573 12.898315 49.100052 7.115822 0.000000 0.000000 0.000000
-0.018077 0.797953 0.005322 -4.206197 -2.941443 -11.862106 31.283805 2.740756 -11.328514 -8.135076 2.885829 48.024253 6.572993 12.111501 -7.538483 0.000000 0.000000 0.000000 -13.518638 -0.202886 -31.825133 4.127764 0.496689 49.205058 -1.144589 -4.860925 4.636227 0.000000 0.000000 0.000000 1.941985 -1.439938 26.985702 -9.701376 3.541748 -18.389403 -7.633776 -1.435115 17.311557 21.216881 -11.657571 -23.671511 0.000000 0.000000 0.000000 -26.602493 -22.813551 12.717732 -12.772108 -10.569580 -1.288003 4.915766 -37.863654 -0.591318 0.000000 0.000000 0.000000 29.312653 13.709424 5.872872 25.834576 27.127112 1.718712 12.734875 49.424619 7.050050 0.000000 0.000000 0.000000
-0.021217 0.798514 0.009006 -4.302488 -2.608756 -11.076481 32.099123 2.864618 -11.958418 -8.531820 3.059129 47.886978 5.890265 10.566873 -7.152085 0.000000 0.000000 0.000000 -13.483663 -0.218683 -32.235284 4.622056 0.109447 49.200573 -1.048099 -3.349614 1.549563 0.000000 0.000000 0.000000 1.926735 -1.469494 27.091613 -10.011028 3.638573 -18.289220 -7.992247 -1.675479 16.665503 21.312177 -11.531660 -23.942858 0.000000 0.000000 0.000000 -26.268215 -23.403580 13.007302 -12.802274 -11.207685 -1.229301 4.487741 -38.124852 -0.436878 0.000000 0.000000 0.000000 28.806218 13.978536 6.012927 24.848345 28.337292 1.836039 12.441630 49.233003 6.869900 0.000000 0.000000 0.000000
-0.024332 0.796216 0.014493 -4.544434 -2.067442 -10.475433 33.088683 3.007212 -12.734239 -9.090404 3.286363 48.219119 5.575750 9.836303 -6.994784 0.000000 0.000000 0.000000 -13.536875 -0.297101 -32.753433 5.417381 -0.509150 49.914642 -0.710967 -1.753871 -0.076689 0.000000 0.000000 0.000000 1.805919 -1.495839 27.270597 -10.266425 3.661449 -19.068712 -8.054656 -1.387075 17.268103 21.392256 -11.229112 -25.044161 0.000000 0.000000 0.000000 -25.591518 -24.601439 13.466340 -12.663230 -12.525553 -1.140101 4.927273 -37.538088 -0.587605 0.000000 0.000000 0.000000 28.119177 14.284330 6.429371 23.764104 29.579976 1.778750 10.155356 49.856947 5.987143 0.000000 0.000000 0.000000
-0.026833 0.791223 0.022264 -4.578983 -1.921005 -10.103737 33.762595 3.157905 -13.272687 -9.408943 3.491721 48.958475 5.514477 9.775477 -6.682784 0.000000 0.000000 0.000000 -13.873842 -0.410001 -33.568658 6.580870 -1.260021 51.601159 -0.553072 -0.452432 -1.806707 0.000000 0.000000 0.000000 1.794255 -1.521557 27.563521 -10.730484 3.771310 -19.448090 -8.012824 -1.465720 17.312434 21.533347 -11.017556 -25.989995 0.000000 0.000000 0.000000 -25.371575 -25.398403 13.927067 -11.984007 -13.488151 -1.067829 4.777727 -36.623663 -0.527641 0.000000 0.000000 0.000000 27.438790 14.543747 6.560395 23.678083 30.960163 1.982168 8.445523 50.238156 5.270435 0.000000 0.000000 0.000000
-0.028236 0.785354 0.032418 -4.776165 -1.560199 -9.787936 34.176429 3.171800 -13.526222 -9.582686 3.562031 49.776467 5.977234 10.631235 -7.562259 0.000000 0.000000 0.000000 -13.967191 -0.493471 -34.229727 7.225015 -1.803061 53.172150 -0.656076 -0.086641 -2.989949 0.000000 0.000000 0.000000 1.874797 -1.546866 27.176092 -10.643390 3.734999 -19.535160 -8.056360 -1.539425 17.645386 21.192024 -10.619859 -26.622603 0.000000 0.000000 0.000000 -25.490690 -26.202161 14.438664 -11.544639 -14.243953 -1.027277 5.167414 -35.680418 -0.640371 0.000000 0.000000 0.000000 27.299009 15.343365 7.120787 22.621465 31.963628 1.925976 6.472854 49.572626 4.308536 0.000000 0.000000 0.000000
-0.028558 0.780059 0.044142 -4.818752 -1.412100 -9.874687 34.377638 3.193117 -13.627383 -9.548423 3.542147 50.665976 6.348439 11.704203 -6.742037 0.000000 0.000000 0.000000 -14.350413 -0.637763 -34.469041 8.088474 -2.449287 54.887731 -1.346406 -1.571108 -3.764243 0.000000 0.000000 0.000000 2.046082 -1.595665 27.157679 -10.709092 3.760272 -19.532457 -7.928754 -1.671485 17.748136 20.983947 -10.451191 -26.817860 0.000000 0.000000 0.000000 -25.908741 -26.710936 14.873716 -11.175981 -14.678799 -1.006181 6.202010 -34.356195 -0.929468 0.000000 0.000000 0.000000 26.997107 15.749717 7.337930 22.922390 32.988095 2.141315 4.185835 48.320206 3.196141 0.000000 0.000000 0.000000
-0.027901 0.778410 0.055912 -4.945695 -1.481504 -9.846259 34.536498 3.222695 -13.635305 -9.103142 3.313744 51.306374 6.125151 11.606380 -4.951492 0.000000 0.000000 0.000000 -14.274382 -0.598698 -34.189725 8.525506 -2.753914 55.787160 -2.033899 -3.038557 -4.659997 0.000000 0.000000 0.000000 2.193004 -1.623520 27.119669 -10.575921 3.714711 -19.538877 -7.972288 -1.757633 17.885038 21.242827 -10.473673 -27.356774 0.000000 0.000000 0.000000 -25.999283 -27.190957 15.244130 -10.630520 -14.592410 -1.008584 7.009714 -33.945809 -1.168164 0.000000 0.000000 0.000000 26.721698 16.385667 7.678649 22.843081 33.926936 2.275075 2.826994 47.784035 2.567829 0.000000 0.000000 0.000000
-0.026846 0.778311 0.066566 -5.145962 -1.520126 -9.362966 34.724745 3.321944 -14.076972 -9.039510 3.348999 52.118486 6.090732 11.882854 -3.394482 0.000000 0.000000 0.000000 -14.104079 -0.528586 -34.130374 8.980985 -3.084058 56.247670 -2.761342 -4.740309 -5.453821 0.000000 0.000000 0.000000 2.271059 -1.632615 26.947306 -10.368651 3.668801 -19.144510 -7.982849 -1.713916 17.354135 21.871452 -10.783308 -27.319924 0.000000 0.000000 0.000000 -25.780240 -27.493057 15.360423 -10.592748 -14.217287 -1.006854 8.219469 -34.026620 -1.528886 0.000000 0.000000 0.000000 27.225508 16.816784 7.997775 21.863520 34.558527 2.199677 1.675117 47.298697 2.046440 0.000000 0.000000 0.000000
-0.025874 0.777225 0.075754 -5.148778 -1.815428 -8.973263 34.818654 3.509855 -14.680563 -8.792221 3.369463 53.521329 5.664737 11.372974 -1.606288 0.000000 0.000000 0.000000 -14.254603 -0.516987 -34.339733 9.791844 -3.588162 57.192149 -3.443072 -6.295245 -6.424906 0.000000 0.000000 0.000000 2.256992 -1.627651 27.192280 -10.647102 3.707603 -19.460268 -7.609407 -1.588952 17.422145 22.148726 -10.886942 -27.564244 0.000000 0.000000 0.000000 -25.517962 -27.758088 15.507034 -9.668246 -14.067802 -1.000767 9.634345 -33.754193 -1.951951 0.000000 0.000000 0.000000 26.899820 17.015570 8.072136 21.707413 35.062943 2.232749 -0.117047 48.317466 1.319898 0.000000 0.000000 0.000000
-0.025310 0.772895 0.083837 -5.253050 -2.383185 -8.772012 35.300553 3.775859 -15.064077 -8.487933 3.399099 54.804231 5.144219 10.696908 0.160041 0.000000 0.000000 0.000000 -14.457600 -0.488233 -34.824382 10.715442 -4.094308 58.119443 -3.896165 -7.388918 -7.002481 0.000000 0.000000 0.000000 2.094139 -1.586374 27.753472 -10.503752 3.598675 -19.991236 -7.648337 -1.313623 17.817682 22.544319 -10.984555 -28.158865 0.000000 0.000000 0.000000 -24.506732 -27.874580 15.359957 -8.889384 -13.489659 -1.006580 11.873291 -33.364421 -2.609645 0.000000 0.000000 0.000000 26.561565 16.993040 8.026127 21.856312 35.997074 2.371968 -1.646663 49.731507 0.687045 0.000000 0.000000 0.000000
-0.025061 0.766344 0.091168 -5.704224 -2.503683 -8.589141 36.034274 3.971247 -15.387012 -8.239963 3.307831 55.993249 5.057804 10.485229 -0.000631 0.000000 0.000000 0.000000 -14.728104 -0.556774 -35.338377 11.863009 -4.963959 59.247407 -4.282713 -8.280530 -7.730015 0.000000 0.000000 0.000000 1.741420 -1.544610 28.472548 -10.374017 3.542592 -20.115381 -6.956298 -1.464040 17.857841 21.835977 -10.528080 -28.392351 0.000000 0.000000 0.000000 -24.118504 -27.614040 15.198652 -7.460198 -13.405119 -0.978532 13.859832 -32.439066 -3.118430 0.000000 0.000000 0.000000 25.735696 16.700260 7.677586 22.692874 36.921029 2.712499 -3.744510 51.894755 -0.276252 0.000000 0.000000 0.000000
-0.024633 0.758481 0.097834 -5.859078 -2.457017 -8.481839 36.850039 4.240311 -16.063131 -7.935776 3.128728 57.198046 4.032843 8.679981 1.023319 0.000000 0.000000 0.000000 -15.550673 -0.829816 -36.196657 12.954731 -5.898478 60.710406 -4.387684 -8.598450 -7.771445 0.000000 0.000000 0.000000 1.306977 -1.502777 29.588211 -10.006344 3.348013 -21.218343 -6.795321 -1.653428 18.624778 22.048079 -10.552114 -29.107474 0.000000 0.000000 0.000000 -23.899211 -26.992194 14.868185 -6.111978 -13.253011 -0.962663 15.429411 -30.552813 -3.374389 0.000000 0.000000 0.000000 25.750403 16.360798 7.423327 24.109911 37.939918 3.171866 -6.788659 54.287875 -1.780827 0.000000 0.000000 0.000000
-0.023346 0.752253 0.103847 -6.237159 -2.177502 -8.099466 37.737857 4.415637 -16.570121 -8.000571 3.108652 57.543617 3.577881 7.779877 1.051572 0.000000 0.000000 0.000000 -15.984433 -1.032969 -37.068350 13.516847 -6.524032 61.506987 -4.402521 -8.896874 -7.103151 0.000000 0.000000 0.000000 0.912096 -1.439755 29.670006 -9.270010 3.126064 -21.229687 -6.303102 -2.014224 18.725263 20.961086 -10.010570 -28.971180 0.000000 0.000000 0.000000 -23.876304 -26.666817 14.773104 -4.878902 -13.251449 -0.936599 15.972640 -27.931526 -3.203266 0.000000 0.000000 0.000000 25.339425 16.377110 7.325233 25.589066 38.915614 3.719924 -10.564067 56.066381 -3.787314 0.000000 0.000000 0.000000
-0.021023 0.750559 0.109188 -6.526593 -2.098991 -7.681223 38.475538 4.615122 -17.068225 -8.244667 3.280106 57.698465 2.823493 6.769286 2.651266 0.000000 0.000000 0.000000 -16.233226 -1.130117 -37.539282 13.884622 -6.867690 61.678316 -4.377918 -9.152326 -6.163142 0.000000 0.000000 0.000000 0.384386 -1.320838 29.696008 -8.483253 2.887872 -21.250447 -5.966991 -2.169605 18.895764 19.811348 -9.639208 -28.108335 0.000000 0.000000 0.000000 -23.549464 -26.065079 14.412900 -3.997349 -12.765303 -0.906606 15.541704 -25.197908 -2.772667 0.000000 0.000000 0.000000 25.576856 16.108153 7.138041 27.034159 39.904645 4.284633 -14.390802 58.149903 -5.995499 0.000000 0.000000 0.000000
-0.017459 0.752015 0.113853 -6.623481 -2.654686 -7.065806 38.932075 4.907664 -17.452150 -8.781876 3.851468 57.539822 2.337589 6.895587 6.190922 0.000000 0.000000 0.000000 -16.190113 -1.001102 -37.901371 13.790918 -6.534023 60.988606 -4.221846 -9.031519 -5.194591 0.000000 0.000000 0.000000 0.056519 -1.183921 29.479153 -7.936509 2.692139 -21.469149 -5.716908 -1.758377 18.979759 19.060160 -9.343543 -27.599581 0.000000 0.000000 0.000000 -22.990448 -25.577109 14.008378 -3.528034 -12.197276 -0.878160 15.722220 -22.423889 -2.481941 0.000000 0.000000 0.000000 25.920353 15.914445 7.078746 28.622407 40.911857 4.913235 -17.450183 60.042325 -7.880462 0.000000 0.000000 0.000000
-0.012740 0.756551 0.117925 -6.818055 -2.704184 -6.472106 38.991032 4.938592 -17.593549 -9.190268 4.142550 56.706572 2.124938 7.146955 8.432153 0.000000 0.000000 0.000000 -15.874886 -0.864291 -37.566530 12.989011 -5.822635 59.709738 -3.894963 -8.378205 -4.436474 0.000000 0.000000 0.000000 -0.253803 -1.097552 29.313391 -7.476300 2.545768 -21.511648 -5.148046 -1.567982 18.686857 18.738517 -9.423543 -26.476873 0.000000 0.000000 0.000000 -22.549361 -24.755411 13.404579 -3.023789 -11.385047 -0.827918 15.492711 -20.891846 -2.256365 0.000000 0.000000 0.000000 27.215125 15.949304 7.232746 28.254824 41.458714 4.945470 -20.200978 61.188814 -9.626749 0.000000 0.000000 0.000000
-0.006727 0.760770 0.121451 -6.732857 -3.088383 -5.923642 38.516842 5.076835 -18.137753 -9.510536 4.508110 56.412857 2.364572 8.622917 12.791642 0.000000 0.000000 0.000000 -15.933921 -0.790348 -37.487615 12.596306 -5.311655 58.602415 -3.772006 -8.414007 -3.359327 0.000000 0.000000 0.000000 -0.246688 -1.058423 29.151420 -7.470775 2.530934 -21.294715 -4.832093 -1.010005 18.121591 18.242167 -9.282650 -25.507959 0.000000 0.000000 0.000000 -21.815835 -23.957795 12.676370 -3.253212 -10.041475 -0.784462 14.718448 -20.041349 -2.012198 0.000000 0.000000 0.000000 27.886217 15.368918 7.025117 28.344127 41.855276 5.074204 -21.492282 63.110621 -10.718467 0.000000 0.000000 0.000000
0.000603 0.764461 0.124368 -6.624981 -3.502431 -5.693605 37.735055 5.055160 -18.226443 -9.562534 4.708031 56.509679 2.800279 9.695253 14.742643 0.000000 0.000000 0.000000 -15.835380 -0.670456 -37.244560 11.996205 -4.686209 57.731850 -3.859393 -9.022979 -2.212596 0.000000 0.000000 0.000000 -0.024320 -1.078409 29.205147 -7.302577 2.464676 -21.412253 -4.717342 -0.269533 17.753102 17.816683 -9.233822 -24.373956 0.000000 0.000000 0.000000 -21.947793 -23.127257 12.072335 -3.872872 -8.585935 -0.771840 14.331359 -19.956946 -1.930410 0.000000 0.000000 0.000000 28.320813 15.125928 7.082861 28.208265 41.981675 5.052396 -21.926483 64.743879 -11.255708 0.000000 0.000000 0.000000
0.008947 0.765771 0.126436 -6.523011 -4.055021 -5.716036 36.563319 5.033521 -18.458854 -8.878644 4.483656 57.341902 3.077771 10.420257 16.530748 0.000000 0.000000 0.000000 -15.562283 -0.484375 -36.982412 11.191547 -3.925769 57.417650 -4.122791 -9.795786 -1.930844 0.000000 0.000000 0.000000 0.468056 -1.160836 29.321754 -7.781729 2.570744 -21.665735 -4.208003 0.221845 18.220513 17.608512 -9.226474 -24.043366 0.000000 0.000000 0.000000 -22.507856 -22.387181 11.733552 -4.609075 -6.963155 -0.800463 14.235201 -19.893598 -1.907823 0.000000 0.000000 0.000000 28.272256 15.055466 7.106408 27.803423 42.235012 4.939339 -24.519531 66.501011 -13.321114 0.000000 0.000000 0.000000
0.017235 0.764342 0.127404 -6.294611 -4.494698 -5.707744 35.872230 5.086480 -18.778559 -8.754548 4.643730 58.455299 2.834747 10.095856 16.803432 0.000000 0.000000 0.000000 -15.999172 -0.536399 -37.257788 11.027417 -3.670484 57.574970 -4.259234 -10.334686 -1.307088 0.000000 0.000000 0.000000 0.940101 -1.243282 29.421931 -7.929028 2.624567 -21.188292 -4.152619 0.829636 17.864183 17.643158 -9.105444 -24.242456 0.000000 0.000000 0.000000 -23.201637 -21.801416 11.380383 -5.529419 -5.895822 -0.856388 14.188566 -19.234975 -1.824363 0.000000 0.000000 0.000000 28.117841 14.963262 7.168412 27.005370 43.079285 4.887716 -27.040698 67.884112 -15.350747 0.000000 0.000000 0.000000
0.024625 0.761999 0.127166 -6.256073 -4.796128 -5.957158 35.366271 5.176800 -19.234282 -8.331446 4.523802 59.751450 2.306233 9.507816 17.723971 0.000000 0.000000 0.000000 -16.028816 -0.502013 -37.560662 10.797082 -3.445233 58.268567 -4.640772 -11.460061 -0.685614 0.000000 0.000000 0.000000 1.550971 -1.390922 29.934166 -8.356774 2.783349 -20.542689 -3.999936 1.094567 17.528059 18.362848 -9.309607 -24.910255 0.000000 0.000000 0.000000 -23.670251 -21.536371 11.233123 -6.458283 -5.088984 -0.933249 13.387330 -18.970171 -1.655037 0.000000 0.000000 0.000000 27.759951 14.614005 6.941248 26.152851 44.604655 4.972330 -29.076281 68.922875 -17.111600 0.000000 0.000000 0.000000
0.030703 0.759763 0.126086 -6.287035 -4.890260 -6.347039 35.071408 5.265031 -19.703008 -8.173237 4.493421 60.894161 2.236661 9.641133 18.855271 0.000000 0.000000 0.000000 -16.015160 -0.495739 -37.704588 10.458878 -3.207707 59.015055 -4.777178 -11.927061 -0.126998 0.000000 0.000000 0.000000 1.768086 -1.459178 30.468118 -8.470929 2.826528 -20.485441 -3.886510 1.099217 17.875581 18.563690 -9.303056 -25.530367 0.000000 0.000000 0.000000 -24.064266 -21.362823 11.209472 -7.730891 -4.399672 -1.077373 13.119241 -18.383102 -1.549988 0.000000 0.000000 0.000000 26.983208 14.831132 7.010771 25.624501 46.133546 5.097577 -32.475645 69.344528 -19.677182 0.000000 0.000000 0.000000
0.035650 0.758286 0.124539 -6.282424 -5.255428 -6.565008 35.368473 5.491995 -19.977496 -8.782920 5.102636 61.580275 2.310099 10.036500 20.402672 0.000000 0.000000 0.000000 -16.099037 -0.464402 -38.054965 10.114609 -2.865468 59.530098 -4.426977 -11.244641 0.525549 0.000000 0.000000 0.000000 1.549221 -1.392906 31.118741 -8.249405 2.757651 -20.404159 -3.908853 1.499350 17.858001 19.333793 -9.528068 -26.268453 0.000000 0.000000 0.000000 -24.168497 -20.881233 10.851926 -8.876819 -3.787346 -1.208074 11.927973 -18.838150 -1.389591 0.000000 0.000000 0.000000 26.806529 13.908287 6.499541 26.037000 47.107991 5.427108 -33.187817 70.609172 -20.613524 0.000000 0.000000 0.000000
0.040062 0.758017 0.122844 -6.373460 -5.148716 -6.753486 35.603598 5.624969 -20.392976 -9.381122 5.542933 62.138589 2.501735 10.435253 21.068580 0.000000 0.000000 0.000000 -15.945784 -0.445119 -38.091110 9.382898 -2.384772 59.475662 -4.142439 -10.865382 1.713771 0.000000 0.000000 0.000000 1.276926 -1.340208 31.378567 -8.101511 2.739493 -20.029528 -3.974294 1.330784 18.019168 19.332784 -9.586095 -26.149086 0.000000 0.000000 0.000000 -24.123521 -20.505373 10.653164 -10.373989 -2.971483 -1.417263 11.614622 -19.477157 -1.376957 0.000000 0.000000 0.000000 26.675715 14.130275 6.594931 25.821126 46.917870 5.312447 -36.288148 70.668093 -22.920676 0.000000 0.000000 0.000000
0.044344 0.759031 0.120997 -6.456475 -5.262378 -7.100625 35.751879 5.714828 -20.460893 -9.971815 6.011331 62.296668 3.154831 11.566640 22.654712 0.000000 0.000000 0.000000 -15.584129 -0.322290 -37.459110 8.639019 -1.802359 58.788714 -4.061078 -10.724732 1.913233 0.000000 0.000000 0.000000 0.710108 -1.192566 31.834771 -7.652814 2.605670 -19.997223 -4.069804 2.126299 18.405244 20.411670 -10.029612 -26.707660 0.000000 0.000000 0.000000 -24.107134 -20.695225 10.526161 -11.496205 -2.359363 -1.564220 10.893778 -20.370793 -1.322318 0.000000 0.000000 0.000000 26.816688 13.829137 6.707504 25.678834 46.399729 5.077323 -37.471662 70.787241 -23.665737 0.000000 0.000000 0.000000
0.048702 0.760990 0.119010 -6.521348 -4.714878 -6.953847 35.973836 5.756256 -21.007847 -11.118587 6.690468 62.108934 3.925767 12.581750 22.612071 0.000000 0.000000 0.000000 -15.928214 -0.515662 -36.927929 8.232355 -1.678700 57.356712 -3.692855 -10.111479 2.859407 0.000000 0.000000 0.000000 0.419973 -1.165792 31.837881 -7.658919 2.640462 -19.604678 -4.349824 2.191959 18.293978 20.874615 -10.198423 -26.856014 0.000000 0.000000 0.000000 -23.880392 -20.626541 10.317672 -12.592621 -2.092249 -1.697199 10.168970 -21.654973 -1.272872 0.000000 0.000000 0.000000 27.189264 13.685742 6.788482 24.932499 45.297447 4.586410 -36.157615 69.653336 -22.173532 0.000000 0.000000 0.000000
0.052955 0.762742 0.117154 -6.396489 -4.439047 -6.882820 35.675162 5.734603 -21.470291 -11.712551 7.098787 62.289237 4.457457 13.242298 22.359023 0.000000 0.000000 0.000000 -16.502699 -0.720333 -36.224933 7.903965 -1.516096 55.854850 -3.127546 -8.863536 3.038367 0.000000 0.000000 0.000000 0.223118 -1.146789 32.374355 -7.891660 2.689058 -20.181559 -4.399967 2.753605 18.421299 21.579133 -10.462138 -27.156662 0.000000 0.000000 0.000000 -23.857022 -20.831993 10.215663 -13.545715 -1.771443 -1.814344 9.381971 -23.741882 -1.250364 0.000000 0.000000 0.000000 27.462400 13.262062 6.811385 24.026109 44.298428 4.038482 -34.468144 67.907256 -20.179689 0.000000 0.000000 0.000000
0.056701 0.764035 0.115754 -6.093256 -4.240146 -6.949623 35.367709 5.676921 -21.680674 -12.548237 7.623192 61.765212 5.622883 14.925978 24.284781 0.000000 0.000000 0.000000 -17.404877 -1.001356 -35.546524 7.758814 -1.452326 54.972857 -2.321228 -6.848712 2.595778 0.000000 0.000000 0.000000 0.102667 -1.137208 32.807288 -8.204800 2.758608 -20.759846 -4.765714 2.974528 18.642178 21.667182 -10.524280 -27.145015 0.000000 0.000000 0.000000 -24.136903 -21.089638 10.298954 -13.479210 -1.566004 -1.808198 8.842186 -26.020024 -1.273747 0.000000 0.000000 0.000000 27.739468 13.137791 6.892832 22.615297 43.468335 3.415928 -31.005175 65.869894 -17.132059 0.000000 0.000000 0.000000
0.059477 0.764884 0.115010 -6.023532 -3.577816 -7.002365 35.424200 5.628151 -22.102364 -13.016763 7.690252 61.356621 5.168654 14.581164 25.968606 0.000000 0.000000 0.000000 -18.693956 -1.453844 -34.561391 7.997089 -1.768104 53.572087 -1.622746 -4.867224 1.781017 0.000000 0.000000 0.000000 0.316430 -1.289860 33.732884 -8.466057 2.800360 -21.752798 -5.132132 3.163357 18.850022 21.600620 -10.420867 -27.283720 0.000000 0.000000 0.000000 -24.281782 -21.046002 10.109205 -13.308391 -2.191703 -1.728599 8.678129 -27.955453 -1.357149 0.000000 0.000000 0.000000 27.493212 12.950664 6.970992 21.809372 42.853175 3.022820 -27.699481 63.915704 -14.369579 0.000000 0.000000 0.000000
0.061439 0.764537 0.114901 -6.015410 -3.196147 -6.966389 36.162027 5.632392 -21.847558 -14.274022 8.415301 60.793215 4.957567 14.186738 24.460914 0.000000 0.000000 0.000000 -19.537168 -1.724707 -33.931866 7.859385 -1.769326 52.891789 -1.565284 -4.310353 0.796243 0.000000 0.000000 0.000000 0.582631 -1.408961 33.761409 -8.665049 2.903167 -21.208732 -5.570997 3.453280 17.939318 22.320415 -10.631673 -27.527608 0.000000 0.000000 0.000000 -24.085228 -21.405599 10.063530 -12.383194 -2.504368 -1.543998 8.429259 -29.527098 -1.394712 0.000000 0.000000 0.000000 28.119757 13.006938 7.238714 20.273034 41.737547 2.438631 -24.428694 62.004620 -11.894151 0.000000 0.000000 0.000000
0.062824 0.763390 0.115215 -5.926836 -2.798478 -7.296885 36.363847 5.659420 -22.128401 -15.228362 9.038232 61.322420 6.224869 15.792084 24.824679 0.000000 0.000000 0.000000 -19.972498 -1.877974 -33.030612 7.495310 -1.628054 52.471403 -2.117230 -5.117537 -0.541965 0.000000 0.000000 0.000000 0.770256 -1.527899 34.324320 -8.977246 2.966415 -21.949179 -5.263487 3.361468 17.802932 21.562753 -10.273533 -27.276505 0.000000 0.000000 0.000000 -24.256402 -22.167227 10.493120 -11.595738 -3.137777 -1.412358 7.876909 -30.497326 -1.309032 0.000000 0.000000 0.000000 28.315773 14.407823 8.206320 18.980527 40.981430 1.988155 -21.191760 59.505488 -9.532110 0.000000 0.000000 0.000000
0.063954 0.760058 0.115670 -5.905932 -2.677407 -7.546811 37.062104 5.698606 -21.768195 -16.110172 9.607658 61.260896 6.224486 15.729826 23.901406 0.000000 0.000000 0.000000 -20.676157 -2.095975 -32.925437 7.506692 -1.660997 52.579405 -2.789562 -7.041785 0.104678 0.000000 0.000000 0.000000 0.394773 -1.448174 34.758373 -8.948120 2.886622 -23.281789 -4.640731 4.333324 18.411409 21.928899 -9.928189 -29.014788 0.000000 0.000000 0.000000 -23.013170 -22.602172 10.298972 -10.974539 -4.600439 -1.258133 8.700546 -32.207466 -1.677192 0.000000 0.000000 0.000000 28.967051 14.461384 8.722123 17.033180 41.333857 1.392001 -18.007579 56.000094 -7.156745 0.000000 0.000000 0.000000
0.064791 0.757309 0.116457 -5.266234 -2.840298 -7.973910 35.894692 5.710673 -22.546653 -16.594328 10.326028 62.888764 10.183133 20.515105 26.194986 0.000000 0.000000 0.000000 -20.415876 -2.046937 -33.597522 7.131394 -1.367683 54.811090 -3.522012 -8.320686 -1.516343 0.000000 0.000000 0.000000 -0.049719 -1.290539 35.089698 -8.316364 2.734724 -23.072864 -4.402334 4.964397 17.004964 20.908325 -10.462929 -24.782098 0.000000 0.000000 0.000000 -23.550315 -23.386840 10.593140 -10.530929 -5.508405 -1.123386 7.982499 -32.881650 -1.504856 0.000000 0.000000 0.000000 29.340315 14.692579 9.082235 17.566230 39.912255 1.412306 -14.312608 55.338098 -5.137866 0.000000 0.000000 0.000000
0.065442 0.750817 0.117767 -5.548519 -2.577267 -8.674004 37.500081 6.012965 -22.509969 -16.842310 10.318776 63.157924 7.780207 17.945855 30.027328 0.000000 0.000000 0.000000 -20.885961 -2.223203 -33.024444 7.474471 -1.664869 55.136897 -3.800905 -8.916619 -1.841421 0.000000 0.000000 0.000000 0.413206 -1.578344 37.701162 -10.403684 2.915881 -28.798434 -2.137217 4.122203 21.306111 19.022007 -8.757479 -28.442709 0.000000 0.000000 0.000000 -21.392096 -21.591425 9.761754 -12.193856 -7.901502 -1.326024 9.906075 -35.100105 -2.280400 0.000000 0.000000 0.000000 29.344963 15.188546 9.221920 16.083290 39.197995 0.771909 -14.041783 56.038289 -5.234947 0.000000 0.000000 0.000000
0.065683 0.749568 0.119477 -5.934525 -0.917472 -9.538123 35.928626 5.614615 -23.967991 -15.471991 8.792452 64.535390 11.230674 21.639414 33.695887 0.000000 0.000000 0.000000 -23.454651 -3.123868 -31.253515 10.667236 -4.215131 54.943411 -4.729673 -11.699591 0.089920 0.000000 0.000000 0.000000 0.258737 -1.740674 37.219803 -9.058430 2.759652 -27.416297 -1.942036 3.816103 20.190867 19.463905 -9.961620 -25.281259 0.000000 0.000000 0.000000 -21.990934 -25.211166 11.657560 -11.388042 -5.381206 -1.328200 9.861761 -37.730033 -2.481587 0.000000 0.000000 0.000000 31.496610 16.136674 10.312415 13.617829 36.708605 0.036056 -13.018239 54.213447 -4.691557 0.000000 0.000000 0.000000
