HIERARCHY
ROOT Hips
{
	OFFSET -0.001795 -0.223333 0.028219
	CHANNELS 6 Xposition Yposition Zposition Zrotation Yrotation Xrotation
	JOINT LeftUpLeg
	{
		OFFSET 0.069520 -0.091406 -0.006815
		CHANNELS 3 Zrotation Yrotation Xrotation
		JOINT LeftLeg
		{
			OFFSET 0.034277 -0.375199 -0.004496
			CHANNELS 3 Zrotation Yrotation Xrotation
			JOINT LeftFoot
			{
				OFFSET -0.013596 -0.397961 -0.043693
				CHANNELS 3 Zrotation Yrotation Xrotation
				JOINT LeftToe
				{
					OFFSET 0.026358 -0.055791 0.119288
					CHANNELS 3 Zrotation Yrotation Xrotation
					End Site
					{
						OFFSET 0.000000 0.000000 0.000000
					}
				}
			}
		}
	}
	JOINT RightUpLeg
	{
		OFFSET -0.067670 -0.090522 -0.004320
		CHANNELS 3 Zrotation Yrotation Xrotation
		JOINT RightLeg
		{
			OFFSET -0.038290 -0.382569 -0.008850
			CHANNELS 3 Zrotation Yrotation Xrotation
			JOINT RightFoot
			{
				OFFSET 0.015774 -0.398415 -0.042312
				CHANNELS 3 Zrotation Yrotation Xrotation
				JOINT RightToe
				{
					OFFSET -0.025372 -0.048144 0.123348
					CHANNELS 3 Zrotation Yrotation Xrotation
					End Site
					{
						OFFSET 0.000000 0.000000 0.000000
					}
				}
			}
		}
	}
	JOINT Spine
	{
		OFFSET -0.002533 0.108963 -0.026696
		CHANNELS 3 Zrotation Yrotation Xrotation
		JOINT Spine1
		{
			OFFSET 0.005487 0.135180 0.001092
			CHANNELS 3 Zrotation Yrotation Xrotation
			JOINT Spine2
			{
				OFFSET 0.001457 0.052922 0.025425
				CHANNELS 3 Zrotation Yrotation Xrotation
				JOINT Neck
				{
					OFFSET -0.002778 0.213870 -0.042857
					CHANNELS 3 Zrotation Yrotation Xrotation
					JOINT Head
					{
						OFFSET 0.005152 0.064970 0.051349
						CHANNELS 3 Zrotation Yrotation Xrotation
						End Site
						{
							OFFSET 0.000000 0.000000 0.000000
						}
					}
				}
				JOINT LeftShoulder
				{
					OFFSET 0.078845 0.121749 -0.034090
					CHANNELS 3 Zrotation Yrotation Xrotation
					JOINT LeftArm
					{
						OFFSET 0.090977 0.030469 -0.008868
						CHANNELS 3 Zrotation Yrotation Xrotation
						JOINT LeftForeArm
						{
							OFFSET 0.259612 -0.012772 -0.027456
							CHANNELS 3 Zrotation Yrotation Xrotation
							JOINT LeftHand
							{
								OFFSET 0.249234 0.008986 -0.001171
								CHANNELS 3 Zrotation Yrotation Xrotation
								End Site
								{
									OFFSET 0.000000 0.000000 0.000000
								}
							}
						}
					}
				}
				JOINT RightShoulder
				{
					OFFSET -0.081759 0.118833 -0.038615
					CHANNELS 3 Zrotation Yrotation Xrotation
					JOINT RightArm
					{
						OFFSET -0.096012 0.032551 -0.009143
						CHANNELS 3 Zrotation Yrotation Xrotation
						JOINT RightForeArm
						{
							OFFSET -0.253742 -0.013329 -0.021401
							CHANNELS 3 Zrotation Yrotation Xrotation
							JOINT RightHand
							{
								OFFSET -0.255298 0.007772 -0.005559
								CHANNELS 3 Zrotation Yrotation Xrotation
								End Site
								{
									OFFSET 0.000000 0.000000 0.000000
								}
							}
						}
					}
				}
			}
		}
	}
}
MOTION
Frames: 68
Frame Time: 0.050000
0.000000 0.857410 0.000000 -4.329256 12.560793 -5.438342 17.887967 -0.214884 -11.342284 -11.550912 1.589723 33.648692 8.527643 13.921922 -12.055794 0.000000 0.000000 0.000000 -19.465505 -1.722411 -11.858967 2.520278 -0.497611 16.626011 -7.421445 -17.149398 19.569353 0.000000 0.000000 0.000000 -3.222127 -0.472593 14.698642 5.726990 -0.572065 -23.740093 1.269981 -6.696969 23.561140 3.395652 -1.078037 -19.165582 0.000000 0.000000 0.000000 -16.682508 -8.975819 3.373274 -54.751850 -34.282783 7.530307 159.274149 -67.234978 -139.436508 0.000000 0.000000 0.000000 10.777285 8.567724 3.602589 45.451541 32.553458 5.554151 -116.368262 37.998803 -47.547979 0.000000 0.000000 0.000000
-0.001474 0.854222 0.004438 -4.494786 13.657126 -5.031776 19.173169 -0.197820 -12.955155 -13.083090 2.008027 35.297638 8.170360 13.174681 -11.585001 0.000000 0.000000 0.000000 -20.099082 -1.936955 -11.986716 3.858151 -0.973296 17.377437 -8.041995 -18.056272 18.697289 0.000000 0.000000 0.000000 -5.041532 -0.277979 14.197001 7.594246 -0.906493 -26.141037 1.657672 -7.267330 25.544344 4.144091 -1.757176 -18.139862 0.000000 0.000000 0.000000 -17.721876 -8.950502 3.396468 -56.120215 -33.984594 7.442212 166.796637 -67.516703 -149.952480 0.000000 0.000000 0.000000 9.801924 8.550453 3.616021 47.819074 33.554783 6.290195 -118.313381 38.743875 -49.548599 0.000000 0.000000 0.000000
-0.002313 0.854646 0.008463 -4.225484 13.359535 -5.802897 17.918544 -0.215195 -12.494602 -11.333648 1.315226 36.752317 8.175473 13.511509 -10.604016 0.000000 0.000000 0.000000 -20.697239 -1.914160 -10.701640 4.550210 -1.139340 16.896725 -7.824127 -17.811374 18.052215 0.000000 0.000000 0.000000 -6.071003 -0.165407 13.729815 10.233376 -1.708544 -24.738635 -0.051055 -5.830401 25.625177 5.146073 -2.229614 -18.465252 0.000000 0.000000 0.000000 -19.011645 -8.038534 2.637807 -55.488402 -32.921895 6.708480 170.256380 -66.284775 -155.233710 0.000000 0.000000 0.000000 12.611372 8.280833 3.850216 45.835358 34.264537 6.077797 -117.322568 38.085287 -47.267052 0.000000 0.000000 0.000000
-0.002925 0.853727 0.011746 -4.555507 13.855445 -6.483406 18.296238 -0.228993 -12.166613 -11.133394 1.119776 37.405017 8.018526 13.005028 -10.658597 0.000000 0.000000 0.000000 -21.206505 -1.993318 -9.871074 5.960208 -1.616800 17.323205 -7.954168 -18.034874 17.602490 0.000000 0.000000 0.000000 -5.287560 -0.254084 13.469322 9.428374 -1.532345 -24.324379 -0.037432 -7.257397 25.476964 4.365685 -2.189873 -15.874946 0.000000 0.000000 0.000000 -18.743928 -6.170500 1.906874 -56.030868 -30.665954 5.636377 173.777386 -68.413939 -160.631536 0.000000 0.000000 0.000000 11.143682 7.430084 3.198580 48.372919 33.985657 6.571645 -116.246256 38.555183 -47.448637 0.000000 0.000000 0.000000
-0.003263 0.855370 0.014155 -4.156660 13.277404 -6.991338 17.632014 -0.211465 -11.557425 -10.669144 0.990335 37.973486 7.917063 13.316383 -9.188086 0.000000 0.000000 0.000000 -21.339059 -1.960945 -9.666575 5.106478 -1.327523 17.487817 -7.138090 -16.727660 18.498337 0.000000 0.000000 0.000000 -5.223888 -0.247448 13.226385 9.169470 -1.472504 -24.373764 -0.326410 -7.209896 25.641130 3.971945 -2.081907 -14.867686 0.000000 0.000000 0.000000 -19.588686 -5.765794 1.753969 -54.714462 -28.235922 4.142986 177.940017 -69.816742 -166.962923 0.000000 0.000000 0.000000 11.627281 6.734371 2.857505 48.924329 32.903921 6.158955 -116.733865 41.616638 -52.143970 0.000000 0.000000 0.000000
-0.003459 0.856793 0.014781 -4.039111 12.227849 -7.105713 17.835039 -0.151195 -10.979201 -11.149992 1.381242 37.758015 7.963903 13.865869 -8.197339 0.000000 0.000000 0.000000 -21.569968 -1.972499 -10.365858 4.441351 -1.046280 17.091565 -5.681692 -14.554525 21.485726 0.000000 0.000000 0.000000 -4.597676 -0.269085 12.676644 8.607944 -1.385151 -23.826795 0.057002 -7.420575 25.882293 3.199094 -1.543366 -15.468276 0.000000 0.000000 0.000000 -20.153266 -5.093751 1.609550 -54.668460 -27.673049 3.812566 179.306108 -71.613984 -168.667849 0.000000 0.000000 0.000000 9.836084 7.152633 2.859026 49.666066 32.560489 6.168332 -114.961129 42.566543 -52.372338 0.000000 0.000000 0.000000
-0.005007 0.859488 0.013803 -3.437197 11.357905 -6.979635 17.331908 -0.120558 -10.596618 -11.290407 1.604667 37.265304 7.950594 14.326849 -6.771177 0.000000 0.000000 0.000000 -21.885845 -2.095344 -11.838785 4.029406 -0.911878 18.028275 -5.140301 -13.973018 23.729928 0.000000 0.000000 0.000000 -4.028008 -0.309211 12.949067 8.259913 -1.311352 -23.709959 -0.258324 -6.465685 25.280361 2.363331 -0.832973 -15.438220 0.000000 0.000000 0.000000 -20.471798 -5.174363 1.519214 -53.935718 -27.508016 3.714721 176.363072 -71.012249 -164.914659 0.000000 0.000000 0.000000 10.211986 6.961951 2.814010 47.869598 31.519892 5.424575 -116.261461 43.335863 -54.666319 0.000000 0.000000 0.000000
-0.009605 0.861610 0.012559 -3.171655 10.853809 -6.284044 17.362634 -0.105795 -10.610827 -11.353769 1.746206 36.032318 7.977908 14.576794 -6.227808 0.000000 0.000000 0.000000 -21.693607 -2.122232 -13.111068 4.206514 -0.958380 18.469695 -5.475151 -14.529542 23.642766 0.000000 0.000000 0.000000 -3.011121 -0.382813 12.896034 7.491345 -1.090822 -23.760214 -0.436998 -5.666615 25.612685 2.273942 -0.627646 -15.936973 0.000000 0.000000 0.000000 -21.020670 -5.532705 1.575197 -53.268402 -28.989843 4.322695 171.165765 -69.424293 -157.385170 0.000000 0.000000 0.000000 10.267970 6.770390 2.808635 46.792378 31.451782 5.167172 -118.489490 43.393691 -56.482895 0.000000 0.000000 0.000000
-0.018532 0.862777 0.012532 -2.772322 11.475537 -5.767460 17.218587 -0.172814 -10.344143 -10.739459 1.439842 34.258064 7.781979 13.951845 -6.560090 0.000000 0.000000 0.000000 -21.901034 -2.227251 -13.305969 4.695198 -1.141254 18.476666 -5.849721 -14.960665 22.697812 0.000000 0.000000 0.000000 -2.371061 -0.453802 13.073126 6.940334 -0.910110 -23.870929 -0.928775 -5.385791 25.493882 2.477622 -0.655384 -16.089117 0.000000 0.000000 0.000000 -21.223600 -6.006288 1.624230 -51.868647 -31.687638 5.437537 164.252337 -66.760622 -146.789494 0.000000 0.000000 0.000000 10.582665 7.151782 3.086048 44.490265 31.135544 4.620181 -118.267071 42.240313 -54.570277 0.000000 0.000000 0.000000
-0.032386 0.864923 0.014780 -3.075035 12.599802 -5.110937 17.970521 -0.251530 -10.451772 -9.639402 0.923249 32.350222 7.299374 12.808034 -6.281177 0.000000 0.000000 0.000000 -21.256537 -2.239919 -13.630485 5.473253 -1.470303 18.689189 -6.538792 -15.793185 21.800525 0.000000 0.000000 0.000000 -2.083996 -0.470170 12.607083 7.443044 -1.031782 -23.650421 -1.710003 -5.194822 24.692997 2.851226 -0.821465 -15.506797 0.000000 0.000000 0.000000 -20.336675 -5.923137 1.305899 -52.396208 -33.311108 6.454674 162.875418 -66.169606 -145.128640 0.000000 0.000000 0.000000 10.993259 6.287495 2.828910 44.249470 30.213586 4.335528 -118.758596 44.670291 -57.925434 0.000000 0.000000 0.000000
-0.049531 0.866214 0.019015 -3.641390 14.750768 -4.447845 19.365289 -0.390570 -10.915362 -8.583799 0.392021 30.283864 6.459000 10.811704 -5.982401 0.000000 0.000000 0.000000 -20.246720 -2.114834 -12.525258 6.380475 -1.787746 17.107396 -7.856077 -17.526154 20.217284 0.000000 0.000000 0.000000 -1.809748 -0.512629 12.437272 6.504494 -0.687704 -24.210050 -1.207257 -6.390752 24.558348 3.019229 -1.002387 -15.030689 0.000000 0.000000 0.000000 -19.873781 -5.240758 0.894278 -51.919404 -33.964824 6.666066 163.393733 -65.536830 -145.753348 0.000000 0.000000 0.000000 10.926809 5.023570 2.279971 46.050383 28.151997 3.838539 -120.563883 45.976655 -61.120921 0.000000 0.000000 0.000000
-0.067039 0.866454 0.023613 -4.471084 16.170383 -4.509506 20.920074 -0.472289 -11.610601 -7.389382 -0.140832 30.050279 5.602473 9.405466 -4.591225 0.000000 0.000000 0.000000 -18.781749 -1.903161 -11.869817 7.280777 -2.138202 16.694818 -9.085470 -19.402377 18.581972 0.000000 0.000000 0.000000 -2.063540 -0.527417 12.696990 7.231506 -0.847368 -24.362826 -1.010206 -6.215294 24.008715 4.468331 -1.942947 -14.793249 0.000000 0.000000 0.000000 -19.163795 -5.077542 0.541984 -51.624627 -33.798359 6.601435 162.509409 -65.704687 -145.381540 0.000000 0.000000 0.000000 11.828611 3.861306 1.921914 46.771128 26.892485 3.490785 -121.118277 47.445152 -62.957446 0.000000 0.000000 0.000000
-0.081858 0.863532 0.027302 -5.094601 16.897705 -4.545239 22.599150 -0.477469 -12.689165 -7.207838 -0.320377 30.907006 5.068862 8.722320 -3.571218 0.000000 0.000000 0.000000 -17.903597 -1.819087 -12.069539 8.474490 -2.639886 17.277262 -9.843170 -20.841676 16.331021 0.000000 0.000000 0.000000 -2.188154 -0.566930 13.300052 7.290710 -0.839354 -24.393408 -0.174423 -6.195083 23.787953 5.187644 -2.353782 -15.266891 0.000000 0.000000 0.000000 -19.301436 -4.446400 0.078831 -51.106258 -32.582458 5.944232 163.711049 -65.942861 -147.661270 0.000000 0.000000 0.000000 12.876101 3.565058 1.887427 46.995341 26.714982 3.428520 -119.873680 48.579500 -62.981925 0.000000 0.000000 0.000000
-0.091836 0.858977 0.029256 -5.216887 16.900573 -5.088453 23.836143 -0.484388 -12.533305 -7.734165 -0.168797 31.396510 4.965626 8.468885 -3.661938 0.000000 0.000000 0.000000 -17.127543 -1.703152 -12.169431 8.361662 -2.739272 18.438174 -10.052879 -21.604065 13.730784 0.000000 0.000000 0.000000 -2.342758 -0.594595 13.900308 7.940609 -1.069853 -23.567208 0.352998 -5.000005 23.287333 6.253598 -3.144447 -14.220086 0.000000 0.000000 0.000000 -20.485324 -4.524738 -0.310662 -49.366285 -30.299517 4.751066 163.329214 -66.118516 -148.122910 0.000000 0.000000 0.000000 14.409145 3.469159 2.083480 44.849983 27.226238 3.270050 -116.591294 47.417836 -57.987193 0.000000 0.000000 0.000000
-0.096927 0.855318 0.030129 -5.062250 16.389925 -5.673607 24.175308 -0.458319 -12.039874 -7.882381 -0.109603 32.038034 5.098952 8.664618 -3.914117 0.000000 0.000000 0.000000 -17.527032 -1.830247 -12.920358 9.153030 -3.233467 20.682000 -9.726210 -21.328384 12.133384 0.000000 0.000000 0.000000 -2.346671 -0.633534 14.562120 8.759874 -1.337924 -23.300863 0.268712 -4.257810 23.566867 6.503542 -3.232151 -14.485474 0.000000 0.000000 0.000000 -22.082364 -3.866932 -0.959280 -48.399901 -27.828847 3.617790 165.230273 -67.199613 -151.784799 0.000000 0.000000 0.000000 14.818097 4.496413 2.703568 43.923971 28.391513 3.516725 -114.290728 45.953615 -53.839835 0.000000 0.000000 0.000000
-0.098416 0.854919 0.029992 -4.913853 15.184855 -6.353925 24.285896 -0.443722 -10.609910 -8.083551 0.107826 31.743664 5.330186 9.231141 -3.849704 0.000000 0.000000 0.000000 -17.180131 -1.715518 -13.245342 8.546875 -3.050298 21.897187 -9.162655 -20.468667 11.595493 0.000000 0.000000 0.000000 -2.619961 -0.615893 15.042255 9.694354 -1.757129 -22.012459 0.592654 -2.608119 22.886756 7.314348 -3.907125 -13.381024 0.000000 0.000000 0.000000 -23.579866 -3.852510 -1.423966 -47.471904 -25.311246 2.682427 165.520939 -67.487762 -152.961591 0.000000 0.000000 0.000000 14.473344 5.984436 3.522435 42.723369 28.567441 3.488584 -112.249984 43.207229 -48.492555 0.000000 0.000000 0.000000
-0.098462 0.857069 0.028919 -4.710607 15.176407 -6.358014 24.031356 -0.486396 -10.109608 -8.057566 0.149743 30.831310 5.229270 9.121024 -3.557915 0.000000 0.000000 0.000000 -17.509137 -1.805902 -13.543216 8.713024 -3.156245 22.340242 -9.043934 -20.140595 12.464574 0.000000 0.000000 0.000000 -2.747107 -0.592849 14.929071 10.306964 -1.970803 -21.763471 0.242508 -2.497454 23.191589 7.659773 -4.198648 -13.250779 0.000000 0.000000 0.000000 -24.247976 -3.437376 -1.782981 -47.308958 -24.050876 2.168422 167.187206 -67.255174 -155.305236 0.000000 0.000000 0.000000 14.697687 6.981830 4.079294 41.514066 28.567999 3.234837 -112.323581 42.665222 -47.896773 0.000000 0.000000 0.000000
-0.098920 0.859544 0.027093 -4.781330 15.103053 -6.232583 24.215243 -0.455522 -10.455471 -8.310620 0.248438 30.862799 4.990554 9.111908 -2.461160 0.000000 0.000000 0.000000 -17.375217 -1.778613 -13.676012 8.727102 -3.114292 21.979763 -9.017210 -19.989618 13.321470 0.000000 0.000000 0.000000 -2.952421 -0.535674 14.391635 10.821096 -2.209904 -21.015719 0.064431 -2.351551 23.255445 8.442024 -4.794318 -13.233497 0.000000 0.000000 0.000000 -24.070015 -3.412614 -1.800835 -47.388887 -23.474324 1.944716 169.465065 -66.080428 -158.241575 0.000000 0.000000 0.000000 14.742260 7.717178 4.465807 41.254072 28.115216 3.045270 -112.981489 41.608119 -47.096236 0.000000 0.000000 0.000000
-0.100316 0.860739 0.025010 -5.053870 16.107095 -6.132257 24.582541 -0.474486 -11.477283 -8.388637 0.154318 31.140368 4.530620 8.404875 -1.854464 0.000000 0.000000 0.000000 -17.118859 -1.813552 -13.716138 8.735879 -3.217351 21.978600 -9.462950 -20.570735 14.121655 0.000000 0.000000 0.000000 -3.635752 -0.479581 14.296327 11.136063 -2.274558 -21.184238 -0.039389 -3.128868 23.252852 8.454292 -4.787594 -13.460208 0.000000 0.000000 0.000000 -22.904168 -3.752124 -1.395546 -47.632713 -23.914769 2.085653 169.768455 -65.579626 -158.448001 0.000000 0.000000 0.000000 13.944622 7.555752 4.280066 41.909485 27.473245 2.951650 -113.045427 40.915958 -46.173400 0.000000 0.000000 0.000000
-0.102000 0.860395 0.023001 -5.347700 16.769514 -6.285128 25.347872 -0.438380 -12.637123 -9.067246 0.259286 32.296358 4.102627 7.919024 -1.023347 0.000000 0.000000 0.000000 -16.862531 -1.792781 -13.405334 8.852830 -3.287229 21.653813 -9.803908 -21.092675 14.210226 0.000000 0.000000 0.000000 -3.814516 -0.481546 14.385537 11.071495 -2.203814 -21.530658 -0.158951 -3.874964 23.218736 8.817181 -5.163188 -13.313942 0.000000 0.000000 0.000000 -22.590334 -3.719300 -1.270574 -47.004819 -23.907347 1.995137 170.096615 -64.995144 -158.611025 0.000000 0.000000 0.000000 13.636449 6.999786 3.918275 41.877496 26.771155 2.701070 -111.986101 40.411354 -44.876723 0.000000 0.000000 0.000000
-0.103082 0.860152 0.021396 -5.371885 17.056289 -6.547870 25.104701 -0.404190 -13.163617 -8.611794 0.000623 33.195572 3.913785 7.722456 -0.619262 0.000000 0.000000 0.000000 -16.737843 -1.791235 -13.304145 8.668082 -3.276165 21.902850 -9.907274 -21.241164 14.255265 0.000000 0.000000 0.000000 -4.200266 -0.468808 14.688109 10.987507 -2.140976 -21.886702 -0.044831 -3.874826 22.934952 8.628751 -5.178540 -12.442766 0.000000 0.000000 0.000000 -22.610512 -3.370407 -1.528262 -46.767033 -23.190446 1.742284 172.924153 -65.081991 -163.205334 0.000000 0.000000 0.000000 13.198947 6.534092 3.663447 42.184399 26.209367 2.586335 -110.019462 40.026329 -42.808839 0.000000 0.000000 0.000000
-0.103212 0.860772 0.019897 -5.379384 16.810063 -6.902103 24.543058 -0.333446 -13.410136 -7.783732 -0.364952 34.252082 3.830447 7.887949 0.097599 0.000000 0.000000 0.000000 -16.784660 -1.753528 -12.860357 8.798841 -3.244341 21.463804 -9.766874 -21.017431 14.357217 0.000000 0.000000 0.000000 -4.283279 -0.466711 14.797524 11.003158 -2.185681 -21.644087 0.035874 -2.869867 22.360419 9.038886 -5.730395 -10.852352 0.000000 0.000000 0.000000 -22.862656 -3.135956 -1.971632 -46.937701 -22.155479 1.492995 176.528137 -65.953352 -169.565186 0.000000 0.000000 0.000000 12.151895 6.361172 3.583542 42.043612 25.608199 2.451619 -105.801471 39.462899 -38.768067 0.000000 0.000000 0.000000
-0.102770 0.862641 0.018538 -5.121942 16.478786 -7.058506 24.030563 -0.311336 -13.086274 -7.514595 -0.432111 34.202036 3.777244 8.048089 0.703195 0.000000 0.000000 0.000000 -17.060213 -1.742119 -12.317050 8.862432 -3.124425 20.581237 -9.564718 -20.660465 14.704865 0.000000 0.000000 0.000000 -3.838743 -0.473542 14.226505 10.481214 -2.024921 -21.682360 -0.096943 -1.920060 22.575962 9.134209 -5.882359 -10.127068 0.000000 0.000000 0.000000 -22.898129 -2.814394 -2.398125 -47.180621 -20.242318 0.798394 -178.711787 -66.505124 -177.369434 0.000000 0.000000 0.000000 11.795217 5.722781 3.355427 40.964982 24.905092 2.061449 -101.725716 39.776993 -36.250944 0.000000 0.000000 0.000000
-0.102507 0.864323 0.017724 -5.048122 16.169443 -7.114376 23.338000 -0.310001 -12.734809 -10.739265 0.838561 33.104038 10.471826 20.755169 2.818647 0.000000 0.000000 0.000000 -17.006090 -1.711970 -12.341236 8.687945 -3.024987 20.480723 -9.393648 -20.328919 15.174411 0.000000 0.000000 0.000000 -3.619449 -0.438798 13.313936 10.222990 -1.981426 -21.332103 -0.329970 -1.626651 22.834803 8.853224 -6.051267 -8.428369 0.000000 0.000000 0.000000 -22.822357 -2.515211 -2.602408 -47.355696 -19.283829 0.415950 -175.898834 -67.509421 178.278658 0.000000 0.000000 0.000000 11.659193 5.932063 3.473073 40.193065 24.435466 1.783423 -99.195201 39.925438 -34.848998 0.000000 0.000000 0.000000
-0.103182 0.863587 0.017945 -4.968241 15.542358 -7.502775 23.115274 -0.314321 -11.735711 -11.711199 1.308533 30.958042 14.228715 26.807846 6.191662 0.000000 0.000000 0.000000 -16.856978 -1.628907 -12.115477 8.461415 -2.897018 20.538727 -9.127235 -20.010310 14.583165 0.000000 0.000000 0.000000 -3.412753 -0.435416 13.009347 10.012857 -1.920431 -21.487903 -0.218864 -1.543590 23.378456 8.695636 -6.285813 -7.150747 0.000000 0.000000 0.000000 -22.836611 -2.138278 -2.708225 -47.028504 -18.999162 0.209857 -176.588663 -67.790061 179.513839 0.000000 0.000000 0.000000 11.233825 5.733204 3.302243 39.922582 24.368815 1.690215 -97.818285 40.409992 -34.652019 0.000000 0.000000 0.000000
-0.104771 0.861766 0.019049 -5.061233 15.560310 -7.810026 23.135128 -0.321939 -11.517509 -11.313292 1.161197 31.239388 14.222834 26.787591 5.725688 0.000000 0.000000 0.000000 -16.319297 -1.533614 -12.036107 7.852200 -2.744580 21.080526 -9.207818 -20.245149 13.784371 0.000000 0.000000 0.000000 -3.453206 -0.413920 12.599827 10.060204 -1.896527 -21.870018 -0.485295 -2.112018 23.756664 8.405638 -6.425095 -5.967821 0.000000 0.000000 0.000000 -23.009663 -2.014747 -2.624818 -46.273785 -19.192367 0.173732 -177.342719 -68.558830 -179.074734 0.000000 0.000000 0.000000 12.035771 5.317411 3.128035 39.629386 24.332961 1.545345 -97.325438 41.350812 -35.636742 0.000000 0.000000 0.000000
-0.106460 0.859374 0.020029 -5.449015 15.577606 -8.280495 23.394276 -0.331867 -11.294058 -10.755727 0.948805 31.660206 14.214363 26.766314 5.033887 0.000000 0.000000 0.000000 -15.671064 -1.412869 -11.795141 7.584963 -2.704119 21.496178 -9.310972 -20.548230 12.892103 0.000000 0.000000 0.000000 -3.592022 -0.396162 12.323788 10.048018 -1.902359 -21.826059 -0.487109 -3.081451 23.816011 8.088438 -6.285232 -5.866467 0.000000 0.000000 0.000000 -22.921257 -2.035653 -2.303274 -45.622451 -20.283678 0.467691 178.345903 -69.359038 -172.383059 0.000000 0.000000 0.000000 12.663830 5.009065 2.899055 39.905854 24.069825 1.454397 -97.518586 41.628953 -36.491816 0.000000 0.000000 0.000000
-0.107247 0.857522 0.019942 -5.619858 15.118123 -8.291030 23.837156 -0.281330 -11.367217 -11.044361 1.098196 32.027961 14.424026 27.125636 4.898814 0.000000 0.000000 0.000000 -15.537216 -1.345421 -11.638796 7.857805 -2.702643 20.913774 -9.221804 -20.546687 12.040276 0.000000 0.000000 0.000000 -3.627776 -0.408338 12.714369 10.302003 -1.960306 -22.171675 -0.436470 -3.259290 23.910239 7.970450 -6.428839 -5.052666 0.000000 0.000000 0.000000 -22.960784 -2.292550 -2.012707 -45.248012 -21.662421 0.922277 174.322338 -69.691902 -166.409585 0.000000 0.000000 0.000000 12.913203 4.630945 2.667623 40.306817 24.076513 1.474708 -98.321239 41.961910 -37.472859 0.000000 0.000000 0.000000
-0.106817 0.857493 0.018386 -5.636892 14.665049 -8.096253 23.757794 -0.216449 -11.651098 -10.985788 1.129795 32.320829 14.634074 27.473598 5.226442 0.000000 0.000000 0.000000 -15.600253 -1.330701 -11.835604 8.044277 -2.682094 20.457025 -9.068508 -20.292991 12.075763 0.000000 0.000000 0.000000 -3.854051 -0.375845 12.570163 10.740059 -2.117260 -22.056508 -0.664907 -3.372947 23.944751 8.396308 -6.921068 -4.773659 0.000000 0.000000 0.000000 -22.864343 -2.772021 -1.601680 -45.300968 -22.542759 1.221506 172.247368 -70.330494 -163.387793 0.000000 0.000000 0.000000 13.239410 4.513152 2.570518 39.999724 24.502407 1.572936 -97.136686 42.007103 -37.001936 0.000000 0.000000 0.000000
-0.105537 0.857531 0.015622 -5.759565 13.719281 -7.947634 23.617842 -0.123823 -11.745021 -10.740039 1.153288 32.592253 15.063923 28.151210 5.604339 0.000000 0.000000 0.000000 -15.472410 -1.275085 -12.430017 8.067721 -2.605209 20.355649 -8.702079 -19.657592 12.341631 0.000000 0.000000 0.000000 -3.897284 -0.375355 12.972068 10.529757 -2.049661 -22.231798 -0.149737 -3.209079 24.466133 8.638127 -7.235907 -4.669310 0.000000 0.000000 0.000000 -22.669515 -2.990789 -1.288972 -45.180117 -24.193001 1.720010 166.525542 -70.759339 -155.226270 0.000000 0.000000 0.000000 13.824727 4.660510 2.627625 39.533266 25.168047 1.654749 -95.509369 41.593481 -35.760646 0.000000 0.000000 0.000000
-0.104151 0.857591 0.012372 -5.564113 12.457322 -7.278311 23.601179 0.031818 -12.270033 -11.323007 1.541366 32.884221 15.681680 29.098777 6.502355 0.000000 0.000000 0.000000 -15.714021 -1.321650 -14.190640 8.169851 -2.611087 21.203876 -8.161264 -18.726043 12.829592 0.000000 0.000000 0.000000 -3.880068 -0.388669 13.876493 10.884019 -2.120569 -22.752957 -0.265163 -2.239414 24.818255 8.878642 -7.227784 -5.382340 0.000000 0.000000 0.000000 -22.461709 -2.745074 -1.433506 -44.678336 -25.160085 2.008842 162.616278 -71.738254 -150.451950 0.000000 0.000000 0.000000 14.411396 4.699059 2.722201 39.117167 26.133677 1.857310 -93.208690 42.218484 -34.946152 0.000000 0.000000 0.000000
-0.103621 0.856036 0.009201 -5.441146 11.766494 -6.753810 23.608591 0.137964 -12.813816 -11.708571 1.790836 33.082338 16.114638 29.799221 6.498196 0.000000 0.000000 0.000000 -16.995952 -1.616995 -15.825339 10.051029 -3.315393 22.315545 -7.769340 -18.077945 13.234474 0.000000 0.000000 0.000000 -4.480737 -0.364440 15.254181 11.093102 -2.171736 -22.941644 -0.172461 -1.919277 25.054810 8.490383 -6.775687 -5.890212 0.000000 0.000000 0.000000 -21.623022 -2.691918 -1.273276 -44.390108 -26.530279 2.401229 157.172996 -71.894039 -143.168731 0.000000 0.000000 0.000000 15.482971 4.309981 2.569680 39.430730 26.829140 2.044156 -92.260380 43.086228 -35.262800 0.000000 0.000000 0.000000
-0.104288 0.855183 0.006555 -5.713643 11.873845 -6.673475 23.991629 0.188436 -13.410862 -11.850813 1.835329 33.439635 16.076604 29.781667 6.419811 0.000000 0.000000 0.000000 -17.458392 -1.847263 -17.276230 10.055109 -3.561042 24.401686 -6.045234 -14.983836 14.137567 0.000000 0.000000 0.000000 -5.145199 -0.343564 16.569881 12.107875 -2.606199 -21.870286 -0.336097 -1.504382 23.993406 8.162816 -6.305444 -6.170335 0.000000 0.000000 0.000000 -20.730464 -3.457572 -0.887003 -43.573266 -26.841947 2.565120 150.649517 -71.770376 -135.030420 0.000000 0.000000 0.000000 15.589788 3.736759 2.299446 40.898848 26.820063 2.378430 -91.801191 44.296583 -36.034440 0.000000 0.000000 0.000000
-0.106141 0.854443 0.005482 -5.855455 11.533868 -6.537210 24.279821 0.299777 -14.109402 -11.872847 1.898429 34.356210 16.164437 29.871926 7.208024 0.000000 0.000000 0.000000 -19.453522 -2.414585 -18.876297 12.098626 -4.587653 26.663582 -3.055885 -9.955638 15.366000 0.000000 0.000000 0.000000 -5.588345 -0.313903 17.475100 11.953712 -2.540283 -22.099927 0.609362 -2.428074 24.761271 5.123057 -3.672435 -6.538458 0.000000 0.000000 0.000000 -20.721404 -1.992372 -1.335950 -42.793952 -28.214776 2.822061 145.498178 -73.626991 -129.373522 0.000000 0.000000 0.000000 14.081862 4.318687 2.314354 43.453559 26.363530 2.601736 -91.893811 46.881851 -38.874765 0.000000 0.000000 0.000000
-0.109608 0.852417 0.006590 -5.977126 10.701133 -5.897865 24.961499 0.401853 -14.192542 -12.274920 2.193025 33.976539 16.554179 30.490611 7.180768 0.000000 0.000000 0.000000 -20.071002 -2.597864 -20.307843 10.964972 -4.115748 27.475576 2.105904 -1.316702 16.372441 0.000000 0.000000 0.000000 -5.381695 -0.294475 17.089875 12.566042 -2.828828 -21.310656 0.470210 -1.843859 25.260014 3.685453 -2.391077 -6.530805 0.000000 0.000000 0.000000 -19.401136 -1.599761 -1.389849 -42.877441 -28.558448 2.870137 138.783295 -72.982207 -120.586989 0.000000 0.000000 0.000000 14.284888 4.776920 2.582686 44.788964 26.552060 2.820984 -92.797692 48.976761 -41.309768 0.000000 0.000000 0.000000
-0.115791 0.848301 0.009413 -5.705700 10.338585 -5.100047 25.255279 0.499051 -14.820271 -12.428238 2.335514 34.243967 16.785906 30.893315 7.067581 0.000000 0.000000 0.000000 -20.354454 -2.567840 -20.164632 9.682774 -3.470531 26.764627 5.143471 5.568937 12.742600 0.000000 0.000000 0.000000 -5.068194 -0.294594 16.605472 11.949766 -2.652170 -21.143287 0.595744 -0.945355 25.483511 2.596149 -1.351994 -6.537880 0.000000 0.000000 0.000000 -18.839418 -3.109011 -0.685227 -40.993966 -28.083862 2.455910 133.212562 -72.635812 -114.112769 0.000000 0.000000 0.000000 14.501295 5.492725 3.082556 45.653088 27.473426 3.296755 -95.895655 48.518912 -42.549359 0.000000 0.000000 0.000000
-0.125294 0.842194 0.013270 -5.281753 9.923469 -4.782690 26.134154 0.663780 -15.506840 -13.302158 2.794374 35.513055 16.851901 30.969845 7.616321 0.000000 0.000000 0.000000 -20.700012 -2.531590 -19.766209 11.081622 -3.937921 26.475042 3.529241 4.798234 7.430635 0.000000 0.000000 0.000000 -4.564719 -0.336439 16.585028 11.026607 -2.522149 -19.811150 0.922506 -0.655751 24.685685 1.508574 -0.488339 -5.846661 0.000000 0.000000 0.000000 -19.664703 -2.778253 -0.973025 -40.368162 -27.539232 2.282618 128.804558 -72.953131 -109.378407 0.000000 0.000000 0.000000 14.468856 6.552260 3.576825 46.220485 29.433812 4.282402 -98.132195 48.343994 -44.020251 0.000000 0.000000 0.000000
-0.138457 0.836255 0.018107 -5.463133 9.307338 -4.452608 27.836928 0.794612 -15.216117 -13.909571 3.153725 35.177267 16.868402 31.053938 7.409055 0.000000 0.000000 0.000000 -20.054104 -2.341790 -20.137191 13.952762 -5.003847 26.418925 0.088776 -1.114408 3.367239 0.000000 0.000000 0.000000 -3.023943 -0.515353 16.430384 9.460425 -2.034314 -19.863759 0.740926 -0.572107 24.892477 0.493342 0.402089 -5.996439 0.000000 0.000000 0.000000 -19.659439 -2.978093 -0.814961 -39.079288 -24.560928 1.195142 128.580552 -74.649759 -110.854504 0.000000 0.000000 0.000000 14.398337 6.635432 3.578864 47.210915 31.035305 5.154388 -101.810001 49.749530 -48.267505 0.000000 0.000000 0.000000
-0.154119 0.831605 0.024129 -5.734861 9.231223 -4.494405 29.591146 0.753289 -14.210106 -14.130460 3.220424 33.918178 16.518974 30.585616 7.021774 0.000000 0.000000 0.000000 -19.359240 -2.219102 -20.507838 15.065732 -5.619988 27.511325 -0.500914 -1.350087 0.207148 0.000000 0.000000 0.000000 -2.639479 -0.550558 16.107530 8.706916 -1.897243 -18.889704 0.661318 -1.257144 24.134696 -0.145667 0.798770 -5.274309 0.000000 0.000000 0.000000 -19.028366 -2.908123 -0.626689 -38.849362 -21.728644 0.333935 121.129129 -76.139082 -103.859221 0.000000 0.000000 0.000000 13.964733 7.318035 3.716510 47.565904 31.785558 5.677558 -104.149532 50.540002 -51.552256 0.000000 0.000000 0.000000
-0.171559 0.830032 0.031363 -6.010303 9.492162 -4.623777 31.172311 0.543085 -12.767044 -13.914365 3.026433 31.746676 15.925123 29.621696 7.399794 0.000000 0.000000 0.000000 -18.254265 -1.987015 -20.324653 15.779569 -6.070374 28.079449 -1.121218 -1.878330 -2.604638 0.000000 0.000000 0.000000 -2.499355 -0.569946 15.947129 8.735724 -1.855669 -19.354969 -0.100628 -2.266542 24.678358 -0.383638 0.943901 -5.545968 0.000000 0.000000 0.000000 -18.824292 -2.755873 -0.481233 -38.468208 -19.579803 -0.417925 108.852286 -77.561687 -91.984154 0.000000 0.000000 0.000000 13.609471 7.770364 3.787925 48.705968 34.077719 6.911926 -103.927647 51.265914 -52.446832 0.000000 0.000000 0.000000
-0.188581 0.829801 0.039033 -6.240126 9.600827 -4.598293 32.243192 0.273879 -11.215781 -13.064450 2.633968 29.280225 15.420414 28.739952 8.307523 0.000000 0.000000 0.000000 -17.074111 -1.738692 -20.363634 16.333138 -6.452102 28.693632 -1.593533 -2.332460 -4.812951 0.000000 0.000000 0.000000 -2.550896 -0.563022 15.868680 8.367117 -1.769408 -19.009878 -0.375917 -2.884536 23.768940 -0.712862 1.113660 -4.919145 0.000000 0.000000 0.000000 -18.895545 -2.243457 -0.658252 -38.180884 -18.081388 -0.818735 94.145099 -79.786566 -79.334737 0.000000 0.000000 0.000000 13.562559 8.079550 3.811101 49.360720 34.696762 7.450073 -104.589664 51.520467 -53.662288 0.000000 0.000000 0.000000
-0.202208 0.829197 0.045940 -5.834542 10.023146 -4.575671 32.390088 -0.115497 -9.425137 -12.313690 2.257657 26.321065 14.987187 28.025358 8.585701 0.000000 0.000000 0.000000 -17.052183 -1.742199 -19.954207 17.210261 -6.931425 28.850964 -1.982948 -2.679119 -6.884118 0.000000 0.000000 0.000000 -2.297840 -0.615738 16.151484 7.848581 -1.541469 -19.564457 -0.769322 -2.949453 23.592434 -0.480736 0.842621 -3.986177 0.000000 0.000000 0.000000 -19.625359 -2.645760 -0.564042 -37.953717 -16.885620 -1.145248 72.107069 -79.652933 -58.336647 0.000000 0.000000 0.000000 14.670718 8.004087 3.882774 47.518274 35.876507 7.490645 -103.663524 51.729683 -53.269915 0.000000 0.000000 0.000000
-0.211276 0.827966 0.051387 -5.350385 10.206388 -4.657564 32.399578 -0.415415 -7.898507 -12.022273 2.096234 24.181925 14.746148 27.612734 8.721606 0.000000 0.000000 0.000000 -16.704983 -1.684941 -19.912031 16.830358 -6.974330 29.790914 -2.311824 -2.882510 -8.962463 0.000000 0.000000 0.000000 -2.026514 -0.628026 15.762864 7.967737 -1.551691 -19.781233 -1.616597 -2.682168 23.705862 -0.807084 1.158051 -3.826824 0.000000 0.000000 0.000000 -21.021096 -2.603226 -0.839021 -37.530029 -16.876357 -1.099548 52.044942 -77.710950 -39.199900 0.000000 0.000000 0.000000 14.719203 8.473568 4.201399 46.068888 37.910178 7.999759 -101.468911 50.474934 -50.040894 0.000000 0.000000 0.000000
-0.216329 0.826261 0.055572 -4.754334 10.224655 -4.560052 32.496126 -0.660553 -6.592035 -12.617535 2.205997 22.239908 14.735411 27.574813 8.534445 0.000000 0.000000 0.000000 -17.167494 -1.818985 -20.269086 17.066929 -7.280982 30.908618 -2.427005 -2.752953 -10.073172 0.000000 0.000000 0.000000 -0.855473 -0.747104 15.383181 6.971248 -1.250971 -19.615335 -1.576944 -2.725779 23.168458 -1.319313 1.575399 -3.403150 0.000000 0.000000 0.000000 -22.588316 -2.829894 -0.885725 -36.900945 -16.214291 -1.220511 42.816231 -76.161030 -30.592203 0.000000 0.000000 0.000000 14.409224 9.230314 4.532064 44.298006 39.487527 8.230283 -100.901541 49.645661 -48.927027 0.000000 0.000000 0.000000
-0.218887 0.824873 0.059201 -3.780173 11.057842 -4.352641 31.844978 -0.803749 -6.359739 -12.915093 2.187504 21.396277 14.451377 27.153962 8.160022 0.000000 0.000000 0.000000 -18.078281 -2.141413 -20.565035 16.828504 -7.556747 32.268244 -2.622167 -3.038602 -11.057638 0.000000 0.000000 0.000000 -0.160903 -0.819013 15.060975 6.591171 -1.077938 -19.969972 -1.933297 -2.652649 23.220692 -1.785572 1.930734 -2.081286 0.000000 0.000000 0.000000 -23.222218 -3.091038 -0.987165 -36.258952 -15.489915 -1.355484 38.253354 -73.966860 -26.084055 0.000000 0.000000 0.000000 14.491158 9.675042 4.888779 42.536332 41.706419 8.598893 -99.487986 48.741746 -46.694766 0.000000 0.000000 0.000000
-0.219995 0.824492 0.062900 -3.208008 12.504905 -4.261103 32.208257 -1.103717 -6.045651 -14.348338 2.366327 19.819930 13.938535 26.379196 7.718571 0.000000 0.000000 0.000000 -18.252052 -2.299636 -20.181616 15.912229 -7.513311 32.944172 -2.973478 -3.976740 -12.272341 0.000000 0.000000 0.000000 0.692871 -0.887695 14.353705 6.394812 -1.015802 -19.327807 -2.492341 -2.724416 22.566858 -2.264992 2.305360 -0.927129 0.000000 0.000000 0.000000 -23.241887 -3.195927 -1.225118 -35.292070 -15.634925 -1.156408 34.756280 -71.855969 -22.844333 0.000000 0.000000 0.000000 15.155888 10.391349 5.476121 40.393948 43.653510 8.730380 -98.101704 47.814065 -44.537542 0.000000 0.000000 0.000000
-0.219169 0.824278 0.066888 -2.615713 14.156527 -4.329990 32.106018 -1.346462 -6.029109 -15.192151 2.389570 19.070058 13.338582 25.452679 7.117533 0.000000 0.000000 0.000000 -19.188124 -2.661919 -19.659821 15.850891 -7.958987 33.837502 -3.134552 -4.671602 -12.411731 0.000000 0.000000 0.000000 1.063285 -0.931811 14.111100 6.168113 -0.894062 -19.326568 -2.726617 -2.222845 22.400074 -2.244733 2.323578 -0.548828 0.000000 0.000000 0.000000 -22.166920 -3.575619 -1.341286 -34.525654 -15.824091 -0.973759 33.814839 -70.021551 -21.936370 0.000000 0.000000 0.000000 16.040085 10.614394 6.030836 39.729729 45.978825 9.404420 -99.643978 48.157296 -45.402314 0.000000 0.000000 0.000000
-0.214596 0.823460 0.071180 -2.315660 15.309647 -4.800281 32.221744 -1.534448 -5.833343 -16.241787 2.535273 19.270353 12.955178 24.825559 6.154285 0.000000 0.000000 0.000000 -19.448329 -2.760209 -18.712799 14.900399 -7.860189 34.631788 -3.287419 -5.191813 -13.008340 0.000000 0.000000 0.000000 1.453687 -0.993587 14.125413 5.707964 -0.698092 -19.693333 -1.872130 -1.326973 23.008430 -1.756856 2.121895 -1.960240 0.000000 0.000000 0.000000 -22.001025 -3.360500 -1.881192 -33.872179 -15.953101 -0.862591 33.823203 -66.631150 -21.043682 0.000000 0.000000 0.000000 15.364120 10.777268 6.357336 40.676145 49.056083 11.069969 -100.942510 48.499389 -45.953007 0.000000 0.000000 0.000000
-0.204521 0.823653 0.075807 -1.909458 16.300328 -5.291095 31.368354 -1.576423 -5.878098 -16.458351 2.553269 20.559510 12.747267 24.417935 4.785094 0.000000 0.000000 0.000000 -20.171786 -2.936511 -17.622298 13.889781 -7.670875 35.368043 -3.248558 -5.346628 -12.549883 0.000000 0.000000 0.000000 2.263250 -1.035938 13.531129 5.541202 -0.598579 -19.835223 -2.017153 0.386854 23.443833 -0.874317 1.500029 -1.962362 0.000000 0.000000 0.000000 -22.061193 -3.390219 -2.576759 -33.045238 -15.167038 -0.866906 34.888963 -64.027013 -21.354453 0.000000 0.000000 0.000000 15.905236 11.203870 7.183605 41.195120 50.928497 12.120454 -103.872465 49.677327 -48.362779 0.000000 0.000000 0.000000
-0.188908 0.825198 0.080676 -1.192294 17.065962 -6.035155 29.684323 -1.486756 -5.890499 -16.448937 2.568657 22.984585 12.637605 24.131455 3.499456 0.000000 0.000000 0.000000 -21.203544 -3.047862 -15.672997 12.355720 -6.974417 35.332159 -3.098729 -5.228716 -11.734182 0.000000 0.000000 0.000000 2.898646 -1.071390 13.201025 4.985950 -0.392797 -20.052007 -0.928945 1.476948 23.819026 -0.170763 0.765550 -0.722781 0.000000 0.000000 0.000000 -23.920591 -3.486059 -3.391726 -33.210804 -13.124735 -1.163062 34.843735 -62.628072 -21.020720 0.000000 0.000000 0.000000 14.391730 11.514119 7.333509 44.178944 52.391885 14.375361 -106.583933 50.129047 -50.043966 0.000000 0.000000 0.000000
-0.170370 0.829901 0.085034 -0.519430 17.499005 -6.221753 27.830576 -1.406036 -5.628008 -16.575750 2.580740 24.212712 12.722835 24.178944 2.887627 0.000000 0.000000 0.000000 -22.204317 -3.081442 -13.812069 10.898184 -6.024552 34.038756 -2.840438 -5.095280 -9.653230 0.000000 0.000000 0.000000 3.626529 -1.071315 12.503425 4.832863 -0.309975 -20.303842 -0.495954 3.145131 23.763229 0.053432 0.476159 0.369869 0.000000 0.000000 0.000000 -24.689891 -3.090922 -4.476027 -34.969536 -10.576902 -1.626565 32.154105 -62.629612 -19.672201 0.000000 0.000000 0.000000 13.110048 11.543842 7.408509 46.331620 53.170897 16.119616 -106.992351 49.980237 -49.067809 0.000000 0.000000 0.000000
-0.152951 0.836258 0.088136 0.180933 18.640201 -6.627866 25.737170 -1.375342 -5.319683 -16.202686 2.363056 25.106035 12.431038 23.569395 2.648803 0.000000 0.000000 0.000000 -23.052525 -3.011347 -10.873061 9.389056 -5.004826 31.516243 -2.747821 -5.594870 -7.391872 0.000000 0.000000 0.000000 3.538334 -0.978783 11.764012 5.602544 -0.502694 -20.271862 -0.679825 4.467705 23.506501 1.219530 -0.930851 1.996144 0.000000 0.000000 0.000000 -25.357398 -3.316778 -5.256862 -36.912838 -7.805715 -2.209695 24.788936 -63.480555 -15.642185 0.000000 0.000000 0.000000 12.186214 11.446630 7.436851 47.941317 53.679735 17.592308 -107.034781 48.062895 -45.979388 0.000000 0.000000 0.000000
-0.139391 0.842922 0.089274 0.615630 19.283681 -6.673542 24.235334 -1.340975 -5.038564 -16.024888 2.229755 25.189007 12.232196 23.203224 3.026591 0.000000 0.000000 0.000000 -23.503553 -2.903668 -8.869992 8.247704 -4.168290 29.087483 -2.646505 -5.952743 -4.719803 0.000000 0.000000 0.000000 3.858422 -0.921440 10.966298 5.382648 -0.423543 -19.976897 -0.230608 4.757148 23.280109 1.774222 -1.725167 3.001456 0.000000 0.000000 0.000000 -26.278097 -2.936352 -5.985525 -39.746284 -6.362416 -2.745639 16.174853 -62.178152 -9.946181 0.000000 0.000000 0.000000 11.503922 11.258816 7.253857 47.675449 55.091090 18.476877 -104.223825 44.753592 -39.994994 0.000000 0.000000 0.000000
-0.130401 0.848690 0.088787 0.607342 19.512208 -6.483614 23.188100 -1.239583 -5.450051 -15.396982 2.038510 25.686560 12.144967 23.126752 3.852828 0.000000 0.000000 0.000000 -23.567769 -2.797155 -7.870782 7.743400 -3.693338 27.131930 -2.545193 -6.140524 -2.191574 0.000000 0.000000 0.000000 4.384009 -0.951433 10.732523 5.551975 -0.454376 -20.147352 -0.466758 5.612991 22.699974 2.728565 -2.565732 2.690112 0.000000 0.000000 0.000000 -26.520196 -3.383143 -6.192819 -41.915400 -4.211969 -3.466752 6.565316 -60.260035 -4.097550 0.000000 0.000000 0.000000 11.754787 10.767521 7.231467 48.224635 55.998083 19.464514 -103.806518 42.243707 -36.444795 0.000000 0.000000 0.000000
-0.126157 0.853100 0.087285 0.547214 20.279031 -6.501872 22.842826 -1.265322 -5.595319 -15.261251 1.911347 25.368964 11.757295 22.525184 4.333859 0.000000 0.000000 0.000000 -23.018177 -2.750180 -7.631130 6.577750 -3.284885 27.043760 -2.642029 -6.709227 -0.027228 0.000000 0.000000 0.000000 4.241860 -0.925707 10.574688 5.631391 -0.462144 -20.076237 -0.568411 4.537210 22.384219 2.891206 -3.197055 4.106520 0.000000 0.000000 0.000000 -27.212987 -3.498399 -6.112367 -43.333278 -2.383938 -4.246291 -0.733941 -57.247559 0.344940 0.000000 0.000000 0.000000 11.338252 10.389761 6.838689 48.811109 56.883005 20.366373 -103.678449 39.013912 -32.885493 0.000000 0.000000 0.000000
-0.125446 0.856517 0.085627 0.214599 20.280103 -6.207700 23.023753 -1.245383 -6.109378 -15.214838 1.899028 25.223339 11.638370 22.469433 5.274457 0.000000 0.000000 0.000000 -22.416908 -2.649128 -7.870455 6.309367 -3.109790 26.427055 -2.672547 -6.932744 1.273363 0.000000 0.000000 0.000000 4.278369 -0.906777 10.309204 6.209761 -0.674776 -19.643711 -1.209187 3.825180 21.449565 2.973827 -3.539235 4.887546 0.000000 0.000000 0.000000 -27.183814 -3.108756 -6.102300 -44.389044 -1.860994 -4.567167 -7.033294 -52.560035 3.575403 0.000000 0.000000 0.000000 11.821375 9.316273 6.336950 51.676874 57.805052 22.533687 -104.787121 38.712277 -33.261107 0.000000 0.000000 0.000000
-0.126508 0.858942 0.084201 -0.309294 19.991759 -6.300447 23.528852 -1.274539 -6.004012 -15.129798 1.907037 24.762844 11.600193 22.487154 5.948756 0.000000 0.000000 0.000000 -21.210119 -2.440810 -8.298282 5.470870 -2.771703 26.531632 -2.680267 -7.038074 2.113070 0.000000 0.000000 0.000000 3.745697 -0.877981 10.502762 7.165754 -0.964498 -19.953437 -1.399857 2.905803 21.711511 3.249901 -4.196120 6.027553 0.000000 0.000000 0.000000 -27.305621 -3.188154 -5.666196 -44.593094 -1.213954 -4.961016 -9.995574 -48.696326 4.858240 0.000000 0.000000 0.000000 11.674459 8.392525 5.686657 53.808356 58.393147 24.054189 -105.969775 38.625099 -34.177334 0.000000 0.000000 0.000000
-0.127707 0.860479 0.083233 -0.832672 20.000394 -6.534080 23.740139 -1.328725 -5.701664 -14.464920 1.737827 24.184669 11.521249 22.349858 5.992260 0.000000 0.000000 0.000000 -20.037705 -2.259552 -8.606551 4.624717 -2.502600 26.979953 -2.759230 -7.282196 2.765909 0.000000 0.000000 0.000000 3.392486 -0.831841 10.360985 8.207216 -1.350001 -19.439174 -1.880215 1.580746 21.257635 3.112110 -4.291559 6.802263 0.000000 0.000000 0.000000 -27.187799 -2.544336 -5.526611 -45.281392 -0.674208 -5.388438 -13.383168 -45.485977 6.133312 0.000000 0.000000 0.000000 11.687057 7.995914 5.280606 54.998232 57.989691 24.362465 -107.239254 39.981907 -37.230297 0.000000 0.000000 0.000000
-0.128570 0.861538 0.082424 -1.160071 18.994902 -6.705623 23.968285 -1.282726 -5.351437 -14.269630 1.791949 24.206749 11.804444 22.859255 6.657735 0.000000 0.000000 0.000000 -19.386224 -2.035039 -8.483058 4.379253 -2.202498 26.068363 -2.569729 -6.849938 2.635041 0.000000 0.000000 0.000000 3.182473 -0.786733 10.180476 8.315576 -1.386800 -19.799850 -1.863309 0.873067 22.162837 3.064462 -4.059710 6.187070 0.000000 0.000000 0.000000 -27.161958 -2.103663 -5.259418 -45.604923 -0.366116 -5.796552 -14.796728 -44.490346 6.787979 0.000000 0.000000 0.000000 12.103528 7.546936 4.958984 56.193092 57.379738 24.312251 -109.394662 42.821782 -42.574900 0.000000 0.000000 0.000000
-0.129116 0.862447 0.081757 -1.427574 17.964361 -6.873093 23.861003 -1.262204 -4.562138 -13.641821 1.729049 23.640616 12.171925 23.415795 6.888371 0.000000 0.000000 0.000000 -18.733965 -1.835314 -8.485383 3.961913 -1.880720 25.434574 -2.345959 -6.339446 2.577798 0.000000 0.000000 0.000000 3.232189 -0.747926 9.823416 8.089071 -1.418909 -19.009006 -1.612230 0.573056 22.041927 2.799267 -3.767405 6.197758 0.000000 0.000000 0.000000 -26.998057 -1.809422 -5.034116 -46.594979 -0.160151 -6.151936 -15.200272 -44.239919 7.055390 0.000000 0.000000 0.000000 12.442529 7.185600 4.677100 57.180632 56.207100 23.914768 -111.489150 46.009667 -48.590406 0.000000 0.000000 0.000000
-0.129938 0.863488 0.081159 -1.472277 17.095020 -6.897100 23.685042 -1.301362 -3.367595 -13.271016 1.707210 22.118230 12.494298 23.867841 6.906129 0.000000 0.000000 0.000000 -18.292530 -1.686943 -8.484309 3.526366 -1.574787 24.765758 -2.158755 -5.905822 2.503807 0.000000 0.000000 0.000000 3.060579 -0.715842 9.693368 8.367997 -1.527117 -19.166027 -1.780827 0.710460 22.436339 2.597961 -3.428676 5.752408 0.000000 0.000000 0.000000 -26.672224 -1.126782 -5.205374 -47.421428 -0.231096 -6.374096 -16.782683 -45.261177 7.965034 0.000000 0.000000 0.000000 12.783563 6.800179 4.480885 57.557183 55.084026 23.225667 -112.868196 49.063238 -53.697312 0.000000 0.000000 0.000000
-0.131263 0.864076 0.080895 -1.632222 16.560025 -6.924796 24.108451 -1.390277 -2.516001 -13.619282 1.820703 20.835316 12.649590 24.093845 7.037844 0.000000 0.000000 0.000000 -18.172121 -1.640554 -8.715530 3.806291 -1.629067 24.710454 -1.994282 -5.544896 2.597103 0.000000 0.000000 0.000000 2.968937 -0.698511 9.612891 8.547034 -1.578846 -19.442642 -1.598109 0.768150 22.937099 2.444651 -2.999091 4.679279 0.000000 0.000000 0.000000 -26.297944 -0.299642 -5.489653 -48.365990 -0.721732 -6.462356 -18.759499 -45.694982 8.953557 0.000000 0.000000 0.000000 12.461947 6.801891 4.390168 57.470623 54.514924 22.737301 -113.333883 50.699204 -56.283283 0.000000 0.000000 0.000000
-0.132841 0.863580 0.081155 -1.662373 16.340914 -6.972240 24.210255 -1.448977 -1.938630 -13.562460 1.812129 20.041985 12.733303 24.194188 6.851644 0.000000 0.000000 0.000000 -17.568843 -1.531345 -8.769981 3.064645 -1.337638 24.754055 -2.056634 -5.607524 2.068835 0.000000 0.000000 0.000000 2.938059 -0.705478 9.727154 8.595798 -1.620883 -19.262272 -1.386121 1.022995 22.572123 1.795048 -2.321098 4.723565 0.000000 0.000000 0.000000 -26.032380 -0.431061 -5.380178 -48.515092 -1.268965 -6.254180 -19.656339 -45.787525 9.329570 0.000000 0.000000 0.000000 11.946675 7.062839 4.424290 57.420258 53.879824 22.404626 -113.859073 51.130733 -57.421250 0.000000 0.000000 0.000000
-0.134158 0.862531 0.082021 -1.625081 16.950592 -6.970010 24.492219 -1.549205 -1.868986 -13.859308 1.819476 19.550873 12.507500 23.808421 6.386370 0.000000 0.000000 0.000000 -17.408717 -1.577402 -9.076297 2.782800 -1.368417 25.793754 -2.266025 -6.059118 1.842516 0.000000 0.000000 0.000000 2.927081 -0.771900 10.381193 8.739566 -1.555882 -20.237201 -1.631251 1.198673 22.326089 2.322474 -2.514185 3.253109 0.000000 0.000000 0.000000 -25.191234 -0.917704 -5.094409 -48.895852 -2.059400 -5.969306 -20.207663 -45.629183 9.411986 0.000000 0.000000 0.000000 11.985793 7.394111 4.671665 56.255004 53.388791 21.547745 -113.197376 50.914457 -56.384776 0.000000 0.000000 0.000000
-0.134872 0.861447 0.083233 -1.534031 17.092563 -6.661416 25.016769 -1.627327 -1.898145 -14.801159 1.995543 19.025601 12.491400 23.783117 6.248535 0.000000 0.000000 0.000000 -17.449382 -1.622430 -9.566915 2.755974 -1.418719 26.370286 -2.356442 -6.216016 1.483542 0.000000 0.000000 0.000000 2.864753 -0.751313 10.200421 8.660911 -1.487632 -20.579080 -1.120936 1.716474 22.396267 2.445861 -2.188478 1.457526 0.000000 0.000000 0.000000 -25.667469 -1.416433 -5.120117 -47.767753 -3.141500 -5.305303 -20.568733 -45.435937 9.428945 0.000000 0.000000 0.000000 11.978914 7.492597 4.802923 54.965996 53.317738 20.887404 -110.335679 51.439996 -54.439022 0.000000 0.000000 0.000000
-0.135015 0.860435 0.084658 -1.275871 17.600365 -6.614850 24.090501 -1.592932 -1.871800 -13.546219 1.690174 19.017870 12.408741 23.561543 5.493413 0.000000 0.000000 0.000000 -17.108085 -1.645549 -10.111030 1.650554 -1.153564 27.868979 -2.521199 -6.599288 1.472590 0.000000 0.000000 0.000000 2.477351 -0.793508 10.962830 8.123570 -1.287363 -20.711897 -0.861830 2.345643 21.373626 2.574960 -1.919545 -0.039815 0.000000 0.000000 0.000000 -24.930513 -2.105465 -4.873608 -47.416415 -4.304283 -4.673435 -19.073338 -44.959427 8.504981 0.000000 0.000000 0.000000 12.682087 7.584337 5.097489 52.221745 51.221418 18.269287 -109.204425 50.904733 -52.582656 0.000000 0.000000 0.000000
-0.134781 0.858818 0.085882 -1.454318 15.944612 -4.963216 25.062161 -1.601436 -1.813112 -15.218917 2.089186 16.973345 13.386377 25.151779 5.610972 0.000000 0.000000 0.000000 -16.691476 -1.703649 -14.025491 1.341428 -1.053563 30.569144 -2.058483 -5.573571 2.096531 0.000000 0.000000 0.000000 3.729498 -0.823511 10.018664 7.239580 -0.893076 -23.034252 0.077718 3.756414 23.880304 3.762027 -3.005944 0.079313 0.000000 0.000000 0.000000 -24.201306 -1.972720 -4.921448 -48.227835 -5.080298 -4.699084 -18.173163 -44.831387 8.091476 0.000000 0.000000 0.000000 11.899023 8.120255 5.380203 52.123808 51.168291 18.135600 -107.020491 51.375297 -50.583084 0.000000 0.000000 0.000000
-0.134406 0.858779 0.087095 -1.045072 17.799951 -5.335379 23.566785 -1.414044 -3.553200 -13.090188 1.589942 19.989585 12.618684 23.913756 5.271473 0.000000 0.000000 0.000000 -17.538229 -1.972145 -13.189300 1.726322 -1.510528 31.356672 -2.415759 -6.457149 2.575787 0.000000 0.000000 0.000000 4.228634 -1.023036 11.285813 6.163528 -0.572560 -22.635066 -0.830885 2.385273 22.364096 4.876337 -2.854880 -4.755728 0.000000 0.000000 0.000000 -22.981880 -2.478848 -4.339895 -50.281644 -5.711406 -4.609058 -13.609429 -47.437681 6.516620 0.000000 0.000000 0.000000 10.699559 8.212442 5.138383 52.462605 48.122018 16.759614 -106.725668 52.923964 -52.164670 0.000000 0.000000 0.000000
