HIERARCHY
ROOT Hips
{
	OFFSET -0.001795 -0.223333 0.028219
	CHANNELS 6 Xposition Yposition Zposition Zrotation Yrotation Xrotation
	JOINT LeftUpLeg
	{
		OFFSET 0.069520 -0.091406 -0.006815
		CHANNELS 3 Zrotation Yrotation Xrotation
		JOINT LeftLeg
		{
			OFFSET 0.034277 -0.375199 -0.004496
			CHANNELS 3 Zrotation Yrotation Xrotation
			JOINT LeftFoot
			{
				OFFSET -0.013596 -0.397961 -0.043693
				CHANNELS 3 Zrotation Yrotation Xrotation
				JOINT LeftToe
				{
					OFFSET 0.026358 -0.055791 0.119288
					CHANNELS 3 Zrotation Yrotation Xrotation
					End Site
					{
						OFFSET 0.000000 0.000000 0.000000
					}
				}
			}
		}
	}
	JOINT RightUpLeg
	{
		OFFSET -0.067670 -0.090522 -0.004320
		CHANNELS 3 Zrotation Yrotation Xrotation
		JOINT RightLeg
		{
			OFFSET -0.038290 -0.382569 -0.008850
			CHANNELS 3 Zrotation Yrotation Xrotation
			JOINT RightFoot
			{
				OFFSET 0.015774 -0.398415 -0.042312
				CHANNELS 3 Zrotation Yrotation Xrotation
				JOINT RightToe
				{
					OFFSET -0.025372 -0.048144 0.123348
					CHANNELS 3 Zrotation Yrotation Xrotation
					End Site
					{
						OFFSET 0.000000 0.000000 0.000000
					}
				}
			}
		}
	}
	JOINT Spine
	{
		OFFSET -0.002533 0.108963 -0.026696
		CHANNELS 3 Zrotation Yrotation Xrotation
		JOINT Spine1
		{
			OFFSET 0.005487 0.135180 0.001092
			CHANNELS 3 Zrotation Yrotation Xrotation
			JOINT Spine2
			{
				OFFSET 0.001457 0.052922 0.025425
				CHANNELS 3 Zrotation Yrotation Xrotation
				JOINT Neck
				{
					OFFSET -0.002778 0.213870 -0.042857
					CHANNELS 3 Zrotation Yrotation Xrotation
					JOINT Head
					{
						OFFSET 0.005152 0.064970 0.051349
						CHANNELS 3 Zrotation Yrotation Xrotation
						End Site
						{
							OFFSET 0.000000 0.000000 0.000000
						}
					}
				}
				JOINT LeftShoulder
				{
					OFFSET 0.078845 0.121749 -0.034090
					CHANNELS 3 Zrotation Yrotation Xrotation
					JOINT LeftArm
					{
						OFFSET 0.090977 0.030469 -0.008868
						CHANNELS 3 Zrotation Yrotation Xrotation
						JOINT LeftForeArm
						{
							OFFSET 0.259612 -0.012772 -0.027456
							CHANNELS 3 Zrotation Yrotation Xrotation
							JOINT LeftHand
							{
								OFFSET 0.249234 0.008986 -0.001171
								CHANNELS 3 Zrotation Yrotation Xrotation
								End Site
								{
									OFFSET 0.000000 0.000000 0.000000
								}
							}
						}
					}
				}
				JOINT RightShoulder
				{
					OFFSET -0.081759 0.118833 -0.038615
					CHANNELS 3 Zrotation Yrotation Xrotation
					JOINT RightArm
					{
						OFFSET -0.096012 0.032551 -0.009143
						CHANNELS 3 Zrotation Yrotation Xrotation
						JOINT RightForeArm
						{
							OFFSET -0.253742 -0.013329 -0.021401
							CHANNELS 3 Zrotation Yrotation Xrotation
							JOINT RightHand
							{
								OFFSET -0.255298 0.007772 -0.005559
								CHANNELS 3 Zrotation Yrotation Xrotation
								End Site
								{
									OFFSET 0.000000 0.000000 0.000000
								}
							}
						}
					}
				}
			}
		}
	}
}
MOTION
Frames: 72
Frame Time: 0.050000
0.000000 0.932294 0.000000 2.136593 -3.954591 -10.848777 11.943853 0.258847 2.700333 -2.097662 0.127418 11.690803 0.005310 6.216153 19.082594 0.000000 0.000000 0.000000 -6.147749 -0.358713 11.928140 11.885763 -1.382216 3.935474 -16.158021 -33.308992 11.543529 0.000000 0.000000 0.000000 6.347621 -0.883291 11.498243 -5.100913 2.084552 -13.411700 1.772798 6.593668 25.099349 6.203256 -4.162612 -7.821252 0.000000 0.000000 0.000000 -25.630572 -12.026738 4.313602 -43.376262 2.951308 -7.666710 -26.402691 -65.098706 20.067357 0.000000 0.000000 0.000000 26.353680 6.747462 4.017420 41.209781 7.155530 -4.121241 21.370294 69.636319 19.752367 0.000000 0.000000 0.000000
0.003334 0.930907 0.002825 1.594593 -5.616638 -10.724508 12.471188 0.316682 3.569336 -2.200689 0.188818 11.771580 0.529263 6.257674 17.007667 0.000000 0.000000 0.000000 -6.013960 -0.314133 12.129837 12.021429 -1.308882 3.485919 -15.268444 -31.975135 10.552842 0.000000 0.000000 0.000000 7.171562 -0.764968 9.748100 -6.551096 2.632963 -11.945396 2.532954 5.400990 25.610916 5.786354 -4.127932 -7.252225 0.000000 0.000000 0.000000 -22.927274 -12.040055 5.033908 -45.480205 1.659252 -7.878577 -25.739404 -69.254455 21.897498 0.000000 0.000000 0.000000 25.313833 8.078712 4.105853 41.781295 6.975739 -4.045064 35.204939 76.468110 33.246571 0.000000 0.000000 0.000000
0.006300 0.930642 0.004721 1.388522 -6.346814 -10.674210 12.033435 0.338543 4.443437 -1.888412 0.134985 11.649841 1.574073 7.179857 14.442671 0.000000 0.000000 0.000000 -5.547674 -0.347010 12.268543 11.114651 -1.168292 3.263913 -14.972764 -31.497356 10.218535 0.000000 0.000000 0.000000 7.291992 -0.705001 9.069566 -5.770922 2.316936 -11.743509 1.342928 5.802817 26.439164 6.856741 -4.732573 -9.161805 0.000000 0.000000 0.000000 -22.056363 -12.773335 5.498404 -43.574764 -0.855330 -6.824726 -25.001566 -72.498373 22.671137 0.000000 0.000000 0.000000 25.323145 7.277130 3.616437 39.588156 7.726996 -3.709643 63.533397 80.892237 61.301994 0.000000 0.000000 0.000000
0.008893 0.930991 0.005953 1.684131 -7.895757 -11.359810 11.752914 0.425156 5.743181 -1.563956 0.095133 12.326149 0.846962 5.507209 12.968552 0.000000 0.000000 0.000000 -5.391453 -0.320725 12.928977 9.642750 -0.958608 3.208934 -14.281369 -30.346114 9.536490 0.000000 0.000000 0.000000 7.271286 -0.685661 9.188089 -6.368451 2.537450 -11.128140 1.090473 4.939826 26.885261 7.302766 -5.418303 -8.620063 0.000000 0.000000 0.000000 -21.435843 -13.317075 6.304553 -42.452537 -2.264499 -6.351137 -21.355941 -76.673007 21.895886 0.000000 0.000000 0.000000 24.177648 7.738749 3.278209 40.236238 9.893753 -2.945819 127.671475 82.027325 127.182110 0.000000 0.000000 0.000000
0.010898 0.931388 0.006631 1.765064 -9.074631 -11.055021 10.970742 0.469494 5.650085 -1.628422 0.145907 12.250761 2.860542 8.735652 13.557979 0.000000 0.000000 0.000000 -5.276527 -0.261238 12.137105 8.879664 -0.861020 3.813365 -13.843967 -29.574116 9.157255 0.000000 0.000000 0.000000 7.043179 -0.684316 9.304961 -5.867895 2.332139 -10.306956 0.407157 5.458676 25.691191 7.638432 -5.655402 -8.553167 0.000000 0.000000 0.000000 -20.473777 -14.841459 7.085782 -41.794068 -4.158858 -5.554738 -13.582588 -79.490593 16.419874 0.000000 0.000000 0.000000 24.290830 8.362847 3.521834 38.876140 11.688469 -2.207354 160.984941 77.406246 162.998890 0.000000 0.000000 0.000000
0.012333 0.931080 0.007355 1.580081 -11.065429 -10.808679 11.183344 0.552066 6.219399 -2.250700 0.348333 11.945246 4.107370 10.526364 13.445353 0.000000 0.000000 0.000000 -4.842544 -0.221554 11.278623 7.997525 -0.731625 4.608693 -13.060637 -28.207358 8.273446 0.000000 0.000000 0.000000 7.221009 -0.690454 9.403474 -6.086200 2.338147 -10.768322 0.577551 5.748243 26.001317 7.778761 -5.846514 -8.636226 0.000000 0.000000 0.000000 -20.057109 -15.265116 7.560023 -41.147345 -5.863197 -5.040018 -2.761182 -82.501114 8.103321 0.000000 0.000000 0.000000 23.441604 9.353198 3.791238 38.517463 14.392195 -1.338888 174.290972 72.610892 179.126038 0.000000 0.000000 0.000000
0.013431 0.930082 0.008593 1.862831 -12.685654 -11.034387 10.971632 0.631131 6.476562 -2.624966 0.494152 12.120793 4.991779 11.909222 14.969929 0.000000 0.000000 0.000000 -5.109886 -0.106027 10.171652 7.533691 -0.660403 6.731315 -12.525971 -27.236943 7.228857 0.000000 0.000000 0.000000 7.350121 -0.724263 9.970042 -6.841886 2.624510 -10.272335 0.497330 5.980831 25.316310 7.739308 -5.818415 -8.785181 0.000000 0.000000 0.000000 -19.644820 -16.273889 8.218432 -40.038813 -8.117189 -4.217177 30.473575 -84.858337 -21.853562 0.000000 0.000000 0.000000 22.871911 10.611944 4.241892 38.098470 16.690466 -0.523962 -178.647866 70.669036 -171.380161 0.000000 0.000000 0.000000
0.014387 0.928421 0.010725 2.154499 -14.136794 -11.419378 10.682515 0.701458 6.567832 -2.886399 0.664315 13.707313 5.522973 12.580247 14.442348 0.000000 0.000000 0.000000 -5.641861 0.021376 9.372723 7.537050 -0.624581 8.717240 -12.049880 -26.326904 6.141328 0.000000 0.000000 0.000000 8.030630 -0.774074 10.490029 -7.227858 2.726396 -10.568984 0.716774 6.496980 25.820200 7.774818 -5.636942 -10.324309 0.000000 0.000000 0.000000 -19.541237 -17.243143 8.853820 -39.797324 -9.855979 -3.746310 89.770409 -85.743225 -78.672704 0.000000 0.000000 0.000000 22.424397 11.172465 4.445195 36.607294 18.912870 0.060617 -175.706666 69.323684 -167.209253 0.000000 0.000000 0.000000
0.015140 0.926481 0.013772 2.666346 -15.269114 -12.073058 10.274020 0.760374 6.643979 -3.246065 0.881200 15.180622 6.074299 13.377802 15.079338 0.000000 0.000000 0.000000 -6.633577 0.189389 8.925001 7.965065 -0.640382 10.622796 -11.688582 -25.586580 5.137192 0.000000 0.000000 0.000000 8.914606 -0.822400 10.976059 -7.452010 2.818864 -10.240714 0.698570 6.789252 25.374638 6.921824 -4.864058 -10.998492 0.000000 0.000000 0.000000 -19.788511 -17.886453 9.314073 -39.405408 -10.748970 -3.434128 131.762558 -83.388564 -119.166674 0.000000 0.000000 0.000000 22.297481 12.120564 4.830171 35.265887 19.962166 0.376987 -172.314571 68.688100 -162.512689 0.000000 0.000000 0.000000
0.015837 0.924562 0.017666 3.179167 -16.213402 -12.977374 10.078106 0.810594 6.480220 -3.776988 1.263045 17.947485 6.062910 13.287428 14.874445 0.000000 0.000000 0.000000 -7.109369 0.280463 8.578478 7.484146 -0.498500 12.952485 -11.492134 -25.110889 4.338302 0.000000 0.000000 0.000000 9.880023 -0.893726 11.775119 -7.216457 2.685364 -10.444062 0.593520 6.629733 25.424951 6.301592 -4.450175 -11.126789 0.000000 0.000000 0.000000 -20.423255 -18.187050 9.780874 -38.713648 -11.068843 -3.380239 148.393364 -80.307711 -134.694082 0.000000 0.000000 0.000000 22.542780 13.135001 5.164681 33.059102 20.928289 0.582625 -169.295120 67.342354 -158.241667 0.000000 0.000000 0.000000
0.016282 0.922293 0.022122 3.919285 -17.238375 -13.958015 9.790107 0.851142 6.106987 -4.337345 1.763217 20.834224 5.942519 13.042754 15.776557 0.000000 0.000000 0.000000 -7.916729 0.431908 8.816847 7.152420 -0.367824 14.269445 -11.230666 -24.432953 3.223195 0.000000 0.000000 0.000000 11.081275 -0.978767 12.714648 -6.464376 2.368429 -10.163040 0.045348 6.068370 24.681999 6.251479 -4.566811 -10.806402 0.000000 0.000000 0.000000 -20.340486 -18.202254 10.030253 -38.092625 -10.171648 -3.612796 155.268428 -77.823666 -140.762993 0.000000 0.000000 0.000000 22.040075 13.354117 4.876245 32.368721 22.567232 1.102808 -165.661815 66.691290 -153.390112 0.000000 0.000000 0.000000
0.016658 0.919667 0.026908 4.509529 -18.117872 -14.454337 9.708413 0.835035 4.602854 -4.195148 2.281098 25.420978 4.188568 10.202435 15.579371 0.000000 0.000000 0.000000 -8.335176 0.523886 8.443760 6.486452 -0.143682 15.871386 -11.137937 -24.037157 2.166284 0.000000 0.000000 0.000000 12.253471 -1.117730 14.024477 -5.704236 1.973322 -11.063562 -0.467247 5.485899 24.514357 5.782368 -4.334238 -10.795469 0.000000 0.000000 0.000000 -20.095930 -18.331641 10.347798 -37.285629 -9.058224 -3.956700 159.183269 -76.175084 -144.176904 0.000000 0.000000 0.000000 22.874553 13.753796 4.729430 30.073322 23.440224 1.244601 -163.965897 64.899385 -150.755085 0.000000 0.000000 0.000000
0.016458 0.917864 0.031994 5.457872 -19.860620 -15.123496 9.483560 0.822874 2.315819 -3.916523 3.110010 30.755799 2.772429 8.131285 18.147418 0.000000 0.000000 0.000000 -9.386741 0.730573 7.788090 6.223047 0.086199 17.706277 -10.652378 -22.784342 1.120435 0.000000 0.000000 0.000000 13.885197 -1.154595 14.550433 -4.575359 1.533234 -9.547772 -1.412837 4.729109 22.692165 4.561434 -3.456673 -10.932914 0.000000 0.000000 0.000000 -20.042360 -16.874467 9.856267 -35.947667 -6.575439 -4.471258 164.077526 -75.180990 -149.667224 0.000000 0.000000 0.000000 21.401472 14.637984 4.649038 29.450238 24.721362 1.718199 -159.715849 63.743494 -144.725774 0.000000 0.000000 0.000000
0.015722 0.916452 0.037597 6.735750 -20.655166 -16.229241 8.216470 0.681430 -0.337528 -3.957246 4.318855 36.624007 4.272063 10.467976 19.305760 0.000000 0.000000 0.000000 -10.495540 0.954285 8.094665 5.571513 0.333384 18.774181 -10.497080 -22.209328 0.330608 0.000000 0.000000 0.000000 14.742700 -1.288048 16.421370 -4.596235 1.456017 -11.079381 -0.921779 4.002317 23.595804 2.798975 -2.251676 -11.005574 0.000000 0.000000 0.000000 -19.517387 -18.057021 10.728910 -35.120774 -5.033740 -4.901101 157.458818 -72.982417 -139.494613 0.000000 0.000000 0.000000 20.616754 14.129556 3.989880 26.954831 26.099410 1.781529 -157.232823 62.887652 -141.402374 0.000000 0.000000 0.000000
0.014072 0.916645 0.044372 7.528665 -21.306630 -17.511314 6.639772 0.477905 -2.444788 -3.668148 5.059791 40.028232 5.774957 12.633546 19.788766 0.000000 0.000000 0.000000 -10.442136 1.081496 9.681024 3.779490 0.713345 18.437536 -10.343283 -21.650877 0.008644 0.000000 0.000000 0.000000 15.580153 -1.365173 17.765947 -3.848449 1.128752 -11.265192 -1.346531 3.127729 23.646201 2.616920 -2.264957 -11.013074 0.000000 0.000000 0.000000 -17.565116 -16.745845 9.874960 -35.899909 -5.372515 -4.958269 155.893954 -71.328678 -135.349439 0.000000 0.000000 0.000000 18.856018 14.930132 4.098384 25.123522 26.668111 1.733502 -154.006223 62.587146 -137.318637 0.000000 0.000000 0.000000
0.011562 0.917249 0.052317 8.004965 -22.119307 -17.841770 4.889986 0.174315 -5.255782 -3.310568 5.698466 42.592456 5.738755 12.366631 15.467273 0.000000 0.000000 0.000000 -10.542959 1.183184 10.062692 2.927915 0.948594 18.630369 -10.093658 -21.033933 0.051233 0.000000 0.000000 0.000000 15.808967 -1.386096 18.420963 -3.510864 0.952180 -11.445092 -1.055333 3.762828 23.550426 2.683088 -2.286508 -10.838260 0.000000 0.000000 0.000000 -15.561518 -16.321650 9.163056 -36.382606 -7.308975 -4.402547 154.139876 -70.064057 -131.867710 0.000000 0.000000 0.000000 18.359614 14.050167 3.705988 23.621812 26.728780 1.545152 -152.406874 63.536362 -135.847074 0.000000 0.000000 0.000000
0.007976 0.918911 0.061521 8.791063 -23.494154 -18.215074 3.050357 -0.159958 -7.765995 -3.580332 6.380334 42.734308 5.010623 10.903516 11.253600 0.000000 0.000000 0.000000 -10.890862 1.414239 10.816232 1.925377 1.123931 17.845868 -9.593079 -19.795188 -0.025363 0.000000 0.000000 0.000000 15.912187 -1.395575 19.440205 -3.346903 0.797391 -12.920878 -1.258862 4.285173 24.603815 2.255273 -1.975972 -11.549457 0.000000 0.000000 0.000000 -14.525447 -15.712358 8.763775 -37.267745 -9.029061 -4.070935 152.478317 -68.379274 -127.656059 0.000000 0.000000 0.000000 17.837866 14.623186 3.897815 22.250068 26.962362 1.380189 -148.929868 66.334199 -133.584994 0.000000 0.000000 0.000000
0.003227 0.919057 0.071990 9.196654 -26.177215 -18.285056 2.252167 -0.326495 -10.440108 -4.278281 7.036798 40.876986 4.980943 10.539399 8.706232 0.000000 0.000000 0.000000 -11.591525 1.690965 10.323546 2.200424 1.219786 18.453781 -8.688612 -17.545143 -0.617818 0.000000 0.000000 0.000000 16.848482 -1.342554 20.063539 -4.135316 1.027908 -12.743607 -1.079787 5.024957 24.338084 2.309110 -2.023971 -12.044195 0.000000 0.000000 0.000000 -13.504967 -16.141148 8.851838 -38.382328 -8.985108 -4.099336 150.008737 -66.691865 -122.406409 0.000000 0.000000 0.000000 16.262082 13.944162 3.431881 22.556919 27.206785 1.493111 -147.821248 68.685624 -134.642806 0.000000 0.000000 0.000000
-0.002768 0.917579 0.083323 9.221156 -29.571270 -18.459880 1.648007 -0.390884 -12.041904 -4.050041 6.793753 37.610170 4.870146 10.086789 6.419664 0.000000 0.000000 0.000000 -11.606046 1.859615 9.687551 1.946914 1.553669 19.682953 -7.750863 -14.898504 -1.589081 0.000000 0.000000 0.000000 17.353056 -1.258197 21.319195 -4.558403 1.059384 -13.683766 -0.763528 6.062944 25.509769 1.436243 -1.405149 -13.008154 0.000000 0.000000 0.000000 -13.836435 -16.386943 9.266339 -39.340364 -10.650670 -3.788708 145.277552 -65.414171 -114.187736 0.000000 0.000000 0.000000 14.906108 14.308420 3.432840 21.487084 29.137259 1.583400 -138.123281 69.473542 -123.343345 0.000000 0.000000 0.000000
-0.010141 0.913537 0.096171 9.661626 -34.065433 -18.567714 2.168277 -0.149674 -13.746070 -5.052494 6.775352 32.670365 4.593662 9.383206 4.725160 0.000000 0.000000 0.000000 -11.649860 1.989287 8.076634 1.031212 2.283730 21.775582 -6.893824 -11.569776 -3.465845 0.000000 0.000000 0.000000 16.925998 -1.027235 23.188624 -4.878022 0.987102 -15.618315 -1.265494 7.242133 26.910165 0.702587 -1.016636 -14.197276 0.000000 0.000000 0.000000 -15.053153 -16.575436 10.050105 -38.940801 -12.315917 -3.491357 138.892545 -65.370979 -105.396428 0.000000 0.000000 0.000000 14.478337 14.451790 3.136449 21.801496 32.457740 2.029954 -131.939269 68.838117 -115.809985 0.000000 0.000000 0.000000
-0.019420 0.907178 0.111766 9.674555 -38.417724 -18.894385 2.872738 0.211405 -14.818240 -4.437984 6.067990 29.178548 3.310718 6.827376 4.126857 0.000000 0.000000 0.000000 -11.651625 2.169736 7.251484 0.707120 2.949289 23.787392 -6.372240 -8.326585 -5.656290 0.000000 0.000000 0.000000 16.521332 -0.724601 24.704934 -6.218248 1.290525 -16.565964 -1.758469 7.006108 27.082401 0.438692 -1.157659 -14.421994 0.000000 0.000000 0.000000 -16.124704 -16.501058 10.898055 -38.494625 -12.074517 -3.749718 137.493890 -64.358036 -101.690551 0.000000 0.000000 0.000000 16.689472 15.026606 2.476811 19.708599 35.331783 2.164631 -125.374612 68.363684 -108.462451 0.000000 0.000000 0.000000
-0.031285 0.899970 0.130831 9.205987 -43.689581 -18.513106 5.198886 1.134881 -15.493497 -3.568317 6.026645 28.179808 2.355856 5.037482 3.039680 0.000000 0.000000 0.000000 -11.504396 2.356936 6.361612 0.924441 3.607416 25.758512 -6.378557 -4.809010 -8.728373 0.000000 0.000000 0.000000 14.819125 -0.276071 25.201938 -6.023957 1.016881 -15.633836 -2.878518 9.387819 25.077436 0.376649 -1.037990 -13.908481 0.000000 0.000000 0.000000 -15.530990 -15.908837 10.533639 -38.063243 -12.407009 -3.512475 134.356701 -65.422629 -99.186420 0.000000 0.000000 0.000000 19.057948 15.439193 2.094809 18.777647 36.159457 2.322086 -126.497031 64.711442 -105.796242 0.000000 0.000000 0.000000
-0.044870 0.893228 0.154129 8.104163 -48.092417 -18.259370 6.921572 1.996511 -15.970174 -1.731689 6.146745 29.666137 3.799084 7.435756 4.720274 0.000000 0.000000 0.000000 -10.559521 2.426069 6.885251 -0.280444 4.503690 27.047672 -6.149709 -1.526246 -10.578265 0.000000 0.000000 0.000000 12.671824 0.104453 24.905414 -5.523720 0.578715 -16.313850 -3.366752 9.825701 24.400030 0.334528 -1.231781 -12.849126 0.000000 0.000000 0.000000 -17.107946 -14.718888 10.942816 -37.146119 -10.055637 -4.358123 137.368623 -65.491747 -102.582467 0.000000 0.000000 0.000000 19.881279 15.855015 1.458736 18.426722 37.301997 2.446751 -126.176374 63.858684 -105.201131 0.000000 0.000000 0.000000
-0.059199 0.887838 0.181373 6.474453 -52.354621 -17.447214 9.820018 3.191355 -14.949014 -1.088105 7.030042 31.430687 5.272473 9.741128 6.355666 0.000000 0.000000 0.000000 -10.659093 2.657540 6.793282 -0.025168 5.159750 28.747948 -4.436061 2.631668 -10.097578 0.000000 0.000000 0.000000 10.707965 0.256389 23.115772 -4.589666 0.028708 -15.371498 -5.479965 11.126084 21.055372 -1.326428 0.082894 -12.318609 0.000000 0.000000 0.000000 -17.562389 -12.120465 9.931235 -36.103940 -7.154666 -5.061901 140.855315 -66.857999 -108.321348 0.000000 0.000000 0.000000 20.793129 17.350120 1.629602 16.458312 36.329993 2.116628 -123.553909 62.765905 -100.858261 0.000000 0.000000 0.000000
-0.072738 0.884187 0.210902 4.005817 -55.337488 -15.348566 12.401544 4.259927 -13.958650 -0.018683 7.367327 32.968735 5.587623 9.729582 8.758008 0.000000 0.000000 0.000000 -10.759733 2.856957 7.065115 0.432682 5.427303 29.612097 -2.446957 5.803658 -8.643109 0.000000 0.000000 0.000000 8.891824 0.203725 20.640176 -6.452826 0.457060 -19.324120 -4.134177 12.104124 23.346977 0.439172 -1.691316 -12.419145 0.000000 0.000000 0.000000 -16.973924 -12.687735 10.703535 -37.230328 -4.949705 -5.923669 140.319550 -65.614910 -105.097189 0.000000 0.000000 0.000000 19.319047 15.136609 0.157332 17.231193 36.074648 2.022717 -121.511122 62.019615 -98.643074 0.000000 0.000000 0.000000
-0.085049 0.880044 0.240159 2.656461 -58.030168 -14.447691 13.584629 4.591702 -11.800043 1.286044 7.808814 34.381711 5.379619 9.229805 9.367153 0.000000 0.000000 0.000000 -10.921574 3.179462 7.543909 -0.514635 6.185135 30.503658 -0.555718 8.091824 -6.828471 0.000000 0.000000 0.000000 5.453043 0.187429 17.680990 -6.293528 0.287600 -18.123273 -5.794254 13.253780 20.095547 0.744633 -2.087815 -13.449169 0.000000 0.000000 0.000000 -16.450621 -9.543069 8.940086 -36.103965 -4.222465 -5.756408 140.424985 -67.428558 -106.790362 0.000000 0.000000 0.000000 21.253283 16.733403 0.337555 14.084138 34.876380 1.338942 -114.743149 60.379397 -88.207305 0.000000 0.000000 0.000000
-0.096491 0.876620 0.268630 0.136031 -59.154066 -12.849165 14.324003 4.833257 -10.984426 2.116002 9.516567 38.946299 5.368484 10.635712 3.986369 0.000000 0.000000 0.000000 -10.211323 2.994563 7.584130 -0.266761 6.973581 32.667240 1.244512 5.054947 -1.486370 0.000000 0.000000 0.000000 2.334046 0.236825 15.716771 -7.563984 0.580651 -19.857204 -4.855994 14.568443 20.929994 2.176875 -3.213975 -13.616039 0.000000 0.000000 0.000000 -16.362090 -9.353069 8.720340 -35.025534 -2.343442 -6.008085 140.866084 -67.556266 -108.016448 0.000000 0.000000 0.000000 21.052868 14.553096 -0.522051 11.920672 35.212530 0.585218 -105.147038 56.995082 -73.994578 0.000000 0.000000 0.000000
-0.107453 0.878190 0.296368 -2.399901 -58.429597 -10.605945 14.589083 4.681468 -10.102830 2.289331 10.065593 40.689230 5.120142 11.212009 0.292015 0.000000 0.000000 0.000000 -9.225849 2.789154 8.434884 -0.125504 6.971316 32.953938 2.587355 0.544605 5.032420 0.000000 0.000000 0.000000 -1.165106 0.293992 12.782727 -10.190657 1.533092 -19.907921 -3.156333 14.676925 19.665287 2.146586 -3.107278 -15.555359 0.000000 0.000000 0.000000 -16.551218 -7.889367 7.770961 -35.031629 -0.399770 -6.298170 149.920000 -69.423162 -121.223120 0.000000 0.000000 0.000000 19.607382 13.971584 -0.154133 10.750506 31.957455 0.158873 -94.909450 50.630229 -57.651914 0.000000 0.000000 0.000000
-0.118057 0.881419 0.324625 -4.924424 -57.220017 -8.054339 15.200316 4.594532 -9.067760 1.996633 9.694179 40.361549 4.536385 10.376166 -1.133356 0.000000 0.000000 0.000000 -8.722547 2.653947 9.114777 0.417236 6.563928 32.709283 4.549962 -2.497062 12.448390 0.000000 0.000000 0.000000 -2.798655 0.278682 10.645776 -12.993875 2.525180 -21.612800 -1.775579 15.453196 18.625946 3.253177 -3.536552 -15.762019 0.000000 0.000000 0.000000 -16.040186 -6.850407 6.603033 -34.758328 3.447481 -6.897963 160.377838 -70.331885 -136.582069 0.000000 0.000000 0.000000 15.837274 10.682818 -0.201918 12.492204 32.779364 0.208578 -85.773143 44.505962 -44.633944 0.000000 0.000000 0.000000
-0.128544 0.888708 0.353804 -6.951022 -54.949038 -6.050058 15.078084 4.033716 -7.229846 0.907545 8.767768 37.849666 5.024040 11.768348 -1.869034 0.000000 0.000000 0.000000 -8.090488 2.403689 9.574957 0.797635 6.307407 32.857519 6.938830 -5.323545 22.501855 0.000000 0.000000 0.000000 -4.952183 0.343511 8.023991 -13.741881 2.860891 -22.630940 -2.212589 18.075461 18.007381 3.600788 -3.136176 -17.992958 0.000000 0.000000 0.000000 -14.300642 -6.392333 5.165053 -33.640846 6.115341 -7.010518 169.558517 -70.837169 -150.965409 0.000000 0.000000 0.000000 12.719638 7.141787 -0.093670 14.910339 31.552254 0.342224 -78.622174 39.846201 -35.042636 0.000000 0.000000 0.000000
-0.138484 0.895355 0.384037 -8.165172 -52.256550 -5.200323 14.179324 3.251415 -5.001920 -0.118529 7.507690 34.543225 6.718913 15.444497 -1.068248 0.000000 0.000000 0.000000 -7.218783 2.207148 10.923119 1.033633 6.161247 33.437070 6.894159 -7.939664 29.131758 0.000000 0.000000 0.000000 -6.729894 0.407847 5.658767 -14.033494 3.037887 -23.681779 -1.634977 20.810269 18.791488 5.173051 -3.369897 -19.872231 0.000000 0.000000 0.000000 -13.998609 -7.049475 4.690625 -32.348927 8.189160 -7.087279 175.018798 -71.191109 -160.783903 0.000000 0.000000 0.000000 8.591689 3.350942 -0.146143 17.072678 32.512664 0.443474 -71.965486 35.756080 -27.027730 0.000000 0.000000 0.000000
-0.147834 0.904260 0.414014 -9.147316 -48.731580 -5.148499 13.530016 2.640756 -2.538749 -0.608477 6.294103 32.291750 7.271286 16.709725 -0.662353 0.000000 0.000000 0.000000 -5.861274 1.706946 11.525678 1.279650 6.207337 34.682697 4.741543 -10.832591 32.387235 0.000000 0.000000 0.000000 -6.991963 0.333979 4.255547 -16.539299 4.037623 -24.483822 -1.779356 21.890632 19.828392 4.665779 -2.171918 -23.642850 0.000000 0.000000 0.000000 -12.582662 -6.002239 3.380933 -31.372942 7.818138 -6.683854 177.553633 -71.793855 -166.042927 0.000000 0.000000 0.000000 4.397766 0.466759 -0.290816 19.647182 30.596352 0.595473 -69.738908 35.622511 -24.856651 0.000000 0.000000 0.000000
-0.156235 0.911180 0.442587 -10.304727 -44.630944 -5.023919 14.257465 2.502527 -1.220305 -1.091751 5.473950 31.442342 6.887337 15.309831 0.643018 0.000000 0.000000 0.000000 -5.579063 1.214448 9.966625 3.254824 6.357140 38.631274 5.238888 -10.322896 34.949325 0.000000 0.000000 0.000000 -8.792747 0.464343 3.695215 -16.099934 4.013644 -24.052616 -2.553535 23.450776 19.144521 6.329684 -2.213135 -25.289683 0.000000 0.000000 0.000000 -12.365318 -5.938779 2.555133 -29.750722 7.878987 -6.144179 179.731884 -72.057013 -171.701339 0.000000 0.000000 0.000000 1.704746 -2.099729 -0.749370 19.208726 28.865889 0.432552 -67.704366 34.906364 -21.897282 0.000000 0.000000 0.000000
-0.163715 0.918183 0.468079 -11.777861 -40.992033 -5.320044 16.286547 2.643534 0.521261 -1.884012 5.090842 31.352925 5.413142 11.878270 1.554650 0.000000 0.000000 0.000000 -5.236816 0.821169 8.330468 4.500281 6.203311 41.155769 4.745403 -9.904496 33.365972 0.000000 0.000000 0.000000 -8.826090 0.395096 3.795679 -17.784947 4.703595 -23.846189 -2.308981 24.076219 18.646576 7.858389 -2.325722 -26.793901 0.000000 0.000000 0.000000 -12.457853 -5.727899 1.872962 -28.150913 8.011029 -5.661020 176.734999 -72.579978 -169.722698 0.000000 0.000000 0.000000 -1.229240 -3.558267 -1.042909 17.469876 25.326980 0.049138 -65.667824 35.510693 -20.430573 0.000000 0.000000 0.000000
-0.170544 0.922025 0.490737 -13.026905 -37.463129 -4.881006 17.628965 2.581849 1.566906 -2.660792 4.476787 29.932985 5.456294 11.861343 2.231621 0.000000 0.000000 0.000000 -5.390114 0.631097 6.853483 3.877153 5.102729 37.758644 1.308890 -11.424396 24.882343 0.000000 0.000000 0.000000 -8.862955 0.355696 3.835630 -18.669350 4.998285 -24.435630 -1.743488 23.609526 19.791100 7.456952 -1.973955 -25.889086 0.000000 0.000000 0.000000 -13.562383 -3.589092 0.521661 -25.915680 7.273530 -5.024909 170.904810 -73.278443 -163.168500 0.000000 0.000000 0.000000 -3.239261 -4.772761 -1.390566 12.968343 22.833234 -0.522464 -63.254980 35.375180 -19.047056 0.000000 0.000000 0.000000
-0.177496 0.926657 0.510889 -14.092319 -34.992491 -5.263857 19.356191 2.598034 3.559974 -3.427777 4.200391 29.109304 4.630789 10.170304 2.460355 0.000000 0.000000 0.000000 -5.801555 0.599294 6.762929 3.023893 3.799244 32.186336 -0.261714 -10.458979 16.083195 0.000000 0.000000 0.000000 -8.376543 0.258451 3.902521 -20.953265 5.823717 -24.342173 -0.169691 24.004776 19.957023 8.862860 -2.610484 -24.767906 0.000000 0.000000 0.000000 -15.772326 -3.164134 -0.297182 -23.803756 8.056616 -4.583727 153.407638 -75.577353 -142.930758 0.000000 0.000000 0.000000 -3.759958 -5.356690 -1.688226 9.708078 21.339190 -0.758962 -60.651645 36.248608 -18.016761 0.000000 0.000000 0.000000
-0.185354 0.930531 0.527776 -14.814676 -31.286934 -5.218797 20.215474 2.314249 4.812106 -3.265189 3.162584 26.802042 4.346589 9.614812 2.549740 0.000000 0.000000 0.000000 -5.865047 0.458588 5.136466 1.675353 2.898808 27.027216 1.501053 -8.075250 16.887602 0.000000 0.000000 0.000000 -8.851214 0.277873 4.252201 -21.671305 5.959296 -25.194638 0.528673 23.688654 20.941746 10.131275 -3.334929 -23.461962 0.000000 0.000000 0.000000 -16.848926 -1.775635 -1.526881 -23.812195 7.403266 -4.423156 130.100186 -79.590712 -119.519339 0.000000 0.000000 0.000000 -4.804823 -5.403396 -1.800170 8.452424 18.250861 -0.875898 -58.258581 38.643547 -17.977098 0.000000 0.000000 0.000000
-0.195052 0.933750 0.540593 -15.504028 -28.042796 -5.474781 21.984652 2.112566 6.485476 -3.347624 2.418063 24.494002 3.011385 6.865023 2.110472 0.000000 0.000000 0.000000 -6.085774 0.389817 4.395244 1.022407 2.088403 22.374724 3.245152 -5.264097 17.181604 0.000000 0.000000 0.000000 -9.273304 0.303972 5.079905 -21.476258 5.978032 -24.626853 0.423316 24.336826 20.745118 12.197525 -4.198058 -23.563340 0.000000 0.000000 0.000000 -18.007081 -1.615330 -2.434944 -22.419425 7.396669 -3.979104 92.879049 -80.565042 -82.436323 0.000000 0.000000 0.000000 -3.696511 -5.325402 -1.978690 5.686637 16.271134 -0.952325 -56.039406 39.148501 -16.811209 0.000000 0.000000 0.000000
-0.206653 0.937132 0.549745 -16.242858 -24.464049 -5.563946 23.501870 1.869346 6.404260 -3.265295 1.934432 23.780449 2.988798 6.890226 2.873811 0.000000 0.000000 0.000000 -4.901765 0.185323 3.656203 1.192930 1.691374 21.017597 1.890837 -7.225839 17.758825 0.000000 0.000000 0.000000 -9.906218 0.385726 6.263723 -21.592392 5.930739 -25.440838 1.440290 23.250181 22.133011 11.844385 -3.937228 -23.317580 0.000000 0.000000 0.000000 -17.519553 -1.450294 -2.633467 -23.677813 6.616835 -4.109823 60.682166 -76.417813 -48.919429 0.000000 0.000000 0.000000 -5.358712 -5.186779 -2.012727 6.488026 14.680212 -0.930444 -53.069343 41.085810 -16.336625 0.000000 0.000000 0.000000
-0.219772 0.939439 0.556693 -16.389192 -21.725775 -5.557311 24.230763 1.575856 6.660575 -2.531685 1.291194 22.411304 2.469802 5.896330 3.110714 0.000000 0.000000 0.000000 -4.984427 0.177549 2.483880 1.188213 1.396377 19.579007 1.217568 -7.170183 15.930135 0.000000 0.000000 0.000000 -10.527255 0.482118 7.331983 -20.219438 5.564650 -25.109812 0.410383 23.779127 21.923664 11.351189 -3.497728 -22.364518 0.000000 0.000000 0.000000 -15.940677 -1.820180 -2.616440 -25.328645 6.342829 -4.310186 44.609262 -73.516844 -34.211062 0.000000 0.000000 0.000000 -5.742272 -4.752693 -2.051086 6.654609 13.251162 -0.934124 -52.186225 43.498754 -16.503904 0.000000 0.000000 0.000000
-0.234305 0.941300 0.562904 -15.621721 -18.541004 -5.869427 24.274254 1.239560 6.265329 -1.385778 0.600254 21.295901 1.053566 3.379549 4.458969 0.000000 0.000000 0.000000 -4.935715 0.138954 2.179471 1.114609 1.188261 18.643026 0.672244 -7.239027 14.925023 0.000000 0.000000 0.000000 -11.095912 0.552416 8.243384 -20.886071 5.851127 -24.659269 -0.047994 22.453909 21.792095 10.292724 -2.791000 -22.148608 0.000000 0.000000 0.000000 -14.459964 -2.310623 -2.197883 -26.454920 5.584272 -4.389851 37.976470 -71.202654 -28.082831 0.000000 0.000000 0.000000 -6.002869 -3.328037 -1.651849 7.114658 10.317010 -0.953481 -51.524650 45.580174 -17.106945 0.000000 0.000000 0.000000
-0.250259 0.941945 0.568903 -14.626193 -16.471766 -6.340266 24.413839 0.987557 6.522949 -0.801317 0.208685 19.422239 -0.386250 1.491232 7.502712 0.000000 0.000000 0.000000 -4.885082 0.135078 1.472914 1.206069 1.080961 18.559795 1.960242 -4.574553 14.559983 0.000000 0.000000 0.000000 -11.975777 0.708404 9.583442 -19.969333 5.581931 -24.738674 -0.932719 22.988125 22.178427 9.052378 -1.759120 -22.098899 0.000000 0.000000 0.000000 -13.760936 -3.130555 -1.980892 -26.942078 4.449097 -4.236925 30.452416 -68.783740 -21.940693 0.000000 0.000000 0.000000 -6.303635 -3.024596 -1.713782 6.727880 7.732113 -0.956818 -49.735522 47.770207 -16.952349 0.000000 0.000000 0.000000
-0.267809 0.941253 0.574757 -13.020700 -15.217506 -6.607078 23.724858 0.817981 6.666937 -0.274782 -0.033814 18.196876 -1.374000 0.521969 10.063999 0.000000 0.000000 0.000000 -4.939908 0.136817 1.200987 0.728474 1.137321 18.377260 1.459829 -4.723498 13.299910 0.000000 0.000000 0.000000 -12.410631 0.797804 10.309655 -20.404521 5.790469 -24.311907 -2.179359 22.081489 21.643548 8.367632 -1.467019 -21.470509 0.000000 0.000000 0.000000 -13.993039 -2.950666 -2.095092 -26.515003 3.971598 -4.056378 27.041932 -67.893613 -19.145885 0.000000 0.000000 0.000000 -6.107527 -2.156520 -1.403294 6.757647 6.597985 -0.948799 -50.225325 47.889901 -17.355375 0.000000 0.000000 0.000000
-0.286990 0.940020 0.580256 -11.247076 -14.318557 -6.765507 22.760952 0.666353 7.143053 0.903802 -0.418290 16.721785 -3.096615 -1.680647 12.289399 0.000000 0.000000 0.000000 -5.066735 0.143037 1.062252 0.647757 1.033003 17.324715 1.608700 -4.512892 13.615960 0.000000 0.000000 0.000000 -12.196705 0.821780 10.920910 -20.533243 5.853655 -24.249253 -3.713994 22.220433 21.163978 8.227496 -1.355980 -20.994459 0.000000 0.000000 0.000000 -14.504082 -3.651315 -2.025745 -24.988139 4.224610 -3.758199 23.616609 -67.092297 -16.636739 0.000000 0.000000 0.000000 -6.246372 -1.961040 -1.397585 6.979183 5.677286 -0.966951 -49.996373 47.916595 -17.064307 0.000000 0.000000 0.000000
-0.306938 0.938056 0.585060 -9.878115 -13.753866 -6.773878 22.008250 0.601846 7.150817 1.655325 -0.640753 16.506214 -3.213975 -1.385002 13.643476 0.000000 0.000000 0.000000 -4.810599 0.122688 1.143402 0.930805 0.942836 17.241803 0.839943 -5.127829 12.045157 0.000000 0.000000 0.000000 -12.144680 0.859504 11.434554 -20.300175 5.800838 -24.137091 -4.666189 21.659869 20.798085 7.794373 -1.318709 -19.851681 0.000000 0.000000 0.000000 -15.789937 -3.720162 -2.233995 -23.858785 4.251849 -3.532186 22.948209 -66.073620 -15.704076 0.000000 0.000000 0.000000 -5.653765 -1.454628 -1.163545 6.234359 5.009171 -0.905475 -50.637111 46.189232 -16.772688 0.000000 0.000000 0.000000
-0.326786 0.937157 0.589302 -8.280353 -13.322003 -6.710393 21.074865 0.539428 7.338742 2.558240 -0.887674 16.086202 -3.264300 -2.069290 11.956886 0.000000 0.000000 0.000000 -3.987132 0.110140 0.618905 1.070526 0.953075 17.875739 0.283020 -4.285026 8.144481 0.000000 0.000000 0.000000 -11.577195 0.846603 11.974653 -20.823117 5.919742 -24.396055 -5.380948 21.184983 20.923562 7.170317 -1.001338 -19.544286 0.000000 0.000000 0.000000 -17.766409 -4.764698 -2.103119 -21.970565 5.433698 -3.340362 23.019768 -67.078985 -15.826007 0.000000 0.000000 0.000000 -6.211446 -1.039592 -1.069513 7.303111 4.921169 -0.999352 -51.875351 42.372297 -15.418872 0.000000 0.000000 0.000000
-0.346744 0.935576 0.594400 -6.871403 -13.422712 -6.904834 20.840051 0.525617 7.878025 2.868960 -0.969803 16.160791 -3.333466 -2.697802 10.632162 0.000000 0.000000 0.000000 -3.391194 0.123637 -0.012820 1.731629 0.863774 18.670617 0.480160 -1.153856 3.393086 0.000000 0.000000 0.000000 -10.554656 0.777041 12.647069 -21.768591 6.289831 -23.984759 -5.862610 19.428306 20.244307 6.457358 -1.121705 -17.611842 0.000000 0.000000 0.000000 -19.233818 -4.055480 -2.339232 -21.956360 6.603075 -3.558641 25.715826 -70.332956 -18.284538 0.000000 0.000000 0.000000 -4.743789 -0.371492 -0.625020 5.655720 6.060535 -0.861776 -54.808551 39.511770 -15.813096 0.000000 0.000000 0.000000
-0.367483 0.934491 0.601576 -5.510728 -12.891962 -6.843887 20.829585 0.443478 8.467603 3.453637 -1.117778 15.274850 -3.620644 -3.257423 10.425200 0.000000 0.000000 0.000000 -2.367812 0.160593 -1.060931 1.920813 0.868955 19.531463 0.505825 1.004669 0.354901 0.000000 0.000000 0.000000 -10.171780 0.813967 13.676604 -21.276534 6.025148 -24.694976 -6.531254 18.992156 20.565198 6.743934 -1.439596 -17.151734 0.000000 0.000000 0.000000 -20.922321 -4.418177 -2.419897 -20.808555 8.180864 -3.553052 32.384862 -72.201818 -23.758646 0.000000 0.000000 0.000000 -3.810699 -0.356691 -0.547089 5.832468 6.194369 -0.896502 -59.070752 37.257568 -16.260655 0.000000 0.000000 0.000000
-0.389661 0.932558 0.611594 -3.629377 -13.227295 -7.698276 20.364301 0.405926 10.469897 3.841395 -1.200103 14.738258 -3.054580 -2.263035 10.579426 0.000000 0.000000 0.000000 -1.729278 0.161056 -1.268715 2.699231 0.731411 20.074937 -0.640322 -0.944776 -0.932324 0.000000 0.000000 0.000000 -8.956064 0.704709 14.478767 -22.753755 6.637616 -24.019643 -6.497230 17.666113 19.945520 6.054928 -1.460101 -15.462273 0.000000 0.000000 0.000000 -21.878080 -3.981267 -2.443359 -20.100179 9.405295 -3.615242 45.705677 -74.678970 -35.122844 0.000000 0.000000 0.000000 -2.305646 0.037850 -0.254830 5.108957 7.646660 -0.858034 -64.421358 34.857441 -17.251105 0.000000 0.000000 0.000000
-0.412931 0.929483 0.624104 -2.612199 -12.590849 -7.696771 19.938673 0.371614 10.375458 5.880133 -1.808352 16.230509 -3.127878 -1.877391 11.906856 0.000000 0.000000 0.000000 -0.658667 0.202413 -1.982370 3.075671 0.702049 21.359887 -1.705351 -3.753461 -0.724123 0.000000 0.000000 0.000000 -8.072792 0.618976 14.986434 -22.068536 6.488740 -23.667531 -7.375866 17.530534 19.736792 6.855295 -2.470614 -13.064118 0.000000 0.000000 0.000000 -21.597737 -4.090403 -2.407029 -20.160479 10.382715 -3.736151 62.800537 -76.502311 -50.910422 0.000000 0.000000 0.000000 -1.685609 0.581417 -0.033778 5.456377 8.610079 -0.910096 -67.039365 32.789482 -16.685992 0.000000 0.000000 0.000000
-0.436140 0.924753 0.637862 -1.699138 -11.812978 -8.479310 20.801824 0.382239 9.445769 6.916353 -2.373930 20.569653 -3.378267 -0.921116 15.422709 0.000000 0.000000 0.000000 0.090521 0.216946 -2.202985 3.286817 0.815821 24.312930 -3.139663 -7.129412 -1.030997 0.000000 0.000000 0.000000 -7.171399 0.538087 16.333556 -22.067710 6.540166 -23.573878 -7.210756 17.408580 19.404453 7.414329 -3.092930 -11.995697 0.000000 0.000000 0.000000 -22.363879 -3.446687 -3.031807 -19.768469 9.882309 -3.540601 76.087874 -78.595932 -64.773970 0.000000 0.000000 0.000000 -0.302087 0.931400 0.186753 4.856677 9.953674 -0.909559 -70.743251 31.929362 -17.311392 0.000000 0.000000 0.000000
-0.456640 0.915891 0.651565 -0.543484 -11.175781 -9.204196 18.863668 0.552121 6.420771 9.227845 -3.603928 27.576476 -2.639355 0.631355 16.326655 0.000000 0.000000 0.000000 0.861917 0.289847 -2.909048 3.002425 1.264046 29.185942 -4.798481 -10.055526 -3.760102 0.000000 0.000000 0.000000 -6.838854 0.541788 17.557071 -21.290697 6.386721 -23.251204 -7.191052 16.863486 18.785075 8.502223 -4.743056 -8.778692 0.000000 0.000000 0.000000 -23.765269 -4.100846 -2.920401 -19.280024 11.341910 -3.583532 93.744688 -80.808296 -83.690691 0.000000 0.000000 0.000000 0.706862 1.689342 0.546217 3.601811 11.782031 -0.888111 -73.309098 28.972753 -16.172067 0.000000 0.000000 0.000000
-0.473884 0.905211 0.665406 0.259271 -12.934933 -10.392473 17.011165 0.851696 2.692161 9.632703 -4.214147 39.987449 -3.281995 -1.029998 14.460810 0.000000 0.000000 0.000000 1.590990 0.261313 -2.622288 1.822783 2.364780 33.556213 -4.823013 -7.948479 -7.815484 0.000000 0.000000 0.000000 -6.224240 0.569056 18.962849 -21.004137 6.179499 -24.251297 -5.827509 18.466308 19.457253 8.924590 -5.923172 -5.510764 0.000000 0.000000 0.000000 -25.749374 -4.881243 -2.988399 -19.012820 10.911366 -3.440536 96.731544 -81.880115 -87.647531 0.000000 0.000000 0.000000 4.472599 2.636130 1.296861 1.105903 12.934392 -0.866143 -77.801201 26.103770 -15.887544 0.000000 0.000000 0.000000
-0.488926 0.893302 0.679336 0.571446 -13.041534 -11.251791 14.290991 0.924264 -3.600718 10.683924 -5.300940 54.250222 -4.116363 -2.698800 12.857944 0.000000 0.000000 0.000000 3.523630 0.348605 -3.152540 1.299753 3.274186 38.602300 -6.424224 -11.946654 -9.423732 0.000000 0.000000 0.000000 -5.846026 0.578430 20.339208 -20.619646 6.182512 -23.690847 -4.870292 17.109528 18.811331 9.785592 -8.651083 0.261073 0.000000 0.000000 0.000000 -26.211982 -5.344552 -2.288248 -20.353460 10.641296 -3.767025 90.695080 -83.078595 -82.439213 0.000000 0.000000 0.000000 9.769240 3.535988 2.146288 -2.302658 16.686797 -1.048232 -81.997740 24.238797 -16.994903 0.000000 0.000000 0.000000
-0.502815 0.879891 0.693379 0.218932 -14.402955 -12.278845 12.479212 0.991854 -9.261563 10.555598 -5.122541 65.810656 -3.584788 -2.628825 10.274541 0.000000 0.000000 0.000000 5.243455 0.255132 -2.234672 0.795600 4.229640 41.911335 -6.853647 -11.661871 -12.611923 0.000000 0.000000 0.000000 -5.608845 0.701726 22.284766 -19.746800 5.843566 -24.292850 -3.661231 17.242808 19.421409 8.769664 -8.891777 3.995772 0.000000 0.000000 0.000000 -26.432996 -7.552056 -0.666502 -22.097081 11.471816 -4.378935 71.616704 -83.305027 -63.838872 0.000000 0.000000 0.000000 14.468877 5.562582 3.528389 -3.303935 18.179892 -1.216054 -86.586452 22.726784 -18.026697 0.000000 0.000000 0.000000
-0.515820 0.864925 0.707113 -0.215620 -14.896053 -12.741112 10.704987 1.018091 -16.733249 10.067019 -4.872213 74.404041 -2.344502 -0.759466 9.053532 0.000000 0.000000 0.000000 6.743507 0.275539 -2.165680 1.670551 4.491260 45.692903 -7.821562 -13.975246 -15.077909 0.000000 0.000000 0.000000 -6.041875 0.948747 24.273891 -19.419820 5.711129 -24.554354 -1.535418 16.018608 19.523356 9.299474 -10.044091 5.601870 0.000000 0.000000 0.000000 -26.321025 -8.811355 0.687004 -23.729398 10.216716 -4.671985 57.237668 -84.820987 -51.080977 0.000000 0.000000 0.000000 18.422176 5.742061 3.709837 -2.549855 21.064585 -1.504977 -93.257759 23.952770 -22.119167 0.000000 0.000000 0.000000
-0.527312 0.849499 0.720423 -0.744052 -16.185046 -13.353424 9.117908 1.155323 -24.590657 9.745564 -4.214410 78.151495 0.003221 2.075319 5.238292 0.000000 0.000000 0.000000 8.132431 0.290065 -2.071677 2.229915 5.129143 49.493510 -8.189316 -14.415672 -17.172036 0.000000 0.000000 0.000000 -6.726306 1.394665 26.677315 -17.038988 4.811936 -25.638677 -0.983276 15.944020 21.453901 8.080456 -8.774117 5.705443 0.000000 0.000000 0.000000 -26.987066 -9.661560 1.584623 -23.951503 9.443869 -4.761295 74.092559 -85.728496 -67.793178 0.000000 0.000000 0.000000 20.944428 6.826826 4.417515 -0.057532 24.268248 -1.687842 -100.913403 24.748624 -26.107813 0.000000 0.000000 0.000000
-0.536744 0.836729 0.735098 -0.753559 -18.088356 -13.297407 7.708155 1.377004 -30.942682 8.118993 -1.829586 75.774224 2.663714 5.985754 1.876145 0.000000 0.000000 0.000000 8.913101 0.412543 -2.772175 3.353120 5.485513 52.180548 -9.286557 -18.246701 -17.055227 0.000000 0.000000 0.000000 -7.041235 1.877809 28.810301 -15.916647 4.301303 -26.920877 -0.154604 16.257139 23.556555 7.820670 -7.775289 3.206461 0.000000 0.000000 0.000000 -27.174600 -10.424602 2.479431 -25.054908 6.773819 -4.730757 79.860498 -85.815790 -73.196579 0.000000 0.000000 0.000000 20.367360 6.924212 4.300772 3.631472 28.152247 -1.633260 -105.423299 24.901839 -27.723515 0.000000 0.000000 0.000000
-0.544263 0.828572 0.754064 -0.508813 -19.773308 -12.825590 5.973815 1.435865 -36.126101 7.857022 -1.218071 68.865050 1.899643 2.732900 -3.664014 0.000000 0.000000 0.000000 9.370830 0.326457 -2.346838 3.477472 6.105678 53.237539 -10.230799 -20.988194 -18.029105 0.000000 0.000000 0.000000 -7.485445 2.335901 29.937783 -14.324416 3.787739 -27.076263 -1.519862 17.321686 23.611860 6.641965 -5.717521 0.286784 0.000000 0.000000 0.000000 -27.427120 -11.032813 2.792474 -25.225927 5.870068 -4.610502 132.866428 -85.626863 -126.860068 0.000000 0.000000 0.000000 22.159142 7.547151 4.908195 4.503341 28.621020 -1.625544 -110.658265 26.084630 -31.742738 0.000000 0.000000 0.000000
-0.551259 0.828019 0.780756 0.042350 -22.319518 -12.148610 5.721432 1.951434 -37.884159 4.370471 1.452500 57.241300 0.977671 1.695074 -1.134876 0.000000 0.000000 0.000000 9.698658 -0.013499 -0.529934 1.360005 7.739933 51.871501 -10.778150 -21.524943 -18.338509 0.000000 0.000000 0.000000 -8.404650 2.865690 29.918359 -13.698874 3.437893 -28.402433 -1.395147 19.639631 24.257631 8.894935 -6.650102 -4.180652 0.000000 0.000000 0.000000 -26.984150 -11.047740 2.538135 -25.950131 3.004566 -4.202037 163.535129 -83.833387 -159.040912 0.000000 0.000000 0.000000 20.773935 6.214857 4.286051 7.652662 30.799674 -1.364094 -113.817721 28.240673 -35.249782 0.000000 0.000000 0.000000
-0.561316 0.834187 0.817391 0.999672 -22.545261 -10.648708 4.132472 1.067642 -35.511323 1.395446 2.019827 43.282874 2.389403 5.613692 5.248710 0.000000 0.000000 0.000000 8.823904 -0.370051 1.476769 -0.375461 7.909964 48.411642 -11.107801 -22.202965 -15.863598 0.000000 0.000000 0.000000 -9.611672 2.969364 27.796087 -12.453461 3.076016 -28.532422 -2.902136 21.501145 22.758252 11.232927 -7.357631 -8.468118 0.000000 0.000000 0.000000 -25.019697 -11.354654 2.205927 -27.504859 1.358348 -3.957641 -171.864067 -81.582564 172.709521 0.000000 0.000000 0.000000 20.641095 4.381802 3.662531 8.364821 30.917203 -1.349321 -114.929684 33.149146 -41.739653 0.000000 0.000000 0.000000
-0.577166 0.842602 0.866509 1.395099 -23.057979 -11.018014 5.270204 1.009011 -30.014533 -1.264178 2.934165 37.227565 3.131580 7.232289 9.006917 0.000000 0.000000 0.000000 7.547330 -0.928583 6.311104 -0.251918 7.012085 45.214965 -11.152082 -22.575674 -10.182537 0.000000 0.000000 0.000000 -10.151710 2.797329 25.651442 -13.646432 3.458616 -27.330120 -2.828283 21.281942 22.300314 10.140089 -6.261294 -9.175340 0.000000 0.000000 0.000000 -22.295027 -10.678027 2.231631 -29.230945 -1.505151 -3.749972 -162.522143 -80.798333 161.735621 0.000000 0.000000 0.000000 19.144729 5.508528 3.930157 9.891567 30.101990 -1.074027 -120.044800 38.078318 -52.838048 0.000000 0.000000 0.000000
-0.596267 0.851544 0.924041 0.565607 -21.768735 -9.535925 4.145622 0.195569 -25.883773 0.573712 1.728384 35.686968 4.076917 8.571786 4.086479 0.000000 0.000000 0.000000 5.245582 -0.862009 6.852136 2.885919 5.402352 46.542103 -6.846468 -16.025050 1.902978 0.000000 0.000000 0.000000 -11.861518 2.453884 21.312968 -12.490190 3.156997 -26.912836 -1.956533 21.352588 23.562103 10.891149 -6.090725 -12.157608 0.000000 0.000000 0.000000 -20.871306 -11.860811 2.935709 -28.266455 -2.866729 -3.414913 -159.823698 -81.755213 158.725865 0.000000 0.000000 0.000000 16.242076 3.254083 2.564465 13.357379 29.619983 -0.688358 -119.028156 42.714722 -57.327605 0.000000 0.000000 0.000000
-0.615772 0.859967 0.980127 0.637531 -22.336568 -9.961949 4.625435 0.126598 -21.076049 -0.331500 2.370499 35.726415 4.740989 9.807862 0.680010 0.000000 0.000000 0.000000 2.148369 -0.447010 4.790113 6.370869 4.802294 51.965192 -0.546800 -9.664335 17.651403 0.000000 0.000000 0.000000 -11.594671 2.093820 19.223905 -11.043185 2.832061 -25.623636 -4.289960 21.647566 23.088951 8.673644 -3.841212 -14.337762 0.000000 0.000000 0.000000 -18.329527 -12.312609 3.382392 -28.457073 -3.565879 -3.376036 -161.967791 -81.469735 160.991370 0.000000 0.000000 0.000000 13.855284 4.472682 2.886354 13.109418 26.411245 -0.784466 -117.422774 44.384013 -58.411480 0.000000 0.000000 0.000000
-0.634636 0.867105 1.030457 0.730564 -20.426437 -10.248183 5.128720 0.009420 -16.240872 -1.639222 2.621735 34.765309 3.566409 7.145084 -4.120284 0.000000 0.000000 0.000000 -0.862500 0.080877 -0.200144 8.903969 3.759593 57.054874 1.504581 -7.134633 20.875515 0.000000 0.000000 0.000000 -11.041260 1.781342 18.646201 -10.754664 2.814178 -25.499821 -5.765623 19.049813 23.220581 8.876649 -4.488745 -13.261336 0.000000 0.000000 0.000000 -16.549305 -13.200205 4.299682 -28.020840 -5.239394 -3.164706 -167.719225 -82.817031 168.466612 0.000000 0.000000 0.000000 11.193035 5.472695 2.859728 13.403536 25.993070 -0.639529 -113.060540 45.691515 -56.824719 0.000000 0.000000 0.000000
-0.653853 0.876632 1.075916 -0.431765 -19.639386 -10.829015 6.941005 0.285692 -11.779991 -1.512630 2.544853 35.955294 1.763919 2.589374 -6.160829 0.000000 0.000000 0.000000 -1.137940 0.594147 -6.179464 7.796877 4.420493 58.163999 -4.218500 -12.436444 6.340801 0.000000 0.000000 0.000000 -8.666013 1.217947 18.479800 -10.921448 3.041381 -23.051247 -6.799642 16.152285 22.035192 5.579259 -2.363239 -12.726335 0.000000 0.000000 0.000000 -15.226906 -12.956826 4.630797 -27.487212 -7.781520 -2.723735 -178.245273 -83.399300 -178.852028 0.000000 0.000000 0.000000 8.223377 6.939580 2.960445 12.649532 24.185612 -0.626313 -108.686776 44.216155 -52.396247 0.000000 0.000000 0.000000
-0.675281 0.888508 1.118965 -1.971352 -17.464035 -9.827486 8.557489 0.457725 -9.988571 -0.277588 1.690006 37.897024 0.094822 -1.498349 -5.619194 0.000000 0.000000 0.000000 -1.095036 1.124979 -11.032846 4.334609 4.516879 50.546542 -7.088876 -13.829257 -9.834217 0.000000 0.000000 0.000000 -6.485935 0.686780 17.774896 -9.932144 2.856828 -22.127964 -6.501187 12.725784 21.968043 3.843100 -1.504800 -11.710237 0.000000 0.000000 0.000000 -16.330779 -11.115822 4.194435 -27.662586 -10.404499 -2.377874 168.967974 -83.716488 -163.530176 0.000000 0.000000 0.000000 6.693795 6.990174 2.694551 11.018975 25.171247 -0.660193 -109.045785 44.483125 -54.189281 0.000000 0.000000 0.000000
-0.697965 0.897518 1.159598 -2.598944 -16.136617 -9.521704 9.600532 0.575440 -10.089899 0.239973 1.563864 42.585551 -0.574753 -1.464344 -0.889508 0.000000 0.000000 0.000000 -1.518451 1.244134 -12.352467 0.787198 3.736691 37.215739 -5.669499 -10.710726 -6.747053 0.000000 0.000000 0.000000 -4.407830 0.279720 17.148691 -10.324948 2.944992 -23.453953 -5.705931 11.305256 23.429618 3.638836 -1.515211 -11.570711 0.000000 0.000000 0.000000 -17.795019 -11.848364 4.865556 -26.772995 -10.084898 -2.526267 157.715048 -82.217432 -149.954475 0.000000 0.000000 0.000000 6.025041 5.785930 2.141834 10.133248 26.883214 -0.748356 -106.510856 46.216600 -54.650629 0.000000 0.000000 0.000000
-0.721598 0.898745 1.199393 -2.717161 -15.767145 -9.344721 10.652365 0.791924 -12.187984 -1.352190 3.016811 48.494753 2.171050 6.099680 6.843751 0.000000 0.000000 0.000000 0.037943 1.389543 -12.556410 -1.822008 3.724155 31.064793 -3.278499 -7.353202 -1.164031 0.000000 0.000000 0.000000 -2.316183 -0.047894 16.699096 -9.666117 2.746055 -23.509208 -6.870162 13.069083 23.387058 5.252511 -2.758069 -9.988767 0.000000 0.000000 0.000000 -18.575225 -11.762801 4.337658 -27.414872 -12.189005 -2.046943 163.229631 -82.677643 -157.113314 0.000000 0.000000 0.000000 8.907808 6.507900 2.774779 7.129213 26.323935 -1.104093 -109.185355 45.659866 -55.791509 0.000000 0.000000 0.000000
-0.745937 0.893674 1.239015 -2.333612 -14.764836 -9.457158 10.040991 0.730780 -15.094680 -1.857784 3.553678 52.580772 6.088807 13.675781 14.613799 0.000000 0.000000 0.000000 0.551333 1.225816 -11.043265 -1.916162 3.549088 30.351984 -3.367267 -8.331479 0.283832 0.000000 0.000000 0.000000 -1.468679 -0.181818 16.813323 -11.152507 3.109666 -25.064747 -5.868795 14.211500 23.568052 7.428423 -5.427770 -4.923611 0.000000 0.000000 0.000000 -18.361831 -14.237509 5.182760 -27.679036 -12.526058 -1.859805 151.486281 -82.442281 -144.524671 0.000000 0.000000 0.000000 11.622382 4.917355 2.465178 5.942539 28.170259 -1.300122 -104.370914 45.131011 -50.786531 0.000000 0.000000 0.000000
-0.770124 0.887119 1.276277 -3.076352 -11.528006 -9.741003 9.516214 0.498850 -16.335477 -1.286719 1.945297 51.098449 8.287941 17.070795 11.970777 0.000000 0.000000 0.000000 2.644958 1.085234 -8.889194 -1.702246 3.440870 32.489209 -6.002149 -14.230541 -0.530839 0.000000 0.000000 0.000000 -0.231100 -0.428226 16.605714 -12.970756 3.915027 -22.571869 -5.584616 11.573691 21.784007 6.916167 -5.554198 -2.555477 0.000000 0.000000 0.000000 -19.842280 -12.580498 4.288640 -27.227717 -12.201575 -1.756366 163.056884 -83.621607 -157.986706 0.000000 0.000000 0.000000 15.047845 5.074576 2.651069 6.330151 28.592193 -1.247415 -106.560619 45.123029 -52.831520 0.000000 0.000000 0.000000
-0.791334 0.886279 1.308974 -2.975128 -9.469827 -8.901542 9.090162 0.312907 -17.187684 -2.644592 1.892959 46.581197 7.830081 16.052769 0.217807 0.000000 0.000000 0.000000 3.241913 1.028165 -8.214239 -0.751130 3.039422 34.313792 -7.038149 -16.747083 -0.484865 0.000000 0.000000 0.000000 0.119725 -0.513955 16.387718 -13.520734 4.143335 -22.190268 -5.099282 11.737735 21.350815 8.645936 -7.334405 -1.654909 0.000000 0.000000 0.000000 -20.718961 -12.265680 3.647291 -25.818415 -9.056537 -2.045540 165.546266 -83.507390 -161.412970 0.000000 0.000000 0.000000 19.054143 3.809017 2.531812 9.426966 28.651346 -0.998662 -110.319774 48.721719 -59.535051 0.000000 0.000000 0.000000
