HIERARCHY
ROOT Hips
{
	OFFSET -0.001795 -0.223333 0.028219
	CHANNELS 6 Xposition Yposition Zposition Zrotation Yrotation Xrotation
	JOINT LeftUpLeg
	{
		OFFSET 0.069520 -0.091406 -0.006815
		CHANNELS 3 Zrotation Yrotation Xrotation
		JOINT LeftLeg
		{
			OFFSET 0.034277 -0.375199 -0.004496
			CHANNELS 3 Zrotation Yrotation Xrotation
			JOINT LeftFoot
			{
				OFFSET -0.013596 -0.397961 -0.043693
				CHANNELS 3 Zrotation Yrotation Xrotation
				JOINT LeftToe
				{
					OFFSET 0.026358 -0.055791 0.119288
					CHANNELS 3 Zrotation Yrotation Xrotation
					End Site
					{
						OFFSET 0.000000 0.000000 0.000000
					}
				}
			}
		}
	}
	JOINT RightUpLeg
	{
		OFFSET -0.067670 -0.090522 -0.004320
		CHANNELS 3 Zrotation Yrotation Xrotation
		JOINT RightLeg
		{
			OFFSET -0.038290 -0.382569 -0.008850
			CHANNELS 3 Zrotation Yrotation Xrotation
			JOINT RightFoot
			{
				OFFSET 0.015774 -0.398415 -0.042312
				CHANNELS 3 Zrotation Yrotation Xrotation
				JOINT RightToe
				{
					OFFSET -0.025372 -0.048144 0.123348
					CHANNELS 3 Zrotation Yrotation Xrotation
					End Site
					{
						OFFSET 0.000000 0.000000 0.000000
					}
				}
			}
		}
	}
	JOINT Spine
	{
		OFFSET -0.002533 0.108963 -0.026696
		CHANNELS 3 Zrotation Yrotation Xrotation
		JOINT Spine1
		{
			OFFSET 0.005487 0.135180 0.001092
			CHANNELS 3 Zrotation Yrotation Xrotation
			JOINT Spine2
			{
				OFFSET 0.001457 0.052922 0.025425
				CHANNELS 3 Zrotation Yrotation Xrotation
				JOINT Neck
				{
					OFFSET -0.002778 0.213870 -0.042857
					CHANNELS 3 Zrotation Yrotation Xrotation
					JOINT Head
					{
						OFFSET 0.005152 0.064970 0.051349
						CHANNELS 3 Zrotation Yrotation Xrotation
						End Site
						{
							OFFSET 0.000000 0.000000 0.000000
						}
					}
				}
				JOINT LeftShoulder
				{
					OFFSET 0.078845 0.121749 -0.034090
					CHANNELS 3 Zrotation Yrotation Xrotation
					JOINT LeftArm
					{
						OFFSET 0.090977 0.030469 -0.008868
						CHANNELS 3 Zrotation Yrotation Xrotation
						JOINT LeftForeArm
						{
							OFFSET 0.259612 -0.012772 -0.027456
							CHANNELS 3 Zrotation Yrotation Xrotation
							JOINT LeftHand
							{
								OFFSET 0.249234 0.008986 -0.001171
								CHANNELS 3 Zrotation Yrotation Xrotation
								End Site
								{
									OFFSET 0.000000 0.000000 0.000000
								}
							}
						}
					}
				}
				JOINT RightShoulder
				{
					OFFSET -0.081759 0.118833 -0.038615
					CHANNELS 3 Zrotation Yrotation Xrotation
					JOINT RightArm
					{
						OFFSET -0.096012 0.032551 -0.009143
						CHANNELS 3 Zrotation Yrotation Xrotation
						JOINT RightForeArm
						{
							OFFSET -0.253742 -0.013329 -0.021401
							CHANNELS 3 Zrotation Yrotation Xrotation
							JOINT RightHand
							{
								OFFSET -0.255298 0.007772 -0.005559
								CHANNELS 3 Zrotation Yrotation Xrotation
								End Site
								{
									OFFSET 0.000000 0.000000 0.000000
								}
							}
						}
					}
				}
			}
		}
	}
}
MOTION
Frames: 76
Frame Time: 0.050000
0.000000 0.922732 0.000000 -2.131131 13.476809 -5.146946 11.449260 -0.452155 -2.843111 -5.049864 0.285234 10.841913 2.908504 7.959497 4.545385 0.000000 0.000000 0.000000 -3.229799 -0.413671 3.970048 10.129532 -2.381140 11.319481 -19.973239 -36.693739 20.966601 0.000000 0.000000 0.000000 -3.544513 -0.153721 7.279393 6.540887 -0.729861 -24.166668 2.781527 -4.686587 23.467267 -2.435047 2.996356 -11.486240 0.000000 0.000000 0.000000 -12.565606 -5.451961 1.251725 -44.351538 -42.616642 8.561639 107.328305 -74.650051 -86.844998 0.000000 0.000000 0.000000 2.064826 6.343675 2.394217 40.538960 14.484003 -1.178573 -80.628538 49.761680 -35.362813 0.000000 0.000000 0.000000
0.000341 0.921927 0.002707 -2.709440 14.280974 -5.001024 12.436907 -0.530287 -2.611673 -5.603788 0.376077 9.828742 2.661326 7.298056 4.001879 0.000000 0.000000 0.000000 -2.718105 -0.438206 4.078438 10.555907 -2.508954 10.951444 -20.454583 -37.192135 21.521934 0.000000 0.000000 0.000000 -4.489393 -0.092244 5.807644 7.939352 -1.184490 -22.921251 3.201009 -6.230089 22.789355 -1.187644 1.766190 -10.051479 0.000000 0.000000 0.000000 -12.845368 -5.963986 1.637202 -44.749215 -43.154969 9.036256 107.318138 -74.316840 -86.018289 0.000000 0.000000 0.000000 1.778394 7.852874 2.897031 41.364946 13.377541 -1.472119 -83.922992 49.576562 -37.781353 0.000000 0.000000 0.000000
0.000936 0.919457 0.004502 -2.330741 12.528301 -5.447437 11.829591 -0.436005 -2.350575 -5.336949 0.343753 11.502705 3.605189 8.707805 3.378332 0.000000 0.000000 0.000000 -3.397005 -0.462374 4.619780 10.530949 -2.428828 11.224294 -19.230998 -36.360469 19.102999 0.000000 0.000000 0.000000 -4.178156 -0.113363 6.510342 7.802186 -1.078089 -24.465349 2.826599 -3.711752 25.386110 -1.447872 2.445532 -13.338807 0.000000 0.000000 0.000000 -11.712166 -6.457356 1.726917 -47.251010 -47.665318 11.497730 100.265178 -72.908500 -77.644377 0.000000 0.000000 0.000000 2.882534 6.315548 2.471999 40.440367 12.190369 -2.121739 -87.443014 50.463711 -39.849970 0.000000 0.000000 0.000000
0.001309 0.917318 0.005728 -2.379759 13.527318 -5.423179 11.914538 -0.461103 -3.087560 -5.355815 0.293379 12.468569 3.423589 8.033611 2.525793 0.000000 0.000000 0.000000 -3.128306 -0.514550 4.979075 10.435587 -2.421760 10.841117 -19.840178 -37.428480 18.853236 0.000000 0.000000 0.000000 -4.959763 -0.086169 5.977669 8.749544 -1.390075 -23.612105 2.881417 -5.454811 24.989294 -1.157767 1.992934 -12.809467 0.000000 0.000000 0.000000 -11.770625 -6.225571 1.791608 -50.453909 -49.310849 13.682786 94.751700 -76.371138 -75.146448 0.000000 0.000000 0.000000 1.574283 6.730518 2.493090 41.247525 12.180879 -2.064600 -86.723619 48.710128 -38.289691 0.000000 0.000000 0.000000
0.001355 0.914169 0.006652 -2.068917 12.820546 -5.656142 10.939011 -0.396300 -4.074305 -4.290733 0.005177 15.318143 4.039396 8.881076 1.788048 0.000000 0.000000 0.000000 -3.433306 -0.514725 5.130484 10.227963 -2.372633 11.336489 -19.376045 -37.504333 16.951102 0.000000 0.000000 0.000000 -5.313711 -0.083397 6.888626 8.880993 -1.401577 -24.066132 2.961451 -5.211921 25.210487 -1.429812 2.164538 -12.577619 0.000000 0.000000 0.000000 -11.563838 -7.656871 2.489958 -50.695040 -49.922118 14.105505 89.078988 -76.496816 -69.702782 0.000000 0.000000 0.000000 1.984305 6.991406 2.606286 40.290753 11.020033 -2.466613 -87.383865 49.287477 -39.524416 0.000000 0.000000 0.000000
0.000908 0.911408 0.007461 -2.077289 11.551760 -5.499062 10.858452 -0.357745 -4.919332 -4.171233 -0.054969 17.205702 4.776971 10.139098 1.388516 0.000000 0.000000 0.000000 -3.461283 -0.449642 4.638877 10.087269 -2.317886 11.939466 -18.659179 -37.114078 15.006072 0.000000 0.000000 0.000000 -5.422490 -0.070237 6.798521 9.757952 -1.673006 -24.028588 2.949792 -5.203827 25.642848 -1.441397 2.079946 -12.746881 0.000000 0.000000 0.000000 -11.526205 -7.399662 2.516587 -51.526453 -50.364208 14.739747 81.164298 -77.300145 -62.654803 0.000000 0.000000 0.000000 1.338245 6.845731 2.487580 40.756218 11.393897 -2.384359 -89.589376 49.034918 -41.050155 0.000000 0.000000 0.000000
-0.000373 0.910079 0.008763 -1.890228 10.018852 -4.896633 10.511329 -0.324828 -5.461256 -3.884518 -0.085029 17.909712 5.498906 11.574461 1.514648 0.000000 0.000000 0.000000 -3.651301 -0.346488 3.791782 9.918574 -2.219351 12.327115 -17.855490 -36.362333 13.357062 0.000000 0.000000 0.000000 -4.971196 -0.068084 6.608544 9.516701 -1.651897 -23.733773 2.862283 -5.005835 25.603161 -0.823053 1.513726 -12.869365 0.000000 0.000000 0.000000 -11.691871 -7.976765 2.906459 -50.873678 -49.671444 14.189188 76.045490 -77.346640 -57.731059 0.000000 0.000000 0.000000 2.032258 6.526144 2.382853 40.101811 12.125528 -2.169510 -91.706037 47.846711 -41.764133 0.000000 0.000000 0.000000
-0.002505 0.908567 0.011039 -1.567112 8.365210 -3.977010 10.073206 -0.301251 -5.961691 -3.616426 -0.078924 18.115870 6.280538 13.119288 1.655469 0.000000 0.000000 0.000000 -4.083611 -0.245511 3.003610 10.011826 -2.128102 12.099455 -16.936665 -35.497532 11.301469 0.000000 0.000000 0.000000 -4.140590 -0.076970 6.160124 8.866075 -1.502200 -23.599200 3.026119 -4.495617 25.570228 -1.038810 1.578467 -12.058174 0.000000 0.000000 0.000000 -12.385535 -7.744035 2.904778 -50.738216 -47.640501 13.101787 71.229512 -79.567332 -55.023463 0.000000 0.000000 0.000000 2.666666 5.294235 1.927605 40.477531 11.988513 -2.223604 -96.500369 48.245454 -45.799149 0.000000 0.000000 0.000000
-0.005077 0.907274 0.014844 -1.361557 6.175622 -3.298497 9.819670 -0.257687 -5.890686 -3.448540 -0.014368 18.126347 7.233184 15.017025 2.001891 0.000000 0.000000 0.000000 -4.453605 -0.140778 2.134746 10.095220 -2.054027 12.509689 -15.827605 -34.091371 9.394611 0.000000 0.000000 0.000000 -3.627022 -0.086993 6.378394 9.591760 -1.654662 -24.310289 2.481073 -3.451523 25.755201 -0.416203 1.064280 -11.867949 0.000000 0.000000 0.000000 -14.188853 -7.243809 2.761262 -48.507584 -43.898312 10.419293 64.424892 -83.167291 -51.707460 0.000000 0.000000 0.000000 3.557792 4.603188 1.663044 40.732764 11.668798 -2.349064 -100.644158 48.267533 -49.106653 0.000000 0.000000 0.000000
-0.007709 0.904547 0.020071 -1.400400 3.194698 -2.523474 9.852196 -0.197207 -6.944483 -3.493192 0.102721 20.389455 8.585262 17.688420 2.827013 0.000000 0.000000 0.000000 -4.924905 -0.000285 0.790417 10.600625 -2.074548 13.579155 -14.430082 -32.092502 6.966588 0.000000 0.000000 0.000000 -2.010477 -0.175325 7.103670 8.920502 -1.468921 -24.845364 2.736923 -2.737809 24.910303 -1.881242 2.070056 -11.730760 0.000000 0.000000 0.000000 -16.394103 -6.586909 2.683785 -47.015641 -39.526358 8.047040 47.963945 -86.868196 -38.554799 0.000000 0.000000 0.000000 3.104256 4.086545 1.394562 41.616965 10.732422 -2.560643 -104.662481 49.154463 -54.171037 0.000000 0.000000 0.000000
-0.009828 0.901456 0.026569 -1.048164 0.138841 -1.849670 9.485335 -0.155173 -8.754459 -3.771757 0.365701 24.292560 9.976052 20.303436 4.802718 0.000000 0.000000 0.000000 -5.625384 0.092060 0.243931 10.647501 -1.899998 13.632990 -13.067822 -29.997795 3.960944 0.000000 0.000000 0.000000 -0.630502 -0.279213 7.896532 9.172313 -1.507766 -25.406831 1.652121 -1.655716 25.065892 -1.057266 1.376337 -12.254027 0.000000 0.000000 0.000000 -17.415769 -5.953698 2.573363 -44.705280 -35.746129 5.814380 12.617734 -88.552656 -4.925995 0.000000 0.000000 0.000000 4.464301 3.030129 0.910400 40.642652 10.243980 -2.682699 -107.629958 50.823491 -59.429383 0.000000 0.000000 0.000000
-0.010829 0.896314 0.034252 -0.800965 -4.173354 -0.902737 9.475946 -0.043351 -12.775770 -4.767229 1.346286 31.741724 11.293461 22.500436 5.928736 0.000000 0.000000 0.000000 -6.593437 0.292708 -2.071489 10.832237 -1.788684 16.118862 -11.585007 -27.100214 0.729706 0.000000 0.000000 0.000000 0.450404 -0.413506 9.662194 10.771728 -1.826614 -26.088754 0.872601 -0.253232 25.041135 -3.613157 3.223734 -12.955076 0.000000 0.000000 0.000000 -19.522448 -4.114740 1.937874 -43.050570 -31.049708 3.548636 -135.984770 -87.007070 142.091369 0.000000 0.000000 0.000000 5.090373 3.011449 0.785294 38.881529 9.636228 -2.768215 -110.369262 52.179928 -64.719012 0.000000 0.000000 0.000000
-0.010751 0.891990 0.045059 -0.345128 -9.371249 0.459291 10.096020 0.442764 -20.632373 -5.913574 3.810247 44.316254 11.516564 22.148016 11.381514 0.000000 0.000000 0.000000 -7.106752 0.510338 -4.747419 9.368668 -1.147587 18.408084 -10.167246 -23.558122 -2.408795 0.000000 0.000000 0.000000 1.963803 -0.550177 10.220751 11.310128 -1.939992 -26.185386 0.544766 2.477556 24.219799 -5.766507 4.734197 -16.415608 0.000000 0.000000 0.000000 -21.008086 -2.838995 1.362855 -43.132713 -26.850821 1.962540 -112.777880 -86.403019 117.768662 0.000000 0.000000 0.000000 5.293107 1.872874 0.275217 38.847358 7.482128 -3.310023 -111.367260 56.139172 -70.959630 0.000000 0.000000 0.000000
-0.009299 0.885246 0.061163 0.534743 -14.381721 0.048709 11.028960 1.742367 -29.565834 -4.482118 6.237191 59.150520 7.234195 15.397253 13.457595 0.000000 0.000000 0.000000 -9.126957 0.667224 -5.237783 9.310239 -0.773783 20.423376 -9.029061 -19.673130 -5.865123 0.000000 0.000000 0.000000 3.830130 -0.827058 13.755200 10.521198 -1.494332 -28.244913 0.759813 2.963026 25.507891 -7.139357 5.294695 -18.832884 0.000000 0.000000 0.000000 -23.968728 -0.920179 1.121115 -41.730531 -23.838136 0.303060 -128.210627 -86.636357 135.085563 0.000000 0.000000 0.000000 7.261213 2.111234 -0.030427 37.304490 5.394806 -3.764347 -117.233869 58.214806 -81.487816 0.000000 0.000000 0.000000
-0.006948 0.876092 0.084189 1.199646 -23.063366 -0.088426 12.743631 4.605721 -35.462181 -0.561274 6.720877 63.442125 3.493242 8.048118 5.553086 0.000000 0.000000 0.000000 -10.843940 0.996378 -6.290768 7.603853 0.282082 21.961566 -7.830489 -12.600506 -10.800667 0.000000 0.000000 0.000000 4.101002 -0.747582 16.728529 10.929462 -1.343092 -29.503428 1.561229 6.615012 26.014318 -7.457469 5.261890 -21.243804 0.000000 0.000000 0.000000 -25.633198 0.702671 0.775902 -39.737278 -20.518237 -1.275930 -120.141372 -88.314020 128.637414 0.000000 0.000000 0.000000 10.981541 1.213922 -1.114548 33.919066 4.854363 -3.418947 -118.622039 61.638683 -88.415767 0.000000 0.000000 0.000000
-0.003602 0.861735 0.115085 1.736430 -31.877262 -0.486120 15.250228 8.795210 -38.959882 4.078703 4.360392 57.728651 1.070580 2.665499 2.596894 0.000000 0.000000 0.000000 -13.731850 1.574413 -7.359913 7.430359 1.068977 23.718126 -7.823041 -5.482966 -16.089159 0.000000 0.000000 0.000000 5.590292 -0.658142 19.307388 10.305819 -1.137335 -29.969317 1.170634 7.990489 27.587388 -7.974598 4.738831 -26.189953 0.000000 0.000000 0.000000 -26.402439 3.676440 0.541185 -38.966922 -20.052634 -2.210745 56.582461 -85.280991 -41.179380 0.000000 0.000000 0.000000 13.200679 1.560873 -2.104022 32.596040 3.460545 -3.333266 -123.056583 61.771488 -96.208553 0.000000 0.000000 0.000000
0.001104 0.845312 0.154740 2.206388 -41.737525 -0.909191 19.177574 13.621001 -37.816931 6.485045 2.384094 44.976762 0.273813 1.779459 7.965107 0.000000 0.000000 0.000000 -17.534419 2.616755 -8.231825 7.553843 1.630131 23.801421 -8.664224 2.478971 -21.148522 0.000000 0.000000 0.000000 5.756072 -0.087361 22.512378 11.212994 -1.198989 -29.717572 0.267266 9.809695 27.323337 -7.340667 3.628320 -30.191864 0.000000 0.000000 0.000000 -23.991779 4.525331 1.197289 -40.337818 -16.729682 -3.588403 47.667754 -79.739391 -27.784668 0.000000 0.000000 0.000000 16.396885 0.569413 -4.216259 31.076184 2.444153 -2.998210 -127.877500 64.670546 -107.043744 0.000000 0.000000 0.000000
0.006712 0.828738 0.204381 1.373451 -51.906233 0.649417 24.255269 19.045561 -34.402187 8.341430 0.496236 31.946602 -0.915424 0.075168 13.156153 0.000000 0.000000 0.000000 -22.218533 4.377612 -9.944699 10.063663 1.768592 23.861739 -9.658052 8.504777 -24.313626 0.000000 0.000000 0.000000 6.479542 0.397670 23.375836 12.286035 -1.214441 -28.332415 -1.703054 10.267474 28.208341 -5.630207 1.613308 -34.323136 0.000000 0.000000 0.000000 -22.290582 8.368801 0.498000 -41.521141 -17.187937 -3.997329 38.084523 -73.341856 -14.426416 0.000000 0.000000 0.000000 16.854447 0.383957 -6.049473 31.633712 2.456589 -2.676712 -135.049497 65.110171 -119.303492 0.000000 0.000000 0.000000
0.012503 0.817318 0.264571 0.838546 -59.541613 0.100160 28.086425 21.970630 -29.261931 9.877522 -0.243595 25.626810 -1.495067 -0.688085 16.738174 0.000000 0.000000 0.000000 -27.316309 6.609635 -10.685336 12.634883 1.957192 25.190790 -8.020210 10.988049 -21.231230 0.000000 0.000000 0.000000 4.402497 1.594344 25.373555 14.789106 -1.195584 -27.113543 -2.896726 8.595504 28.631219 -4.138806 -0.086445 -35.108569 0.000000 0.000000 0.000000 -16.696378 8.117637 0.827576 -45.480202 -13.915786 -4.444203 31.195205 -68.855641 -6.332512 0.000000 0.000000 0.000000 17.323365 -0.894487 -8.280548 29.271287 1.679503 -2.368246 -143.420590 67.617472 -134.519720 0.000000 0.000000 0.000000
0.017919 0.811449 0.336344 0.903095 -65.785806 -0.214460 31.268132 23.601611 -24.093867 8.796644 0.793906 26.086617 -1.066398 0.044295 21.204058 0.000000 0.000000 0.000000 -31.967329 9.320197 -9.621331 11.150104 1.790098 22.453174 -4.681708 14.450902 -16.124285 0.000000 0.000000 0.000000 3.485453 1.899969 24.258657 14.862118 -1.012780 -26.336404 -4.643709 6.777734 29.326459 -3.116885 -1.552728 -36.632287 0.000000 0.000000 0.000000 -12.094375 8.463820 0.184885 -46.934987 -11.887886 -4.021370 30.055967 -64.835857 -3.658376 0.000000 0.000000 0.000000 19.489409 0.838163 -10.349062 28.394569 -1.741638 -2.563485 -153.517803 70.198983 -150.659903 0.000000 0.000000 0.000000
0.024869 0.813626 0.419080 0.312958 -67.859200 0.016635 30.394792 23.841688 -24.413979 8.749870 2.608959 32.970363 -2.781054 -1.920528 19.176885 0.000000 0.000000 0.000000 -34.358340 11.357679 -7.114203 8.255770 1.734804 21.056979 -0.329114 9.085057 -5.578521 0.000000 0.000000 0.000000 0.933722 1.430674 19.781152 17.904984 -1.016147 -24.218992 -7.592080 4.714297 28.988408 -2.239306 -3.062417 -32.974357 0.000000 0.000000 0.000000 -11.384498 7.641140 0.523116 -44.839073 -10.067736 -4.075952 28.294382 -65.696584 -3.075336 0.000000 0.000000 0.000000 20.634144 1.938849 -11.604305 27.062264 -5.438554 -2.943208 175.163681 75.260972 165.412946 0.000000 0.000000 0.000000
0.035180 0.827964 0.507047 -3.177112 -67.895148 3.759578 30.452448 24.339579 -25.007186 6.140918 5.741749 39.793158 -4.992903 -5.055850 13.430668 0.000000 0.000000 0.000000 -35.623058 11.625968 -8.435882 5.741795 2.394262 23.204405 7.367666 3.913010 11.275188 0.000000 0.000000 0.000000 1.004708 0.738779 16.539675 18.708944 -0.745172 -24.161220 -8.503697 3.809695 30.057580 -2.902714 -3.176918 -32.521027 0.000000 0.000000 0.000000 -10.395203 8.142292 0.024727 -46.116902 -11.074963 -3.114144 32.742984 -68.530644 -5.477584 0.000000 0.000000 0.000000 19.176530 0.481676 -12.206127 28.927328 -6.565992 -3.633062 151.764376 76.554163 134.913151 0.000000 0.000000 0.000000
0.048155 0.852747 0.594648 -6.539398 -65.977537 6.327970 31.463715 23.856867 -24.273692 3.443604 7.383278 41.399226 -6.797218 -7.091960 13.519540 0.000000 0.000000 0.000000 -34.927776 10.812570 -8.682206 5.619246 3.033639 26.338092 8.810499 -3.907312 23.861097 0.000000 0.000000 0.000000 2.412150 0.457798 16.484676 15.318877 -1.499012 -23.200752 -5.714159 3.028172 26.517822 -4.579043 -1.743216 -26.467436 0.000000 0.000000 0.000000 -9.547697 5.358999 1.196906 -47.723156 -11.643829 -2.363069 32.726770 -73.406185 -6.764657 0.000000 0.000000 0.000000 15.571285 -0.621048 -10.040986 33.247326 -7.734323 -5.112901 143.158875 73.971113 120.763886 0.000000 0.000000 0.000000
0.062317 0.875298 0.679235 -7.630377 -65.351071 7.536752 32.565111 24.499229 -24.196186 1.264088 6.405615 36.051380 -3.754026 -2.931980 17.414083 0.000000 0.000000 0.000000 -33.131783 9.749669 -8.949954 8.405537 2.838424 27.267033 6.922943 -6.943619 25.221630 0.000000 0.000000 0.000000 1.073050 0.553537 16.072608 15.359290 -1.600539 -22.928757 -5.228110 1.464744 25.743105 -2.029279 -3.344613 -27.333969 0.000000 0.000000 0.000000 -13.300266 6.902015 1.880736 -47.537296 -14.197155 -2.355996 41.844977 -76.193090 -13.006085 0.000000 0.000000 0.000000 10.216621 -2.745103 -7.913005 35.567837 -2.916874 -5.003354 146.658797 75.147571 123.185925 0.000000 0.000000 0.000000
0.075932 0.877055 0.765196 -7.164389 -65.028500 7.775854 33.244928 23.889067 -22.706012 -0.214742 5.290982 29.894008 0.919618 2.852773 22.443922 0.000000 0.000000 0.000000 -32.554235 9.520146 -8.660474 12.951928 2.137494 26.938995 4.531372 -5.812398 18.111690 0.000000 0.000000 0.000000 -0.855638 0.606072 14.299612 15.216792 -1.609775 -22.821301 -7.115299 -0.103204 27.223416 -1.751991 -3.862749 -26.210449 0.000000 0.000000 0.000000 -11.037295 7.249596 1.003399 -50.453592 -14.201485 -1.336558 38.341547 -79.287980 -9.321762 0.000000 0.000000 0.000000 9.626370 -2.270149 -7.895562 36.065420 -2.242704 -4.972631 161.514196 78.965403 142.740890 0.000000 0.000000 0.000000
0.088301 0.862415 0.856407 -8.173254 -65.608191 8.776354 32.432326 23.164521 -22.428650 1.060167 4.950374 30.228747 2.329377 4.502123 24.490983 0.000000 0.000000 0.000000 -32.000545 9.881916 -6.391919 17.017443 1.658459 26.359774 -1.308593 -5.462899 5.419519 0.000000 0.000000 0.000000 -3.108939 0.828067 12.945547 17.121040 -1.489128 -22.459318 -8.841008 -0.628812 27.699042 -0.265575 -4.981918 -26.272731 0.000000 0.000000 0.000000 -8.624323 7.739869 -0.200792 -55.281911 -12.755812 -0.204291 8.658261 -79.974245 16.029054 0.000000 0.000000 0.000000 9.097462 -3.986986 -8.590586 35.729518 -3.939464 -5.494840 176.382744 78.988575 160.324780 0.000000 0.000000 0.000000
0.102056 0.845483 0.956627 -10.544787 -66.239054 10.911675 31.483814 23.189660 -23.227593 0.944389 7.521106 37.158400 3.840661 6.377982 17.157915 0.000000 0.000000 0.000000 -33.331099 10.515198 -7.038062 19.032270 1.732404 29.168685 -7.635443 -10.083490 -3.146922 0.000000 0.000000 0.000000 -2.177498 0.344490 10.378812 17.524837 -1.422114 -22.120452 -9.893936 -0.676131 28.914916 -1.466044 -4.656646 -25.265633 0.000000 0.000000 0.000000 -9.261314 8.603133 -0.295406 -59.775894 -11.088011 -0.245210 -33.314328 -79.499547 53.002667 0.000000 0.000000 0.000000 9.723182 -6.189841 -10.141509 32.559417 -6.028038 -5.414792 -178.089242 81.628379 167.945461 0.000000 0.000000 0.000000
0.119093 0.840844 1.060001 -7.694497 -62.288743 7.086759 27.881342 19.460944 -24.506512 -0.847288 10.227525 41.627591 5.824072 9.620929 10.921322 0.000000 0.000000 0.000000 -33.382710 9.950880 -6.710782 17.100523 2.336044 34.868349 -8.767402 -14.137204 -1.389861 0.000000 0.000000 0.000000 -3.250263 0.392171 9.440381 20.404635 -1.454258 -22.353363 -11.558694 -2.802560 28.369236 -3.348495 -3.113426 -20.522486 0.000000 0.000000 0.000000 -11.944166 9.220198 0.255717 -62.101191 -11.232102 -0.509808 -43.960294 -70.375884 54.096151 0.000000 0.000000 0.000000 10.775592 -6.008090 -10.557182 31.830727 -8.356779 -5.607358 164.815465 82.581726 149.153082 0.000000 0.000000 0.000000
0.137416 0.843967 1.156985 -6.877356 -55.921593 5.232078 24.210735 14.406108 -24.243288 -3.090384 11.234688 41.844458 5.872169 10.434689 4.072380 0.000000 0.000000 0.000000 -30.617427 7.612608 -7.686580 16.526187 3.031039 40.983742 -8.710119 -16.724997 1.049379 0.000000 0.000000 0.000000 -2.545856 0.170863 8.535712 19.086016 -1.891660 -23.223968 -9.271125 -3.377282 28.292534 -2.924718 -2.824670 -19.886594 0.000000 0.000000 0.000000 -15.078533 8.124199 1.635489 -62.837375 -13.483345 -0.415443 -43.924807 -63.849081 46.866376 0.000000 0.000000 0.000000 12.424129 -4.477649 -10.065579 34.716318 -10.550767 -6.707991 139.252026 82.450132 121.990348 0.000000 0.000000 0.000000
0.155653 0.858063 1.243136 -5.941406 -49.948954 2.861463 18.960448 9.012633 -22.582263 -4.556365 11.044031 40.121257 8.232124 14.947666 3.422010 0.000000 0.000000 0.000000 -23.719452 4.395826 -9.909653 14.729867 5.454186 49.943387 -8.459295 -19.185418 5.196319 0.000000 0.000000 0.000000 -1.543781 -0.051465 7.048405 17.809205 -2.250633 -23.569503 -6.696897 -3.033833 27.450328 -7.001062 1.228320 -16.348306 0.000000 0.000000 0.000000 -17.642342 5.222169 3.684721 -61.487781 -14.675633 -1.280949 -41.288209 -61.516154 41.139348 0.000000 0.000000 0.000000 10.263274 -1.553181 -6.641310 44.458565 -5.909759 -8.144138 147.366117 76.785158 126.673486 0.000000 0.000000 0.000000
0.174036 0.875698 1.321351 -4.400565 -41.787207 -0.144248 13.091457 4.159871 -19.352210 -5.469530 9.379626 37.279507 7.996732 15.056168 3.613515 0.000000 0.000000 0.000000 -18.029790 2.540929 -13.657546 17.780432 4.658149 58.880777 -8.270328 -21.528413 13.297164 0.000000 0.000000 0.000000 -1.736788 -0.068593 6.799692 17.640231 -2.055541 -26.127476 -5.861369 -1.081714 29.463384 -7.344789 1.945470 -19.043652 0.000000 0.000000 0.000000 -16.016703 3.633805 2.935986 -61.305105 -14.583640 -1.579083 -55.613118 -62.877248 52.685504 0.000000 0.000000 0.000000 7.838080 1.330009 -3.248850 50.336251 7.790802 -4.894358 178.493325 67.617025 166.644224 0.000000 0.000000 0.000000
0.193303 0.904779 1.394280 -2.914855 -35.300585 -3.047340 6.534720 0.792493 -12.992266 -3.819186 5.579508 31.229479 4.597999 8.770116 11.236588 0.000000 0.000000 0.000000 -14.133813 1.953849 -17.541182 21.686577 1.024030 61.471688 -9.380462 -23.315595 11.762806 0.000000 0.000000 0.000000 -0.946885 -0.157250 5.152661 15.477211 -2.851186 -23.793661 -4.796581 0.880225 26.580874 -7.325091 3.945755 -12.670028 0.000000 0.000000 0.000000 -10.202806 1.693570 1.323096 -56.413767 -9.407377 -3.603843 -83.888566 -61.581824 73.410623 0.000000 0.000000 0.000000 4.423192 5.089107 0.249407 47.445033 25.255117 1.444999 -154.297041 57.668034 -140.536312 0.000000 0.000000 0.000000
0.210973 0.932611 1.462810 -2.411491 -24.853035 -4.997002 3.658061 -0.137842 -8.544108 -4.029962 3.539152 28.463782 0.847138 4.188911 16.563099 0.000000 0.000000 0.000000 -10.023703 1.572170 -18.621042 20.931020 -2.126158 58.732164 -9.292850 -22.987033 10.320357 0.000000 0.000000 0.000000 -2.847481 -0.066416 5.200753 16.594311 -2.804724 -25.983925 -5.141192 -0.436214 27.637908 -8.034752 6.209599 -5.947520 0.000000 0.000000 0.000000 -7.510075 1.944922 0.224054 -51.586412 -9.556187 -3.881202 -115.500137 -62.305299 106.825467 0.000000 0.000000 0.000000 -1.664540 6.963554 2.432362 38.493419 41.246637 4.635336 -135.239435 38.107118 -80.695189 0.000000 0.000000 0.000000
0.226533 0.948502 1.522439 -2.763220 -15.768328 -6.996811 7.427239 0.201355 -8.690101 -6.654287 3.506397 29.481050 -10.195236 -5.914226 27.944837 0.000000 0.000000 0.000000 -9.628654 1.536491 -23.760888 20.781918 -5.434986 55.799309 -3.939852 -8.778765 -3.078818 0.000000 0.000000 0.000000 -3.977123 -0.032582 7.738965 17.219902 -3.170294 -26.383233 -2.642850 1.211462 24.971640 -6.816843 5.911139 -4.206593 0.000000 0.000000 0.000000 -7.650846 -0.127851 0.491298 -47.704066 -9.968031 -3.809661 -137.881676 -65.479356 133.204693 0.000000 0.000000 0.000000 -9.762300 8.815443 3.286628 29.739234 43.614890 3.977724 -128.438855 29.671838 -54.512544 0.000000 0.000000 0.000000
0.238927 0.940847 1.572386 -3.961547 -6.558934 -11.245618 13.167308 0.810294 -12.874860 -7.244043 2.464821 30.928057 -31.181076 -8.052224 60.726405 0.000000 0.000000 0.000000 -12.411695 0.322522 -24.027297 22.560814 -8.336023 44.953011 -2.542181 -4.600502 -3.954528 0.000000 0.000000 0.000000 -2.969265 -0.192842 16.267939 14.332245 -2.280439 -29.718306 0.373302 0.308642 26.931136 -4.360392 4.154589 -2.012402 0.000000 0.000000 0.000000 -10.149752 1.866330 -0.813558 -44.126742 -15.037574 -2.332067 -162.855557 -71.903545 167.837594 0.000000 0.000000 0.000000 -13.358442 9.256384 2.681311 21.914213 41.631334 2.196030 -126.073013 22.906955 -38.540524 0.000000 0.000000 0.000000
0.248543 0.896635 1.617633 -4.609215 2.568398 -12.474561 21.276999 1.953535 -22.021461 -15.231556 4.257335 30.433038 8.288674 18.577408 23.091157 0.000000 0.000000 0.000000 -16.533074 -1.658514 -27.465961 21.775268 -8.376518 33.923892 -0.580589 -4.639429 7.900428 0.000000 0.000000 0.000000 -5.004247 -0.232602 21.845086 16.506977 -2.430880 -32.446867 -0.435802 2.775529 27.625649 -5.168318 5.519047 -2.418958 0.000000 0.000000 0.000000 -14.422943 2.626445 -2.631169 -39.877715 -15.156180 -2.133203 -176.261377 -72.135579 -179.377793 0.000000 0.000000 0.000000 -9.589571 13.376505 3.003667 24.271380 33.293542 2.237425 -126.441141 32.457097 -48.603008 0.000000 0.000000 0.000000
0.255043 0.832067 1.663974 -5.161310 7.918368 -13.016806 27.106724 2.927263 -30.169376 -24.238587 7.491910 36.052263 8.720471 18.396369 6.121403 0.000000 0.000000 0.000000 -17.538536 -3.112538 -31.744812 17.643178 -7.425785 33.529999 -0.126832 -5.511932 15.317453 0.000000 0.000000 0.000000 -7.062552 -0.206647 24.322676 14.918489 -2.616164 -29.125798 2.981473 8.174804 26.196394 -2.105078 2.930265 0.395298 0.000000 0.000000 0.000000 -17.303883 -0.730119 -3.301526 -43.140595 -11.345585 -2.724098 -163.606756 -70.772811 158.193996 0.000000 0.000000 0.000000 -0.816513 15.520542 5.133392 28.451814 21.589593 0.216226 -127.027225 49.161639 -68.222552 0.000000 0.000000 0.000000
0.258341 0.758993 1.713300 -6.449027 15.562553 -16.045962 29.355985 2.125540 -35.404693 -31.031121 10.379119 46.999115 8.053080 15.378834 -7.675381 0.000000 0.000000 0.000000 -17.533092 -4.824957 -33.047443 12.340746 -9.108867 47.908463 -3.494019 -8.404346 0.092641 0.000000 0.000000 0.000000 -8.592053 -0.816539 30.395171 14.354422 -2.562720 -28.754582 5.253716 12.177698 28.427893 0.988573 1.962548 -5.200439 0.000000 0.000000 0.000000 -23.292001 -2.772392 -6.312026 -43.027024 -6.361052 -3.286576 -137.318073 -71.192527 120.168043 0.000000 0.000000 0.000000 11.710842 13.013261 8.530363 31.424951 20.829602 -0.963243 -122.896105 58.984278 -73.018834 0.000000 0.000000 0.000000
0.259072 0.699103 1.759227 -7.932300 22.724385 -19.008714 30.172328 0.766410 -41.824878 -34.847145 13.010638 59.817662 7.778525 13.230883 -18.130757 0.000000 0.000000 0.000000 -21.531875 -8.448896 -33.501469 11.221212 -14.394491 63.595792 -5.286531 -10.270810 -12.061979 0.000000 0.000000 0.000000 -9.923928 -1.970131 36.719836 12.434569 -2.207181 -26.130624 7.765065 13.924336 25.796194 1.168642 2.595917 -7.338304 0.000000 0.000000 0.000000 -24.333004 -3.349507 -7.929008 -47.897524 1.858749 -6.301252 -108.426498 -70.330237 84.578768 0.000000 0.000000 0.000000 15.074857 14.213710 10.950508 41.371953 17.820969 -1.234414 -102.105181 66.526226 -60.832239 0.000000 0.000000 0.000000
0.259125 0.662105 1.801834 -8.911472 26.431307 -20.089706 32.710291 0.300523 -45.547840 -38.120339 16.280601 66.776843 7.544519 12.711402 -23.781242 0.000000 0.000000 0.000000 -22.451038 -10.158430 -34.202217 6.323868 -14.577405 75.241294 -5.423017 -7.224909 -19.685493 0.000000 0.000000 0.000000 -11.246484 -2.803577 41.258292 11.185670 -1.543182 -29.228413 10.912487 16.536839 29.286749 3.313064 2.419759 -10.639183 0.000000 0.000000 0.000000 -23.741160 -2.630511 -9.369755 -49.052857 8.623497 -9.329193 -89.568711 -65.695769 60.616503 0.000000 0.000000 0.000000 17.857302 11.865643 11.550329 46.735116 18.067929 -1.214838 -90.825939 72.933581 -56.333852 0.000000 0.000000 0.000000
0.260289 0.647699 1.842613 -8.243162 28.789179 -19.340366 33.908465 -0.124983 -45.058232 -40.317867 17.579294 68.054320 7.464664 11.803075 -29.348833 0.000000 0.000000 0.000000 -22.800903 -11.200645 -34.909881 2.398281 -13.158485 82.364363 -5.835594 -6.452996 -22.515237 0.000000 0.000000 0.000000 -11.608494 -2.985936 40.999159 10.087022 -1.184565 -29.264279 10.370267 18.750666 29.276138 4.821955 1.707939 -11.078682 0.000000 0.000000 0.000000 -21.844840 -1.137842 -10.477029 -47.878566 14.696541 -11.485292 -82.163979 -60.960869 48.769729 0.000000 0.000000 0.000000 19.248937 11.538905 12.770619 51.077283 18.764375 -0.574572 -98.393790 71.690457 -60.221680 0.000000 0.000000 0.000000
0.262638 0.652902 1.881094 -8.387356 31.304368 -19.228405 32.618744 -1.033732 -44.214358 -38.162410 15.482181 70.996921 7.331049 10.091990 -31.753074 0.000000 0.000000 0.000000 -23.783963 -12.190807 -34.175355 0.978083 -13.112427 84.137546 -5.108286 -6.352763 -16.634784 0.000000 0.000000 0.000000 -10.994762 -3.433038 40.367700 8.328517 -0.640000 -31.234616 11.796299 18.409723 31.552008 5.035169 1.870784 -11.286073 0.000000 0.000000 0.000000 -20.737766 0.177731 -11.067913 -46.479723 19.123403 -13.115136 -80.895455 -57.554815 44.549182 0.000000 0.000000 0.000000 15.215127 11.929537 11.321339 53.441212 19.669117 1.116583 -109.842131 64.092944 -60.469431 0.000000 0.000000 0.000000
0.264685 0.669094 1.913824 -8.104736 32.398375 -17.654107 31.262169 -1.459151 -42.229842 -35.396617 12.489948 70.948825 7.576509 8.853650 -33.312258 0.000000 0.000000 0.000000 -24.016086 -12.347846 -33.717871 1.121347 -13.140013 81.119589 -4.099891 -7.128900 -7.841968 0.000000 0.000000 0.000000 -9.829897 -3.621496 39.187670 6.493690 -0.175383 -33.474038 12.842588 18.997104 31.988225 6.838284 -0.101871 -9.233065 0.000000 0.000000 0.000000 -20.814735 1.765939 -12.464877 -41.341787 21.578869 -12.106298 -83.136031 -56.182627 44.789177 0.000000 0.000000 0.000000 12.705907 10.922260 9.917192 49.096727 19.751154 1.006968 -112.190219 52.042279 -47.014235 0.000000 0.000000 0.000000
0.264572 0.682841 1.938746 -7.328090 33.098515 -16.205721 30.366591 -1.662465 -41.059366 -33.705692 10.743113 70.547266 7.561619 7.902259 -32.398130 0.000000 0.000000 0.000000 -24.720712 -13.264212 -34.827735 1.235737 -12.491767 79.183508 -1.890753 -7.108148 8.572920 0.000000 0.000000 0.000000 -8.233278 -3.702086 37.372518 4.920226 0.241556 -31.679314 10.833467 20.259293 29.801534 8.345886 -3.225659 -5.220384 0.000000 0.000000 0.000000 -20.893597 1.687301 -12.885515 -37.623203 21.080076 -10.435280 -92.123638 -57.283909 52.651340 0.000000 0.000000 0.000000 11.440134 11.931881 10.157919 41.203254 19.582438 0.288930 -108.516506 39.114509 -29.395449 0.000000 0.000000 0.000000
0.262407 0.697663 1.956642 -6.406433 33.237862 -14.480975 29.534316 -1.765007 -39.984207 -31.963484 9.131017 69.568666 7.497379 6.852011 -31.114978 0.000000 0.000000 0.000000 -24.351139 -13.067828 -35.070393 1.045077 -11.736181 76.416133 -0.396379 -6.984796 19.190848 0.000000 0.000000 0.000000 -7.985762 -3.847251 37.930901 3.394063 0.441020 -33.987293 11.999772 21.394431 30.611882 10.101832 -4.545287 -5.660894 0.000000 0.000000 0.000000 -20.780820 0.513024 -12.757106 -36.231490 19.708763 -9.363157 -94.658348 -58.500734 55.506748 0.000000 0.000000 0.000000 6.494980 13.470591 8.584641 30.682439 18.644790 -0.242330 -99.110864 27.417236 -12.398419 0.000000 0.000000 0.000000
0.259962 0.708973 1.971224 -6.129936 34.091302 -12.296636 29.695630 -1.988403 -40.400671 -30.896756 8.102811 68.237823 7.298648 5.325765 -30.244492 0.000000 0.000000 0.000000 -25.381210 -14.072452 -35.603648 1.939211 -11.976825 73.705849 1.348569 -3.775087 18.103995 0.000000 0.000000 0.000000 -6.536710 -3.958480 36.327568 2.994144 0.564849 -33.584431 9.914184 21.302262 29.398797 9.723306 -4.936819 -4.269353 0.000000 0.000000 0.000000 -21.509217 -0.091526 -13.155885 -34.845791 17.702904 -8.066400 -96.443857 -58.949280 57.504658 0.000000 0.000000 0.000000 3.533105 15.820913 8.381005 19.960093 14.883002 -1.139596 -88.805745 19.800128 -4.113007 0.000000 0.000000 0.000000
0.258454 0.718560 1.986123 -5.665348 34.719786 -11.430176 30.474864 -2.010171 -40.155029 -30.738873 7.778968 67.071062 6.484254 2.544487 -27.635510 0.000000 0.000000 0.000000 -25.917887 -14.175981 -34.759864 1.816912 -11.424454 70.891529 -1.437275 -4.889413 5.269000 0.000000 0.000000 0.000000 -6.675145 -3.980503 36.404611 3.415668 0.491487 -34.053673 9.295733 21.514071 29.333147 10.201623 -6.107685 -3.026456 0.000000 0.000000 0.000000 -21.470272 -0.848234 -12.904286 -35.838659 16.100662 -7.837757 -99.071374 -57.217979 57.504396 0.000000 0.000000 0.000000 1.807015 16.083900 7.688813 12.633508 13.256196 -1.262921 -83.267020 15.305486 -0.191737 0.000000 0.000000 0.000000
0.258168 0.722726 2.003470 -5.617463 35.969244 -11.454290 30.793867 -2.186093 -39.673758 -30.052825 6.806316 66.542961 5.861988 -0.121891 -26.334990 0.000000 0.000000 0.000000 -26.784014 -14.036898 -32.373796 1.042452 -11.123542 69.768165 -2.161884 -4.530955 -1.528414 0.000000 0.000000 0.000000 -5.868800 -3.957521 34.786773 3.571835 0.554121 -32.903167 7.511505 19.932569 27.512940 10.537405 -6.446361 -3.421459 0.000000 0.000000 0.000000 -21.662435 -1.335410 -12.447316 -37.956781 14.213349 -7.807573 -100.072769 -55.524371 56.223450 0.000000 0.000000 0.000000 1.824505 16.405238 7.860316 8.335275 11.214662 -1.177181 -81.773072 12.981995 0.746463 0.000000 0.000000 0.000000
0.257233 0.721223 2.021238 -4.916670 36.392210 -12.066690 31.195635 -2.110387 -38.716116 -30.311190 6.729258 65.860499 5.040491 -1.627093 -23.674016 0.000000 0.000000 0.000000 -28.097555 -13.767932 -29.629435 0.595689 -10.880497 69.689446 -2.784440 -4.892650 -5.633565 0.000000 0.000000 0.000000 -5.701098 -3.973126 34.545136 3.472824 0.465637 -34.242369 7.361732 18.979823 29.050540 10.966811 -6.443155 -4.271848 0.000000 0.000000 0.000000 -22.526121 -1.797162 -12.524888 -38.509633 11.839104 -7.183282 -100.607609 -53.805075 54.874690 0.000000 0.000000 0.000000 0.224654 14.730936 6.182546 8.622543 11.537840 -1.155919 -85.739160 13.996506 0.570975 0.000000 0.000000 0.000000
0.253606 0.719153 2.036305 -4.721749 37.088186 -12.716524 32.900416 -2.049910 -37.772612 -30.697133 6.811392 65.335922 3.839708 -5.836509 -22.524980 0.000000 0.000000 0.000000 -28.551747 -13.257625 -27.280152 -1.360120 -9.771422 70.356335 -0.939725 0.239519 -6.327729 0.000000 0.000000 0.000000 -5.609844 -4.000999 34.249167 3.894317 0.483788 -32.691889 5.880030 17.782443 27.312732 12.046358 -6.489437 -6.522660 0.000000 0.000000 0.000000 -23.645021 -2.340196 -12.539768 -39.668501 8.484491 -6.131871 -102.050502 -53.092580 55.334583 0.000000 0.000000 0.000000 -0.622736 14.168390 5.528133 8.321530 12.203272 -1.068052 -88.600107 12.935659 1.715117 0.000000 0.000000 0.000000
0.246916 0.714619 2.047389 -4.413552 37.460828 -13.208137 33.392068 -2.066173 -37.699893 -31.573807 7.247701 64.935353 3.820872 -3.448919 -20.277812 0.000000 0.000000 0.000000 -28.534014 -13.063908 -26.497053 -2.808995 -9.051014 72.056334 1.311746 6.608025 -6.590204 0.000000 0.000000 0.000000 -5.615282 -4.047098 34.305604 3.938294 0.506049 -32.007812 4.752460 17.018004 26.656490 11.733207 -5.774456 -7.586594 0.000000 0.000000 0.000000 -23.701940 -4.765259 -11.091841 -41.878052 5.195483 -5.394160 -102.944622 -55.550961 58.606482 0.000000 0.000000 0.000000 -0.867749 13.893755 5.273359 9.180684 11.697140 -1.117227 -88.878328 11.635764 2.998503 0.000000 0.000000 0.000000
0.238854 0.713683 2.055360 -4.140942 38.205504 -13.051366 33.086636 -2.266068 -38.127676 -31.717388 7.016308 64.212805 4.299685 -0.011427 -18.351072 0.000000 0.000000 0.000000 -28.642333 -13.163419 -26.064316 -3.291431 -9.294116 73.473643 3.058722 12.471673 -7.717634 0.000000 0.000000 0.000000 -5.204571 -4.164086 34.087182 4.217199 0.496684 -31.776188 3.755541 15.290833 26.294379 11.613008 -5.298943 -8.691893 0.000000 0.000000 0.000000 -24.851318 -6.364210 -10.488386 -43.089221 1.269070 -4.031731 -103.897028 -58.073062 62.535884 0.000000 0.000000 0.000000 -0.950109 14.084683 5.282874 10.255973 10.738747 -1.250823 -86.900698 10.429471 3.954257 0.000000 0.000000 0.000000
0.230623 0.713046 2.061430 -3.935413 38.372181 -13.611637 32.656981 -2.296703 -37.145574 -32.096463 6.730322 61.771564 5.692023 6.182153 -16.039574 0.000000 0.000000 0.000000 -28.294145 -13.242457 -26.533418 -3.132440 -9.943986 75.522696 2.016298 9.019403 -6.772603 0.000000 0.000000 0.000000 -5.812489 -4.071506 34.267489 5.773941 0.226051 -29.869906 2.249840 14.110581 24.527797 10.542192 -4.328469 -9.244701 0.000000 0.000000 0.000000 -25.782954 -7.686565 -9.682040 -44.085862 -1.950353 -2.876202 -102.340698 -60.407469 64.125242 0.000000 0.000000 0.000000 0.319053 13.985977 5.790535 12.080552 11.700045 -1.277090 -84.099956 10.197657 3.493958 0.000000 0.000000 0.000000
0.222788 0.713590 2.066295 -4.296458 38.975790 -14.439681 31.418551 -2.508978 -37.149468 -31.110239 5.559326 59.731440 7.867939 14.681010 -11.112232 0.000000 0.000000 0.000000 -27.894278 -12.950194 -25.784269 -1.292617 -12.318643 75.267866 -0.729726 1.196923 -6.464368 0.000000 0.000000 0.000000 -5.888482 -4.188678 34.498456 6.430676 0.102101 -28.431017 1.504457 12.499244 23.599314 10.290583 -3.113057 -12.309922 0.000000 0.000000 0.000000 -25.243729 -9.288966 -8.050116 -45.421353 -7.065676 -1.279286 -103.831930 -65.075323 70.707186 0.000000 0.000000 0.000000 3.607360 14.229839 7.264342 14.081153 12.380759 -1.430593 -82.974874 10.484046 2.194266 0.000000 0.000000 0.000000
0.215463 0.712992 2.070177 -4.778393 39.316441 -15.153314 31.013893 -2.592682 -36.543608 -30.707873 4.923126 57.571673 10.935460 23.044149 -8.579593 0.000000 0.000000 0.000000 -27.423290 -12.508656 -25.000237 0.873325 -14.637138 73.891479 -3.549005 -6.597676 -6.309334 0.000000 0.000000 0.000000 -6.046017 -4.060542 33.851849 7.682670 -0.240164 -26.869049 1.103714 10.872198 22.820591 8.797168 -1.633712 -13.710867 0.000000 0.000000 0.000000 -25.310084 -10.756081 -6.770207 -45.916512 -11.960380 0.431925 -109.730210 -69.538597 81.959317 0.000000 0.000000 0.000000 7.119743 14.537994 8.838573 17.495614 14.286168 -1.482929 -84.643677 12.579306 -0.286764 0.000000 0.000000 0.000000
0.208798 0.715838 2.073312 -5.811482 39.776824 -16.572054 31.094677 -2.630371 -35.079903 -30.039564 4.081285 54.385511 14.472350 30.709957 -5.430688 0.000000 0.000000 0.000000 -26.963932 -11.727170 -23.106857 3.219427 -16.986718 71.545739 -5.638165 -12.329858 -5.850519 0.000000 0.000000 0.000000 -6.859370 -3.884661 33.576625 9.237658 -0.746776 -24.569263 1.440424 9.322357 22.113601 7.628124 -1.067656 -13.427838 0.000000 0.000000 0.000000 -24.139138 -12.227050 -4.937507 -45.851119 -19.035008 2.713529 -126.869755 -75.559719 107.360024 0.000000 0.000000 0.000000 10.460029 14.351606 10.010136 20.974587 16.263965 -1.452970 -85.094846 15.900946 -3.768154 0.000000 0.000000 0.000000
0.203412 0.720850 2.075826 -6.427272 39.903442 -17.571096 30.649777 -2.629204 -33.970590 -27.768444 2.772071 54.115258 14.031978 29.231102 -5.250130 0.000000 0.000000 0.000000 -26.247734 -10.872650 -21.571116 4.991409 -18.280216 68.725228 -7.454714 -17.141855 -4.711035 0.000000 0.000000 0.000000 -7.292655 -3.879116 33.741921 10.359376 -1.192393 -23.494211 1.840403 8.448505 21.736994 6.253827 -0.392264 -12.524165 0.000000 0.000000 0.000000 -22.243456 -14.173599 -2.920317 -44.474016 -26.502411 4.931473 -166.807005 -79.771666 157.330527 0.000000 0.000000 0.000000 13.991685 14.962772 11.667753 24.147467 17.878440 -1.400286 -88.415885 21.028578 -9.308489 0.000000 0.000000 0.000000
0.200047 0.729766 2.077358 -6.764395 39.389503 -18.242546 30.602804 -2.493823 -32.504996 -26.251062 2.064846 53.097778 13.597418 27.835249 -3.057178 0.000000 0.000000 0.000000 -25.360955 -9.963697 -20.487370 5.800620 -18.510525 66.780606 -7.637119 -17.676996 -3.752323 0.000000 0.000000 0.000000 -8.000108 -3.608749 33.391075 12.419863 -2.068906 -21.832260 2.098862 8.368273 20.708631 5.628708 -0.526203 -10.822400 0.000000 0.000000 0.000000 -21.049008 -15.444417 -1.694613 -42.801445 -32.259431 6.493133 145.635085 -78.093377 -144.971295 0.000000 0.000000 0.000000 16.989732 14.765957 12.695877 25.555059 19.497029 -1.275274 -89.534040 24.895815 -13.658262 0.000000 0.000000 0.000000
0.198805 0.743010 2.077733 -6.590212 38.940057 -18.099183 29.787934 -2.408548 -31.103091 -24.459160 1.267878 51.447919 13.050704 26.501393 -0.049194 0.000000 0.000000 0.000000 -25.050251 -9.212686 -18.945570 7.556207 -18.730794 63.066707 -7.888593 -18.393954 -2.998584 0.000000 0.000000 0.000000 -8.238234 -3.376435 32.693481 12.668147 -2.337696 -20.574335 2.774702 7.143953 20.882096 4.202281 0.523502 -11.055240 0.000000 0.000000 0.000000 -19.233426 -15.729240 -0.615140 -41.263426 -38.416325 7.730525 119.633393 -71.948316 -108.792772 0.000000 0.000000 0.000000 17.800017 15.097898 12.952089 27.544735 21.522248 -0.846231 -93.494226 26.322881 -16.062377 0.000000 0.000000 0.000000
0.199004 0.757011 2.076943 -6.185230 37.309524 -17.500383 29.378936 -2.126057 -29.523224 -23.071122 1.056818 49.664161 12.686902 25.790774 3.777667 0.000000 0.000000 0.000000 -24.126079 -8.260460 -18.392981 8.885435 -17.955047 59.417476 -8.066281 -18.869187 -1.894304 0.000000 0.000000 0.000000 -8.721467 -2.984300 32.041391 13.753189 -3.112137 -18.491250 2.627232 7.646188 19.526310 4.335759 0.177741 -10.619412 0.000000 0.000000 0.000000 -17.895556 -16.228217 0.121830 -39.673074 -42.045768 8.288431 107.670452 -68.091106 -91.533973 0.000000 0.000000 0.000000 18.536901 15.476938 13.306455 27.268152 23.760422 -0.338879 -95.496031 26.360332 -17.000015 0.000000 0.000000 0.000000
0.199601 0.771969 2.075733 -6.087825 36.588764 -16.969219 28.694113 -2.021652 -28.087010 -21.397414 0.577484 47.244145 12.069038 24.797610 6.470791 0.000000 0.000000 0.000000 -23.662860 -7.564652 -17.191537 10.703837 -17.615835 55.115681 -8.360287 -19.467044 -0.183726 0.000000 0.000000 0.000000 -8.705551 -2.782684 31.379062 14.686199 -3.606799 -17.851643 2.553884 7.004093 19.518868 3.388906 0.486377 -9.374690 0.000000 0.000000 0.000000 -16.910050 -16.757637 0.879965 -38.856641 -44.329721 8.528054 98.290889 -64.938234 -78.225259 0.000000 0.000000 0.000000 17.835951 16.937903 13.604492 26.198296 25.143952 -0.014260 -97.343555 24.381811 -15.838556 0.000000 0.000000 0.000000
0.200171 0.785141 2.074927 -5.621124 34.910481 -16.157159 28.577819 -1.759077 -26.447759 -20.638233 0.771005 44.885883 11.761431 24.428298 9.619441 0.000000 0.000000 0.000000 -23.096298 -6.905571 -16.859968 11.929556 -17.013393 52.670258 -7.999089 -18.762298 -0.374730 0.000000 0.000000 0.000000 -8.821939 -2.499502 30.913067 15.572149 -4.325861 -16.242020 2.021430 7.484077 18.120567 3.380640 -0.225222 -7.150233 0.000000 0.000000 0.000000 -16.945499 -16.898886 1.108105 -37.484841 -44.608820 8.323029 94.163619 -64.106639 -73.083302 0.000000 0.000000 0.000000 16.953932 17.559830 13.402673 25.577535 26.807065 0.480709 -99.819637 23.637645 -15.920928 0.000000 0.000000 0.000000
0.200633 0.796060 2.075037 -5.054402 33.137389 -15.138556 28.850469 -1.529690 -24.818759 -20.639208 1.279510 42.275237 11.736972 24.431532 12.159910 0.000000 0.000000 0.000000 -22.379685 -6.301560 -16.930690 12.935089 -16.380908 50.603959 -8.192692 -19.363975 -0.907635 0.000000 0.000000 0.000000 -8.639766 -2.361763 30.982884 15.156626 -4.046603 -16.968587 2.192776 7.151830 18.613285 2.657844 0.167249 -6.585361 0.000000 0.000000 0.000000 -16.885406 -16.497757 1.291792 -37.181654 -44.886576 8.191790 92.880212 -63.865259 -71.041225 0.000000 0.000000 0.000000 16.217136 17.705372 12.951072 25.324953 28.245429 0.802903 -102.174924 23.407914 -16.467966 0.000000 0.000000 0.000000
0.201051 0.805024 2.075793 -4.490881 31.573235 -14.316843 28.774502 -1.346417 -23.421136 -20.375447 1.562106 40.346740 11.734294 24.445681 14.337801 0.000000 0.000000 0.000000 -22.036994 -5.884267 -16.913508 13.916254 -15.816206 48.666885 -8.437871 -19.984934 -0.699642 0.000000 0.000000 0.000000 -8.634499 -2.096711 30.318482 15.450435 -4.262766 -16.637602 1.846645 7.207866 18.063267 2.033329 0.557650 -6.340931 0.000000 0.000000 0.000000 -16.600788 -15.813652 1.224731 -37.914499 -44.658542 8.321947 92.805908 -64.430838 -71.291554 0.000000 0.000000 0.000000 16.517085 17.593807 12.863148 24.361948 29.396396 0.925810 -101.823879 24.718583 -18.189569 0.000000 0.000000 0.000000
0.201218 0.809312 2.076851 -4.213632 30.252347 -14.168394 28.905598 -1.217667 -21.876195 -20.194750 1.773410 38.936138 11.919994 24.589623 14.924477 0.000000 0.000000 0.000000 -21.649115 -5.535618 -16.913170 14.539097 -15.422745 47.583826 -9.003327 -21.249525 -0.098472 0.000000 0.000000 0.000000 -8.412737 -1.933746 29.690538 14.911923 -4.163066 -16.148810 2.138371 7.360492 17.791608 1.610369 0.735971 -5.750970 0.000000 0.000000 0.000000 -16.725760 -15.136455 1.015572 -38.601951 -44.761453 8.563457 96.754925 -65.744560 -76.187602 0.000000 0.000000 0.000000 16.094037 16.904470 12.235729 25.851428 29.979338 1.309534 -101.679800 26.551623 -19.947806 0.000000 0.000000 0.000000
0.201254 0.810044 2.077898 -4.318428 29.932393 -14.216755 28.736284 -1.182741 -21.538524 -19.509419 1.589999 38.860101 11.963509 24.594442 14.707079 0.000000 0.000000 0.000000 -21.299467 -5.322806 -16.731454 15.075707 -15.269336 46.324042 -10.035408 -23.393685 0.986939 0.000000 0.000000 0.000000 -8.085464 -1.891370 29.103131 14.837342 -4.075112 -16.489228 2.474825 7.059830 18.935342 1.186670 1.339300 -6.672630 0.000000 0.000000 0.000000 -16.054419 -14.701333 1.053595 -39.050981 -46.414903 8.948483 100.775694 -66.107679 -80.347402 0.000000 0.000000 0.000000 16.212794 16.903484 12.246509 25.854606 30.139949 1.274381 -100.643580 27.739574 -20.950940 0.000000 0.000000 0.000000
0.201319 0.803508 2.078838 -4.375356 29.676690 -14.951884 28.774799 -1.118285 -21.398506 -19.386503 1.521201 40.297410 12.336673 24.957147 13.182291 0.000000 0.000000 0.000000 -21.332421 -5.401442 -17.085239 14.576272 -15.319534 47.757646 -10.420167 -24.103509 1.428848 0.000000 0.000000 0.000000 -7.961946 -1.909066 29.108180 15.226186 -4.411677 -15.734561 2.625143 7.726016 18.201813 1.309240 1.488823 -7.740076 0.000000 0.000000 0.000000 -16.086625 -14.679036 0.918746 -39.114053 -46.724335 9.149065 107.289705 -66.116407 -87.307909 0.000000 0.000000 0.000000 16.744086 16.378523 12.214090 26.409037 29.937499 1.303474 -98.694139 29.804365 -22.397006 0.000000 0.000000 0.000000
0.201838 0.794741 2.079716 -4.730762 29.902603 -15.619819 29.086082 -1.134533 -21.556280 -19.456574 1.448086 41.512378 12.828270 25.479293 10.247822 0.000000 0.000000 0.000000 -21.335934 -5.450566 -17.011049 14.253997 -15.731650 49.198418 -10.289340 -24.312736 -0.783213 0.000000 0.000000 0.000000 -7.137239 -1.954477 28.141937 15.343610 -4.472371 -15.649052 2.703801 6.840748 18.967089 1.338046 1.737874 -9.122775 0.000000 0.000000 0.000000 -15.677460 -14.953245 1.271839 -38.480326 -47.652057 9.089887 112.544460 -65.047428 -91.546773 0.000000 0.000000 0.000000 16.832536 16.258999 12.085195 26.222290 30.167188 1.278743 -95.984328 30.448683 -22.172003 0.000000 0.000000 0.000000
0.202597 0.784529 2.080320 -4.605503 29.886822 -16.282234 29.184816 -1.082067 -21.839491 -19.981776 1.558374 43.486743 13.392111 26.192781 7.927451 0.000000 0.000000 0.000000 -22.040617 -5.745066 -17.052221 13.978977 -16.178832 51.231135 -9.917469 -23.922446 -3.122132 0.000000 0.000000 0.000000 -7.056036 -1.959283 27.995388 15.365288 -4.494472 -15.711010 2.842397 6.815121 19.496667 1.391047 1.718360 -9.095420 0.000000 0.000000 0.000000 -15.435388 -15.409788 1.522365 -37.708228 -48.347128 8.972551 119.095088 -64.645326 -98.502652 0.000000 0.000000 0.000000 17.098540 16.167624 12.129503 26.234900 30.085409 1.209423 -93.220542 29.827317 -20.525264 0.000000 0.000000 0.000000
0.203230 0.779557 2.080293 -4.620002 29.810128 -16.643434 29.332866 -1.058838 -21.852474 -20.268185 1.652875 44.277952 13.694983 26.606112 6.531700 0.000000 0.000000 0.000000 -22.328942 -5.819725 -16.887976 13.991766 -16.365200 51.864537 -9.744763 -23.807242 -4.574068 0.000000 0.000000 0.000000 -6.689873 -1.915204 27.185575 15.433851 -4.516400 -15.826387 3.057828 5.904433 20.301918 1.402243 1.947535 -10.477419 0.000000 0.000000 0.000000 -15.231796 -15.321423 1.710323 -37.038386 -49.378941 8.935669 121.790875 -64.247229 -100.793380 0.000000 0.000000 0.000000 16.524026 16.778597 12.115977 26.131189 30.982660 1.406834 -89.927685 26.944588 -16.690550 0.000000 0.000000 0.000000
0.203267 0.781364 2.079608 -4.429900 29.467659 -16.596970 29.397713 -1.027193 -21.573809 -20.546799 1.845413 43.998718 13.674467 26.584809 7.457466 0.000000 0.000000 0.000000 -22.528785 -5.753966 -16.461914 14.496707 -16.249151 50.904912 -9.667240 -23.702399 -4.868140 0.000000 0.000000 0.000000 -6.756329 -1.750688 26.186646 15.412788 -4.690197 -14.966690 3.207732 5.568283 20.073372 1.364336 1.967940 -10.755279 0.000000 0.000000 0.000000 -15.017426 -15.716042 2.033847 -36.808737 -49.630839 8.923649 125.386015 -64.515374 -105.137112 0.000000 0.000000 0.000000 16.492771 17.109761 12.174429 25.484656 31.174690 1.392727 -86.802758 24.821390 -14.160730 0.000000 0.000000 0.000000
0.203045 0.790520 2.078717 -3.979472 28.230621 -15.923793 28.784185 -0.924968 -20.561242 -19.621295 1.756702 42.451454 13.602487 26.440910 9.890234 0.000000 0.000000 0.000000 -21.882649 -5.215768 -15.961316 14.889148 -15.117479 48.015008 -9.672232 -23.896017 -4.784321 0.000000 0.000000 0.000000 -6.277032 -1.592001 25.008026 14.877630 -4.456451 -15.009996 3.121964 5.092134 19.897394 1.564613 1.969843 -12.122505 0.000000 0.000000 0.000000 -15.608741 -16.174799 2.331744 -35.940154 -47.587662 8.229931 130.425434 -65.732060 -112.245180 0.000000 0.000000 0.000000 16.186715 17.585849 12.159634 26.034830 31.006135 1.488727 -85.190933 23.167933 -12.353668 0.000000 0.000000 0.000000
0.202710 0.803849 2.078045 -3.606819 27.056729 -14.731372 28.452013 -0.901038 -19.015050 -18.939172 1.847432 38.878576 13.433157 26.184858 12.193391 0.000000 0.000000 0.000000 -20.898435 -4.624506 -15.725775 15.139829 -13.712023 44.431940 -9.884614 -24.248006 -3.316561 0.000000 0.000000 0.000000 -6.250892 -1.282603 23.106849 14.996402 -4.483405 -15.094296 3.390911 4.252994 20.353314 0.614286 2.559921 -12.273587 0.000000 0.000000 0.000000 -17.106516 -14.885943 1.834591 -36.154654 -46.068059 7.994888 137.909425 -66.154541 -121.268059 0.000000 0.000000 0.000000 15.345563 17.744543 11.739970 25.050314 31.756590 1.516126 -84.385685 22.164549 -11.533938 0.000000 0.000000 0.000000
0.202372 0.819634 2.077622 -3.360884 25.906416 -14.118652 27.432990 -0.852099 -17.649014 -17.166947 1.479426 36.554928 12.780117 25.402216 16.110274 0.000000 0.000000 0.000000 -18.966258 -3.771503 -15.232451 13.768794 -11.612439 41.436688 -10.218570 -24.531772 -0.650362 0.000000 0.000000 0.000000 -5.331185 -1.232790 22.168357 13.924248 -4.074773 -14.732282 3.229296 3.690973 18.523031 0.426870 2.213270 -10.402002 0.000000 0.000000 0.000000 -19.169173 -14.942978 1.808476 -35.601339 -42.270091 7.180759 139.754154 -67.329380 -124.238490 0.000000 0.000000 0.000000 14.954589 16.445684 10.705132 26.259521 30.483140 1.557329 -85.332445 24.567770 -13.855822 0.000000 0.000000 0.000000
0.202052 0.836200 2.077375 -3.357856 24.749205 -12.632220 27.754683 -0.901117 -15.757413 -17.112342 1.808523 31.348400 12.482487 25.039998 18.959639 0.000000 0.000000 0.000000 -18.072570 -3.201800 -14.468131 14.535870 -10.447629 37.010307 -9.786098 -23.466243 0.403943 0.000000 0.000000 0.000000 -5.040938 -1.087324 20.960211 14.341517 -3.822216 -17.340179 2.514796 3.285021 20.090253 0.688898 1.864816 -9.535211 0.000000 0.000000 0.000000 -19.656362 -13.745401 1.354104 -36.620667 -40.120496 6.707990 145.202366 -67.519787 -131.072586 0.000000 0.000000 0.000000 14.836457 16.697980 10.766965 27.360309 27.988574 1.030270 -87.284502 27.332698 -16.616938 0.000000 0.000000 0.000000
0.201622 0.851022 2.076778 -2.450775 23.851607 -12.455814 25.426013 -0.756878 -15.222471 -14.691805 1.170959 31.505855 11.450449 23.967493 23.788338 0.000000 0.000000 0.000000 -17.116578 -2.629971 -12.575937 12.910236 -8.509466 33.982441 -9.270523 -22.339924 1.111758 0.000000 0.000000 0.000000 -4.025429 -1.222672 21.351323 12.223270 -2.847697 -18.522911 1.455324 1.744948 21.014252 0.026090 2.351657 -10.204891 0.000000 0.000000 0.000000 -18.567413 -12.468577 1.370366 -38.950884 -36.919522 6.033256 150.690784 -67.144317 -137.527884 0.000000 0.000000 0.000000 14.615529 15.691314 9.932417 30.051417 28.224389 1.353451 -87.429367 27.863356 -16.852126 0.000000 0.000000 0.000000
