HIERARCHY
ROOT Hips
{
	OFFSET -0.001795 -0.223333 0.028219
	CHANNELS 6 Xposition Yposition Zposition Zrotation Yrotation Xrotation
	JOINT LeftUpLeg
	{
		OFFSET 0.069520 -0.091406 -0.006815
		CHANNELS 3 Zrotation Yrotation Xrotation
		JOINT LeftLeg
		{
			OFFSET 0.034277 -0.375199 -0.004496
			CHANNELS 3 Zrotation Yrotation Xrotation
			JOINT LeftFoot
			{
				OFFSET -0.013596 -0.397961 -0.043693
				CHANNELS 3 Zrotation Yrotation Xrotation
				JOINT LeftToe
				{
					OFFSET 0.026358 -0.055791 0.119288
					CHANNELS 3 Zrotation Yrotation Xrotation
					End Site
					{
						OFFSET 0.000000 0.000000 0.000000
					}
				}
			}
		}
	}
	JOINT RightUpLeg
	{
		OFFSET -0.067670 -0.090522 -0.004320
		CHANNELS 3 Zrotation Yrotation Xrotation
		JOINT RightLeg
		{
			OFFSET -0.038290 -0.382569 -0.008850
			CHANNELS 3 Zrotation Yrotation Xrotation
			JOINT RightFoot
			{
				OFFSET 0.015774 -0.398415 -0.042312
				CHANNELS 3 Zrotation Yrotation Xrotation
				JOINT RightToe
				{
					OFFSET -0.025372 -0.048144 0.123348
					CHANNELS 3 Zrotation Yrotation Xrotation
					End Site
					{
						OFFSET 0.000000 0.000000 0.000000
					}
				}
			}
		}
	}
	JOINT Spine
	{
		OFFSET -0.002533 0.108963 -0.026696
		CHANNELS 3 Zrotation Yrotation Xrotation
		JOINT Spine1
		{
			OFFSET 0.005487 0.135180 0.001092
			CHANNELS 3 Zrotation Yrotation Xrotation
			JOINT Spine2
			{
				OFFSET 0.001457 0.052922 0.025425
				CHANNELS 3 Zrotation Yrotation Xrotation
				JOINT Neck
				{
					OFFSET -0.002778 0.213870 -0.042857
					CHANNELS 3 Zrotation Yrotation Xrotation
					JOINT Head
					{
						OFFSET 0.005152 0.064970 0.051349
						CHANNELS 3 Zrotation Yrotation Xrotation
						End Site
						{
							OFFSET 0.000000 0.000000 0.000000
						}
					}
				}
				JOINT LeftShoulder
				{
					OFFSET 0.078845 0.121749 -0.034090
					CHANNELS 3 Zrotation Yrotation Xrotation
					JOINT LeftArm
					{
						OFFSET 0.090977 0.030469 -0.008868
						CHANNELS 3 Zrotation Yrotation Xrotation
						JOINT LeftForeArm
						{
							OFFSET 0.259612 -0.012772 -0.027456
							CHANNELS 3 Zrotation Yrotation Xrotation
							JOINT LeftHand
							{
								OFFSET 0.249234 0.008986 -0.001171
								CHANNELS 3 Zrotation Yrotation Xrotation
								End Site
								{
									OFFSET 0.000000 0.000000 0.000000
								}
							}
						}
					}
				}
				JOINT RightShoulder
				{
					OFFSET -0.081759 0.118833 -0.038615
					CHANNELS 3 Zrotation Yrotation Xrotation
					JOINT RightArm
					{
						OFFSET -0.096012 0.032551 -0.009143
						CHANNELS 3 Zrotation Yrotation Xrotation
						JOINT RightForeArm
						{
							OFFSET -0.253742 -0.013329 -0.021401
							CHANNELS 3 Zrotation Yrotation Xrotation
							JOINT RightHand
							{
								OFFSET -0.255298 0.007772 -0.005559
								CHANNELS 3 Zrotation Yrotation Xrotation
								End Site
								{
									OFFSET 0.000000 0.000000 0.000000
								}
							}
						}
					}
				}
			}
		}
	}
}
MOTION
Frames: 72
Frame Time: 0.050000
0.000000 0.891461 0.000000 -2.161739 24.801063 2.039088 15.710282 -1.164229 -10.380676 -10.550538 0.643014 9.716293 7.966800 13.275812 -4.300606 0.000000 0.000000 0.000000 -21.199102 -2.738468 -10.187448 10.939344 -2.894815 9.299311 -12.870669 -23.821795 22.025271 0.000000 0.000000 0.000000 -0.424406 -1.076526 15.397114 6.734962 -0.528770 -23.281147 3.504047 -1.962638 20.167759 4.771938 -2.002848 -8.740718 0.000000 0.000000 0.000000 -16.050592 -6.618160 -0.509528 -44.789095 -26.117069 2.782541 -153.176193 -65.840606 140.639412 0.000000 0.000000 0.000000 2.869610 8.016981 3.532056 41.784135 10.564122 -1.777124 -78.606014 47.538907 -29.026245 0.000000 0.000000 0.000000
-0.000065 0.891046 -0.000898 -2.724671 25.041550 2.325715 15.991214 -1.186016 -11.848518 -10.042983 0.584706 11.136821 8.061497 13.399184 -4.557222 0.000000 0.000000 0.000000 -21.572514 -3.049760 -11.639809 12.002864 -3.431777 10.813752 -12.450393 -22.923202 22.899840 0.000000 0.000000 0.000000 -0.600688 -0.845496 13.392356 5.643268 -0.221376 -23.838001 4.859186 -1.691129 21.481105 7.670454 -4.907084 -6.497060 0.000000 0.000000 0.000000 -15.784220 -7.006098 -0.421888 -45.397388 -28.963818 3.729655 -157.492455 -65.805280 146.821878 0.000000 0.000000 0.000000 1.045967 8.270063 3.323872 42.387283 7.365269 -2.787146 -82.345904 45.052902 -28.372649 0.000000 0.000000 0.000000
-0.000210 0.888947 -0.001632 -2.438943 24.783854 2.243257 15.283266 -1.149858 -12.065283 -9.345697 0.493479 12.052087 8.359598 13.662508 -5.286615 0.000000 0.000000 0.000000 -21.825530 -3.065362 -11.205573 12.086294 -3.314094 9.786518 -13.045619 -23.755137 23.227706 0.000000 0.000000 0.000000 -0.874010 -0.846522 13.859652 7.619064 -0.665601 -25.154737 3.670438 0.425755 22.006873 7.605745 -4.348486 -7.507952 0.000000 0.000000 0.000000 -16.624689 -7.618079 -0.815429 -44.584025 -31.686289 4.751656 -166.381593 -67.213493 159.621270 0.000000 0.000000 0.000000 1.658262 8.206384 3.510902 40.426263 6.254626 -3.237085 -88.058298 41.500947 -26.953385 0.000000 0.000000 0.000000
-0.000461 0.886006 -0.002426 -2.953566 25.581195 1.875528 15.971607 -1.206023 -13.712743 -9.691831 0.455621 14.796495 8.446903 13.476121 -6.196168 0.000000 0.000000 0.000000 -22.417503 -3.346835 -11.454355 13.031574 -3.695710 10.149477 -13.126960 -23.263224 25.590846 0.000000 0.000000 0.000000 -0.652454 -0.869816 13.608481 7.133015 -0.600511 -23.930126 4.397253 0.184687 20.816619 8.761086 -5.720644 -6.071182 0.000000 0.000000 0.000000 -16.420570 -7.552653 -0.879563 -44.970544 -32.934040 5.371202 -167.342585 -67.972128 161.091403 0.000000 0.000000 0.000000 -1.271546 7.667039 2.682417 41.807399 5.061679 -3.242003 -88.261559 37.459233 -22.992388 0.000000 0.000000 0.000000
-0.000872 0.882748 -0.003181 -2.948706 25.864129 1.682998 15.737393 -1.220945 -15.580103 -9.395773 0.275292 18.306854 8.654846 13.748064 -6.872782 0.000000 0.000000 0.000000 -22.826571 -3.573480 -11.968170 13.721025 -3.854009 9.732222 -15.655169 -25.740818 30.058780 0.000000 0.000000 0.000000 -0.928147 -0.930898 14.490381 6.633852 -0.443339 -24.491874 4.687508 0.372428 20.287033 8.510701 -5.656548 -5.510193 0.000000 0.000000 0.000000 -14.726711 -8.759186 0.008045 -44.685480 -35.206259 5.993309 -176.626994 -68.848451 174.780124 0.000000 0.000000 0.000000 -0.984136 7.729575 2.769620 40.435891 3.543734 -3.640891 -87.555065 34.254653 -19.949105 0.000000 0.000000 0.000000
-0.000929 0.878393 -0.004101 -3.719577 26.185873 1.776919 17.038443 -1.288738 -18.068730 -10.492494 0.331290 21.569054 8.938815 14.400529 -7.481652 0.000000 0.000000 0.000000 -22.671403 -3.761257 -13.232873 14.219848 -4.052178 9.913260 -17.328624 -26.848833 34.114318 0.000000 0.000000 0.000000 -1.131992 -0.948356 14.783782 6.919030 -0.528815 -24.278376 5.457875 0.365897 19.826327 9.226073 -6.249697 -5.570369 0.000000 0.000000 0.000000 -13.943730 -8.681609 0.112048 -45.293864 -37.399957 6.840369 178.781437 -69.573589 -178.476135 0.000000 0.000000 0.000000 -1.930629 8.021022 2.686139 40.181256 3.673080 -3.482557 -86.114240 31.097034 -16.542434 0.000000 0.000000 0.000000
-0.000569 0.873440 -0.004980 -3.840847 25.977943 2.038440 17.311004 -1.317625 -20.336882 -11.026616 0.307240 25.001585 9.334868 15.455075 -7.961848 0.000000 0.000000 0.000000 -23.287112 -4.166406 -14.778984 15.390393 -4.618544 11.211996 -18.640220 -28.113597 35.500119 0.000000 0.000000 0.000000 -1.030623 -1.073095 15.826588 6.454374 -0.393322 -24.445441 5.676605 0.708598 18.976007 9.670278 -6.626322 -5.576227 0.000000 0.000000 0.000000 -13.441640 -9.472314 0.571497 -44.941448 -37.953138 6.981913 175.270668 -67.961182 -173.148184 0.000000 0.000000 0.000000 -0.854558 8.200361 2.988354 38.660944 3.505441 -3.531475 -85.695544 30.262526 -15.901616 0.000000 0.000000 0.000000
0.000116 0.865732 -0.005601 -4.411533 26.242342 2.218919 17.978640 -1.397022 -22.925559 -11.530222 0.227587 28.625407 9.800278 16.411590 -9.239917 0.000000 0.000000 0.000000 -23.968727 -4.781479 -16.772572 17.488260 -5.809026 13.572845 -20.552684 -30.095906 36.299235 0.000000 0.000000 0.000000 -0.727058 -1.342986 17.555265 6.468898 -0.376151 -24.791428 6.156144 1.591932 18.346252 11.251595 -7.784512 -5.975721 0.000000 0.000000 0.000000 -13.400106 -10.143195 0.715678 -44.784477 -39.510805 7.554922 171.887062 -66.187137 -167.977429 0.000000 0.000000 0.000000 -0.252759 8.232198 3.149098 37.919373 3.989238 -3.336797 -83.803109 28.726443 -13.835749 0.000000 0.000000 0.000000
0.000986 0.856467 -0.006052 -4.579788 26.421867 2.357883 18.712128 -1.451148 -25.230573 -12.923660 0.441000 32.127975 10.257655 17.523308 -10.583879 0.000000 0.000000 0.000000 -25.072185 -5.493057 -18.344681 19.119916 -6.957245 16.025267 -21.060010 -30.843162 35.622618 0.000000 0.000000 0.000000 -0.609410 -1.612306 19.343272 5.962324 -0.239224 -25.094185 6.732555 2.334727 18.110559 12.617850 -8.705463 -6.581512 0.000000 0.000000 0.000000 -13.071282 -10.755854 0.941740 -44.121640 -41.713766 8.145377 168.539870 -65.617589 -162.829197 0.000000 0.000000 0.000000 -0.011503 8.465580 3.309482 37.780437 4.211375 -3.253273 -81.915143 27.788812 -12.404110 0.000000 0.000000 0.000000
0.001725 0.844860 -0.006370 -4.848395 25.417066 2.659317 20.047616 -1.319286 -27.140968 -15.031932 1.177052 35.206807 11.006166 19.670875 -12.350296 0.000000 0.000000 0.000000 -26.037971 -6.371318 -21.413943 20.815730 -8.423060 19.762637 -21.538558 -31.657839 35.018885 0.000000 0.000000 0.000000 -1.048591 -1.764562 21.259876 6.547633 -0.372310 -25.755956 7.441311 3.885133 17.557988 14.206733 -9.929511 -6.831707 0.000000 0.000000 0.000000 -13.321553 -11.402923 1.049366 -44.075464 -42.439169 8.478966 168.922344 -63.684261 -162.929883 0.000000 0.000000 0.000000 1.348072 8.709390 3.749379 36.791334 5.650264 -2.903643 -78.749153 27.307075 -11.247942 0.000000 0.000000 0.000000
0.002400 0.833163 -0.006600 -5.119444 24.475432 2.959011 21.090866 -1.165636 -29.184088 -16.607667 1.884321 38.523274 11.590979 21.724867 -13.896139 0.000000 0.000000 0.000000 -26.959905 -7.168321 -23.917649 22.251685 -9.779035 23.035625 -20.823756 -31.538199 32.916787 0.000000 0.000000 0.000000 -1.489919 -1.847851 22.767371 6.588374 -0.382560 -26.146965 8.487558 3.932404 17.751681 14.783571 -10.482663 -6.921468 0.000000 0.000000 0.000000 -13.962789 -11.338098 1.069518 -44.906818 -44.435401 9.517743 169.094151 -62.649119 -162.029990 0.000000 0.000000 0.000000 2.428304 9.654248 4.367696 37.354701 6.604725 -2.823026 -77.904487 27.976552 -11.830666 0.000000 0.000000 0.000000
0.002888 0.817348 -0.006184 -5.310379 21.025986 3.446324 23.458916 -0.428404 -30.886995 -20.174917 4.169223 42.181053 12.512392 25.582081 -14.855668 0.000000 0.000000 0.000000 -27.829654 -7.758189 -27.650026 24.580621 -11.418331 27.031640 -21.052172 -35.613388 22.259925 0.000000 0.000000 0.000000 -1.892922 -1.832743 24.645500 7.530272 -0.650929 -26.045374 9.160517 5.472890 17.454324 14.899445 -11.275199 -5.199715 0.000000 0.000000 0.000000 -15.020343 -11.905568 1.308093 -43.761744 -44.776480 9.558750 168.683889 -61.419005 -160.316485 0.000000 0.000000 0.000000 3.412779 10.161083 4.780999 37.907103 8.003347 -2.506518 -78.626886 31.417569 -14.954038 0.000000 0.000000 0.000000
0.002990 0.796403 -0.004924 -4.937781 17.167149 4.683831 25.058292 0.470208 -32.897268 -23.059174 6.840693 45.905919 13.471768 29.781774 -16.917182 0.000000 0.000000 0.000000 -29.182624 -8.676477 -32.615698 26.427854 -12.607001 30.823319 -25.582626 -42.686488 20.514667 0.000000 0.000000 0.000000 -2.687099 -1.660593 26.897045 8.847545 -0.972921 -26.459559 8.873473 6.102515 17.183684 14.974043 -12.629241 -2.293949 0.000000 0.000000 0.000000 -16.589646 -12.081314 1.629320 -41.079755 -44.224325 8.791272 169.956588 -59.796506 -160.453776 0.000000 0.000000 0.000000 6.987655 11.179826 5.915017 35.681352 9.325951 -2.341115 -79.020869 35.053680 -19.172861 0.000000 0.000000 0.000000
0.002965 0.767688 -0.002855 -4.953034 9.972370 5.666263 28.010361 2.546596 -34.200208 -26.544826 11.740520 50.897969 14.944734 35.208640 -17.749375 0.000000 0.000000 0.000000 -30.531834 -9.047959 -39.826936 29.796665 -14.057227 35.328536 -29.095311 -47.662237 20.423967 0.000000 0.000000 0.000000 -3.026108 -1.338475 30.479975 9.739941 -1.275111 -26.229945 9.663091 7.372691 16.565177 12.690592 -10.927221 -0.955503 0.000000 0.000000 0.000000 -18.141940 -12.193587 2.280831 -37.670413 -43.356303 7.742719 169.496681 -56.841477 -156.452887 0.000000 0.000000 0.000000 7.420755 12.451043 6.245175 36.590000 12.447644 -1.415325 -80.513330 38.298914 -23.350937 0.000000 0.000000 0.000000
0.003030 0.728464 0.000835 -4.853779 4.336646 6.656723 30.959720 4.851065 -35.897847 -29.395173 17.159969 56.707331 15.779804 39.304694 -20.804062 0.000000 0.000000 0.000000 -34.022350 -10.106501 -45.810748 36.558897 -16.315217 35.825201 -35.618530 -53.204170 24.864589 0.000000 0.000000 0.000000 -1.776994 -1.459701 34.903880 11.141783 -1.544011 -26.935739 8.606322 7.801382 17.094575 10.802334 -9.133920 -1.144276 0.000000 0.000000 0.000000 -21.467316 -11.753533 2.520448 -33.708301 -44.178077 6.895895 168.672545 -56.107196 -152.769655 0.000000 0.000000 0.000000 8.118233 13.215825 6.441074 36.181967 15.702972 -0.552979 -85.635701 40.830868 -28.799941 0.000000 0.000000 0.000000
0.002825 0.682593 0.008643 -5.239309 -2.386068 7.253886 32.982823 7.785969 -37.655709 -28.008865 21.990430 66.475772 17.327648 43.177797 -20.983340 0.000000 0.000000 0.000000 -38.213594 -10.954635 -52.712828 46.249156 -19.472231 35.005718 -41.419820 -57.194240 29.314813 0.000000 0.000000 0.000000 -0.197523 -1.370021 39.876093 11.920432 -1.608961 -28.067527 8.487852 6.628127 17.826736 8.077887 -6.407618 -2.905164 0.000000 0.000000 0.000000 -22.856271 -12.177343 4.164886 -31.010297 -46.649958 6.524738 163.323922 -55.886161 -140.659196 0.000000 0.000000 0.000000 6.596835 15.041282 6.464621 35.767125 19.902251 0.648037 -87.135047 41.794471 -32.215528 0.000000 0.000000 0.000000
0.001537 0.630572 0.023676 -5.491170 -8.317322 7.598462 34.910130 10.786418 -38.453746 -24.959008 25.750650 77.389153 18.949917 45.966774 -19.931001 0.000000 0.000000 0.000000 -44.216156 -12.051913 -57.301914 58.084080 -22.598066 31.150110 -46.593885 -61.086956 31.803112 0.000000 0.000000 0.000000 1.136678 -0.967649 43.983062 15.765396 -2.371124 -27.978420 4.885003 6.301583 19.162791 6.657768 -4.593930 -6.979291 0.000000 0.000000 0.000000 -22.519212 -13.195605 5.690126 -27.487673 -52.038132 6.323504 149.503543 -59.200041 -119.868556 0.000000 0.000000 0.000000 9.220462 16.763676 7.319671 32.514317 24.916406 1.434758 -90.439593 43.661688 -36.960218 0.000000 0.000000 0.000000
-0.002613 0.583218 0.048440 -5.859378 -14.816873 7.624696 35.656857 13.544141 -38.260675 -17.482869 25.155698 90.223102 20.921664 44.581827 -11.144375 0.000000 0.000000 0.000000 -50.596790 -12.908020 -61.889996 69.836986 -25.934778 27.281644 -48.684426 -62.781239 32.597701 0.000000 0.000000 0.000000 3.524880 -0.577197 49.704954 17.537413 -2.363583 -30.030945 2.399776 3.595843 20.567615 3.623671 -2.727424 -5.545080 0.000000 0.000000 0.000000 -24.997657 -13.809955 8.024609 -18.435157 -57.475481 3.151290 127.664138 -59.473121 -89.375806 0.000000 0.000000 0.000000 9.759086 17.123854 6.841193 32.791782 29.318693 2.432329 -95.466229 48.759843 -47.449977 0.000000 0.000000 0.000000
-0.010267 0.544790 0.080825 -6.481533 -22.716585 8.508308 37.732729 16.360622 -34.583176 -10.099041 22.412259 99.483262 17.974250 35.332074 -1.747073 0.000000 0.000000 0.000000 -56.254283 -11.999784 -65.330522 80.683426 -26.664321 20.500602 -46.568613 -64.911740 26.524395 0.000000 0.000000 0.000000 6.038044 0.392303 53.301100 19.409298 -2.630360 -30.373456 -1.203966 2.002875 21.149350 2.742830 -2.151592 -7.329000 0.000000 0.000000 0.000000 -21.911940 -16.298162 10.276398 -7.794283 -59.852390 -1.599265 99.408520 -50.352667 -50.633451 0.000000 0.000000 0.000000 13.948606 17.739380 6.740069 29.455845 30.511513 2.261436 -100.763647 54.959597 -60.299689 0.000000 0.000000 0.000000
-0.021207 0.521587 0.116809 -7.692925 -31.130469 10.409687 37.595344 17.858661 -30.559126 -0.012938 14.257556 107.152426 4.091562 11.500432 7.570891 0.000000 0.000000 0.000000 -61.271059 -10.346611 -68.738291 77.948029 -20.001829 12.475786 -62.219057 -62.604843 53.322048 0.000000 0.000000 0.000000 10.659572 0.866998 57.314355 17.712552 -1.996949 -32.727096 -3.554372 -2.291242 23.336157 0.760877 -1.121349 -9.500848 0.000000 0.000000 0.000000 -19.477466 -16.885975 12.019330 2.009614 -60.145918 -6.162708 86.914203 -34.575737 -26.654126 0.000000 0.000000 0.000000 13.993199 16.313404 4.686374 30.260780 31.572415 2.651633 -108.355953 62.374857 -78.922207 0.000000 0.000000 0.000000
-0.034263 0.509744 0.153049 -9.137986 -38.892001 13.306747 36.959042 18.438517 -26.569650 8.253984 7.074091 111.032823 -4.789527 -9.059070 1.974874 0.000000 0.000000 0.000000 -64.830451 -8.239010 -71.762422 72.092942 -14.003501 6.211665 -75.103873 -57.389344 79.298672 0.000000 0.000000 0.000000 14.346151 1.997071 61.177327 17.281314 -1.746206 -33.949687 -6.622487 -5.297345 23.447020 0.174298 -1.104800 -11.267019 0.000000 0.000000 0.000000 -13.470419 -19.237528 12.180031 5.730033 -56.430809 -6.489173 78.419408 -20.501166 -12.349212 0.000000 0.000000 0.000000 14.745315 16.154117 3.577078 28.642711 29.861473 2.329863 -114.904249 67.716348 -94.083915 0.000000 0.000000 0.000000
-0.049373 0.503629 0.187781 -10.402184 -46.194167 16.730142 35.349228 17.780825 -22.546118 16.872746 -0.081100 111.891309 -11.550030 -30.818550 -2.032721 0.000000 0.000000 0.000000 -69.781558 -7.179574 -74.307674 76.444385 -11.552359 -0.731187 -80.322677 -60.955787 78.720326 0.000000 0.000000 0.000000 18.341445 2.970742 63.901030 15.034307 -1.331367 -34.610748 -8.304083 -8.946729 24.179854 0.940809 -2.309560 -20.844780 0.000000 0.000000 0.000000 -6.900066 -20.904271 11.192082 4.537048 -53.698516 -4.503084 71.996408 -5.925104 -0.826050 0.000000 0.000000 0.000000 14.183250 15.642421 2.214207 27.278430 27.671991 1.958949 -125.651864 71.343915 -112.951041 0.000000 0.000000 0.000000
-0.067336 0.503616 0.221417 -11.477641 -50.403486 20.186909 32.563022 17.113546 -22.441554 22.128792 -3.288727 111.025475 -5.149278 -32.556665 -14.043055 0.000000 0.000000 0.000000 -73.772561 -6.353842 -74.033057 79.146359 -8.471377 -6.705738 -86.633134 -65.649970 77.303012 0.000000 0.000000 0.000000 21.838071 2.982574 65.446605 15.337991 -1.215878 -34.937491 -11.613972 -10.951857 24.471331 2.581646 -3.423644 -25.271926 0.000000 0.000000 0.000000 0.910824 -21.064489 8.264906 -0.279655 -52.836800 -1.334188 65.317511 1.716681 4.367576 0.000000 0.000000 0.000000 13.988490 15.390855 1.481162 28.013642 25.335326 1.875327 -143.108906 69.707362 -134.709748 0.000000 0.000000 0.000000
-0.088640 0.501548 0.252898 -12.488884 -54.205165 24.419438 29.613656 16.678297 -23.667317 26.619848 -5.738976 110.237224 -4.543992 -32.517951 -14.815876 0.000000 0.000000 0.000000 -80.208650 -6.276760 -72.257141 82.032624 -3.966350 -15.642392 -91.296303 -68.812877 76.122680 0.000000 0.000000 0.000000 24.352522 2.981739 64.742046 15.207207 -0.947402 -34.960061 -13.947284 -12.475848 24.709804 3.739898 -4.115587 -29.371493 0.000000 0.000000 0.000000 3.818910 -20.771792 7.149464 -0.677471 -52.109393 -0.467492 59.850384 8.535562 7.761473 0.000000 0.000000 0.000000 14.089072 14.525083 0.376182 26.151069 24.009622 1.566708 -151.046673 68.661163 -145.809604 0.000000 0.000000 0.000000
-0.112852 0.502685 0.280974 -14.934298 -57.995479 29.269036 27.729837 16.439947 -23.789157 32.185265 -9.032592 107.942629 -9.572124 -40.154585 -10.047666 0.000000 0.000000 0.000000 -83.024561 -5.076273 -72.274008 82.807591 -0.677106 -20.801897 -94.371435 -74.130383 71.126722 0.000000 0.000000 0.000000 26.252554 3.539974 65.146082 13.670290 -0.585484 -35.712517 -14.647559 -13.374054 25.478060 4.012772 -4.352411 -31.036658 0.000000 0.000000 0.000000 6.130606 -20.784057 6.296634 -0.938204 -50.176289 0.137553 58.705730 10.309429 8.811232 0.000000 0.000000 0.000000 11.715874 13.759010 0.143868 26.575001 24.618115 1.531941 -159.459436 67.655527 -159.026850 0.000000 0.000000 0.000000
-0.138856 0.504228 0.304817 -16.771686 -61.634586 31.943855 26.220894 15.879608 -22.989368 36.268000 -10.530179 107.148712 -20.486543 -47.522965 2.539928 0.000000 0.000000 0.000000 -83.988812 -3.921273 -73.381460 84.991793 0.031768 -21.682385 -84.255311 -78.066818 54.945739 0.000000 0.000000 0.000000 27.613958 4.365303 65.478009 13.261804 -0.686448 -34.541517 -14.300791 -13.051786 24.187593 5.351301 -4.811704 -31.583686 0.000000 0.000000 0.000000 7.721596 -20.419072 5.558589 -1.245269 -49.946522 0.578449 58.796610 10.202965 8.833800 0.000000 0.000000 0.000000 8.746150 13.192386 0.713983 25.738683 27.008697 1.515153 -163.357919 65.197849 -164.734736 0.000000 0.000000 0.000000
-0.163527 0.508249 0.322373 -17.495864 -62.539762 33.467263 24.887178 15.442588 -23.486024 37.715048 -10.749776 106.658246 -27.066560 -48.148342 11.359782 0.000000 0.000000 0.000000 -84.207371 -2.893851 -72.595790 87.040318 0.898819 -22.244237 -70.989897 -80.023582 37.537291 0.000000 0.000000 0.000000 28.279698 4.674327 66.408628 12.436988 -0.335495 -35.950663 -13.779780 -12.923404 24.087380 4.817874 -4.635338 -30.286932 0.000000 0.000000 0.000000 10.911034 -20.409221 4.303983 -2.723037 -49.632778 1.562144 64.594983 9.824474 10.221764 0.000000 0.000000 0.000000 5.138220 14.355147 2.068915 25.168257 32.434767 1.638557 -159.186901 64.408905 -158.786873 0.000000 0.000000 0.000000
-0.184658 0.507981 0.332154 -17.671492 -63.117906 34.549701 24.108991 14.833290 -23.298028 38.648835 -10.011434 104.649090 -25.378053 -47.970257 8.998358 0.000000 0.000000 0.000000 -86.562227 -2.639711 -70.764920 89.453161 2.886353 -25.464988 -66.801259 -78.966952 32.965317 0.000000 0.000000 0.000000 29.583693 4.449917 68.460001 10.441378 -0.240529 -37.111834 -12.924743 -12.075481 22.893485 4.166566 -4.117823 -28.825600 0.000000 0.000000 0.000000 10.735453 -20.308562 4.424549 2.655476 -50.568059 -0.492555 73.280470 7.131297 9.631580 0.000000 0.000000 0.000000 1.967415 15.361153 3.345972 21.016412 39.908951 0.919304 -137.060244 65.729550 -126.513723 0.000000 0.000000 0.000000
-0.202689 0.508903 0.335528 -17.612080 -63.674987 35.678034 24.290158 16.035028 -24.954829 37.888940 -9.662498 104.728923 -23.788982 -49.761800 5.886034 0.000000 0.000000 0.000000 -88.874470 -3.324529 -70.718737 91.894462 2.867044 -27.152472 -66.717719 -76.994898 34.187236 0.000000 0.000000 0.000000 29.077052 5.049385 68.999799 8.971985 -0.132662 -37.073014 -11.002965 -11.279119 22.822458 5.507186 -4.473747 -30.663441 0.000000 0.000000 0.000000 13.016181 -17.917743 2.945693 2.522915 -53.323148 -0.013414 85.653854 6.914601 12.497915 0.000000 0.000000 0.000000 -2.416255 16.041977 4.464507 11.033637 47.702698 -3.102348 -108.591062 60.038618 -84.939739 0.000000 0.000000 0.000000
-0.219100 0.506993 0.334635 -15.463232 -62.913230 34.227704 23.671793 17.087681 -27.667606 36.651611 -10.805324 106.156689 -22.485803 -50.922231 3.751436 0.000000 0.000000 0.000000 -91.329989 -4.189180 -69.596404 95.264509 2.446837 -28.281649 -68.083303 -74.457871 37.497426 0.000000 0.000000 0.000000 29.484158 4.477948 68.349868 8.009367 -0.107614 -36.429120 -10.460955 -11.343112 22.204026 6.817151 -5.240598 -29.596266 0.000000 0.000000 0.000000 13.668960 -18.738611 2.978830 -0.331681 -52.760226 1.213563 93.391748 4.373077 12.480639 0.000000 0.000000 0.000000 -7.986793 15.916236 5.402785 7.662748 51.304118 -5.704566 -97.475460 55.467924 -69.352230 0.000000 0.000000 0.000000
-0.235529 0.504041 0.330534 -12.592507 -62.572609 30.485292 24.231857 17.506773 -27.746113 35.243664 -10.889192 107.962290 -18.025397 -50.525493 -1.861583 0.000000 0.000000 0.000000 -90.477186 -4.021728 -69.274367 98.460323 1.294753 -26.194996 -63.638626 -74.160326 31.691170 0.000000 0.000000 0.000000 31.117969 3.805616 70.230348 6.483978 -0.191089 -36.122451 -10.614281 -13.731897 20.783186 5.560641 -4.747914 -28.332550 0.000000 0.000000 0.000000 13.183741 -19.430690 3.331136 -4.478525 -51.333370 2.696267 97.025772 -0.823284 8.454553 0.000000 0.000000 0.000000 -10.336970 16.258653 5.946514 6.276260 52.216450 -6.798945 -94.150647 52.548521 -63.957346 0.000000 0.000000 0.000000
-0.253403 0.500815 0.323600 -9.654576 -60.511509 28.453528 25.450965 19.545867 -30.460365 31.950329 -10.996805 109.228968 -14.401496 -47.483613 -5.094331 0.000000 0.000000 0.000000 -91.417208 -5.136349 -68.062293 101.668383 0.316203 -26.170159 -65.227684 -72.930829 33.670536 0.000000 0.000000 0.000000 30.870257 2.951005 69.185425 5.835181 -0.154954 -35.573991 -9.528745 -14.617984 20.264557 4.525593 -4.434246 -26.141798 0.000000 0.000000 0.000000 11.308561 -20.079819 4.339282 -11.051429 -51.036729 4.953607 100.628688 -5.106479 5.060286 0.000000 0.000000 0.000000 -9.026510 16.966394 5.899485 9.353175 50.023557 -4.994423 -99.552997 51.718597 -68.988122 0.000000 0.000000 0.000000
-0.272527 0.496821 0.314328 -7.178611 -59.286557 24.584728 27.724882 21.543862 -31.288948 28.692989 -10.544471 110.692158 -10.568140 -45.588506 -9.464544 0.000000 0.000000 0.000000 -89.465375 -6.143608 -68.988346 106.000949 -3.389190 -22.306392 -66.217340 -70.292715 36.695879 0.000000 0.000000 0.000000 31.082349 2.227123 69.285999 6.644421 -0.434327 -34.608766 -9.751434 -15.994355 19.943428 4.261617 -4.343034 -26.221514 0.000000 0.000000 0.000000 6.764312 -20.541114 6.234601 -17.884498 -51.380232 7.095380 103.382849 -13.184659 -4.335048 0.000000 0.000000 0.000000 -6.727520 16.605986 5.421289 12.699341 45.131401 -2.614755 -109.499618 50.428942 -78.182175 0.000000 0.000000 0.000000
-0.292023 0.491068 0.304070 -6.354690 -58.483260 23.259490 28.891725 23.399475 -32.948657 26.385439 -10.691652 112.355648 -6.766409 -38.627633 -12.072207 0.000000 0.000000 0.000000 -88.554754 -6.979139 -69.886824 109.124423 -4.700055 -21.333577 -69.514088 -68.268414 41.490237 0.000000 0.000000 0.000000 30.957760 1.964243 69.347912 5.304579 -0.301030 -34.797337 -8.988488 -17.968062 20.564224 2.662958 -3.780360 -26.212656 0.000000 0.000000 0.000000 5.082225 -20.207690 6.873227 -27.241689 -50.152938 10.443802 105.105136 -21.811682 -13.518639 0.000000 0.000000 0.000000 -2.789475 16.805584 4.624534 16.408406 40.685466 -0.767579 -121.406944 50.567840 -92.824474 0.000000 0.000000 0.000000
-0.309673 0.479761 0.294675 -6.288236 -57.045760 22.144710 29.746980 24.525865 -34.308020 26.354769 -14.000640 112.586929 -8.040580 -39.171466 -10.034771 0.000000 0.000000 0.000000 -88.008398 -7.696863 -69.755709 112.679838 -4.806011 -21.257457 -73.338551 -65.826558 47.263016 0.000000 0.000000 0.000000 31.144645 1.178785 69.090032 5.244114 -0.345970 -34.806543 -8.702602 -18.331285 20.373939 1.807715 -3.384727 -25.118974 0.000000 0.000000 0.000000 1.802650 -20.437414 8.372460 -32.197555 -47.860906 10.802734 104.929938 -27.841538 -20.272116 0.000000 0.000000 0.000000 0.093602 16.965968 4.000998 20.113304 36.321584 0.694382 -130.043191 51.008608 -104.200691 0.000000 0.000000 0.000000
-0.323809 0.469129 0.287471 -6.266344 -56.017195 20.443376 29.232785 24.426475 -35.370828 27.518774 -18.217836 113.476190 -6.997159 -36.481535 -10.624996 0.000000 0.000000 0.000000 -86.163771 -8.264694 -70.803597 115.740559 -6.620305 -19.487410 -76.180964 -63.777897 51.629192 0.000000 0.000000 0.000000 30.668434 0.975221 68.945799 4.991592 -0.362915 -34.678327 -7.934749 -18.387458 20.716505 0.295926 -2.603045 -24.675908 0.000000 0.000000 0.000000 2.913557 -19.719773 7.539714 -38.707540 -45.402837 12.361141 104.352671 -32.864413 -24.796390 0.000000 0.000000 0.000000 1.285702 16.116773 3.493291 20.497483 34.473485 0.911913 -132.535922 50.107569 -106.495083 0.000000 0.000000 0.000000
-0.333852 0.457372 0.283325 -6.657957 -55.238826 18.431342 29.814115 23.988448 -34.474100 29.240881 -21.569856 112.726239 -6.453359 -36.054500 -11.197805 0.000000 0.000000 0.000000 -84.415054 -8.634466 -71.653368 118.803733 -8.575088 -17.661224 -77.392461 -60.930530 55.699404 0.000000 0.000000 0.000000 30.662273 0.618381 69.700969 4.816574 -0.352858 -35.606868 -7.521055 -18.521719 20.380970 -0.987120 -1.817270 -22.486158 0.000000 0.000000 0.000000 0.547912 -20.509211 8.750394 -35.469366 -42.594393 9.160208 102.146981 -37.771608 -29.705400 0.000000 0.000000 0.000000 2.175254 16.288677 3.441579 19.323409 33.546635 0.797310 -131.131874 51.346395 -105.517172 0.000000 0.000000 0.000000
-0.339439 0.448091 0.281509 -7.473227 -54.393616 16.759969 29.720818 22.851910 -33.488115 32.574660 -25.735016 110.624357 -8.493609 -35.043952 -7.641329 0.000000 0.000000 0.000000 -81.138616 -8.480908 -73.011709 120.508513 -11.301344 -14.829822 -79.829647 -60.066258 58.727099 0.000000 0.000000 0.000000 29.944578 0.550826 69.588671 5.695990 -0.637331 -34.609734 -6.986876 -17.075449 19.442643 -2.806546 -0.403615 -20.777400 0.000000 0.000000 0.000000 0.161560 -20.051505 8.512604 -35.292357 -39.910856 7.640483 101.687479 -39.907912 -31.860253 0.000000 0.000000 0.000000 4.328084 17.678975 3.578329 15.593543 31.963726 0.395377 -127.731459 52.656120 -100.915049 0.000000 0.000000 0.000000
-0.340752 0.445025 0.280266 -8.215731 -52.986354 15.821694 28.492826 21.914716 -34.436859 34.943769 -29.222659 109.018520 -11.774739 -32.467849 -0.815911 0.000000 0.000000 0.000000 -79.013055 -8.234126 -72.810280 121.092718 -12.305869 -13.289880 -81.409879 -59.089479 61.926299 0.000000 0.000000 0.000000 28.885725 0.335444 67.977590 5.290603 -0.707223 -33.577615 -5.561502 -16.223446 19.704367 -3.027617 -0.253810 -21.540158 0.000000 0.000000 0.000000 -0.618035 -20.593600 9.003645 -33.796059 -38.565876 6.492761 103.450329 -42.448936 -36.087528 0.000000 0.000000 0.000000 4.547669 18.474074 3.830010 11.510057 31.844322 -0.420058 -119.594423 53.880166 -91.869455 0.000000 0.000000 0.000000
-0.338204 0.453750 0.278077 -9.193369 -50.005334 15.618671 27.028492 20.264918 -35.285964 35.101595 -28.957218 107.242573 -10.152708 -26.243398 -0.422348 0.000000 0.000000 0.000000 -74.433124 -7.247232 -72.428069 118.929866 -13.639391 -10.209061 -87.009000 -59.914553 67.408872 0.000000 0.000000 0.000000 26.673089 0.169824 65.609937 6.622441 -1.012762 -31.716684 -4.415406 -13.848335 18.808891 -2.135185 -0.538281 -20.522633 0.000000 0.000000 0.000000 -0.787386 -20.855736 9.145582 -32.032466 -37.656971 5.465512 103.310072 -43.078542 -36.993663 0.000000 0.000000 0.000000 5.316665 19.792964 4.250915 8.952341 31.271695 -0.789309 -112.881299 52.217854 -81.073920 0.000000 0.000000 0.000000
-0.332846 0.475322 0.274765 -9.873685 -46.901172 15.250630 26.063773 18.649212 -35.617282 33.179989 -26.234390 106.272995 -6.001183 -18.785980 -3.814893 0.000000 0.000000 0.000000 -69.936258 -6.482001 -71.838654 115.409939 -15.486240 -6.539985 -86.850203 -57.303962 73.225361 0.000000 0.000000 0.000000 23.283444 0.404231 62.888757 8.374758 -1.149772 -32.224345 -4.173062 -11.278278 21.435708 -1.961857 -0.592084 -20.726993 0.000000 0.000000 0.000000 -4.479030 -19.717536 10.087518 -30.145556 -36.131577 3.736844 111.594689 -47.602372 -48.732351 0.000000 0.000000 0.000000 7.331847 21.510967 4.825152 5.590010 28.746732 -1.330886 -106.421859 47.371362 -67.163649 0.000000 0.000000 0.000000
-0.325683 0.507603 0.271202 -10.073387 -40.920315 14.540701 25.861681 16.806078 -36.336188 28.074833 -20.566177 104.045407 0.568891 -8.639454 -12.154664 0.000000 0.000000 0.000000 -62.610899 -5.540421 -69.393838 109.040602 -18.287968 -0.042429 -89.170244 -57.056847 78.912472 0.000000 0.000000 0.000000 19.147860 -0.070121 59.008461 11.892657 -1.548993 -31.231714 -3.191482 -7.058593 21.576680 -0.761490 -0.837825 -20.472575 0.000000 0.000000 0.000000 -9.914376 -19.488576 11.703304 -26.518271 -36.051559 2.210158 118.064480 -54.024811 -64.887091 0.000000 0.000000 0.000000 7.342608 21.492623 5.551189 6.162231 26.752011 -1.148824 -100.192499 42.423543 -54.116234 0.000000 0.000000 0.000000
-0.317704 0.552293 0.268252 -8.943696 -34.794187 13.291962 24.280948 14.541389 -38.326647 21.588987 -13.677747 101.644561 4.888656 -1.195730 -20.428358 0.000000 0.000000 0.000000 -54.429434 -4.786006 -67.342608 98.779087 -22.812022 9.896023 -88.310649 -57.165034 81.367761 0.000000 0.000000 0.000000 15.040337 -0.577905 54.299630 14.209190 -1.733417 -31.028598 -2.591398 -4.200443 22.899747 -1.218715 -0.189662 -18.896809 0.000000 0.000000 0.000000 -18.777449 -17.565504 13.427235 -20.651703 -35.038037 0.022077 131.637970 -59.936779 -89.745862 0.000000 0.000000 0.000000 8.034808 21.989504 6.307202 5.773891 23.870830 -1.159404 -92.603821 37.410903 -41.844113 0.000000 0.000000 0.000000
-0.309924 0.602821 0.266929 -7.790653 -29.414981 11.923131 25.666698 12.806315 -36.717102 14.266331 -5.037607 95.003489 6.570823 0.424620 -29.124020 0.000000 0.000000 0.000000 -46.346033 -3.640583 -63.875942 85.978833 -24.763338 20.303140 -85.247872 -58.244516 80.006767 0.000000 0.000000 0.000000 11.466333 -0.890236 49.211090 15.684743 -2.127363 -29.215538 -2.466603 -0.117449 23.197989 1.585479 -1.445041 -18.368019 0.000000 0.000000 0.000000 -22.049791 -16.878146 12.629015 -20.685137 -33.022061 -0.229271 148.043035 -61.335766 -115.020806 0.000000 0.000000 0.000000 8.297291 20.449056 6.549927 7.335335 22.073448 -1.015833 -88.829213 32.767899 -33.238941 0.000000 0.000000 0.000000
-0.303098 0.657889 0.267361 -6.572774 -23.941496 11.381193 24.241288 10.334130 -36.943318 8.269530 0.151838 86.920737 5.783758 -1.845803 -30.406749 0.000000 0.000000 0.000000 -39.725938 -3.125677 -60.174721 68.386956 -23.453864 30.485637 -73.154184 -52.868955 80.364576 0.000000 0.000000 0.000000 8.746699 -1.296159 44.584169 14.929141 -2.056626 -28.752900 0.030143 1.541218 23.312162 2.189708 -1.602330 -15.791496 0.000000 0.000000 0.000000 -25.665300 -13.385960 10.357868 -20.618662 -32.488716 -0.299954 163.100816 -60.206836 -138.312616 0.000000 0.000000 0.000000 6.471064 18.363678 6.177863 8.309821 20.946263 -1.034227 -82.803222 32.149128 -28.724301 0.000000 0.000000 0.000000
-0.297637 0.708485 0.268783 -5.050711 -19.046839 10.367709 24.814644 8.611366 -35.163268 0.522757 5.640244 77.338230 4.358131 -3.313569 -26.810164 0.000000 0.000000 0.000000 -34.300928 -2.774085 -55.918718 50.911908 -19.404671 38.252749 -53.091915 -55.895196 53.511951 0.000000 0.000000 0.000000 5.753375 -1.147537 40.544573 13.925262 -1.959696 -28.105979 2.112080 4.593628 23.207729 4.007503 -2.243630 -15.868705 0.000000 0.000000 0.000000 -25.872579 -12.718051 8.197070 -21.473217 -31.220304 0.078407 165.386260 -56.995812 -141.957994 0.000000 0.000000 0.000000 2.283085 16.168601 5.640734 12.977833 18.725450 -0.870703 -82.542716 29.911322 -25.036659 0.000000 0.000000 0.000000
-0.294023 0.750968 0.270885 -3.708418 -13.489892 9.600021 23.800372 6.588780 -34.618138 -4.536657 6.938376 68.651574 2.449721 -3.425952 -18.377088 0.000000 0.000000 0.000000 -31.389790 -3.352092 -50.890464 37.096988 -14.215371 39.835032 -35.065419 -49.541925 36.259623 0.000000 0.000000 0.000000 4.800325 -1.673427 37.867250 12.391089 -1.415963 -29.928508 3.018817 5.482725 22.232637 4.618958 -2.584814 -12.780082 0.000000 0.000000 0.000000 -26.243480 -10.789016 5.682559 -22.883284 -32.208631 0.779100 164.137714 -56.496778 -140.893261 0.000000 0.000000 0.000000 1.136013 13.182377 4.703853 16.191565 19.143690 -0.753436 -81.190029 30.659417 -23.544261 0.000000 0.000000 0.000000
-0.292044 0.783039 0.273267 -2.534536 -8.915231 8.686009 23.432925 4.966096 -32.361934 -9.555696 8.017081 59.678858 3.034724 1.833083 -12.470704 0.000000 0.000000 0.000000 -29.400791 -3.688893 -46.066182 25.721177 -8.988698 37.012422 -22.210806 -40.207007 23.915147 0.000000 0.000000 0.000000 3.133562 -1.617575 35.374061 10.442031 -1.103447 -29.893739 4.789639 5.648962 21.177988 5.004498 -2.377321 -14.574799 0.000000 0.000000 0.000000 -24.001665 -10.182600 4.357286 -26.744095 -32.837124 1.816805 162.510200 -54.708839 -137.287025 0.000000 0.000000 0.000000 -0.165458 12.099390 4.300319 19.395158 18.006144 -0.682494 -84.557083 30.019023 -23.156224 0.000000 0.000000 0.000000
-0.290922 0.804937 0.275787 -2.327027 -4.630698 8.179792 22.888391 3.775474 -31.371811 -10.857050 6.772452 54.385459 2.739685 2.761519 -8.372363 0.000000 0.000000 0.000000 -29.017341 -4.110260 -40.499720 21.315305 -6.746698 31.242202 -17.587760 -34.931586 18.461156 0.000000 0.000000 0.000000 2.526560 -1.829415 33.152423 9.330793 -0.797627 -30.802519 5.320122 5.265639 21.639571 5.521107 -2.516214 -14.940283 0.000000 0.000000 0.000000 -21.985366 -8.952900 3.066205 -31.196743 -35.684476 3.355759 161.904932 -53.118949 -135.226547 0.000000 0.000000 0.000000 -0.895078 10.167419 3.599919 22.292544 19.088282 -0.470819 -88.581655 27.238912 -21.010985 0.000000 0.000000 0.000000
-0.290357 0.818733 0.278303 -2.100994 -0.594495 7.326238 22.188429 2.703484 -29.993850 -11.804963 5.609512 49.367857 3.474104 5.571133 -5.626867 0.000000 0.000000 0.000000 -28.860540 -4.510501 -36.290710 18.693307 -5.686920 27.494546 -15.753025 -31.574082 18.915520 0.000000 0.000000 0.000000 1.332265 -1.742896 31.296022 8.672977 -0.700479 -30.756764 6.060568 5.120686 21.484397 6.478725 -2.822787 -15.830899 0.000000 0.000000 0.000000 -19.874020 -8.383164 2.214185 -35.218493 -36.811319 4.616367 165.009760 -52.053780 -140.878985 0.000000 0.000000 0.000000 -1.519282 9.052523 3.163933 24.427219 19.421012 -0.273270 -90.938884 24.711984 -18.189203 0.000000 0.000000 0.000000
-0.289591 0.824911 0.280889 -1.616694 2.632224 6.656234 21.698957 2.030740 -29.552786 -12.792479 5.136464 47.251907 3.801241 6.799365 -4.174208 0.000000 0.000000 0.000000 -29.381450 -5.023317 -33.606466 17.796692 -5.560001 26.296295 -15.053212 -29.744037 20.855027 0.000000 0.000000 0.000000 0.749416 -1.773298 30.157035 8.059785 -0.564974 -31.136422 6.306428 4.650227 21.072131 5.430028 -1.773517 -17.056599 0.000000 0.000000 0.000000 -19.200243 -7.881029 1.612816 -37.836451 -36.971721 5.323481 168.219438 -50.486101 -146.602421 0.000000 0.000000 0.000000 -0.882130 9.005854 3.212003 24.317555 19.931985 -0.179876 -91.025077 21.703539 -14.678368 0.000000 0.000000 0.000000
-0.288466 0.831140 0.283149 -1.364601 5.071478 6.354010 21.434834 1.558399 -29.002752 -13.356065 4.664102 45.013672 3.672846 6.884783 -3.016596 0.000000 0.000000 0.000000 -29.305657 -5.166054 -31.351144 16.630253 -5.148798 24.513474 -14.822385 -28.862308 22.104529 0.000000 0.000000 0.000000 0.361051 -1.739220 28.595930 7.595080 -0.463456 -31.455126 6.490204 4.202252 21.214782 5.592310 -1.829996 -16.700585 0.000000 0.000000 0.000000 -19.087068 -7.698440 1.275405 -39.932925 -36.838834 5.753772 174.223088 -49.722805 -158.931586 0.000000 0.000000 0.000000 -1.081135 8.752804 3.102657 25.116385 20.262824 -0.082366 -90.701796 20.629654 -12.947670 0.000000 0.000000 0.000000
-0.286996 0.837692 0.284896 -0.888435 6.928676 5.908794 20.503366 1.069650 -28.274460 -13.607581 4.242241 43.589749 4.041501 7.932303 -2.306407 0.000000 0.000000 0.000000 -29.954339 -5.295587 -28.831667 16.549591 -5.079200 22.904082 -14.213167 -27.688130 22.623326 0.000000 0.000000 0.000000 0.114636 -1.671831 27.027508 6.642436 -0.333597 -30.980250 6.466139 3.678666 21.156703 4.819593 -1.113473 -17.611856 0.000000 0.000000 0.000000 -19.658710 -7.114345 0.743296 -41.622021 -36.578579 6.078139 179.554113 -47.405146 -170.112494 0.000000 0.000000 0.000000 -1.099553 9.095837 3.217407 25.104991 20.949609 0.061595 -86.427311 19.287045 -10.563043 0.000000 0.000000 0.000000
-0.285494 0.843241 0.285949 -0.718862 8.532883 5.233602 19.623622 0.661512 -27.167272 -13.339598 3.662739 42.711886 4.408556 8.348030 -3.297952 0.000000 0.000000 0.000000 -29.953805 -5.227837 -26.617007 15.770868 -4.747319 21.378824 -13.726249 -26.673747 23.400283 0.000000 0.000000 0.000000 -0.283752 -1.579839 25.985394 6.321366 -0.256797 -31.472752 6.232044 3.645639 21.786157 4.718278 -0.947538 -17.420140 0.000000 0.000000 0.000000 -19.398015 -6.480944 0.171952 -43.448812 -36.880133 6.536473 -175.657240 -46.938322 178.369367 0.000000 0.000000 0.000000 -1.509830 9.362717 3.249241 25.050081 20.716208 0.005022 -80.239489 19.074699 -8.891067 0.000000 0.000000 0.000000
-0.284247 0.846379 0.286442 -0.693178 10.021335 4.726237 19.220398 0.397490 -26.419221 -13.340941 3.289905 41.978028 4.652081 8.484791 -4.261000 0.000000 0.000000 0.000000 -30.128285 -5.352701 -25.337364 15.706881 -4.870950 21.399153 -13.182645 -25.777019 23.218559 0.000000 0.000000 0.000000 0.046117 -1.679623 25.181986 5.511626 -0.119192 -31.482659 5.854866 3.633236 22.187744 5.138061 -1.088700 -17.555682 0.000000 0.000000 0.000000 -19.330481 -6.780469 0.093314 -44.669429 -36.792242 6.751992 -171.431601 -46.382807 167.876793 0.000000 0.000000 0.000000 -1.977691 9.897875 3.359687 24.615991 19.206800 -0.284281 -72.871100 18.609238 -7.206822 0.000000 0.000000 0.000000
-0.283210 0.849033 0.286479 -0.797455 11.317381 4.259590 18.971406 0.205339 -25.891421 -13.438269 3.036707 41.756640 5.007044 8.826427 -5.329611 0.000000 0.000000 0.000000 -29.826892 -5.361802 -24.373904 15.312867 -4.854214 21.343506 -12.564140 -24.822628 22.734190 0.000000 0.000000 0.000000 0.343148 -1.732697 24.261801 4.872544 -0.023786 -30.942191 5.273495 3.646193 22.255877 5.611220 -1.488721 -16.354564 0.000000 0.000000 0.000000 -18.904517 -7.309644 0.199925 -45.889989 -36.321289 6.822079 -168.442739 -45.930679 160.127591 0.000000 0.000000 0.000000 -1.928432 10.248950 3.484952 24.139929 17.332550 -0.619577 -65.036189 18.477018 -6.040213 0.000000 0.000000 0.000000
-0.282372 0.851231 0.286118 -0.895312 12.067551 3.756749 18.740360 0.088179 -25.243038 -13.595154 2.921505 41.383251 5.521133 9.762613 -5.860162 0.000000 0.000000 0.000000 -29.659059 -5.331513 -23.593878 15.143459 -4.863435 21.306772 -12.291122 -24.329370 22.879862 0.000000 0.000000 0.000000 0.409004 -1.719394 23.640225 4.260010 0.075568 -30.350366 4.874713 3.382658 22.439990 5.881809 -1.872420 -15.124278 0.000000 0.000000 0.000000 -18.557177 -7.719922 0.411840 -46.831308 -35.983456 6.836252 -166.066404 -45.685596 154.332553 0.000000 0.000000 0.000000 -1.938399 10.183929 3.450258 23.692986 15.836295 -0.880514 -57.863424 18.489829 -5.326150 0.000000 0.000000 0.000000
-0.281709 0.852697 0.285504 -1.031882 13.146176 3.428263 18.309778 -0.082648 -25.019031 -13.476247 2.617690 40.673478 6.283575 11.510010 -5.704633 0.000000 0.000000 0.000000 -29.401078 -5.272391 -22.558729 14.846161 -4.799467 20.844960 -12.046294 -23.783122 23.395185 0.000000 0.000000 0.000000 0.846393 -1.787882 22.854459 3.455738 0.225918 -30.236165 4.490377 2.887792 23.041183 5.956543 -1.874362 -15.352865 0.000000 0.000000 0.000000 -18.227492 -8.664134 0.905111 -48.436715 -36.552294 7.328009 -163.071836 -46.538657 148.138380 0.000000 0.000000 0.000000 -2.195917 10.358685 3.455377 23.346820 15.040188 -1.020113 -53.030385 18.306321 -4.762270 0.000000 0.000000 0.000000
-0.281390 0.853683 0.284696 -1.111160 14.311717 3.123060 18.186730 -0.215640 -24.830854 -13.810644 2.518093 39.961985 6.870064 12.784696 -5.662603 0.000000 0.000000 0.000000 -29.286563 -5.366088 -21.974466 14.558234 -4.783687 20.674915 -11.050200 -22.195966 23.686600 0.000000 0.000000 0.000000 0.722296 -1.791490 22.664588 3.343728 0.254733 -30.016960 4.223802 2.443886 23.175931 6.108154 -2.108367 -14.573592 0.000000 0.000000 0.000000 -18.324565 -9.423244 1.225717 -49.884734 -36.347547 7.539469 -161.564827 -46.469287 144.699326 0.000000 0.000000 0.000000 -2.131411 10.333749 3.451755 22.841340 14.366082 -1.143356 -50.363313 18.755035 -4.698651 0.000000 0.000000 0.000000
-0.281436 0.855692 0.284065 -1.399728 14.940794 2.677926 18.101018 -0.282870 -24.228596 -13.658239 2.309815 38.942545 7.400345 13.992560 -5.325623 0.000000 0.000000 0.000000 -28.478289 -5.058430 -20.960874 13.713969 -4.361628 19.390754 -10.297396 -20.931191 24.720757 0.000000 0.000000 0.000000 0.379219 -1.687096 22.155178 3.499296 0.230239 -30.100940 4.007891 2.220574 23.638174 6.349352 -2.326576 -14.334899 0.000000 0.000000 0.000000 -17.735444 -10.249114 1.686857 -51.530475 -36.612906 7.908506 -161.537393 -46.944076 145.077153 0.000000 0.000000 0.000000 -1.748638 10.626503 3.611917 22.281041 14.010382 -1.217275 -49.168630 18.927821 -4.701920 0.000000 0.000000 0.000000
-0.281893 0.857190 0.283933 -1.587436 15.743924 2.535060 18.002022 -0.373272 -24.157469 -13.295529 2.008931 38.038414 7.577363 14.544889 -4.499842 0.000000 0.000000 0.000000 -27.958112 -4.966593 -20.471045 13.426052 -4.173362 18.256916 -10.724988 -21.154403 27.351539 0.000000 0.000000 0.000000 -0.060177 -1.518759 21.145844 3.903061 0.142964 -29.210080 3.758493 1.882078 23.404261 6.207283 -2.277481 -13.909309 0.000000 0.000000 0.000000 -17.962885 -10.442516 1.689950 -53.400603 -36.024505 8.091293 -160.935141 -46.698011 143.470530 0.000000 0.000000 0.000000 -1.748929 10.800242 3.675387 22.371542 13.621454 -1.245798 -50.715070 20.870293 -5.695132 0.000000 0.000000 0.000000
-0.282554 0.859034 0.284498 -1.681154 16.177750 2.198915 17.955986 -0.412855 -23.475453 -14.371730 2.348226 38.105733 8.854908 16.958421 -5.737356 0.000000 0.000000 0.000000 -27.408183 -4.739726 -19.660952 12.919442 -3.903105 17.242126 -10.864546 -21.082329 29.467302 0.000000 0.000000 0.000000 -0.440423 -1.359663 20.202598 4.055935 0.107889 -28.954056 3.617776 1.574352 23.771724 6.462097 -2.548137 -13.575235 0.000000 0.000000 0.000000 -18.011878 -10.919628 1.930006 -54.853797 -35.519835 8.112431 -160.330185 -47.153206 142.683751 0.000000 0.000000 0.000000 -1.560567 11.248470 3.860164 22.704094 13.995244 -1.196237 -53.408026 22.878174 -6.996312 0.000000 0.000000 0.000000
-0.283331 0.860252 0.285552 -1.804791 16.221438 1.832789 17.915258 -0.412623 -22.895842 -14.983300 2.563335 37.263729 10.226006 20.032638 -4.624943 0.000000 0.000000 0.000000 -26.889098 -4.510471 -19.100202 12.493143 -3.700087 16.703126 -11.327132 -21.598360 30.073703 0.000000 0.000000 0.000000 -0.998869 -1.188049 19.500228 4.167138 0.069931 -28.574460 3.570200 1.761262 23.698586 5.991383 -2.022740 -14.230098 0.000000 0.000000 0.000000 -18.346175 -11.064342 1.878158 -56.459451 -34.830849 8.156613 -159.478449 -47.463410 140.950389 0.000000 0.000000 0.000000 -1.512592 11.333158 3.897325 23.993622 14.644992 -1.056739 -57.758473 24.808920 -8.534242 0.000000 0.000000 0.000000
-0.284039 0.861932 0.286640 -1.894490 16.203882 1.428981 17.336462 -0.459358 -21.841186 -13.741273 2.046010 36.495042 10.213370 19.819652 -5.087859 0.000000 0.000000 0.000000 -26.209444 -4.249700 -18.577181 11.758232 -3.412345 16.245429 -11.792889 -22.095979 30.796701 0.000000 0.000000 0.000000 -1.257836 -1.092490 18.968822 3.962967 0.108305 -28.651395 3.443803 1.786268 23.887968 6.251833 -1.937981 -15.641795 0.000000 0.000000 0.000000 -18.149358 -11.209538 1.945627 -56.989980 -34.695215 8.166144 -160.179474 -48.572830 143.264589 0.000000 0.000000 0.000000 -1.168594 11.479898 4.010903 24.936873 15.222547 -0.964999 -62.401058 25.957416 -9.935062 0.000000 0.000000 0.000000
-0.284915 0.863072 0.287284 -2.051479 16.025588 1.150064 17.257256 -0.446485 -20.988796 -13.176811 1.847740 35.724036 10.229918 19.738906 -5.390232 0.000000 0.000000 0.000000 -25.615697 -4.098614 -18.671606 11.787077 -3.370451 15.900357 -13.635358 -24.140701 32.839106 0.000000 0.000000 0.000000 -1.873219 -0.954982 18.654934 4.366012 0.020518 -28.620607 3.322137 2.186502 23.691193 6.150047 -1.719872 -16.123977 0.000000 0.000000 0.000000 -18.442689 -11.346513 1.882931 -56.898745 -34.546779 8.138407 -160.865035 -50.022688 145.418465 0.000000 0.000000 0.000000 -0.692663 11.771059 4.214440 26.221105 15.635617 -0.857426 -67.858927 26.758305 -11.385322 0.000000 0.000000 0.000000
-0.286111 0.865319 0.287211 -2.277774 15.910390 0.812219 17.060810 -0.450614 -19.988401 -12.267698 1.517328 34.657718 10.191507 19.527988 -5.560251 0.000000 0.000000 0.000000 -24.807896 -3.837325 -18.371975 11.336934 -3.092358 14.737597 -15.385605 -26.064087 33.714604 0.000000 0.000000 0.000000 -2.235021 -0.891670 18.618665 4.452973 -0.000992 -28.734037 3.230935 2.099456 23.668041 6.225564 -1.597001 -17.190555 0.000000 0.000000 0.000000 -18.020879 -11.315473 1.938692 -56.964980 -34.123124 7.905079 -162.739016 -50.644341 149.656622 0.000000 0.000000 0.000000 0.026500 12.429104 4.596025 27.455339 16.954184 -0.567418 -73.013869 26.040586 -12.019287 0.000000 0.000000 0.000000
-0.287566 0.868333 0.286621 -2.515079 15.513435 0.811480 17.211958 -0.419292 -18.947663 -11.870179 1.452501 32.885189 10.192101 19.473434 -5.535288 0.000000 0.000000 0.000000 -23.902266 -3.570594 -18.488500 10.956105 -2.832243 13.582622 -16.468540 -27.399725 33.386447 0.000000 0.000000 0.000000 -2.726419 -0.750852 17.958302 4.600782 -0.050081 -28.242384 3.207598 2.138824 23.458548 6.069127 -1.490057 -17.262940 0.000000 0.000000 0.000000 -18.086552 -11.196946 1.899658 -55.689519 -34.375524 7.826555 -166.562274 -52.099454 158.128299 0.000000 0.000000 0.000000 0.657902 12.755193 4.847603 28.953768 17.916044 -0.315286 -78.437458 25.519478 -12.780315 0.000000 0.000000 0.000000
-0.288949 0.872386 0.285986 -2.536058 15.935147 0.958680 16.814847 -0.489278 -18.381441 -10.945932 1.100663 31.297294 9.923221 18.842618 -5.176623 0.000000 0.000000 0.000000 -23.011267 -3.294231 -17.825804 10.246545 -2.496957 11.971995 -16.832480 -28.209531 31.022253 0.000000 0.000000 0.000000 -3.023886 -0.735131 18.230651 4.894914 -0.101001 -28.512474 2.771629 1.896954 23.299131 5.856038 -1.254406 -17.755510 0.000000 0.000000 0.000000 -18.531381 -10.436788 1.440441 -53.330145 -33.749371 7.124118 -169.994608 -52.572474 164.972964 0.000000 0.000000 0.000000 1.773451 12.957997 5.168354 29.814002 19.273977 0.008886 -82.665927 25.115916 -13.433852 0.000000 0.000000 0.000000
-0.290096 0.877574 0.285377 -2.545775 15.860750 0.875413 16.633215 -0.507015 -17.036783 -10.419879 0.985482 29.007022 9.691095 18.368633 -4.544090 0.000000 0.000000 0.000000 -22.008422 -3.085281 -18.088517 9.387710 -2.270673 12.052679 -15.231543 -26.918201 27.233091 0.000000 0.000000 0.000000 -3.758493 -0.597479 17.923287 5.244697 -0.206063 -27.638178 2.699627 1.358412 23.234113 6.187951 -1.495303 -18.233312 0.000000 0.000000 0.000000 -18.202489 -9.798173 1.298537 -52.397060 -33.752692 6.919182 -175.574177 -54.191102 176.661350 0.000000 0.000000 0.000000 2.048407 13.275636 5.321030 31.920419 20.508513 0.443888 -86.962303 25.136936 -14.543478 0.000000 0.000000 0.000000
-0.290876 0.882653 0.285094 -2.323138 16.151153 1.119432 15.690606 -0.588242 -16.367206 -9.080183 0.580567 27.274083 9.386038 17.796733 -3.730284 0.000000 0.000000 0.000000 -21.206418 -2.888830 -17.822103 8.374774 -1.965356 11.431993 -14.394851 -26.095867 25.373201 0.000000 0.000000 0.000000 -4.302711 -0.507057 17.738096 6.204310 -0.444027 -26.912404 1.535046 1.078682 22.893502 5.800686 -1.093340 -19.076207 0.000000 0.000000 0.000000 -17.587809 -9.234834 1.076979 -51.002872 -32.981643 6.317526 179.798103 -55.468885 -174.682469 0.000000 0.000000 0.000000 3.734540 13.487447 5.768057 32.109671 20.927566 0.501327 -89.694541 26.525615 -16.715413 0.000000 0.000000 0.000000
-0.291758 0.887870 0.285071 -2.368217 16.157738 1.476438 15.393374 -0.615773 -16.025001 -8.354059 0.418609 25.852367 9.108474 17.479367 -2.505446 0.000000 0.000000 0.000000 -19.742849 -2.590012 -18.281946 7.748206 -1.844859 11.921079 -13.876061 -25.577034 24.086238 0.000000 0.000000 0.000000 -4.529242 -0.417584 16.844180 6.448330 -0.527715 -26.207195 1.625729 0.514470 23.522424 4.943872 -0.578449 -19.260973 0.000000 0.000000 0.000000 -17.680116 -7.907746 0.540502 -50.068863 -31.752419 5.518585 175.469564 -56.596111 -166.455553 0.000000 0.000000 0.000000 4.435288 13.656678 5.955956 33.409356 21.057666 0.551055 -91.420163 29.810996 -20.545510 0.000000 0.000000 0.000000
-0.292916 0.892626 0.285880 -2.178658 15.420665 1.380443 14.898528 -0.592702 -15.419547 -7.781790 0.330031 25.383685 9.027978 17.701794 -0.839316 0.000000 0.000000 0.000000 -19.245210 -2.387815 -18.186681 7.984001 -1.871526 11.816282 -12.291334 -23.612409 22.940804 0.000000 0.000000 0.000000 -4.614999 -0.394518 17.034628 6.514855 -0.552105 -26.151290 0.859580 1.257354 23.527478 4.340811 -0.047564 -19.680006 0.000000 0.000000 0.000000 -16.915050 -6.726725 -0.037400 -49.155081 -28.424153 3.945762 173.417011 -57.977812 -163.708467 0.000000 0.000000 0.000000 6.133525 13.665202 6.346174 34.548430 19.790851 0.229113 -91.048293 35.254789 -25.639813 0.000000 0.000000 0.000000
