HIERARCHY
ROOT Hips
{
	OFFSET -0.001795 -0.223333 0.028219
	CHANNELS 6 Xposition Yposition Zposition Zrotation Yrotation Xrotation
	JOINT LeftUpLeg
	{
		OFFSET 0.069520 -0.091406 -0.006815
		CHANNELS 3 Zrotation Yrotation Xrotation
		JOINT LeftLeg
		{
			OFFSET 0.034277 -0.375199 -0.004496
			CHANNELS 3 Zrotation Yrotation Xrotation
			JOINT LeftFoot
			{
				OFFSET -0.013596 -0.397961 -0.043693
				CHANNELS 3 Zrotation Yrotation Xrotation
				JOINT LeftToe
				{
					OFFSET 0.026358 -0.055791 0.119288
					CHANNELS 3 Zrotation Yrotation Xrotation
					End Site
					{
						OFFSET 0.000000 0.000000 0.000000
					}
				}
			}
		}
	}
	JOINT RightUpLeg
	{
		OFFSET -0.067670 -0.090522 -0.004320
		CHANNELS 3 Zrotation Yrotation Xrotation
		JOINT RightLeg
		{
			OFFSET -0.038290 -0.382569 -0.008850
			CHANNELS 3 Zrotation Yrotation Xrotation
			JOINT RightFoot
			{
				OFFSET 0.015774 -0.398415 -0.042312
				CHANNELS 3 Zrotation Yrotation Xrotation
				JOINT RightToe
				{
					OFFSET -0.025372 -0.048144 0.123348
					CHANNELS 3 Zrotation Yrotation Xrotation
					End Site
					{
						OFFSET 0.000000 0.000000 0.000000
					}
				}
			}
		}
	}
	JOINT Spine
	{
		OFFSET -0.002533 0.108963 -0.026696
		CHANNELS 3 Zrotation Yrotation Xrotation
		JOINT Spine1
		{
			OFFSET 0.005487 0.135180 0.001092
			CHANNELS 3 Zrotation Yrotation Xrotation
			JOINT Spine2
			{
				OFFSET 0.001457 0.052922 0.025425
				CHANNELS 3 Zrotation Yrotation Xrotation
				JOINT Neck
				{
					OFFSET -0.002778 0.213870 -0.042857
					CHANNELS 3 Zrotation Yrotation Xrotation
					JOINT Head
					{
						OFFSET 0.005152 0.064970 0.051349
						CHANNELS 3 Zrotation Yrotation Xrotation
						End Site
						{
							OFFSET 0.000000 0.000000 0.000000
						}
					}
				}
				JOINT LeftShoulder
				{
					OFFSET 0.078845 0.121749 -0.034090
					CHANNELS 3 Zrotation Yrotation Xrotation
					JOINT LeftArm
					{
						OFFSET 0.090977 0.030469 -0.008868
						CHANNELS 3 Zrotation Yrotation Xrotation
						JOINT LeftForeArm
						{
							OFFSET 0.259612 -0.012772 -0.027456
							CHANNELS 3 Zrotation Yrotation Xrotation
							JOINT LeftHand
							{
								OFFSET 0.249234 0.008986 -0.001171
								CHANNELS 3 Zrotation Yrotation Xrotation
								End Site
								{
									OFFSET 0.000000 0.000000 0.000000
								}
							}
						}
					}
				}
				JOINT RightShoulder
				{
					OFFSET -0.081759 0.118833 -0.038615
					CHANNELS 3 Zrotation Yrotation Xrotation
					JOINT RightArm
					{
						OFFSET -0.096012 0.032551 -0.009143
						CHANNELS 3 Zrotation Yrotation Xrotation
						JOINT RightForeArm
						{
							OFFSET -0.253742 -0.013329 -0.021401
							CHANNELS 3 Zrotation Yrotation Xrotation
							JOINT RightHand
							{
								OFFSET -0.255298 0.007772 -0.005559
								CHANNELS 3 Zrotation Yrotation Xrotation
								End Site
								{
									OFFSET 0.000000 0.000000 0.000000
								}
							}
						}
					}
				}
			}
		}
	}
}
MOTION
Frames: 72
Frame Time: 0.050000
0.000000 0.912409 0.000000 -5.773762 13.351164 -2.170820 13.952335 -0.861260 1.936457 -6.764301 0.584258 8.511257 9.791350 18.433029 -0.914782 0.000000 0.000000 0.000000 -9.904678 -0.136764 -9.083087 4.525905 -0.668794 2.759049 -21.005604 -36.210753 24.424981 0.000000 0.000000 0.000000 -4.119453 -0.298198 13.250178 8.502570 -1.232543 -24.399397 2.260631 -5.132377 25.727846 6.349377 -3.348356 -15.880380 0.000000 0.000000 0.000000 -15.711264 -2.057045 -0.462321 -45.414793 -34.267397 5.223934 161.059935 -54.395401 -134.716779 0.000000 0.000000 0.000000 6.145201 5.742126 2.453372 33.925787 29.705886 2.324206 -98.453555 24.019882 -19.178060 0.000000 0.000000 0.000000
-0.000048 0.912244 -0.000651 -6.440615 13.874707 -1.734883 15.155834 -0.952570 0.838754 -7.535709 0.679636 8.943273 9.667375 18.159033 -1.147855 0.000000 0.000000 0.000000 -9.423216 -0.085180 -9.140998 4.823122 -0.711281 1.839800 -21.515222 -36.624928 25.096858 0.000000 0.000000 0.000000 -4.658559 -0.195269 11.715267 9.421480 -1.499389 -24.186135 3.267279 -5.291622 25.597929 9.074066 -6.004570 -12.712151 0.000000 0.000000 0.000000 -16.720357 -1.603626 -0.839624 -48.288532 -35.379932 6.296726 164.742493 -56.971805 -142.944798 0.000000 0.000000 0.000000 6.974663 6.618695 2.868424 35.009392 28.958206 2.354200 -98.973857 26.679384 -22.472943 0.000000 0.000000 0.000000
0.000626 0.911235 -0.001148 -5.629511 11.704144 -2.026904 14.322044 -0.788960 1.521453 -8.191294 0.850616 9.716322 10.421025 19.830691 -0.691088 0.000000 0.000000 0.000000 -10.816864 -0.178570 -9.288308 5.768338 -0.832657 1.814774 -20.037242 -35.187458 23.848579 0.000000 0.000000 0.000000 -5.720044 -0.077138 12.098183 11.549906 -2.148208 -23.777781 2.004271 -1.794630 25.579225 10.486602 -6.867868 -12.381111 0.000000 0.000000 0.000000 -17.676077 -2.063286 -1.174392 -45.834600 -35.361546 5.857238 164.395303 -56.394254 -143.510586 0.000000 0.000000 0.000000 9.943741 6.813341 3.413846 33.279213 28.500690 1.883455 -100.067182 25.903142 -21.237187 0.000000 0.000000 0.000000
0.001221 0.908695 -0.001652 -6.130415 12.576421 -2.639943 14.773943 -0.829251 0.986653 -7.875994 0.780545 11.265511 10.327804 19.365958 -1.987359 0.000000 0.000000 0.000000 -11.374206 -0.284882 -8.717935 6.441209 -0.949275 1.432189 -20.498163 -35.202580 25.451229 0.000000 0.000000 0.000000 -5.815164 -0.091853 11.921650 11.602244 -2.299647 -22.620069 2.759295 -3.530656 25.223298 10.150286 -7.029140 -11.346872 0.000000 0.000000 0.000000 -17.476024 -1.331344 -1.254472 -46.584083 -35.757017 6.192725 164.617322 -58.114638 -144.360853 0.000000 0.000000 0.000000 8.913086 7.677441 3.542092 33.977577 28.975938 2.202044 -98.209274 24.325333 -19.428035 0.000000 0.000000 0.000000
0.001669 0.905529 -0.001880 -5.745775 12.562719 -3.252375 14.359697 -0.745158 0.386056 -7.904057 0.782527 13.762556 10.510305 19.601300 -2.786923 0.000000 0.000000 0.000000 -11.990628 -0.372617 -8.613519 5.862429 -0.859165 1.588456 -20.719768 -34.980537 26.921566 0.000000 0.000000 0.000000 -6.444038 -0.056195 12.561219 12.237469 -2.419227 -23.240270 2.793677 -2.942006 25.723507 9.849613 -6.760200 -11.374153 0.000000 0.000000 0.000000 -18.175670 -1.891362 -1.142827 -45.201002 -35.956422 5.942289 164.221030 -58.334535 -144.233007 0.000000 0.000000 0.000000 9.850118 7.474273 3.601619 32.709174 28.569681 1.838311 -98.342545 26.056161 -21.370413 0.000000 0.000000 0.000000
0.001805 0.902024 -0.002069 -5.968861 12.835430 -3.468730 14.425064 -0.695358 -0.970427 -7.565720 0.674255 16.454322 10.707104 19.832969 -3.742677 0.000000 0.000000 0.000000 -12.058344 -0.402206 -8.824340 5.102530 -0.735008 1.271979 -21.166076 -34.728679 29.281495 0.000000 0.000000 0.000000 -6.712927 -0.039763 12.374601 12.475435 -2.594585 -22.398306 3.297980 -3.385889 25.153374 9.921176 -6.675187 -12.038824 0.000000 0.000000 0.000000 -18.082167 -1.395517 -1.331775 -45.272833 -37.922796 6.805756 161.039728 -58.895286 -139.244944 0.000000 0.000000 0.000000 9.901053 8.187185 3.866433 32.445300 28.951902 1.963935 -96.608002 25.443484 -20.360529 0.000000 0.000000 0.000000
0.001256 0.899279 -0.002191 -5.941757 13.094849 -3.805040 14.361895 -0.676066 -1.397400 -7.386405 0.594017 17.806711 10.791770 19.845386 -4.517103 0.000000 0.000000 0.000000 -12.319149 -0.462826 -9.014908 5.119890 -0.753345 1.898497 -21.537807 -34.985861 29.809655 0.000000 0.000000 0.000000 -6.725306 -0.059540 13.036173 12.613694 -2.652563 -22.240229 3.430821 -3.110322 24.769519 10.093720 -6.631764 -12.643368 0.000000 0.000000 0.000000 -18.388129 -2.528430 -0.868250 -44.176763 -38.869712 6.962991 157.789544 -57.495978 -133.130627 0.000000 0.000000 0.000000 11.370476 8.260986 4.083972 31.790962 29.919191 2.086995 -97.982045 25.355156 -20.759679 0.000000 0.000000 0.000000
-0.000002 0.897552 -0.002215 -6.105158 13.141936 -3.743300 14.803371 -0.674528 -2.135185 -7.705376 0.640523 18.886688 10.863279 19.979439 -4.795420 0.000000 0.000000 0.000000 -12.332185 -0.478758 -9.521347 5.416691 -0.821694 2.724585 -21.389412 -34.999999 29.152790 0.000000 0.000000 0.000000 -6.608297 -0.079164 13.472550 12.713414 -2.709974 -22.006309 3.571084 -2.802200 24.605999 10.033709 -6.522043 -12.616108 0.000000 0.000000 0.000000 -18.839661 -2.658529 -0.937016 -44.120757 -39.659165 7.301956 157.438307 -55.933508 -131.355028 0.000000 0.000000 0.000000 12.140676 8.332822 4.237472 32.655347 30.893373 2.471346 -99.612670 26.301999 -22.186467 0.000000 0.000000 0.000000
-0.001660 0.896913 -0.002090 -6.059026 13.030012 -3.746026 14.840931 -0.660114 -2.358365 -7.685499 0.632364 19.342810 10.913812 20.120245 -4.736858 0.000000 0.000000 0.000000 -12.341214 -0.487024 -9.935111 5.705707 -0.881219 3.152367 -21.776756 -35.477503 29.167396 0.000000 0.000000 0.000000 -6.548350 -0.090825 13.878063 12.701521 -2.789204 -21.357614 3.623918 -2.311402 24.267320 9.841721 -6.413386 -12.134028 0.000000 0.000000 0.000000 -19.264438 -3.575200 -0.603820 -43.652792 -39.356479 7.128832 157.265609 -54.813141 -130.307943 0.000000 0.000000 0.000000 13.193581 8.923873 4.684395 33.375971 31.605448 2.777492 -101.166938 27.440124 -23.886275 0.000000 0.000000 0.000000
-0.003304 0.895428 -0.001882 -6.211118 13.182273 -4.094467 15.086010 -0.650031 -2.831756 -7.591877 0.563164 20.706772 10.918312 20.114171 -4.845767 0.000000 0.000000 0.000000 -12.761947 -0.583140 -10.559974 6.306899 -1.014348 3.828096 -22.676150 -35.896543 31.077719 0.000000 0.000000 0.000000 -6.878671 -0.088163 14.776742 12.643720 -2.856361 -20.747507 4.314893 -1.511411 23.985606 9.743511 -6.107995 -12.532702 0.000000 0.000000 0.000000 -18.998792 -3.779301 -0.677753 -45.033803 -39.237841 7.463556 158.479009 -55.131698 -133.050871 0.000000 0.000000 0.000000 13.954264 9.064377 4.968721 34.091049 31.963132 3.002855 -102.206313 28.708047 -25.411033 0.000000 0.000000 0.000000
-0.005004 0.892466 -0.001708 -6.231524 13.133808 -3.897255 15.210480 -0.598673 -4.172410 -7.634745 0.516689 22.744843 11.096464 20.528656 -5.045496 0.000000 0.000000 0.000000 -13.351075 -0.696625 -11.486391 6.882609 -1.141236 4.381709 -22.946949 -35.904455 31.946565 0.000000 0.000000 0.000000 -6.912697 -0.095738 15.467120 12.709923 -2.919269 -20.433526 4.338878 -0.886023 23.665825 10.024527 -6.287390 -12.275258 0.000000 0.000000 0.000000 -19.511300 -3.333436 -1.133870 -46.141725 -37.113898 6.936592 163.645115 -56.086096 -143.033045 0.000000 0.000000 0.000000 14.884135 9.870206 5.578622 34.418599 31.620171 2.961146 -102.709360 30.868970 -27.960713 0.000000 0.000000 0.000000
-0.007199 0.886689 -0.001391 -6.366492 13.529983 -3.963861 15.730146 -0.574022 -5.657769 -8.000401 0.498027 25.333164 11.241704 20.717297 -6.108132 0.000000 0.000000 0.000000 -13.943614 -0.859200 -12.426396 7.761985 -1.389516 5.699486 -23.674444 -36.592590 32.243910 0.000000 0.000000 0.000000 -7.289807 -0.070432 15.672734 12.801035 -3.054246 -19.618026 4.495277 -0.062378 23.320189 9.666127 -5.604188 -13.216276 0.000000 0.000000 0.000000 -19.630143 -3.542399 -1.315639 -47.033237 -34.344303 6.062161 169.684304 -57.148207 -154.985634 0.000000 0.000000 0.000000 15.217114 10.336190 6.034247 35.493916 30.730805 2.917416 -104.102999 32.368830 -29.995372 0.000000 0.000000 0.000000
-0.010610 0.880998 -0.000368 -6.405335 14.171188 -3.945011 16.046309 -0.538789 -7.603357 -8.054282 0.321573 28.475075 11.279159 20.773949 -6.621055 0.000000 0.000000 0.000000 -14.585998 -1.069298 -13.480139 8.413223 -1.633188 7.137159 -24.567874 -37.257876 33.038850 0.000000 0.000000 0.000000 -8.120304 -0.004500 16.124179 13.071129 -3.174108 -19.365423 4.887657 0.208506 23.236337 8.781363 -4.547647 -14.403580 0.000000 0.000000 0.000000 -20.423558 -3.057853 -1.868301 -48.011371 -31.526803 5.158943 175.232019 -57.522968 -165.448675 0.000000 0.000000 0.000000 15.129278 10.435950 6.182634 36.333195 29.880576 2.812219 -105.148591 33.724388 -31.839024 0.000000 0.000000 0.000000
-0.015812 0.877185 0.002073 -6.301450 14.086868 -4.239334 16.650349 -0.506602 -8.280631 -8.635954 0.433424 30.432428 11.302247 20.968263 -6.342448 0.000000 0.000000 0.000000 -14.898414 -1.163867 -14.008380 8.981607 -1.873597 8.741480 -24.278981 -37.392272 31.659811 0.000000 0.000000 0.000000 -8.812426 0.069829 15.899915 13.487954 -3.444523 -18.546888 4.444329 0.756366 23.456535 8.495009 -4.327885 -13.992768 0.000000 0.000000 0.000000 -20.304312 -2.695117 -2.177608 -48.713407 -29.506330 4.435550 177.080453 -57.327856 -169.048270 0.000000 0.000000 0.000000 15.092080 10.978303 6.559916 36.388124 30.688350 3.053211 -105.518527 34.225924 -32.333464 0.000000 0.000000 0.000000
-0.023020 0.878598 0.006619 -6.220324 14.020658 -4.211193 16.810363 -0.516168 -8.032917 -8.060226 0.255306 30.238803 11.126828 20.756985 -5.182563 0.000000 0.000000 0.000000 -14.927375 -1.219085 -14.812316 9.296946 -2.055488 10.127098 -24.186749 -37.210666 31.797470 0.000000 0.000000 0.000000 -9.572097 0.155668 15.321769 13.209702 -3.495028 -17.545626 4.183238 1.895097 22.774307 8.804865 -4.398767 -13.896085 0.000000 0.000000 0.000000 -19.616648 -2.858649 -2.282668 -50.120926 -28.975070 4.490131 175.681011 -56.045107 -166.800886 0.000000 0.000000 0.000000 14.308722 11.381239 6.824027 35.486442 31.486296 3.218545 -105.975312 32.558653 -30.084665 0.000000 0.000000 0.000000
-0.031785 0.880404 0.013999 -5.792987 13.649926 -4.669301 17.073971 -0.547973 -6.604372 -7.985050 0.307902 29.448522 10.876266 20.438641 -3.727854 0.000000 0.000000 0.000000 -15.422573 -1.312155 -14.914999 9.381714 -2.194940 11.770641 -22.574376 -35.620470 30.925890 0.000000 0.000000 0.000000 -9.989540 0.195211 15.253215 12.624382 -3.237448 -18.029406 3.287337 3.093433 23.361126 9.522300 -4.683444 -14.364263 0.000000 0.000000 0.000000 -19.141521 -3.142839 -2.315580 -50.203664 -30.071069 4.936240 172.157831 -53.262100 -159.574457 0.000000 0.000000 0.000000 12.904693 12.034578 7.065276 32.463376 32.801020 3.081372 -103.254167 28.658117 -23.860656 0.000000 0.000000 0.000000
-0.042701 0.883124 0.024854 -5.516261 13.973405 -4.547546 17.981713 -0.712736 -4.647524 -8.203712 0.489819 26.502118 10.345236 19.410436 -2.953257 0.000000 0.000000 0.000000 -15.403673 -1.342671 -15.100087 8.212678 -2.025405 13.393805 -20.160415 -32.899546 30.128526 0.000000 0.000000 0.000000 -9.628164 0.152533 13.875936 10.640551 -2.551899 -17.965814 2.642089 2.728575 23.001209 10.273690 -5.162228 -14.775707 0.000000 0.000000 0.000000 -17.614125 -3.973317 -1.606346 -51.272917 -32.874811 6.263205 166.928860 -50.235982 -147.323197 0.000000 0.000000 0.000000 10.522824 13.349203 7.174052 28.400251 33.565537 2.664031 -101.425091 24.280507 -18.479622 0.000000 0.000000 0.000000
-0.056767 0.883956 0.039914 -5.149849 12.556428 -4.130586 18.848842 -0.827660 -2.475006 -8.506681 0.794746 24.095681 10.397599 19.868458 -1.156394 0.000000 0.000000 0.000000 -15.162431 -1.271684 -16.450978 6.250057 -1.560863 15.745287 -15.698563 -27.749281 28.739315 0.000000 0.000000 0.000000 -9.387378 0.156364 11.266435 9.933441 -2.228949 -18.868309 1.713468 2.288292 23.551241 10.236143 -5.990509 -12.097326 0.000000 0.000000 0.000000 -18.066859 -4.061773 -1.339987 -51.315200 -35.500504 7.402212 164.397913 -47.060080 -138.507267 0.000000 0.000000 0.000000 8.806295 13.531591 6.752647 24.556841 34.121416 2.056295 -103.378117 20.283148 -15.194535 0.000000 0.000000 0.000000
-0.074212 0.881014 0.059324 -5.197591 12.371835 -3.948093 20.799139 -1.090061 -0.943464 -9.125767 1.025046 22.772086 10.076328 19.463705 0.092092 0.000000 0.000000 0.000000 -15.226478 -1.299186 -16.928671 4.545961 -1.152212 17.595124 -10.369435 -20.870158 27.785767 0.000000 0.000000 0.000000 -9.480661 0.127622 8.855215 10.130075 -2.236849 -19.364305 0.739604 0.139785 23.275692 9.288917 -6.330023 -8.880883 0.000000 0.000000 0.000000 -17.346363 -3.540754 -0.953974 -52.736398 -39.652837 9.658429 160.661831 -44.461207 -126.506783 0.000000 0.000000 0.000000 6.571764 12.087313 5.458408 22.635601 34.434348 1.805602 -108.025530 18.565410 -15.689185 0.000000 0.000000 0.000000
-0.094135 0.867186 0.081832 -5.233466 12.036632 -4.801080 23.078993 -1.284750 -0.337968 -9.739098 1.210311 25.658329 10.081352 19.540070 0.117274 0.000000 0.000000 0.000000 -15.500022 -1.460235 -18.324510 4.191994 -1.314671 23.041574 -6.295294 -15.375381 24.340181 0.000000 0.000000 0.000000 -9.646606 0.090107 7.767185 11.293746 -2.409497 -21.272008 -1.249651 -3.103422 23.701429 7.761629 -5.789232 -7.301055 0.000000 0.000000 0.000000 -15.512583 -2.951923 -0.286000 -53.827437 -41.970875 11.136329 157.999030 -42.352342 -116.305387 0.000000 0.000000 0.000000 6.104369 10.483401 4.412230 21.866990 34.022842 1.537220 -115.503043 17.968610 -19.559716 0.000000 0.000000 0.000000
-0.115648 0.841487 0.103979 -5.016515 9.982206 -5.893464 26.278344 -1.087896 -1.614107 -11.116951 1.886421 33.599372 9.107211 18.195052 1.197129 0.000000 0.000000 0.000000 -16.027273 -1.607278 -20.557122 4.565517 -1.646521 29.574155 -2.573560 -9.392457 16.999373 0.000000 0.000000 0.000000 -9.524242 0.059794 6.988810 11.618935 -2.505004 -21.743217 -1.972821 -4.397197 23.737574 6.945478 -5.736717 -5.180348 0.000000 0.000000 0.000000 -15.974829 -3.918024 0.690556 -53.602854 -44.110053 12.341352 156.543922 -44.448887 -114.475256 0.000000 0.000000 0.000000 5.608936 9.143795 3.594569 23.147153 32.337464 1.472283 -120.812379 17.648803 -22.831809 0.000000 0.000000 0.000000
-0.137027 0.803206 0.120734 -3.980001 8.021429 -7.379619 27.726269 -0.647786 -2.750999 -9.937534 1.645533 42.854521 7.256033 14.543597 -0.751046 0.000000 0.000000 0.000000 -18.238883 -2.297486 -24.088411 7.892844 -3.619410 39.884845 -3.269481 -8.804311 3.728997 0.000000 0.000000 0.000000 -8.587874 0.064927 9.467305 12.415535 -2.561414 -23.651326 -3.158403 -4.724889 23.432145 6.283841 -5.378271 -4.605496 0.000000 0.000000 0.000000 -16.188539 -5.535459 1.839762 -51.946590 -44.687184 12.170923 156.917116 -45.671460 -115.764848 0.000000 0.000000 0.000000 5.544321 9.507607 3.575232 24.831888 32.083710 1.737784 -125.641405 17.299129 -25.671497 0.000000 0.000000 0.000000
-0.156617 0.761015 0.130027 -3.183435 5.204608 -8.699603 28.479685 -0.043138 -3.876776 -7.302401 0.629543 51.979907 5.428443 10.560778 -2.415905 0.000000 0.000000 0.000000 -20.126178 -2.957709 -28.862769 11.085491 -5.781669 50.449050 -3.964259 -7.436482 -7.902118 0.000000 0.000000 0.000000 -5.762926 -0.080414 11.354188 13.596789 -3.139181 -22.347037 -4.675890 -4.815827 22.111830 5.738495 -4.876099 -5.226501 0.000000 0.000000 0.000000 -18.840325 -7.715582 3.345315 -47.305270 -44.801995 10.764869 155.875523 -48.660021 -116.937621 0.000000 0.000000 0.000000 5.989706 10.539253 3.813324 25.042189 33.577585 2.113245 -130.190066 14.193279 -23.534684 0.000000 0.000000 0.000000
-0.176109 0.714631 0.134923 -1.443726 3.004285 -8.402163 27.103359 0.586729 -6.110533 -3.210411 -1.723852 60.219060 3.779065 5.716929 -6.211747 0.000000 0.000000 0.000000 -23.373315 -4.268754 -35.195883 14.844586 -8.751818 60.249031 -5.153324 -6.682245 -18.635081 0.000000 0.000000 0.000000 -3.111100 -0.318062 14.889870 14.361463 -3.689776 -20.465818 -6.269300 -5.740594 19.923498 3.169037 -2.494851 -7.825839 0.000000 0.000000 0.000000 -22.815665 -8.513859 4.434295 -40.037988 -43.308177 7.878853 155.104858 -47.487804 -114.150210 0.000000 0.000000 0.000000 8.551702 14.820782 5.372696 23.005512 36.519230 2.331007 -132.010073 13.036120 -23.492106 0.000000 0.000000 0.000000
-0.200343 0.674839 0.141259 0.351667 0.424764 -7.943370 26.554688 0.950955 -6.445250 -1.582754 -2.224497 66.247804 6.157246 9.926286 -12.094253 0.000000 0.000000 0.000000 -25.472280 -5.385306 -43.289567 17.843342 -11.874526 70.975999 -5.118258 -5.916020 -19.444202 0.000000 0.000000 0.000000 -0.683808 -0.696206 19.688410 14.853596 -3.924915 -20.113979 -6.900762 -5.975905 17.094992 -0.771303 0.755281 -11.268095 0.000000 0.000000 0.000000 -24.505437 -7.088486 4.049293 -42.212712 -40.027327 7.390422 159.660251 -47.503447 -121.788755 0.000000 0.000000 0.000000 8.166787 18.181116 6.463627 22.986480 39.534578 3.007597 -123.971345 16.864610 -27.557360 0.000000 0.000000 0.000000
-0.233839 0.648556 0.154934 1.802806 -2.000498 -6.756933 27.397812 1.399490 -7.198758 1.431844 -3.811786 70.141323 4.339279 6.259907 -9.162313 0.000000 0.000000 0.000000 -24.822954 -4.847253 -47.734162 19.661289 -13.757060 76.427850 -6.476063 -7.456481 -28.500907 0.000000 0.000000 0.000000 2.398053 -1.308657 23.833242 12.398352 -2.617630 -24.039989 -7.077919 -7.483033 19.180349 -3.698752 2.510978 -17.314236 0.000000 0.000000 0.000000 -27.287136 -4.339657 3.643671 -44.277968 -33.425158 4.595550 166.542720 -47.734603 -133.003138 0.000000 0.000000 0.000000 7.292758 19.758784 6.704113 27.628900 40.429719 4.111212 -122.898629 25.839734 -43.089135 0.000000 0.000000 0.000000
-0.276951 0.637715 0.177724 2.441448 -4.372007 -5.199731 29.014988 2.211594 -9.582060 3.950972 -5.209203 74.490485 2.550165 3.624224 -4.744020 0.000000 0.000000 0.000000 -23.825617 -3.909275 -50.926984 23.642266 -17.555124 79.117592 -6.673995 -8.872078 -29.590257 0.000000 0.000000 0.000000 3.340518 -1.468529 25.585841 11.977211 -2.246902 -25.848512 -7.294553 -6.246576 19.037753 -3.544451 2.426951 -17.514464 0.000000 0.000000 0.000000 -29.522747 -2.197149 2.324340 -45.006744 -23.266124 0.588265 169.681818 -47.109957 -139.366663 0.000000 0.000000 0.000000 10.069997 19.773469 6.827889 31.302858 39.554066 4.999646 -124.321471 39.615495 -65.285863 0.000000 0.000000 0.000000
-0.325984 0.635506 0.207654 3.627010 -5.682755 -4.530338 27.272284 2.471331 -11.529061 4.702063 -5.519637 79.877733 3.619614 3.402916 -11.562058 0.000000 0.000000 0.000000 -22.210100 -2.786163 -51.335262 26.252402 -20.186955 80.900526 -6.634399 -9.735462 -28.927704 0.000000 0.000000 0.000000 1.230950 -0.937124 26.634528 10.282479 -1.536212 -28.189591 -6.285370 -7.173457 21.146760 -2.517014 1.449164 -14.453928 0.000000 0.000000 0.000000 -28.347572 0.553690 1.184999 -46.356027 -16.926538 -2.066054 166.540392 -49.316385 -133.454852 0.000000 0.000000 0.000000 12.471996 20.914238 7.140897 32.727140 40.159421 5.350208 -130.764795 46.758552 -83.675783 0.000000 0.000000 0.000000
-0.375311 0.636139 0.238975 3.135501 -5.976188 -3.792426 27.233945 2.879477 -14.160365 2.107089 -2.771930 83.283041 4.617752 1.811632 -20.195400 0.000000 0.000000 0.000000 -20.693315 -2.089768 -52.202304 30.498762 -24.733275 81.313881 -5.072129 -9.601684 -12.813045 0.000000 0.000000 0.000000 -1.461510 -0.313477 25.202193 13.103593 -2.749589 -24.186960 -6.961443 -2.480834 17.025037 -0.520843 0.652010 -11.880763 0.000000 0.000000 0.000000 -27.890036 1.899880 -1.690638 -46.734122 -9.696601 -3.812843 172.408330 -54.047060 -152.025568 0.000000 0.000000 0.000000 18.477754 19.618655 7.849281 31.373749 39.269047 5.318154 -137.730850 53.472919 -99.362962 0.000000 0.000000 0.000000
-0.421452 0.634526 0.267476 1.594569 -6.259341 -4.622803 27.493099 3.066265 -14.585353 -0.866271 0.514828 82.525174 7.739830 9.895220 -28.378987 0.000000 0.000000 0.000000 -19.498665 -1.517275 -52.436721 36.092604 -30.062683 80.551488 -1.581937 -8.214903 14.113952 0.000000 0.000000 0.000000 -2.488798 -0.071759 27.021461 12.921358 -2.390277 -26.537563 -4.308850 -0.411559 19.884193 -1.245966 1.318114 -9.604457 0.000000 0.000000 0.000000 -29.626769 2.007287 -2.306003 -45.350699 -7.002059 -4.922553 166.313455 -59.537326 -145.137887 0.000000 0.000000 0.000000 20.982351 20.962135 9.329549 28.674078 40.682529 4.652138 -140.587982 61.157869 -111.497054 0.000000 0.000000 0.000000
-0.462407 0.628130 0.292087 0.610309 -4.856659 -4.728392 28.496006 3.390006 -16.750822 -1.829463 0.578848 83.709612 7.671903 5.595018 -34.379755 0.000000 0.000000 0.000000 -21.879527 -3.064191 -52.844852 44.135906 -36.753807 76.689888 2.520152 -6.941015 34.602206 0.000000 0.000000 0.000000 -2.472004 -0.180857 28.541368 12.228644 -1.936280 -28.662816 -3.423422 2.621278 23.674285 0.910864 0.167290 -12.055666 0.000000 0.000000 0.000000 -29.841255 1.397871 -3.042708 -43.658739 -6.616040 -4.961730 161.498432 -61.781188 -140.360147 0.000000 0.000000 0.000000 21.501901 21.358522 10.800702 27.740001 44.773448 4.842577 -135.160263 67.871259 -109.676711 0.000000 0.000000 0.000000
-0.497960 0.621357 0.313726 -0.098117 -4.095285 -5.112170 29.770114 4.005144 -19.449502 -3.614500 1.989541 85.505682 8.054695 2.325448 -39.602767 0.000000 0.000000 0.000000 -22.032595 -3.465058 -53.514976 42.759011 -37.406288 79.392934 16.599780 5.890486 44.651555 0.000000 0.000000 0.000000 -2.452286 -0.241047 32.179267 11.117991 -1.836377 -27.701159 -1.067255 5.758754 23.015429 1.637330 0.606678 -17.398465 0.000000 0.000000 0.000000 -31.364764 1.723806 -4.937157 -40.680290 -6.194535 -4.260190 162.274083 -62.927144 -144.395541 0.000000 0.000000 0.000000 19.254010 20.535200 10.883923 28.311670 47.020801 5.676016 -136.237924 67.381787 -108.914320 0.000000 0.000000 0.000000
-0.528920 0.619623 0.335179 0.372784 -4.521625 -3.728952 30.460626 4.596940 -21.613703 -5.460763 4.512764 85.286224 7.874554 0.060664 -39.855270 0.000000 0.000000 0.000000 -23.033330 -3.771934 -54.220132 38.525014 -35.035613 82.883305 32.881909 20.476965 50.369187 0.000000 0.000000 0.000000 -2.358033 -0.182480 34.603841 8.846686 -1.125698 -29.239642 1.886384 6.184525 24.779230 0.592758 1.720695 -22.706916 0.000000 0.000000 0.000000 -31.546096 0.477667 -4.079385 -39.801379 -7.472743 -3.877543 153.540923 -59.296783 -127.964208 0.000000 0.000000 0.000000 16.729699 21.549647 10.951474 28.051423 48.240201 5.875114 -137.419558 67.619318 -110.370207 0.000000 0.000000 0.000000
-0.556940 0.624270 0.358312 0.490803 -3.909826 -1.633900 31.655356 5.088269 -23.802373 -7.032809 6.034381 84.321930 6.403346 -0.681067 -32.527882 0.000000 0.000000 0.000000 -25.319597 -5.114998 -55.273515 32.796342 -31.461699 86.836542 50.163160 32.326587 58.684538 0.000000 0.000000 0.000000 -2.451735 -0.199791 36.425357 8.561850 -1.039438 -29.069506 1.938212 6.480527 24.905139 0.632759 2.100078 -27.737345 0.000000 0.000000 0.000000 -31.921171 -2.295417 -2.511351 -38.723340 -14.130446 -1.728943 149.730679 -57.530921 -120.491190 0.000000 0.000000 0.000000 17.925416 21.688663 11.505041 27.338854 46.860186 5.274397 -146.459528 67.948599 -121.998408 0.000000 0.000000 0.000000
-0.583618 0.637975 0.386674 1.315203 -5.893517 0.906206 30.723155 4.985994 -22.926153 -9.108916 9.082828 78.947869 7.348553 10.579425 -22.319606 0.000000 0.000000 0.000000 -26.035291 -4.792978 -57.319132 27.349650 -25.558011 88.734596 65.833852 37.787875 69.404315 0.000000 0.000000 0.000000 -3.086135 0.258595 34.824654 7.918325 -1.323100 -24.976212 1.987005 2.093244 21.695521 -3.527934 3.515972 -29.937251 0.000000 0.000000 0.000000 -34.242247 -4.082520 0.895918 -33.695435 -21.389529 -0.266202 143.721168 -53.818150 -105.416954 0.000000 0.000000 0.000000 21.859957 24.422176 12.342730 29.947748 39.734784 4.619745 -164.145419 70.810561 -150.643133 0.000000 0.000000 0.000000
-0.610600 0.657515 0.424548 1.232634 -6.044659 5.588390 30.283135 3.944706 -19.517068 -9.668593 8.547733 68.374515 8.038573 14.015087 -21.501804 0.000000 0.000000 0.000000 -30.796703 -6.869169 -57.319618 29.234787 -25.549012 82.189284 75.171573 37.295550 78.071990 0.000000 0.000000 0.000000 -1.747805 -0.170009 33.599445 10.046181 -1.356224 -27.665208 -0.738743 -2.090393 23.728070 -3.591695 2.939786 -37.238735 0.000000 0.000000 0.000000 -32.425202 -6.981313 5.116754 -27.339689 -30.944446 0.585353 135.791414 -49.988679 -87.697589 0.000000 0.000000 0.000000 23.711248 23.071605 10.614368 35.208467 36.820091 5.174375 -177.966742 74.318584 -171.836974 0.000000 0.000000 0.000000
-0.639973 0.682914 0.475566 2.311356 -7.633514 9.205068 27.221763 2.057124 -12.000945 -10.002771 7.497720 54.295500 9.196718 19.439842 -19.137624 0.000000 0.000000 0.000000 -33.261085 -7.155053 -56.821599 33.462770 -25.793741 73.086961 69.766462 31.829870 78.012856 0.000000 0.000000 0.000000 -0.557128 -0.415503 30.696695 12.015082 -1.811184 -26.398007 -4.076544 -6.419441 22.832922 -6.344828 3.451194 -41.931067 0.000000 0.000000 0.000000 -27.115521 -7.625897 7.065235 -25.531254 -35.743277 1.004689 135.933688 -49.912266 -85.039869 0.000000 0.000000 0.000000 26.938533 22.173656 8.390832 38.629536 27.225553 3.679966 -178.280681 76.651414 -175.049165 0.000000 0.000000 0.000000
-0.673266 0.719521 0.544381 2.129386 -10.474810 13.175691 21.670489 0.279352 -1.601668 -5.999660 3.360078 35.390831 10.788619 24.054995 -7.500531 0.000000 0.000000 0.000000 -33.053869 -5.229633 -53.642718 37.269441 -23.944276 63.124956 53.405404 23.568460 71.216050 0.000000 0.000000 0.000000 0.775205 -0.640930 25.542023 15.726334 -2.749337 -24.126134 -7.100581 -8.462597 19.557416 -6.267192 3.133112 -44.321351 0.000000 0.000000 0.000000 -25.734371 -2.864786 4.713607 -24.126729 -36.964240 1.146881 137.735237 -49.581190 -85.767887 0.000000 0.000000 0.000000 24.695679 20.175704 5.635415 38.865370 22.891677 2.960919 -171.366762 73.785667 -167.989542 0.000000 0.000000 0.000000
-0.717300 0.765979 0.632311 1.616486 -13.782472 15.899840 16.547341 -0.133349 5.958999 -0.117097 0.323965 23.013724 11.864839 22.440836 14.627749 0.000000 0.000000 0.000000 -29.357498 -2.413414 -52.808427 38.132369 -21.412051 58.612494 3.722578 -9.508878 49.557480 0.000000 0.000000 0.000000 1.670076 -0.726092 20.124463 15.116759 -2.511675 -24.348927 -6.447356 -8.827888 20.132687 -5.746708 2.599747 -43.453865 0.000000 0.000000 0.000000 -24.587583 3.166993 1.518613 -29.516629 -30.835430 0.547524 150.971644 -46.356753 -98.504928 0.000000 0.000000 0.000000 14.885008 17.059330 3.851159 44.251300 23.279050 2.914941 -166.212067 70.656862 -162.545763 0.000000 0.000000 0.000000
-0.772947 0.826535 0.732037 3.869453 -12.927093 15.162571 12.056119 -0.054163 7.329106 -0.375043 0.272789 22.074423 9.802730 18.674857 25.424107 0.000000 0.000000 0.000000 -23.658266 -0.382119 -40.865309 29.417714 -13.174840 53.570424 -16.333673 -35.546793 11.626534 0.000000 0.000000 0.000000 2.387609 -0.736472 12.585206 11.244939 -2.077008 -22.561244 -4.984398 -9.570318 18.924681 -6.825547 2.872500 -34.271012 0.000000 0.000000 0.000000 -20.319354 6.919043 -1.307458 -33.048573 -23.205594 -0.335942 159.541202 -44.893089 -111.584160 0.000000 0.000000 0.000000 6.188556 11.263546 2.417724 48.192688 27.128267 3.814395 -163.981447 63.849885 -157.328208 0.000000 0.000000 0.000000
-0.834034 0.896507 0.830989 3.985184 -10.870710 13.401288 7.505480 -0.009488 3.362515 -2.137107 1.098579 29.362229 8.193075 16.987222 24.147371 0.000000 0.000000 0.000000 -18.465327 0.531826 -27.603650 23.073504 -8.158885 46.125394 -15.976317 -33.474187 14.672671 0.000000 0.000000 0.000000 -1.532184 -0.082471 9.138765 13.039687 -1.777141 -26.789986 -5.653442 -8.259108 22.069397 -4.828389 2.221534 -24.997256 0.000000 0.000000 0.000000 -14.225825 11.652597 -4.704231 -27.884985 -14.218853 -2.257797 156.259986 -41.189842 -103.088752 0.000000 0.000000 0.000000 2.172924 8.009112 2.177292 36.667330 34.449722 3.720777 -154.194518 58.102149 -135.368095 0.000000 0.000000 0.000000
-0.895338 0.966207 0.923700 3.257658 -9.025184 11.244293 4.868178 -0.296202 -3.885039 -6.152916 3.879248 42.564303 7.051852 15.789691 21.098217 0.000000 0.000000 0.000000 -12.090843 0.990894 -18.825592 15.649099 -4.157819 40.882867 -6.582677 -18.836937 24.676808 0.000000 0.000000 0.000000 -4.622336 0.294958 7.895124 13.547988 -1.825298 -27.406588 -5.146505 -5.299939 23.661591 -6.014329 3.851265 -16.035744 0.000000 0.000000 0.000000 -7.423734 12.924434 -5.451145 -21.907536 -9.315859 -2.470769 146.466242 -42.245830 -90.430987 0.000000 0.000000 0.000000 -3.321831 6.353426 2.393312 23.967042 38.586323 1.715794 -140.196173 51.876181 -104.735470 0.000000 0.000000 0.000000
-0.952862 1.017487 1.010421 1.617210 -7.411446 8.319007 3.461619 -0.745183 -12.402863 -8.804884 6.499999 54.083148 7.829804 16.880791 14.400130 0.000000 0.000000 0.000000 -8.032714 1.092285 -16.383891 12.033351 -2.772668 43.435564 -3.764630 -15.015942 26.750862 0.000000 0.000000 0.000000 -8.539297 0.810418 10.431947 14.928975 -2.340964 -26.416561 -2.558798 0.120594 23.585119 -5.012184 4.070458 -13.669195 0.000000 0.000000 0.000000 -2.679118 10.549778 -4.207630 -15.790154 -9.976598 -1.769398 132.109626 -40.067174 -71.481977 0.000000 0.000000 0.000000 -4.601721 5.035677 1.897273 7.850873 35.659207 -1.496462 -120.155265 40.319076 -61.268383 0.000000 0.000000 0.000000
-1.005419 1.047408 1.098570 -0.505935 -4.340934 5.744984 2.508742 -1.092517 -16.486800 -8.263450 5.066779 55.403960 7.691467 16.463680 7.852194 0.000000 0.000000 0.000000 -6.019626 1.267278 -18.601408 10.558053 -2.673901 42.717064 -5.921065 -17.545298 25.420578 0.000000 0.000000 0.000000 -9.087041 0.936160 14.592376 14.111180 -2.321949 -26.229238 0.277186 -0.780002 23.372249 -7.578752 6.198872 -10.564433 0.000000 0.000000 0.000000 -4.978325 10.973757 -4.648873 -8.247840 -10.392790 -1.273019 122.282660 -34.078621 -53.636880 0.000000 0.000000 0.000000 -8.242884 3.225319 1.449287 -0.318003 31.758255 -2.741859 -112.039326 30.967258 -42.237443 0.000000 0.000000 0.000000
-1.054790 1.061761 1.194682 -2.554048 -1.436260 4.184160 1.880065 -1.141620 -15.255995 -5.464220 1.755855 47.197028 6.570920 14.510832 6.569907 0.000000 0.000000 0.000000 -5.674152 1.317520 -20.877788 7.870950 -1.761992 35.337140 -6.248442 -17.333685 19.507717 0.000000 0.000000 0.000000 -7.888128 0.672564 16.752938 15.198366 -2.041064 -29.800975 -1.499703 -1.564531 26.614758 -5.443146 4.762699 -9.243335 0.000000 0.000000 0.000000 -3.125641 10.263941 -4.132297 -7.842051 -14.940699 -1.326227 122.738256 -33.891707 -54.290913 0.000000 0.000000 0.000000 -10.187074 -0.091233 0.461301 -1.912656 25.763831 -2.308116 -105.563068 25.912694 -32.140244 0.000000 0.000000 0.000000
-1.101258 1.052874 1.299513 -5.636945 -0.014441 2.517875 4.084860 -0.749523 -12.549421 -5.977798 1.365211 36.049208 2.791485 6.938344 3.289153 0.000000 0.000000 0.000000 -5.127151 1.378615 -21.722074 4.324388 -0.441690 22.489685 -5.481375 -15.658456 16.550379 0.000000 0.000000 0.000000 -5.794852 0.206502 15.714776 15.157700 -1.885391 -31.248311 -1.643211 -3.303439 29.549258 -6.882636 6.158343 -5.186723 0.000000 0.000000 0.000000 -1.063946 8.934629 -3.389278 -11.602897 -21.415673 -1.370953 123.879401 -36.487019 -57.412217 0.000000 0.000000 0.000000 -15.629881 -2.376843 0.183775 3.904983 20.147962 -1.452561 -106.189967 27.160554 -34.620148 0.000000 0.000000 0.000000
-1.147452 1.016246 1.408363 -8.362453 -0.400148 2.048418 4.929952 -0.472837 -8.616890 -7.218396 1.605378 25.667075 0.827937 0.568482 -2.645455 0.000000 0.000000 0.000000 -5.477192 1.410393 -22.804511 2.955536 -0.149069 11.664094 -4.030797 -14.139908 23.556831 0.000000 0.000000 0.000000 -4.567937 0.010118 12.471295 17.851063 -2.677809 -29.663707 -4.322925 -4.697359 29.436414 -6.612766 5.954456 -2.436155 0.000000 0.000000 0.000000 0.905836 8.977523 -3.297877 -18.896704 -27.745189 -0.400726 129.752333 -39.020126 -64.375363 0.000000 0.000000 0.000000 -13.938186 -2.264661 0.374993 6.749379 19.931007 -1.356678 -106.443919 27.733836 -36.408522 0.000000 0.000000 0.000000
-1.195877 0.948648 1.516430 -9.579849 -2.123964 0.633476 3.693579 -0.290241 -4.527726 -6.141324 1.307638 23.124814 3.364591 2.332510 -12.705640 0.000000 0.000000 0.000000 -6.490478 1.465087 -25.594565 3.654449 -0.231897 13.614347 -2.360715 -12.532306 27.035436 0.000000 0.000000 0.000000 -3.947891 -0.061254 11.222784 19.374244 -3.233814 -28.461993 -6.315504 -5.449627 31.162694 -7.594538 6.716446 -3.384635 0.000000 0.000000 0.000000 -0.198771 5.505707 -2.071497 -26.020655 -31.961054 1.121517 136.034019 -39.805497 -70.357045 0.000000 0.000000 0.000000 -13.159107 -2.013345 0.586439 16.212945 21.097903 -1.106370 -113.693454 28.480121 -42.135966 0.000000 0.000000 0.000000
-1.244213 0.863460 1.617801 -11.656236 -6.219497 -1.051954 4.866676 -0.166397 -4.092103 -5.816331 2.254147 35.766043 7.955092 14.209583 -29.437289 0.000000 0.000000 0.000000 -6.559148 2.079479 -30.531612 8.969258 -1.545119 30.180199 -2.697063 -11.314921 14.522741 0.000000 0.000000 0.000000 -4.420593 0.020394 13.899427 20.019360 -4.277419 -24.159695 -5.289479 -7.584144 28.873297 -8.230670 6.172948 -9.489395 0.000000 0.000000 0.000000 -6.953682 4.964169 -1.540183 -32.276122 -33.507636 2.374070 149.036672 -44.007664 -91.836022 0.000000 0.000000 0.000000 -7.411117 2.845934 1.797461 23.781152 24.738766 -0.325414 -122.265522 32.572393 -57.011787 0.000000 0.000000 0.000000
-1.285085 0.798118 1.707600 -14.250407 -10.789835 -1.905507 6.166998 -0.015679 -4.138522 -5.240753 4.270398 49.893016 11.167754 32.105228 -31.806121 0.000000 0.000000 0.000000 -4.033750 3.539184 -34.046297 12.963606 -2.831182 48.782508 -4.388567 -10.066910 -3.342715 0.000000 0.000000 0.000000 -2.884846 -0.063702 20.405128 19.486801 -4.113187 -24.356368 -4.803567 -6.145478 29.809009 -8.101524 5.185749 -17.824802 0.000000 0.000000 0.000000 -15.691149 1.677029 0.914459 -33.963926 -36.339646 2.753639 157.432921 -47.163921 -110.459102 0.000000 0.000000 0.000000 4.366220 3.830160 0.628308 29.969839 28.423864 0.950848 -134.750935 41.369684 -83.390809 0.000000 0.000000 0.000000
-1.312062 0.771626 1.796232 -15.195522 -13.476638 -0.183328 5.333241 -0.159581 -8.064099 -2.206750 5.162279 64.894701 15.461315 34.495416 -10.589864 0.000000 0.000000 0.000000 -3.184605 4.214024 -34.998502 15.443850 -3.731612 60.719279 -7.742542 -18.373153 -9.763372 0.000000 0.000000 0.000000 -0.941446 -0.292109 21.870538 18.196212 -4.417429 -21.033290 -5.138868 -7.469738 27.641194 -8.313291 4.314279 -25.267642 0.000000 0.000000 0.000000 -19.257678 -0.430557 2.944691 -39.568708 -34.557190 3.208791 165.332063 -57.782387 -132.561876 0.000000 0.000000 0.000000 8.689716 9.038785 1.679583 36.810429 27.836342 2.068887 -148.240918 54.298966 -122.292822 0.000000 0.000000 0.000000
-1.326522 0.774692 1.892030 -16.190900 -15.833678 3.314840 9.069152 0.400515 -13.882964 -2.121065 8.249236 75.878761 11.587878 22.625778 9.757550 0.000000 0.000000 0.000000 -2.241237 4.205116 -32.051231 12.722811 -0.625198 63.279909 -5.628988 -11.416665 -9.750238 0.000000 0.000000 0.000000 -0.108301 -0.374215 20.353053 17.894700 -4.416338 -19.888739 -4.358817 -5.036212 26.889179 -5.711479 2.726058 -28.535013 0.000000 0.000000 0.000000 -20.162078 -2.788544 4.365679 -43.341766 -32.945618 3.148343 176.570298 -66.753617 -154.535715 0.000000 0.000000 0.000000 10.280057 11.034296 2.399637 38.127198 29.039934 2.705242 -149.541503 63.522629 -132.397475 0.000000 0.000000 0.000000
-1.330653 0.794837 1.997487 -13.857919 -15.528352 3.330199 11.698351 1.378882 -21.781148 -3.996248 10.671718 81.758352 8.745349 18.459285 17.347045 0.000000 0.000000 0.000000 -2.800918 2.486683 -22.311991 8.046618 2.467961 58.084060 -5.774193 -12.386297 -6.731738 0.000000 0.000000 0.000000 -1.464675 -0.103035 19.992753 17.721637 -3.839267 -22.375276 -3.365617 -2.740419 28.484511 -9.738746 5.585866 -27.104104 0.000000 0.000000 0.000000 -24.568800 -2.211585 4.308470 -43.944795 -28.273826 0.695644 -171.339911 -61.582449 -173.012198 0.000000 0.000000 0.000000 8.798304 11.663248 3.167074 40.379923 27.792233 2.365307 -161.983712 65.672858 -150.780184 0.000000 0.000000 0.000000
-1.326052 0.821724 2.112773 -10.423779 -13.458848 4.110819 13.123404 2.606561 -32.736631 -9.617016 13.556144 77.037992 10.922584 22.161093 -10.508608 0.000000 0.000000 0.000000 -6.480337 0.986166 -11.403807 2.095154 4.198550 47.970843 -2.820453 -6.754239 -0.620490 0.000000 0.000000 0.000000 -4.083809 0.180082 13.752517 15.770370 -4.120966 -18.292913 -0.723251 -1.594145 25.839651 -8.826435 5.506105 -23.988970 0.000000 0.000000 0.000000 -24.188408 -2.449932 3.643385 -44.069666 -25.245883 -0.010435 -170.451597 -59.237664 -176.179719 0.000000 0.000000 0.000000 6.081897 12.558791 3.914426 40.724962 24.134750 1.509321 -163.310102 67.391425 -152.733162 0.000000 0.000000 0.000000
-1.316855 0.845087 2.234576 -8.343899 -6.889964 3.644149 11.346603 1.477326 -39.924248 -14.661209 10.396294 57.984965 9.503127 19.146429 -28.290223 0.000000 0.000000 0.000000 -9.686157 0.507372 -2.271313 -1.179335 4.048349 45.106323 5.211678 2.650588 15.342172 0.000000 0.000000 0.000000 -5.952721 0.283991 10.683476 15.870666 -3.819513 -20.311243 1.355041 -0.631797 26.075926 -8.384911 6.205544 -19.214723 0.000000 0.000000 0.000000 -23.739663 -2.375504 2.031296 -46.450844 -24.546210 0.397337 -168.094639 -56.948034 176.309602 0.000000 0.000000 0.000000 4.797592 9.311097 3.135290 41.865777 19.106214 -0.005001 -173.534422 68.999714 -165.020863 0.000000 0.000000 0.000000
-1.306746 0.854290 2.357009 -7.750342 -1.107549 1.153609 8.215267 -0.734537 -41.516780 -12.025587 4.217835 36.175796 8.101245 15.649290 -10.310492 0.000000 0.000000 0.000000 -7.877657 0.142810 2.364924 -4.128311 5.180312 52.540567 7.306362 2.765680 24.108455 0.000000 0.000000 0.000000 -6.273216 0.192288 9.736231 13.797263 -3.603287 -18.521761 3.139776 -1.181317 22.898880 -8.469682 6.700885 -16.455584 0.000000 0.000000 0.000000 -17.265492 -1.135701 0.202199 -51.515092 -26.362882 2.792480 -173.990950 -59.064333 -175.840775 0.000000 0.000000 0.000000 0.986265 8.521305 2.942645 45.710468 13.183173 -1.527967 169.136851 69.509428 171.348425 0.000000 0.000000 0.000000
-1.295800 0.846933 2.476101 -7.540205 6.283969 -0.832778 2.161303 -3.829418 -38.863076 -8.631377 1.475463 27.974703 11.114064 22.571369 2.399265 0.000000 0.000000 0.000000 -3.894540 -0.093380 1.684088 -6.854398 5.357472 64.560959 5.480909 0.878553 23.459356 0.000000 0.000000 0.000000 -7.167357 0.143179 9.295598 13.090593 -3.221600 -19.464794 3.438884 -1.950742 24.068444 -7.474433 6.397106 -20.207319 0.000000 0.000000 0.000000 -16.323123 -4.159921 0.905867 -48.768454 -32.803259 5.364412 174.650803 -62.533845 -160.698285 0.000000 0.000000 0.000000 3.341763 6.572158 2.460428 42.691730 7.598490 -3.387872 162.629643 69.132340 164.219383 0.000000 0.000000 0.000000
-1.282710 0.833022 2.587110 -7.968230 13.757016 -4.143799 -0.654302 -4.827549 -34.105910 -11.839995 1.557204 36.479762 14.651054 29.322351 -6.676633 0.000000 0.000000 0.000000 -1.653230 0.303377 -3.666846 -9.025662 3.379698 77.798424 1.086796 -3.414151 14.521730 0.000000 0.000000 0.000000 -7.332624 -0.042880 13.233525 14.108069 -3.133763 -22.190879 2.328080 -0.612858 24.967677 -6.531007 6.730944 -18.270333 0.000000 0.000000 0.000000 -14.128504 -7.141796 1.200783 -51.082269 -39.235512 8.684540 173.472426 -63.090842 -163.175572 0.000000 0.000000 0.000000 5.396747 6.535983 2.990258 43.226666 3.105754 -4.994265 155.606706 68.863389 158.213440 0.000000 0.000000 0.000000
-1.267927 0.824472 2.689972 -7.435596 21.842536 -7.229218 -2.771548 -5.019277 -29.548920 -14.510016 0.390206 48.403002 13.639237 26.845180 -14.728000 0.000000 0.000000 0.000000 -1.615931 0.689344 -11.004185 -13.608165 2.463527 84.195514 -0.560782 -3.434823 4.756928 0.000000 0.000000 0.000000 -8.518941 -0.326232 17.326436 13.423134 -2.583693 -24.687512 1.829883 -1.458553 27.263630 -6.087805 7.143834 -21.698179 0.000000 0.000000 0.000000 -14.361137 -7.513353 0.545865 -52.440164 -44.891073 11.408115 173.078768 -63.319061 -164.905566 0.000000 0.000000 0.000000 5.079180 6.672166 3.308987 45.951700 0.825039 -6.175336 151.885934 67.379970 155.568718 0.000000 0.000000 0.000000
-1.252180 0.822531 2.789025 -8.604988 31.240310 -10.015372 -2.290821 -3.531504 -22.506550 -15.431680 -2.612146 53.458484 12.791841 21.606221 -20.602816 0.000000 0.000000 0.000000 -1.123579 0.406765 -21.860176 -17.981188 0.903244 82.482328 -1.016754 -2.231105 -0.666660 0.000000 0.000000 0.000000 -7.859666 -0.952748 19.711163 11.500352 -1.810908 -25.406589 1.872272 -3.368750 26.510300 -6.197287 7.643283 -18.131645 0.000000 0.000000 0.000000 -14.232688 -10.103883 0.855552 -52.842440 -43.629330 10.815131 179.455616 -60.282274 -177.689475 0.000000 0.000000 0.000000 6.567372 7.914375 4.447588 45.787005 -0.129012 -6.511991 154.004419 65.669548 159.885946 0.000000 0.000000 0.000000
-1.235064 0.823926 2.887843 -10.656742 38.368470 -13.169876 2.083366 -1.976777 -17.286739 -16.981536 -4.796491 57.206884 11.313774 16.535324 -17.521218 0.000000 0.000000 0.000000 -2.476887 -1.571720 -29.917142 -18.716997 -0.281272 70.247625 -1.668844 -2.074598 -7.659809 0.000000 0.000000 0.000000 -6.468705 -1.549655 20.734503 11.087009 -1.481140 -25.726149 2.207253 -2.713551 25.203326 -6.604804 8.439727 -15.791340 0.000000 0.000000 0.000000 -16.391640 -11.000495 -0.401230 -53.996240 -38.842777 9.152452 -170.184046 -59.644211 160.694242 0.000000 0.000000 0.000000 6.239879 8.475911 5.021227 45.205931 2.024616 -5.490769 154.754853 62.438559 162.474189 0.000000 0.000000 0.000000
-1.217806 0.829235 2.986517 -12.316574 44.347239 -14.665699 7.265638 -1.359778 -12.989923 -17.295772 -6.768926 58.790064 8.627351 10.861308 -11.802884 0.000000 0.000000 0.000000 -5.327329 -4.706745 -34.169175 -11.830067 -3.019773 51.970405 -0.578693 -1.272942 -2.812808 0.000000 0.000000 0.000000 -4.702580 -1.585581 18.502900 10.290447 -0.992052 -25.624581 1.572629 -1.560290 25.494437 -6.522602 8.796965 -13.554379 0.000000 0.000000 0.000000 -17.297375 -9.440376 -3.180451 -56.973051 -32.739120 7.110685 -155.304358 -56.488723 128.494415 0.000000 0.000000 0.000000 4.641036 11.303887 6.285010 46.433840 8.639974 -2.769145 166.529359 68.590417 -173.906544 0.000000 0.000000 0.000000
-1.202148 0.829199 3.082032 -13.253562 51.328665 -14.811380 14.468788 -2.160729 -10.788655 -19.489396 -6.535014 57.253317 5.957572 5.194392 -9.030366 0.000000 0.000000 0.000000 -9.093934 -8.426186 -35.312049 -5.499914 -3.910570 37.911678 1.133959 1.565684 4.690886 0.000000 0.000000 0.000000 -3.756952 -1.287291 15.411657 7.831656 0.005340 -25.028645 1.613780 -1.161840 24.468815 -2.909338 6.632715 -12.236355 0.000000 0.000000 0.000000 -19.894529 -10.288509 -5.857881 -54.586678 -21.889710 3.289476 -144.347797 -50.113047 98.265014 0.000000 0.000000 0.000000 3.916921 16.793271 9.041764 43.364837 18.296865 1.110769 -123.304674 78.323343 -92.781227 0.000000 0.000000 0.000000
-1.189403 0.822237 3.170695 -13.253611 56.336241 -14.298168 20.478516 -3.790915 -9.372618 -26.499284 -3.516497 54.370086 12.331043 18.879576 -7.409601 0.000000 0.000000 0.000000 -10.868216 -11.507644 -36.914157 -2.309111 -4.078210 31.486592 1.471814 2.046728 9.163619 0.000000 0.000000 0.000000 -2.625437 -1.417973 15.277543 2.919943 1.175186 -27.807523 5.044088 0.143858 27.019770 -0.258790 6.079568 -13.496592 0.000000 0.000000 0.000000 -20.805859 -10.565733 -8.130848 -51.450577 -15.925015 1.114081 -138.056077 -47.720611 83.113163 0.000000 0.000000 0.000000 3.916597 19.863857 10.972136 37.101238 25.273895 2.865302 -77.984917 64.346362 -38.840508 0.000000 0.000000 0.000000
-1.178330 0.812655 3.250547 -11.909735 60.676597 -13.995774 20.728959 -4.155404 -9.429230 -34.062120 -2.011193 56.870556 18.440973 30.577799 -6.977994 0.000000 0.000000 0.000000 -12.123193 -14.172212 -37.854401 -2.419312 -4.303186 31.425114 3.115131 4.139179 14.847879 0.000000 0.000000 0.000000 -2.105536 -2.242443 18.540142 -0.499718 2.011993 -26.055704 7.877574 1.669210 24.011580 2.429162 4.192204 -11.979880 0.000000 0.000000 0.000000 -21.473378 -13.883662 -7.875430 -49.970637 -10.215536 -0.368809 -133.448536 -46.925787 73.742171 0.000000 0.000000 0.000000 7.956324 22.834365 15.134812 24.456579 29.114625 1.728391 -61.081883 49.956178 -22.198054 0.000000 0.000000 0.000000
-1.168242 0.798047 3.322732 -10.417125 64.156074 -13.130840 19.648858 -4.100699 -9.002186 -37.294180 -1.997400 59.103672 19.979077 33.946942 -14.074348 0.000000 0.000000 0.000000 -10.341817 -16.896667 -42.648489 -6.291762 -4.969338 40.372936 2.783462 2.794110 18.121414 0.000000 0.000000 0.000000 -1.192403 -3.051028 20.762105 -0.441599 2.347277 -22.493759 6.123051 2.738395 20.167027 3.881604 3.208277 -12.593299 0.000000 0.000000 0.000000 -20.991480 -13.677878 -8.105708 -47.833045 -7.823351 -0.810496 -134.899450 -46.066572 73.958806 0.000000 0.000000 0.000000 11.383261 23.372463 17.913209 18.827496 30.945082 0.974362 -51.806053 39.763593 -14.404749 0.000000 0.000000 0.000000
-1.156246 0.788518 3.387163 -11.535978 66.251735 -14.473867 21.234046 -4.782920 -8.848633 -40.361653 -1.299553 61.505425 20.807652 36.215054 -13.136114 0.000000 0.000000 0.000000 -7.623889 -18.101937 -46.508088 -10.831986 -5.804665 51.607152 2.207268 1.653984 16.055694 0.000000 0.000000 0.000000 1.124540 -4.149141 22.523305 -0.846432 2.548505 -21.663853 5.755870 3.582958 19.110109 5.806113 2.163156 -13.256998 0.000000 0.000000 0.000000 -22.913766 -14.595558 -8.997829 -45.251642 -4.898714 -1.032727 -137.105687 -45.022716 76.501141 0.000000 0.000000 0.000000 14.699090 23.576344 20.409359 18.052448 30.803113 0.414160 -49.056708 35.690097 -12.232033 0.000000 0.000000 0.000000
-1.141266 0.787949 3.443854 -11.532838 67.714887 -14.044542 21.328230 -4.905644 -9.552234 -41.732449 -1.253341 63.393096 23.495492 39.121445 -3.999240 0.000000 0.000000 0.000000 -6.458985 -19.171201 -48.552819 -15.453588 -5.100378 59.529668 6.189279 7.027562 15.088736 0.000000 0.000000 0.000000 2.263371 -4.371250 22.207782 -0.195052 2.391414 -21.513032 5.504819 3.365535 19.743783 3.997640 4.665740 -17.115308 0.000000 0.000000 0.000000 -21.258289 -13.116969 -9.435370 -47.266265 -4.340127 -1.782942 -136.959431 -44.823859 74.487777 0.000000 0.000000 0.000000 17.551145 23.237495 22.466583 20.062714 30.302311 0.240279 -47.853944 37.159401 -12.828765 0.000000 0.000000 0.000000
-1.123944 0.794798 3.493930 -11.365894 69.821583 -14.412263 19.925795 -4.590116 -9.246359 -40.691744 -2.514990 66.112082 22.141937 36.974352 -5.271830 0.000000 0.000000 0.000000 -6.832922 -18.382899 -46.061283 -17.656684 -6.035449 62.983882 6.757458 8.626085 12.762864 0.000000 0.000000 0.000000 3.419321 -4.862978 22.433891 -1.122629 2.458857 -22.146902 5.895583 3.188160 19.641943 3.593663 5.228754 -17.363319 0.000000 0.000000 0.000000 -20.357876 -12.124142 -10.014179 -47.097265 -3.251885 -2.187343 -138.518302 -43.818271 74.251792 0.000000 0.000000 0.000000 17.874338 22.487444 22.646428 25.806947 28.805783 0.653380 -45.445022 39.046686 -12.472679 0.000000 0.000000 0.000000
-1.106885 0.808452 3.538508 -8.995738 71.760372 -12.713860 17.890224 -4.127025 -8.497508 -38.788751 -4.142370 64.458008 25.087263 39.584172 -3.820814 0.000000 0.000000 0.000000 -8.318190 -16.923094 -41.261819 -18.993846 -7.777845 64.449545 7.625859 12.091709 7.307977 0.000000 0.000000 0.000000 2.931380 -4.921391 22.867323 -1.651645 2.575269 -23.111680 7.394559 5.036585 20.818248 2.566373 6.387804 -17.845116 0.000000 0.000000 0.000000 -21.269058 -13.665704 -11.493202 -48.710426 -1.718163 -2.242297 -138.757753 -42.921310 71.387665 0.000000 0.000000 0.000000 18.831420 20.882104 23.177272 28.196474 25.810610 0.013520 -41.505999 42.553234 -12.464741 0.000000 0.000000 0.000000
-1.092031 0.820555 3.577130 -6.561066 72.356554 -10.802393 15.696598 -3.479246 -9.357260 -34.516542 -6.328871 63.068110 25.300331 38.958685 -5.745843 0.000000 0.000000 0.000000 -9.127798 -15.240372 -37.640377 -19.470341 -8.980457 64.546591 9.411358 15.672215 6.208603 0.000000 0.000000 0.000000 3.196370 -5.330126 23.603559 -2.369410 2.322885 -26.050308 6.881384 5.786306 23.688739 3.794053 6.245989 -18.649294 0.000000 0.000000 0.000000 -23.063628 -10.746218 -15.007278 -47.819854 1.090731 -2.865279 -136.949519 -40.634454 67.178615 0.000000 0.000000 0.000000 19.003105 17.557722 21.926641 31.982917 26.601837 0.310146 -39.945980 48.501617 -12.975598 0.000000 0.000000 0.000000
-1.079573 0.837335 3.609521 -5.826827 71.315910 -9.668790 13.965008 -2.986843 -11.066402 -30.596686 -7.293068 59.126258 25.806501 38.569977 -5.969167 0.000000 0.000000 0.000000 -8.805911 -12.457578 -34.169256 -17.705917 -10.485407 62.267743 10.246198 18.054577 4.280767 0.000000 0.000000 0.000000 3.076430 -5.079613 23.159705 -0.834914 2.321496 -24.198312 4.700277 7.426044 21.550349 4.712236 6.141538 -21.417510 0.000000 0.000000 0.000000 -22.107622 -7.907850 -15.752248 -47.261940 3.617475 -3.942545 -134.464428 -40.003575 62.800379 0.000000 0.000000 0.000000 18.987334 12.440016 19.126567 35.939309 24.773476 0.104592 -33.926561 59.198670 -11.254236 0.000000 0.000000 0.000000
