HIERARCHY
ROOT Hips
{
	OFFSET -0.001795 -0.223333 0.028219
	CHANNELS 6 Xposition Yposition Zposition Zrotation Yrotation Xrotation
	JOINT LeftUpLeg
	{
		OFFSET 0.069520 -0.091406 -0.006815
		CHANNELS 3 Zrotation Yrotation Xrotation
		JOINT LeftLeg
		{
			OFFSET 0.034277 -0.375199 -0.004496
			CHANNELS 3 Zrotation Yrotation Xrotation
			JOINT LeftFoot
			{
				OFFSET -0.013596 -0.397961 -0.043693
				CHANNELS 3 Zrotation Yrotation Xrotation
				JOINT LeftToe
				{
					OFFSET 0.026358 -0.055791 0.119288
					CHANNELS 3 Zrotation Yrotation Xrotation
					End Site
					{
						OFFSET 0.000000 0.000000 0.000000
					}
				}
			}
		}
	}
	JOINT RightUpLeg
	{
		OFFSET -0.067670 -0.090522 -0.004320
		CHANNELS 3 Zrotation Yrotation Xrotation
		JOINT RightLeg
		{
			OFFSET -0.038290 -0.382569 -0.008850
			CHANNELS 3 Zrotation Yrotation Xrotation
			JOINT RightFoot
			{
				OFFSET 0.015774 -0.398415 -0.042312
				CHANNELS 3 Zrotation Yrotation Xrotation
				JOINT RightToe
				{
					OFFSET -0.025372 -0.048144 0.123348
					CHANNELS 3 Zrotation Yrotation Xrotation
					End Site
					{
						OFFSET 0.000000 0.000000 0.000000
					}
				}
			}
		}
	}
	JOINT Spine
	{
		OFFSET -0.002533 0.108963 -0.026696
		CHANNELS 3 Zrotation Yrotation Xrotation
		JOINT Spine1
		{
			OFFSET 0.005487 0.135180 0.001092
			CHANNELS 3 Zrotation Yrotation Xrotation
			JOINT Spine2
			{
				OFFSET 0.001457 0.052922 0.025425
				CHANNELS 3 Zrotation Yrotation Xrotation
				JOINT Neck
				{
					OFFSET -0.002778 0.213870 -0.042857
					CHANNELS 3 Zrotation Yrotation Xrotation
					JOINT Head
					{
						OFFSET 0.005152 0.064970 0.051349
						CHANNELS 3 Zrotation Yrotation Xrotation
						End Site
						{
							OFFSET 0.000000 0.000000 0.000000
						}
					}
				}
				JOINT LeftShoulder
				{
					OFFSET 0.078845 0.121749 -0.034090
					CHANNELS 3 Zrotation Yrotation Xrotation
					JOINT LeftArm
					{
						OFFSET 0.090977 0.030469 -0.008868
						CHANNELS 3 Zrotation Yrotation Xrotation
						JOINT LeftForeArm
						{
							OFFSET 0.259612 -0.012772 -0.027456
							CHANNELS 3 Zrotation Yrotation Xrotation
							JOINT LeftHand
							{
								OFFSET 0.249234 0.008986 -0.001171
								CHANNELS 3 Zrotation Yrotation Xrotation
								End Site
								{
									OFFSET 0.000000 0.000000 0.000000
								}
							}
						}
					}
				}
				JOINT RightShoulder
				{
					OFFSET -0.081759 0.118833 -0.038615
					CHANNELS 3 Zrotation Yrotation Xrotation
					JOINT RightArm
					{
						OFFSET -0.096012 0.032551 -0.009143
						CHANNELS 3 Zrotation Yrotation Xrotation
						JOINT RightForeArm
						{
							OFFSET -0.253742 -0.013329 -0.021401
							CHANNELS 3 Zrotation Yrotation Xrotation
							JOINT RightHand
							{
								OFFSET -0.255298 0.007772 -0.005559
								CHANNELS 3 Zrotation Yrotation Xrotation
								End Site
								{
									OFFSET 0.000000 0.000000 0.000000
								}
							}
						}
					}
				}
			}
		}
	}
}
MOTION
Frames: 76
Frame Time: 0.050000
0.000000 0.934719 0.000000 -0.996674 3.281744 -7.334862 5.036282 0.484195 12.898241 -3.397507 0.365353 -2.206831 5.464776 12.818787 7.155528 0.000000 0.000000 0.000000 -2.754775 -0.766962 9.265297 4.999900 -0.600142 2.228377 -8.019077 -19.801332 7.388614 0.000000 0.000000 0.000000 4.117873 0.209231 -1.931715 -6.403093 2.627837 -15.875671 -1.088320 4.547350 21.717134 10.117503 -7.433199 -6.637340 0.000000 0.000000 0.000000 -21.892970 -6.156876 -0.015373 -53.251426 3.144521 -9.163299 -0.641589 -23.642013 0.980911 0.000000 0.000000 0.000000 29.389234 -4.605830 -2.442464 55.808843 0.058444 -8.054697 -1.175426 26.440460 1.414446 0.000000 0.000000 0.000000
-0.000786 0.934240 0.001929 -1.096651 2.262228 -6.663847 5.023194 0.507139 12.552317 -3.343153 0.368273 -2.409086 5.972200 13.678167 7.286697 0.000000 0.000000 0.000000 -2.379907 -0.720027 8.666294 4.503861 -0.518179 2.016591 -7.684710 -19.124220 6.949294 0.000000 0.000000 0.000000 4.253702 0.318593 -3.406105 -6.764465 2.758928 -14.845227 -1.068280 5.463321 20.205928 10.599906 -8.989515 -2.424260 0.000000 0.000000 0.000000 -23.428430 -5.918343 -0.442404 -51.233341 4.186324 -8.994933 -0.614483 -23.826831 0.949943 0.000000 0.000000 0.000000 32.103172 -4.419287 -2.496035 54.816401 -1.406500 -8.546843 -2.396025 27.412332 1.183845 0.000000 0.000000 0.000000
-0.001301 0.933640 0.005390 -0.813344 1.785610 -7.093147 4.884507 0.567002 13.050170 -3.626128 0.395465 -1.885945 6.166077 13.996047 7.253582 0.000000 0.000000 0.000000 -2.737342 -0.765740 9.671834 4.502680 -0.511525 1.427253 -7.433781 -18.623674 6.542173 0.000000 0.000000 0.000000 4.188612 0.303444 -3.141955 -7.544071 2.886652 -17.435881 -0.263665 5.246831 22.822890 9.734121 -7.460584 -5.567780 0.000000 0.000000 0.000000 -22.077291 -6.259639 0.200493 -51.855536 3.261724 -9.119873 0.262212 -23.481777 0.819240 0.000000 0.000000 0.000000 30.773390 -4.506224 -2.600883 54.876289 -1.227505 -8.626633 1.308800 25.754868 1.825199 0.000000 0.000000 0.000000
-0.001645 0.933649 0.010585 -0.594322 1.620944 -7.787733 4.231183 0.721723 14.428090 -2.782620 0.325247 -2.318372 6.198631 14.098007 7.526398 0.000000 0.000000 0.000000 -2.353784 -0.847376 10.247128 3.347416 -0.356146 2.366497 -7.467621 -18.695569 6.257184 0.000000 0.000000 0.000000 4.014980 0.323130 -3.372397 -7.484859 2.908782 -16.595618 -0.420545 5.284068 22.468336 9.739938 -7.775195 -4.271876 0.000000 0.000000 0.000000 -21.235051 -6.906662 0.636517 -53.252679 3.132894 -9.315425 0.781273 -24.900019 0.758335 0.000000 0.000000 0.000000 29.966852 -4.100791 -2.295204 55.652709 -1.370985 -8.701168 1.127072 26.735059 1.877440 0.000000 0.000000 0.000000
-0.001645 0.932658 0.016987 -0.726143 1.274056 -8.002348 4.158043 0.745388 14.373104 -2.422770 0.278195 -0.950088 6.510706 14.563789 7.098032 0.000000 0.000000 0.000000 -2.485033 -0.827395 10.238401 3.745374 -0.399920 3.517906 -7.365900 -18.474607 5.743512 0.000000 0.000000 0.000000 3.983820 0.315285 -3.230630 -6.679805 2.695438 -15.347840 -0.833155 5.110046 21.035000 9.029554 -7.007362 -4.572219 0.000000 0.000000 0.000000 -20.823535 -7.092450 0.829527 -53.376598 2.715390 -9.041442 0.016719 -24.925354 0.920481 0.000000 0.000000 0.000000 29.264662 -3.913600 -2.355584 55.992086 -1.422110 -8.533990 0.254396 26.658247 1.638282 0.000000 0.000000 0.000000
-0.001204 0.931224 0.023991 -0.985716 0.770502 -8.116842 4.190217 0.796791 15.069820 -2.094291 0.247741 -0.988342 6.824716 15.057931 6.773947 0.000000 0.000000 0.000000 -2.099455 -0.812028 9.756600 3.417833 -0.331593 5.361690 -7.326684 -18.360952 5.099130 0.000000 0.000000 0.000000 3.746910 0.284649 -2.897345 -6.806405 2.687248 -16.336475 0.100457 4.372631 21.787660 8.831839 -7.237462 -3.474592 0.000000 0.000000 0.000000 -21.791859 -8.260450 1.782158 -53.163454 2.173247 -8.902142 -0.152054 -24.004740 0.985732 0.000000 0.000000 0.000000 29.017710 -2.480396 -1.749511 55.303143 -0.839827 -8.204754 -0.320887 24.736576 1.303236 0.000000 0.000000 0.000000
-0.000092 0.931326 0.030244 -0.954804 0.578258 -7.448905 4.218094 0.765838 14.454076 -2.416471 0.273293 -0.417533 6.944659 15.264518 6.852800 0.000000 0.000000 0.000000 -2.147453 -0.624962 7.659192 3.373294 -0.292136 8.477598 -7.455980 -18.607600 5.128779 0.000000 0.000000 0.000000 3.956193 0.263237 -2.593721 -6.451166 2.580638 -15.769270 -0.068497 3.949588 21.916917 8.833079 -7.281751 -3.566524 0.000000 0.000000 0.000000 -22.615789 -9.486356 2.631435 -52.633293 1.501235 -8.561737 -0.442960 -25.202481 1.127661 0.000000 0.000000 0.000000 29.635917 -0.772527 -0.821822 53.256419 -0.294842 -7.738996 -0.601275 24.670856 1.182753 0.000000 0.000000 0.000000
0.001130 0.930389 0.035255 -0.748304 0.281430 -5.792632 3.883491 0.718877 12.821038 -2.596265 0.288731 -0.071988 7.235808 15.724203 6.666091 0.000000 0.000000 0.000000 -2.620594 -0.212246 3.019171 3.823540 -0.336608 13.981803 -7.707006 -19.086994 5.308817 0.000000 0.000000 0.000000 3.682398 -0.000672 0.595898 -6.660344 2.546050 -17.736210 0.585152 3.210015 23.316699 8.468184 -6.622972 -5.704335 0.000000 0.000000 0.000000 -22.987257 -11.997719 4.489540 -51.880780 -1.906080 -7.248169 0.311685 -25.354973 1.025476 0.000000 0.000000 0.000000 29.593425 2.043701 0.766662 51.293156 2.648727 -6.399439 -1.430279 23.547380 0.892544 0.000000 0.000000 0.000000
0.002401 0.929450 0.038863 -0.493730 -0.531043 -4.229338 3.103929 0.676248 10.511239 -2.274071 0.232779 1.594423 7.886750 16.818673 6.540336 0.000000 0.000000 0.000000 -3.236538 0.198984 -2.134514 4.747182 -0.518921 20.164593 -8.307234 -20.283971 6.339640 0.000000 0.000000 0.000000 3.985161 -0.352667 4.987875 -6.062955 2.337133 -17.285191 -0.374787 3.569429 22.660235 8.974209 -6.519653 -8.124144 0.000000 0.000000 0.000000 -22.029536 -14.455813 5.929005 -51.061397 -6.092826 -5.397619 0.706857 -26.416937 0.967220 0.000000 0.000000 0.000000 29.198327 5.979137 3.304674 48.915419 6.901236 -4.457534 -2.613972 22.147238 0.547882 0.000000 0.000000 0.000000
0.002999 0.925156 0.041468 -0.509421 -1.760573 -1.641348 3.002768 0.495057 7.538058 -2.760913 0.293174 2.504243 8.834130 18.411614 5.388188 0.000000 0.000000 0.000000 -3.126346 0.721351 -8.858115 5.380745 -0.615088 26.995057 -8.652820 -20.992617 3.877550 0.000000 0.000000 0.000000 4.030020 -0.816426 10.744352 -6.603537 2.402697 -18.264601 0.364386 2.115026 22.885708 7.972526 -6.080865 -7.709405 0.000000 0.000000 0.000000 -25.228658 -16.728594 8.327194 -45.422744 -11.173399 -3.284358 0.535253 -27.030041 1.061502 0.000000 0.000000 0.000000 30.728223 10.687058 5.606560 42.857844 11.913943 -2.231112 -3.424034 20.938166 0.249246 0.000000 0.000000 0.000000
0.003346 0.920791 0.044059 -0.983554 -3.292037 1.169578 3.462757 0.135367 2.551990 -3.729008 0.457695 7.248984 10.015975 20.595289 3.044654 0.000000 0.000000 0.000000 -3.551978 1.327676 -16.622957 7.525352 -1.259541 32.437973 -8.952185 -21.716347 2.254593 0.000000 0.000000 0.000000 4.419081 -1.441833 18.466872 -6.359781 2.180760 -19.952326 0.428894 1.802429 23.229608 8.893126 -6.780051 -9.051696 0.000000 0.000000 0.000000 -25.933948 -19.846885 10.875277 -39.253554 -17.903766 -1.138147 1.513651 -28.476910 0.843487 0.000000 0.000000 0.000000 28.954695 14.940676 7.925074 39.227965 18.172132 -0.225586 -6.072659 20.434910 -0.224416 0.000000 0.000000 0.000000
0.003696 0.914131 0.048441 -1.678439 -4.209934 6.122361 4.356462 -0.323304 -4.649145 -4.852235 0.798914 12.702197 10.362765 21.586961 -1.142072 0.000000 0.000000 0.000000 -3.591600 2.095940 -24.925163 9.967417 -2.200101 35.505894 -9.343637 -23.010327 -3.582670 0.000000 0.000000 0.000000 3.783307 -1.897230 27.356867 -5.308787 1.763389 -21.004092 1.233450 0.878844 21.655436 8.667634 -6.317560 -10.677000 0.000000 0.000000 0.000000 -26.320332 -23.330145 13.735965 -29.738822 -24.792073 0.222905 5.744599 -29.856851 -0.291891 0.000000 0.000000 0.000000 27.685846 20.015496 10.616475 30.215772 24.902740 1.134777 -9.741843 20.474135 -0.881198 0.000000 0.000000 0.000000
0.004769 0.906006 0.058047 -2.269699 -5.569602 11.899567 5.776190 -0.612318 -13.351079 -7.668971 1.956212 19.556864 11.447624 24.297030 -3.454840 0.000000 0.000000 0.000000 -4.429271 2.980306 -34.431852 13.323000 -3.476525 36.247233 -9.153766 -23.219360 -8.095283 0.000000 0.000000 0.000000 2.412534 -1.810696 37.478003 -2.166878 0.910696 -22.051076 1.189900 2.274991 21.251294 7.833614 -4.820648 -14.102566 0.000000 0.000000 0.000000 -20.483483 -26.420018 14.248968 -21.072872 -34.739985 0.905516 12.772810 -27.706648 -1.979587 0.000000 0.000000 0.000000 24.969494 23.849183 13.227411 19.415419 32.151402 0.640399 -14.548358 19.780152 -1.573018 0.000000 0.000000 0.000000
0.006657 0.893540 0.077984 -2.104946 -3.967844 19.087320 6.755618 -0.784773 -21.546896 -9.099960 2.823008 26.347037 9.033943 19.447782 -12.201519 0.000000 0.000000 0.000000 -7.311960 2.703716 -42.503650 16.640965 -5.449028 37.634910 -8.708848 -23.108582 -12.099458 0.000000 0.000000 0.000000 3.811877 -3.150472 46.383563 -1.459872 0.807631 -24.887245 0.736492 2.281107 21.749521 9.832304 -4.879682 -19.515178 0.000000 0.000000 0.000000 -10.748969 -29.858024 13.875170 -8.122246 -43.123099 -1.592056 20.797059 -20.069490 -2.783319 0.000000 0.000000 0.000000 15.231463 27.199163 13.707938 8.509637 39.246133 -1.490647 -17.738653 15.083135 -1.459609 0.000000 0.000000 0.000000
0.009184 0.874141 0.111857 -2.346923 -4.931152 25.324643 9.599620 -0.233426 -27.975115 -13.369050 5.431947 32.284169 8.649490 18.891353 -15.877614 0.000000 0.000000 0.000000 -10.218303 2.436735 -49.745759 20.811692 -7.801978 40.752006 -9.400274 -26.619687 -12.248578 0.000000 0.000000 0.000000 3.183376 -2.994064 54.789633 0.769728 0.513131 -29.248311 0.169455 3.861828 24.356578 10.200217 -3.702568 -25.759910 0.000000 0.000000 0.000000 0.432045 -31.978499 12.096651 5.969517 -45.498529 -6.285654 23.185075 -9.033886 -1.381048 0.000000 0.000000 0.000000 6.181916 27.792569 12.466569 -6.140854 43.261510 -6.089951 -20.812628 9.784423 -0.985058 0.000000 0.000000 0.000000
0.011989 0.846887 0.160431 -1.575119 -5.283867 32.011399 10.771268 0.106065 -32.862975 -17.975984 8.421308 36.261350 9.234953 21.368693 -18.867379 0.000000 0.000000 0.000000 -14.971493 0.882532 -55.894848 26.239182 -12.093567 46.114239 -10.076885 -29.757649 -10.938936 0.000000 0.000000 0.000000 3.534538 -3.473886 62.774484 -0.147914 0.759119 -32.553990 1.363015 3.132624 26.194690 10.392715 -2.836155 -31.252575 0.000000 0.000000 0.000000 13.879442 -29.438194 8.463973 16.043787 -46.466196 -9.768020 23.678332 -0.913662 -0.031587 0.000000 0.000000 0.000000 -6.566692 26.631266 9.310065 -15.078473 44.277480 -9.197364 -22.684574 5.366354 -0.348738 0.000000 0.000000 0.000000
0.016102 0.815491 0.222669 -3.597296 -7.617084 41.479473 14.895330 1.880348 -37.821818 -22.532429 11.945200 37.372856 9.328788 23.635578 -22.612447 0.000000 0.000000 0.000000 -16.326426 1.473519 -61.365404 29.056759 -14.219243 48.880899 -9.667257 -31.201099 -14.291780 0.000000 0.000000 0.000000 2.821603 -1.907932 64.243529 1.552982 0.693053 -35.665602 1.300905 6.897978 29.095769 13.295507 -3.365789 -32.874887 0.000000 0.000000 0.000000 17.890315 -30.026899 8.195693 22.774713 -43.611809 -11.921481 27.286160 4.386800 1.018640 0.000000 0.000000 0.000000 -10.861447 26.784816 8.885742 -24.706453 40.304328 -10.715319 -25.021369 -0.574615 0.782276 0.000000 0.000000 0.000000
0.020485 0.788044 0.296835 -1.343424 -8.041342 48.791986 15.957056 2.112276 -39.872110 -25.224319 13.779462 37.920195 8.804409 21.066482 -15.631199 0.000000 0.000000 0.000000 -21.660026 -0.856029 -61.736208 31.208377 -16.118816 47.961775 -8.109440 -26.842929 -15.584729 0.000000 0.000000 0.000000 4.705652 -3.556770 67.066813 -0.819591 0.837481 -33.608897 0.875106 3.642955 27.136085 15.356773 -4.970250 -28.955377 0.000000 0.000000 0.000000 20.567267 -28.205525 7.635499 26.032411 -39.195336 -10.740222 31.943517 5.950231 1.854517 0.000000 0.000000 0.000000 -19.452467 24.653978 7.107907 -25.318923 36.869564 -10.270573 -30.192320 -4.316117 1.911093 0.000000 0.000000 0.000000
0.023564 0.763790 0.380540 -1.226878 -9.016229 58.107252 18.383864 3.045517 -42.521786 -24.928274 15.894280 42.354952 7.979575 18.241652 -5.612714 0.000000 0.000000 0.000000 -23.712139 -0.969625 -61.391901 30.489410 -15.211028 45.640009 -6.925987 -23.481112 -12.731454 0.000000 0.000000 0.000000 5.480496 -3.869972 67.499845 -0.934894 0.800198 -32.526174 -0.372552 1.495979 26.607903 18.978328 -7.920655 -21.357054 0.000000 0.000000 0.000000 14.956530 -26.325317 8.994449 31.259070 -35.434992 -10.796932 39.143765 6.485406 3.090717 0.000000 0.000000 0.000000 -18.096281 23.793091 8.010571 -31.149114 33.597887 -11.603039 -38.690590 -5.669393 3.124801 0.000000 0.000000 0.000000
0.024698 0.739246 0.470722 -2.155262 -9.390779 68.741956 23.231643 3.000222 -39.381545 -25.891944 17.762766 41.833455 5.358481 12.050439 -8.915142 0.000000 0.000000 0.000000 -28.337776 -1.420935 -58.141368 36.588709 -14.579225 32.538809 -6.437030 -26.027652 -14.032802 0.000000 0.000000 0.000000 6.963584 -5.426986 70.585767 -2.015381 0.814916 -37.974769 -2.407215 -1.029088 31.023622 22.856293 -25.776596 34.095150 0.000000 0.000000 0.000000 -1.506053 -25.919935 14.558396 44.957729 -26.709515 -10.486874 47.895440 5.262160 4.162762 0.000000 0.000000 0.000000 -0.607057 24.893339 12.522558 -46.187334 29.330451 -16.365949 -50.821041 -2.619222 4.607100 0.000000 0.000000 0.000000
0.024391 0.706416 0.569188 -2.033368 -9.745815 82.429267 27.516708 1.505348 -35.824384 -28.397987 17.955045 35.408693 5.106782 13.680372 -14.779912 0.000000 0.000000 0.000000 -36.060197 -1.777594 -54.489483 41.986215 -12.067785 17.367478 -4.461212 -26.495702 -21.798982 0.000000 0.000000 0.000000 7.622348 -6.745019 75.190290 -3.485206 0.638790 -39.726885 -0.655200 -2.898499 30.786236 15.538520 -32.123126 74.086053 0.000000 0.000000 0.000000 -20.665651 -24.968659 22.245946 60.604877 -15.242909 -5.806802 62.135910 7.763905 7.620194 0.000000 0.000000 0.000000 15.505190 22.490923 13.712647 -55.068644 22.913605 -15.709915 -65.883270 9.371874 2.575239 0.000000 0.000000 0.000000
0.021825 0.658433 0.673098 -1.549697 -10.020429 97.558839 29.503967 -1.246052 -34.060678 -24.041476 13.622392 29.210819 3.096809 14.157731 -23.526001 0.000000 0.000000 0.000000 -46.415573 -0.087562 -49.417466 51.424584 -11.418155 2.410843 -1.201720 -28.896835 -34.206735 0.000000 0.000000 0.000000 9.878601 -10.083674 77.753861 -7.980352 0.004156 -40.419744 2.691014 -4.313812 36.011784 12.974680 -32.135588 84.268232 0.000000 0.000000 0.000000 -33.771141 -22.782243 28.306970 66.701497 -4.286331 1.164440 85.012136 20.615502 20.325594 0.000000 0.000000 0.000000 26.040430 17.920406 10.969227 -52.350353 21.370888 -16.305992 -90.455371 13.360177 2.977155 0.000000 0.000000 0.000000
0.018345 0.592884 0.777812 -3.875479 -8.991142 113.746067 33.054877 -2.554595 -36.077351 -19.970194 9.073406 20.816764 2.478555 22.497845 -21.822175 0.000000 0.000000 0.000000 -54.720807 4.171234 -47.046339 59.693076 -12.533544 -7.496424 2.653319 -30.804467 -44.712790 0.000000 0.000000 0.000000 10.396240 -9.200033 81.793910 -10.740156 -1.106679 -49.164735 5.206755 -7.357344 44.912515 15.727280 -34.328474 81.022995 0.000000 0.000000 0.000000 -46.452120 -22.115141 36.900682 61.762250 0.983052 2.914248 114.539543 26.942249 36.293697 0.000000 0.000000 0.000000 27.956156 20.506786 13.531513 -33.702967 23.573680 -16.085139 -109.310883 16.904355 -1.944791 0.000000 0.000000 0.000000
0.015270 0.502084 0.880590 -5.992839 -6.817663 134.382248 39.323423 -3.044869 -42.688283 -12.939715 5.905745 17.774226 -7.061058 28.622789 -41.448728 0.000000 0.000000 0.000000 -67.626383 10.894571 -46.005170 66.097645 -11.703513 -28.646790 7.434224 -35.542524 -54.124596 0.000000 0.000000 0.000000 14.866735 -10.375303 87.946428 -18.310385 -8.276518 -76.874900 3.042744 -13.208744 89.746450 15.356524 -60.707362 86.101513 0.000000 0.000000 0.000000 -39.609484 -24.338202 40.861872 59.126688 11.300601 7.786574 146.193214 43.284324 63.916269 0.000000 0.000000 0.000000 21.179372 16.782788 7.979214 -40.552383 34.478963 -26.910250 -113.323681 0.812218 7.633237 0.000000 0.000000 0.000000
0.014068 0.396865 0.978090 -4.382960 -1.147260 161.081070 44.850533 4.912507 -55.554937 0.881953 5.511931 21.900272 -13.475872 28.608063 -38.619056 0.000000 0.000000 0.000000 -75.087088 14.337519 -53.653697 55.314640 -9.307675 -46.035496 18.534045 -48.863476 -75.264218 0.000000 0.000000 0.000000 33.189090 -9.032270 85.636487 -36.549642 -26.888254 -92.396183 -4.053504 -24.422533 119.404710 89.288612 -51.057939 -26.310161 0.000000 0.000000 0.000000 -17.885860 -20.055125 34.710573 41.227405 4.258635 4.205144 168.585437 36.332366 92.637069 0.000000 0.000000 0.000000 2.501170 15.320830 -2.386604 -26.467961 43.214102 -31.190210 -108.624923 -0.158314 0.375525 0.000000 0.000000 0.000000
0.014720 0.298000 1.059427 -3.531756 2.112411 -177.152801 142.850984 -34.093338 -81.603302 -23.819123 -10.225640 -13.900059 -177.439998 26.192306 144.450556 0.000000 0.000000 0.000000 -49.698176 -8.645737 -62.497046 47.123710 15.366366 -24.337048 -128.259384 -31.867403 74.439459 0.000000 0.000000 0.000000 -159.756272 -0.765157 89.284116 -155.480471 15.610024 77.702714 -7.788274 -23.498517 109.859964 -175.291641 23.184654 114.032552 0.000000 0.000000 0.000000 -4.382181 -16.949288 24.624785 27.338159 -19.851217 -7.476304 153.103001 7.555497 -19.962409 0.000000 0.000000 0.000000 -14.333818 26.262270 -47.791688 17.416134 23.278331 -45.024140 -129.686047 71.300746 -151.149131 0.000000 0.000000 0.000000
0.014983 0.225126 1.119093 1.861593 4.437231 -145.297757 77.159695 7.875734 -63.398363 -4.629839 -0.222699 33.818549 98.265454 30.849075 40.911413 0.000000 0.000000 0.000000 -93.716761 5.078881 -62.061934 -17.182788 9.482647 -66.232924 -7.154850 -5.800174 -130.154464 0.000000 0.000000 0.000000 23.809918 7.866517 71.561045 4.433492 -16.409936 -137.186467 1.108138 10.554324 131.865019 14.328708 -15.981336 -28.443065 0.000000 0.000000 0.000000 14.176517 -14.943334 6.481764 -2.762702 -40.549892 -7.568460 136.345555 -22.877914 -50.007760 0.000000 0.000000 0.000000 -13.171155 10.837613 11.213493 -7.065952 57.113405 -20.394908 -89.215568 2.464276 -10.719789 0.000000 0.000000 0.000000
0.014201 0.184838 1.159950 4.008661 2.622915 -133.791183 55.752038 15.958308 -69.961758 21.824360 -15.548596 41.497534 41.427555 64.963484 -51.876906 0.000000 0.000000 0.000000 -59.546827 -5.950552 -61.005706 -10.265396 15.637402 -85.363254 -3.693825 -23.405392 -117.002948 0.000000 0.000000 0.000000 -3.081302 1.124274 63.245899 -32.716396 8.630935 -120.760314 -19.470746 -29.292341 118.537541 2.084091 -17.199812 -23.507827 0.000000 0.000000 0.000000 8.053503 -22.196410 10.912414 -14.172336 -46.669210 -3.496949 106.303274 -28.802031 -39.977361 0.000000 0.000000 0.000000 -7.649356 4.237832 17.333582 -11.997754 64.217647 -51.708304 -77.377694 41.681429 -17.572118 0.000000 0.000000 0.000000
0.012089 0.171573 1.189721 3.534730 0.728421 -122.548069 38.461809 18.467994 -70.484396 89.779144 -41.715738 13.254435 25.648299 11.172471 -100.221848 0.000000 0.000000 0.000000 -41.469803 -10.272195 -57.986006 -59.805300 -52.743681 -115.951578 -7.846643 -20.964314 -107.297252 0.000000 0.000000 0.000000 -0.548829 0.880036 46.076153 169.060585 -30.229455 -161.229586 178.377224 32.549818 -165.537789 -17.518599 -31.860279 -0.434720 0.000000 0.000000 0.000000 5.912329 -30.819929 -32.201052 -48.570012 -10.797202 19.859652 79.322396 -48.932514 -25.334269 0.000000 0.000000 0.000000 4.142447 5.959170 54.275955 -60.377711 58.952254 -87.033427 -73.422974 29.891141 -18.274960 0.000000 0.000000 0.000000
0.008678 0.168808 1.215336 4.342050 -2.684966 -111.757010 33.321078 20.041573 -61.861694 131.626709 -26.617852 -16.660616 55.989605 -14.712912 -135.885347 0.000000 0.000000 0.000000 -33.429693 -9.488030 -54.563250 11.394329 52.114561 168.612410 -14.276844 2.034324 -89.267414 0.000000 0.000000 0.000000 4.634063 2.073707 36.942437 1.321239 -5.411895 -51.512565 3.651477 0.425290 52.328847 -2.317925 -0.779180 4.572563 0.000000 0.000000 0.000000 -13.926480 -20.858749 8.916679 -41.047858 -41.681694 19.041463 81.420705 -36.696672 -31.946410 0.000000 0.000000 0.000000 9.419426 17.493662 9.413323 40.830376 53.511030 20.159920 -71.079395 34.004456 -25.958539 0.000000 0.000000 0.000000
0.004518 0.178839 1.239088 0.340134 -4.683936 -101.841521 37.263387 22.174490 -59.257880 139.537662 -38.316169 -13.998079 115.486060 -57.025043 -174.333759 0.000000 0.000000 0.000000 -32.969269 -11.963296 -49.953767 13.026341 6.316166 154.614280 -7.381240 -6.537498 -77.912629 0.000000 0.000000 0.000000 3.901288 1.462313 27.538557 20.873148 -22.302279 -54.152903 3.991760 24.652781 55.143201 -1.093664 -0.376955 1.559380 0.000000 0.000000 0.000000 -10.248241 -19.458929 6.104184 -45.293749 -39.787206 15.313130 82.733349 -45.023406 -40.242110 0.000000 0.000000 0.000000 14.836605 18.635667 13.399440 34.805120 55.021204 11.908657 -74.221992 39.020342 -30.378168 0.000000 0.000000 0.000000
0.000069 0.184427 1.262733 -1.813028 -6.121116 -95.013413 42.537009 24.319820 -52.760201 137.779387 -54.552231 -8.455281 -176.380272 -82.562539 124.539256 0.000000 0.000000 0.000000 -33.210558 -12.776028 -49.745938 10.974088 15.561569 154.016002 -7.013212 -0.550352 -64.991399 0.000000 0.000000 0.000000 6.864027 2.466386 22.970861 0.159353 -1.257308 -57.947705 -2.828724 -4.839263 63.844638 -4.334650 3.662869 -0.207498 0.000000 0.000000 0.000000 -12.696108 -19.500926 10.315645 -39.340412 -42.098798 12.545351 95.097954 -41.217900 -48.347843 0.000000 0.000000 0.000000 16.799619 15.826912 7.401857 38.330133 53.347155 16.513219 -80.184233 44.876135 -42.850670 0.000000 0.000000 0.000000
-0.004266 0.191443 1.284109 -2.950854 -5.796106 -90.207381 47.154414 25.853831 -51.005591 125.953292 -67.374807 3.976421 42.833640 -82.741462 -99.363438 0.000000 0.000000 0.000000 -38.150618 -15.639639 -49.925361 11.511685 16.608141 154.669603 -5.787160 5.377313 -53.991047 0.000000 0.000000 0.000000 5.444480 1.874971 23.342192 -95.896406 23.056685 -119.337510 -106.219425 -58.164229 -178.966920 -4.654621 -22.409161 -29.580827 0.000000 0.000000 0.000000 12.695311 -28.100618 -46.701539 -54.001253 -5.972087 13.655637 109.441154 -53.870570 -61.750422 0.000000 0.000000 0.000000 -2.346393 -11.548250 85.041649 -95.268873 26.971693 -107.221505 -92.990860 29.446685 -52.918237 0.000000 0.000000 0.000000
-0.008393 0.192665 1.302809 -3.394181 -4.581071 -86.374782 49.275640 26.323253 -52.916443 95.716986 -75.671550 34.875427 10.707935 -80.283842 -65.276437 0.000000 0.000000 0.000000 -43.271243 -18.611483 -49.465271 11.306435 19.323779 155.865120 -5.965369 10.324976 -51.998803 0.000000 0.000000 0.000000 2.642547 0.672062 21.900438 -32.763969 2.518343 -125.136781 -24.688270 -24.075887 140.595416 -0.667674 3.411755 -35.496367 0.000000 0.000000 0.000000 15.105678 -10.278289 2.797698 -39.989052 -58.374463 5.933629 107.798887 -34.675370 -59.355044 0.000000 0.000000 0.000000 0.736955 2.542859 14.251648 4.163334 73.527892 -41.347604 -101.031701 58.378665 -60.213557 0.000000 0.000000 0.000000
-0.012045 0.188617 1.316902 -2.116670 -3.413911 -86.123536 51.414904 27.549178 -55.219480 62.175294 -75.821965 66.828738 -1.374542 -81.140308 -50.950555 0.000000 0.000000 0.000000 -47.006179 -20.189583 -49.700562 11.158334 29.593831 156.239683 -8.025306 16.488200 -57.354523 0.000000 0.000000 0.000000 -2.103418 -1.328387 21.271830 -37.629158 -4.043951 -142.450299 -29.950967 -26.969324 160.146500 -1.448705 6.792144 -35.058920 0.000000 0.000000 0.000000 21.637585 -6.022000 8.712325 -34.195662 -67.040765 1.751629 109.420630 -32.485184 -62.094174 0.000000 0.000000 0.000000 -5.519022 0.617033 12.971593 8.991849 72.039951 -25.486055 -105.909762 43.966905 -58.477304 0.000000 0.000000 0.000000
-0.014610 0.185480 1.326287 -2.090271 -2.767576 -85.392264 50.574421 27.719122 -59.825820 40.986506 -73.637939 89.531245 -8.568573 -79.792363 -39.706275 0.000000 0.000000 0.000000 -49.175229 -20.672181 -47.493307 11.115998 34.262760 154.975340 -10.374917 17.896978 -64.651833 0.000000 0.000000 0.000000 -6.451148 -3.184113 22.982000 -38.536665 -11.405645 -160.309883 -36.556661 -26.621635 178.467992 2.671091 3.601903 -26.105577 0.000000 0.000000 0.000000 24.157804 -4.120473 13.511694 -28.735261 -73.325123 -2.355690 106.160149 -34.755801 -65.452520 0.000000 0.000000 0.000000 -6.638505 1.934688 10.381808 14.975847 65.526194 -8.123567 -105.130176 33.836518 -52.103879 0.000000 0.000000 0.000000
-0.016207 0.182260 1.330676 -1.385359 -2.748988 -82.189887 46.327082 25.557575 -62.163931 63.902408 -75.725832 69.289401 -11.294922 -83.997616 -33.927248 0.000000 0.000000 0.000000 -48.364129 -19.832334 -48.230846 9.783418 37.144276 151.899254 -11.994564 17.956696 -68.116248 0.000000 0.000000 0.000000 -8.531179 -4.032588 22.605695 -30.622985 -14.160180 -171.495430 -33.105398 -23.732064 -172.099761 2.788798 5.233166 -14.234663 0.000000 0.000000 0.000000 21.191317 -5.230497 15.301639 -26.815251 -73.366138 -2.538393 105.831221 -41.196001 -77.307402 0.000000 0.000000 0.000000 -3.892143 3.538444 6.320492 18.480773 54.678814 1.716040 -107.200759 37.253796 -59.746179 0.000000 0.000000 0.000000
-0.016872 0.185343 1.331427 -1.340819 -3.798835 -77.942071 45.083323 25.268682 -63.355223 55.281007 -74.635399 78.971494 4.991878 -81.941478 -49.528031 0.000000 0.000000 0.000000 -47.658054 -18.294534 -45.289295 10.663399 24.800307 147.032884 -9.461283 8.667665 -66.718433 0.000000 0.000000 0.000000 -5.301948 -2.423781 26.889255 -22.550797 -13.263963 -176.337797 -22.925773 -19.919128 -173.716616 13.080994 2.060494 5.056676 0.000000 0.000000 0.000000 12.020910 -9.947236 13.358094 -32.471779 -70.561598 6.583793 99.126828 -53.212971 -88.716128 0.000000 0.000000 0.000000 4.521751 4.687030 2.900367 19.368951 46.665639 6.936598 -109.682950 45.579714 -72.381686 0.000000 0.000000 0.000000
-0.017673 0.187075 1.330338 -0.666895 -4.738234 -71.975048 48.462989 27.299855 -63.010169 25.042107 -67.400919 109.462351 35.533643 -75.558953 -83.282415 0.000000 0.000000 0.000000 -45.591518 -16.424617 -47.254642 12.185975 11.342907 139.294268 -8.248362 2.382085 -63.313436 0.000000 0.000000 0.000000 -3.875592 -1.594663 27.664550 -11.535109 -9.907988 171.705127 -13.823590 -15.325414 -163.515593 4.800384 -7.365855 12.972879 0.000000 0.000000 0.000000 4.465267 -17.516333 9.857577 -36.895939 -62.781202 17.919146 71.468292 -56.442108 -66.752057 0.000000 0.000000 0.000000 6.332177 6.725993 0.903180 23.618218 37.416355 12.702959 -99.783675 51.848201 -68.897396 0.000000 0.000000 0.000000
-0.019671 0.197301 1.329898 -3.558667 -4.529756 -65.801014 52.003803 27.239941 -63.219102 6.496451 -48.938032 124.466086 18.098078 -69.375143 -63.894411 0.000000 0.000000 0.000000 -46.832256 -17.176160 -45.432258 15.371463 -1.411970 127.576494 -7.547420 -3.204178 -57.593698 0.000000 0.000000 0.000000 1.782029 -1.127395 39.201719 -3.111583 -1.450284 171.596072 1.639858 -1.685022 -168.465804 53.063766 11.429427 30.293753 0.000000 0.000000 0.000000 -1.257377 -26.246539 6.902728 -26.594125 -52.369145 22.334255 52.584493 -46.535034 -37.408593 0.000000 0.000000 0.000000 12.502269 17.466126 2.251845 21.732601 30.209140 17.080827 -90.079899 50.647654 -63.225197 0.000000 0.000000 0.000000
-0.022503 0.218886 1.330910 -1.527599 -6.436330 -59.965938 56.211655 28.408918 -54.318447 -2.104249 -28.383628 123.456699 5.376957 -58.773237 -47.293790 0.000000 0.000000 0.000000 -48.871363 -16.683967 -49.048223 20.529616 -10.422187 114.547712 -7.176232 -2.260943 -48.854750 0.000000 0.000000 0.000000 5.192383 -1.116558 47.629325 5.283541 8.547871 164.229200 14.320967 2.885898 -159.951423 53.312744 19.186925 28.337465 0.000000 0.000000 0.000000 -8.044095 -33.414677 10.823026 -18.079433 -46.294482 19.803585 44.026788 -38.202560 -20.308878 0.000000 0.000000 0.000000 13.072929 16.533444 3.420283 23.362264 31.929173 20.683207 -74.794571 47.232427 -50.290584 0.000000 0.000000 0.000000
-0.025796 0.241648 1.334313 -4.620039 -8.997379 -47.430777 57.680975 28.922059 -53.329906 -3.125368 -17.057986 113.861667 7.706802 -48.599857 -49.654848 0.000000 0.000000 0.000000 -48.062510 -15.673346 -51.377083 27.487028 -19.459198 95.357345 -7.319001 -10.745569 -40.525056 0.000000 0.000000 0.000000 5.546581 -2.556642 56.791906 2.048425 5.977254 161.427867 10.993164 1.624428 -163.250997 84.280041 30.947151 40.151626 0.000000 0.000000 0.000000 -5.210264 -34.387768 10.299112 -22.546973 -40.450685 38.942259 54.354217 -17.271664 -14.649377 0.000000 0.000000 0.000000 13.404389 23.536502 3.474733 25.929944 30.112330 34.471957 -55.311010 30.550608 -24.487972 0.000000 0.000000 0.000000
-0.028475 0.271490 1.338602 -4.613406 -10.158692 -33.824999 64.837692 31.192553 -48.274081 -10.411284 0.602276 104.837524 8.469066 -39.923246 -49.596314 0.000000 0.000000 0.000000 -54.055217 -17.008770 -52.866950 40.506688 -27.193271 73.699163 -7.913091 -18.038122 -34.436973 0.000000 0.000000 0.000000 3.579552 -2.559114 71.374656 20.861506 26.443892 -176.067360 29.397833 23.516042 -175.433663 -117.513151 -63.544426 80.499036 0.000000 0.000000 0.000000 17.965933 -10.404265 104.169797 62.448575 -17.316980 51.551648 -59.140799 51.384165 4.593318 0.000000 0.000000 0.000000 -9.294258 2.128259 89.911646 -64.020066 31.280548 11.264430 -21.764619 -50.850659 7.637031 0.000000 0.000000 0.000000
-0.030027 0.310546 1.344844 -5.370396 -10.995161 -19.891975 67.569039 32.465173 -46.385240 -16.310583 10.808928 90.110074 8.832050 -32.583836 -49.236202 0.000000 0.000000 0.000000 -55.392460 -16.862452 -54.722060 47.824417 -26.710592 55.533668 -8.659016 -25.553781 -34.845618 0.000000 0.000000 0.000000 0.572882 -0.120523 73.713224 -65.087301 -8.700651 -104.320497 -11.895853 -62.143092 122.400490 5.486459 -47.681997 -47.197727 0.000000 0.000000 0.000000 3.305931 -52.600217 -72.880532 -14.059120 -2.651404 -3.715808 -23.477056 -48.385690 -1.373758 0.000000 0.000000 0.000000 8.037486 28.948206 12.750016 -14.393987 38.485114 -27.247403 -23.653011 26.280344 -14.633159 0.000000 0.000000 0.000000
-0.030667 0.362713 1.355639 -6.158959 -11.500672 -6.360177 68.823845 32.483009 -43.896669 -26.492717 19.206924 70.925243 8.608820 -18.546075 -47.165242 0.000000 0.000000 0.000000 -56.208435 -16.651483 -56.197815 52.967709 -20.067285 32.554245 -10.330268 -36.472692 -28.402894 0.000000 0.000000 0.000000 -0.850556 1.931232 78.396462 -4.179293 0.237443 -48.410444 0.660207 3.556739 30.700025 0.649094 -7.982072 37.981599 0.000000 0.000000 0.000000 -33.497228 -38.080472 24.116399 6.816817 -22.543818 -1.909415 28.715813 -30.900907 -8.085667 0.000000 0.000000 0.000000 35.152981 33.320814 22.802881 -10.262635 29.991528 -3.811877 -22.037902 21.005378 -3.817435 0.000000 0.000000 0.000000
-0.031796 0.420637 1.375577 -6.737501 -11.162983 5.375149 66.710413 31.172455 -43.486972 -28.155902 16.775208 53.080685 9.061882 -19.180327 -49.515276 0.000000 0.000000 0.000000 -54.505792 -15.676568 -57.490560 48.401581 -15.207375 24.276387 -9.825881 -37.748915 -28.581606 0.000000 0.000000 0.000000 -1.717245 3.135462 77.824367 0.945322 0.301257 -32.496270 -3.513270 6.323243 18.207706 5.981375 -6.829306 6.549067 0.000000 0.000000 0.000000 -17.485071 -41.878015 20.191580 2.590091 -24.314437 -1.984812 29.597820 -21.387801 -5.120806 0.000000 0.000000 0.000000 16.257206 34.292044 18.403324 -3.505709 34.502633 -3.337596 -25.650842 16.054120 -2.797728 0.000000 0.000000 0.000000
-0.034205 0.480594 1.406138 -7.275719 -11.634400 15.396219 63.324635 27.692670 -40.436001 -26.032327 13.217614 40.758540 9.719667 -13.995931 -53.164060 0.000000 0.000000 0.000000 -51.519581 -14.293665 -60.328520 45.615131 -12.742158 19.686934 -9.583849 -44.230183 -29.564959 0.000000 0.000000 0.000000 -2.468688 4.595535 78.235244 2.073832 0.373938 -35.356691 -2.857172 4.632443 25.530491 3.000389 -1.699519 -6.236965 0.000000 0.000000 0.000000 -9.731729 -41.653526 18.532991 5.242145 -25.132936 -2.765342 26.450809 -15.128607 -3.148699 0.000000 0.000000 0.000000 8.211386 36.596813 16.905414 -7.311720 37.105550 -4.993799 -23.289948 11.299764 -1.631592 0.000000 0.000000 0.000000
-0.038572 0.534461 1.444950 -6.284202 -11.198439 22.186907 56.282394 25.689667 -44.519340 -21.020453 10.530664 38.886018 8.428400 -10.003035 -50.011499 0.000000 0.000000 0.000000 -48.483431 -14.111015 -64.460917 42.379069 -13.904485 24.425132 -12.185889 -47.914693 -19.988961 0.000000 0.000000 0.000000 -2.885731 5.322305 80.670140 3.709713 0.094482 -32.213874 -3.955542 3.161752 22.211103 0.630635 0.592546 -11.898801 0.000000 0.000000 0.000000 -5.298334 -45.022446 19.318192 5.648041 -23.080035 -2.574502 24.404959 -8.826461 -1.575740 0.000000 0.000000 0.000000 3.926247 39.128652 17.060676 -8.499779 37.273756 -5.444929 -22.476162 7.391308 -0.807041 0.000000 0.000000 0.000000
-0.044145 0.575443 1.487003 -6.797568 -10.981650 26.868729 52.146572 24.255521 -46.608966 -17.217261 9.578434 42.426010 7.272909 -4.391369 -44.720315 0.000000 0.000000 0.000000 -45.517389 -13.146450 -67.042655 43.039782 -16.471888 29.549134 -14.806376 -50.410282 -14.132437 0.000000 0.000000 0.000000 -3.004549 5.798444 82.496130 2.783006 0.208721 -30.823202 -2.897690 1.398206 23.373078 -3.014608 2.993408 -18.332776 0.000000 0.000000 0.000000 1.715632 -43.237915 16.304870 7.399620 -23.199902 -2.755062 22.073999 -5.891700 -0.917878 0.000000 0.000000 0.000000 -0.292488 39.801649 15.876382 -13.496257 36.635337 -6.817871 -20.267388 2.447452 0.038580 0.000000 0.000000 0.000000
-0.050021 0.603888 1.528326 -6.208474 -9.316836 29.539454 47.707028 21.664279 -48.952815 -12.366755 7.697340 46.698463 6.746115 -3.728044 -42.056928 0.000000 0.000000 0.000000 -44.266557 -13.057251 -66.295212 42.553329 -17.760301 32.680078 -15.407508 -50.453097 -13.274298 0.000000 0.000000 0.000000 -2.799536 4.770998 84.070573 2.411068 0.237503 -29.477483 -2.104737 0.619823 22.888749 -4.009290 3.466984 -20.284991 0.000000 0.000000 0.000000 6.283101 -43.577793 14.989825 7.759981 -20.423336 -2.317667 20.709430 -7.010059 -1.033386 0.000000 0.000000 0.000000 -6.815345 39.567403 13.581594 -12.345056 34.578951 -6.064980 -19.205575 2.912190 -0.041792 0.000000 0.000000 0.000000
-0.055112 0.614268 1.566295 -5.644078 -8.562296 30.025238 46.380794 20.858451 -49.915280 -12.018784 8.293812 51.141311 6.509101 -2.359922 -39.526259 0.000000 0.000000 0.000000 -42.038917 -13.008056 -68.679058 38.644385 -19.749594 42.269196 -17.061117 -49.962949 -9.006852 0.000000 0.000000 0.000000 -2.635052 4.281308 86.188103 1.880323 0.346794 -29.886662 -1.899296 -0.004392 23.026192 -3.452433 3.156335 -24.958672 0.000000 0.000000 0.000000 9.889795 -42.102210 13.136829 7.662169 -21.911031 -2.472024 19.465021 -6.849245 -0.936009 0.000000 0.000000 0.000000 -9.308116 39.370436 12.614096 -13.205014 31.931154 -5.652229 -18.023463 2.338320 0.026657 0.000000 0.000000 0.000000
-0.058827 0.615396 1.599900 -5.091926 -8.073604 28.533744 44.977584 19.740509 -50.043690 -9.771983 7.559160 56.190634 6.310676 -3.996413 -38.595951 0.000000 0.000000 0.000000 -41.798958 -12.982593 -67.683670 37.020482 -21.663088 49.440683 -15.997391 -46.296596 -9.261146 0.000000 0.000000 0.000000 -2.441321 3.792830 89.069032 2.035576 0.336055 -30.464860 -2.466906 -0.299591 22.536388 -3.030740 2.917568 -23.646027 0.000000 0.000000 0.000000 7.857311 -41.530890 13.556348 9.575019 -21.540999 -2.545657 19.084245 -7.817321 -1.042461 0.000000 0.000000 0.000000 -6.371270 39.173221 13.443457 -16.103197 28.970457 -5.500169 -16.914853 1.670008 0.106004 0.000000 0.000000 0.000000
-0.061409 0.609061 1.628443 -3.853906 -7.599498 26.660144 43.576808 18.942835 -50.806988 -8.137111 7.047730 61.929537 5.902113 -6.483198 -37.133958 0.000000 0.000000 0.000000 -42.579534 -13.639668 -66.763308 34.458111 -23.333536 57.728890 -14.303108 -41.119168 -9.958494 0.000000 0.000000 0.000000 -1.985824 2.887979 90.623836 1.607319 0.417872 -31.112261 -3.963229 -1.956506 22.544181 -2.127495 2.270720 -24.279688 0.000000 0.000000 0.000000 7.745514 -40.503116 13.150040 10.626816 -22.484054 -2.666870 16.653605 -6.756387 -0.731331 0.000000 0.000000 0.000000 -5.495620 38.616268 13.315420 -17.035744 28.062341 -5.539775 -15.689747 2.506102 -0.007014 0.000000 0.000000 0.000000
-0.063500 0.598082 1.651008 -2.738510 -6.724705 24.053841 42.671160 17.973031 -50.965995 -7.330321 7.046081 68.747759 5.976781 -6.391284 -36.496735 0.000000 0.000000 0.000000 -43.593258 -14.456754 -65.222147 31.829912 -24.758393 66.139632 -12.531362 -35.546727 -10.990468 0.000000 0.000000 0.000000 -1.151916 1.242926 91.486102 0.085749 0.658129 -31.499984 -4.712946 -3.795803 22.641215 -1.203734 1.470860 -22.369757 0.000000 0.000000 0.000000 5.763655 -40.692659 13.852830 12.837516 -22.698961 -2.765046 14.180602 -6.399991 -0.549180 0.000000 0.000000 0.000000 -3.837599 38.357241 13.436420 -18.674067 27.479348 -5.773349 -15.800839 2.858092 -0.058791 0.000000 0.000000 0.000000
-0.065443 0.583931 1.666980 -1.999801 -6.621118 20.979602 42.808571 17.738052 -50.224502 -6.642907 6.660366 72.865615 5.511284 -8.454793 -35.187979 0.000000 0.000000 0.000000 -44.675688 -14.669609 -63.382690 29.425851 -24.948621 72.379086 -10.900931 -30.620737 -12.664552 0.000000 0.000000 0.000000 -0.637208 0.527927 91.164636 -1.120398 0.833106 -31.713212 -5.655045 -4.212308 22.476775 0.796260 0.209416 -20.446196 0.000000 0.000000 0.000000 3.777130 -41.862869 14.811615 13.867248 -23.231311 -2.886265 11.584233 -5.584751 -0.360334 0.000000 0.000000 0.000000 -1.354322 39.860299 14.526864 -18.976019 26.960978 -5.595107 -14.728824 3.221427 -0.086811 0.000000 0.000000 0.000000
-0.067258 0.571704 1.677641 -1.918854 -6.913297 18.289181 43.393124 17.533579 -48.483878 -6.190835 6.452054 75.822715 5.668684 -7.971565 -35.270959 0.000000 0.000000 0.000000 -45.604662 -14.736848 -62.284425 29.671406 -26.088886 75.227043 -11.230116 -30.837784 -11.180860 0.000000 0.000000 0.000000 -0.016730 0.034044 89.637983 -2.880527 1.094149 -31.296513 -5.513493 -3.999054 22.261898 2.861565 -1.111334 -19.157418 0.000000 0.000000 0.000000 3.130066 -42.837207 15.213409 13.923726 -23.877547 -2.981791 9.915673 -4.949731 -0.253195 0.000000 0.000000 0.000000 0.665454 40.456004 15.261588 -19.416358 26.853831 -5.527909 -14.613420 3.037848 -0.065270 0.000000 0.000000 0.000000
-0.068574 0.562150 1.684572 -1.504992 -6.776966 14.670180 43.749365 17.175840 -47.092580 -6.347617 6.493762 78.516951 5.343500 -6.849843 -32.931240 0.000000 0.000000 0.000000 -47.046320 -14.996467 -60.130206 31.172968 -27.173616 75.343970 -13.345913 -34.452010 -5.918419 0.000000 0.000000 0.000000 0.361962 -0.497809 88.413835 -3.513292 1.191620 -31.647918 -5.940873 -2.858310 22.412946 5.445501 -2.651133 -18.867002 0.000000 0.000000 0.000000 1.244381 -45.488522 16.532678 14.040051 -23.318966 -2.846826 9.393898 -3.998581 -0.187187 0.000000 0.000000 0.000000 2.647700 42.458034 16.585531 -18.783121 27.138824 -5.248581 -13.758206 1.716209 0.062602 0.000000 0.000000 0.000000
-0.069059 0.557287 1.689510 -2.240154 -7.900701 12.521260 44.878957 17.666017 -45.261832 -6.387548 6.824780 80.861142 5.329233 -4.138178 -30.614027 0.000000 0.000000 0.000000 -47.148481 -14.172528 -59.301052 34.370756 -28.521383 72.784592 -17.271690 -40.971529 -0.606830 0.000000 0.000000 0.000000 0.358591 0.184667 84.123619 -4.512106 1.324240 -31.472297 -4.499597 -0.508673 22.654080 8.783529 -4.684040 -18.477505 0.000000 0.000000 0.000000 -1.271419 -47.636234 18.045697 12.158312 -24.219659 -2.909729 9.700502 -2.120099 -0.101434 0.000000 0.000000 0.000000 6.251235 42.971834 18.232585 -20.090399 28.990852 -5.760499 -12.560440 -0.997734 0.286024 0.000000 0.000000 0.000000
-0.068590 0.555485 1.693677 -2.752683 -8.534032 10.549308 44.846569 18.001042 -45.030161 -6.105012 6.594701 83.002412 5.190341 0.046687 -25.446207 0.000000 0.000000 0.000000 -47.109618 -13.454004 -58.125425 35.909573 -28.689962 71.176882 -20.414141 -44.328185 4.432325 0.000000 0.000000 0.000000 1.260315 -0.351125 78.487822 -5.167395 1.406800 -31.089917 -4.000772 2.040899 21.225054 12.363552 -7.831949 -14.004525 0.000000 0.000000 0.000000 -10.237629 -50.046181 22.814257 10.612302 -22.599598 -2.513059 9.606486 -2.658546 -0.128328 0.000000 0.000000 0.000000 14.833427 43.478641 22.282489 -19.356540 29.969829 -5.756282 -12.095313 -1.598659 0.325785 0.000000 0.000000 0.000000
-0.067923 0.559357 1.698748 -3.314229 -9.446259 7.477534 45.744181 18.027957 -42.717247 -6.389632 6.876512 84.020598 4.954900 2.835919 -19.871304 0.000000 0.000000 0.000000 -46.568746 -12.029804 -55.604929 36.537070 -28.202144 70.717605 -20.805083 -44.208288 5.960030 0.000000 0.000000 0.000000 1.849514 -0.513840 72.622037 -6.688670 1.546471 -32.989674 -2.716164 3.216343 23.572967 14.213746 -9.906697 -13.304026 0.000000 0.000000 0.000000 -16.118190 -49.892856 25.012926 8.682120 -23.019639 -2.372612 10.004283 -1.846920 -0.098466 0.000000 0.000000 0.000000 21.912118 43.077275 24.788976 -18.021465 31.978907 -5.992313 -14.187691 -1.379983 0.349895 0.000000 0.000000 0.000000
-0.067696 0.567603 1.706752 -3.715357 -9.353217 4.913524 46.074456 17.150811 -40.306499 -6.401558 6.534324 83.122718 4.754752 4.295132 -15.928823 0.000000 0.000000 0.000000 -44.932113 -10.651732 -52.699595 33.602174 -25.655033 72.535084 -18.308299 -40.126179 5.318183 0.000000 0.000000 0.000000 2.272760 -0.993369 66.545647 -6.456062 1.582407 -31.259998 -2.369625 4.494394 20.109430 15.509446 -10.159397 -14.951282 0.000000 0.000000 0.000000 -22.043555 -49.434482 27.318389 4.395765 -22.095981 -1.828360 10.956732 -4.561594 -0.283679 0.000000 0.000000 0.000000 27.330615 41.562599 26.326303 -13.078395 34.442343 -5.475217 -14.990682 -0.636059 0.310710 0.000000 0.000000 0.000000
-0.068449 0.581711 1.719144 -3.598059 -9.376403 1.653593 45.608094 15.262361 -36.184171 -7.962501 7.760568 80.352641 7.489214 13.543539 -10.817251 0.000000 0.000000 0.000000 -42.729065 -8.724832 -47.907796 29.811314 -22.137780 74.941316 -14.089671 -34.200202 -0.902279 0.000000 0.000000 0.000000 3.032316 -1.566895 58.838459 -8.839042 1.907276 -33.227636 -0.458285 3.113217 22.549285 13.807472 -9.697766 -15.132641 0.000000 0.000000 0.000000 -28.111612 -46.826206 28.786829 2.021128 -21.586329 -1.600771 9.717774 -4.962228 -0.270136 0.000000 0.000000 0.000000 33.060425 40.335212 26.706273 -6.459597 35.110718 -4.126463 -14.939953 2.295019 0.004626 0.000000 0.000000 0.000000
-0.069991 0.600421 1.736005 -3.056692 -8.578983 -1.658123 44.318110 12.897909 -32.200109 -10.292027 9.317140 77.130373 12.017335 24.041782 -3.823500 0.000000 0.000000 0.000000 -41.073797 -7.193373 -41.505870 25.674109 -17.898968 75.947490 -10.624200 -27.031989 -5.527495 0.000000 0.000000 0.000000 4.379924 -2.403996 50.573107 -13.318308 2.850012 -32.244441 1.772724 0.469332 20.850814 10.478409 -9.525989 -5.783150 0.000000 0.000000 0.000000 -36.982330 -43.060818 31.198515 0.273616 -21.216853 -1.494739 7.286220 -7.066258 -0.258254 0.000000 0.000000 0.000000 38.152965 37.132229 24.670288 2.263176 33.509330 -1.939830 -13.512426 6.771960 -0.381160 0.000000 0.000000 0.000000
-0.072382 0.618845 1.755566 -2.796669 -7.778556 -5.934118 42.638398 10.370517 -27.215330 -11.044514 9.081407 74.589243 16.264650 30.899964 2.561931 0.000000 0.000000 0.000000 -38.336251 -5.562888 -34.771790 21.069026 -13.320850 78.025235 -8.551252 -21.354906 -7.969235 0.000000 0.000000 0.000000 4.582589 -2.348193 41.667233 -13.880327 3.353803 -30.869981 2.375953 -0.050852 19.953557 8.446771 -9.317199 1.840655 0.000000 0.000000 0.000000 -43.449926 -39.675028 31.440315 -4.190440 -19.054087 -1.228130 5.656645 -10.056813 -0.246793 0.000000 0.000000 0.000000 43.701921 33.558917 22.932657 9.838905 30.564827 -0.407150 -12.182800 9.224381 -0.514847 0.000000 0.000000 0.000000
-0.075475 0.635925 1.776248 -2.741972 -7.085181 -8.955140 41.070355 7.963677 -21.449427 -11.376477 8.392849 70.702299 19.136071 35.290320 3.831441 0.000000 0.000000 0.000000 -35.581809 -4.068075 -28.023298 17.160656 -8.979540 77.139044 -7.504612 -17.873028 -10.670753 0.000000 0.000000 0.000000 4.897840 -2.013261 30.998350 -16.809102 5.120246 -25.162673 4.483747 -1.831092 15.160996 6.582123 -8.748833 13.778019 0.000000 0.000000 0.000000 -49.217180 -35.691295 31.230791 -6.794091 -16.905145 -1.146452 3.519977 -11.521863 -0.072598 0.000000 0.000000 0.000000 46.220100 30.207207 19.220765 16.896206 25.275503 0.719732 -9.629653 13.028209 -0.555001 0.000000 0.000000 0.000000
-0.078489 0.647124 1.796573 -2.475435 -6.431943 -12.089059 40.315974 6.141071 -15.869933 -12.186116 8.165002 67.766660 20.872932 37.908509 4.212550 0.000000 0.000000 0.000000 -33.867866 -2.925652 -21.145566 14.088167 -5.678461 76.157483 -6.929578 -15.215682 -14.095490 0.000000 0.000000 0.000000 3.040550 -1.151476 21.331091 -8.751624 3.202149 -18.884885 -1.299077 3.062572 11.279634 8.263538 -10.196498 11.221352 0.000000 0.000000 0.000000 -46.588689 -32.652827 24.089961 -14.525296 -13.839730 -0.818462 1.823076 -15.605075 0.237061 0.000000 0.000000 0.000000 46.523948 25.518807 18.131638 22.699416 23.988861 0.917745 -9.204764 15.800439 -0.664095 0.000000 0.000000 0.000000
-0.081316 0.651805 1.814114 -2.530488 -6.038276 -14.950524 40.126171 4.596287 -10.146225 -11.433555 6.692095 64.772996 20.211312 37.750887 1.601009 0.000000 0.000000 0.000000 -32.638817 -2.156987 -15.811886 13.078831 -4.400658 73.845381 -8.105514 -19.183880 -13.260861 0.000000 0.000000 0.000000 1.834931 -0.651310 13.712743 -6.403173 2.710606 -13.141556 -2.535661 3.597645 7.030607 7.222705 -10.391867 17.971404 0.000000 0.000000 0.000000 -46.409619 -28.556508 19.290852 -19.314671 -10.719140 -0.864463 -1.433849 -17.172200 0.782599 0.000000 0.000000 0.000000 46.838508 22.282151 15.695578 25.913820 19.431259 0.639561 -5.581584 17.940000 -0.266834 0.000000 0.000000 0.000000
-0.083794 0.652827 1.827841 -2.505728 -6.200261 -16.819353 40.044295 3.064108 -3.782882 -11.326994 5.929345 59.765389 19.671918 39.084033 -4.496806 0.000000 0.000000 0.000000 -32.100100 -1.275235 -10.157859 13.062354 -3.869213 68.798637 -9.669851 -24.459530 -17.414564 0.000000 0.000000 0.000000 0.894398 -0.254883 5.969782 -3.559224 1.548746 -9.712243 -3.777074 5.228666 4.201295 6.323531 -10.946604 23.340580 0.000000 0.000000 0.000000 -46.001385 -25.194149 14.792169 -21.698586 -6.354136 -1.133995 -6.116869 -17.145274 1.501019 0.000000 0.000000 0.000000 46.297760 18.254900 12.962902 28.841567 13.960063 -0.276235 -2.304596 21.383580 0.229554 0.000000 0.000000 0.000000
-0.086031 0.646999 1.838365 -2.918299 -5.780894 -18.083069 41.722095 1.303089 3.100302 -13.402063 6.198642 52.143018 17.887668 40.782656 -16.366953 0.000000 0.000000 0.000000 -33.045711 -0.504044 -4.558723 14.678579 -4.926042 63.060838 -10.327621 -28.174447 -24.323707 0.000000 0.000000 0.000000 0.097435 0.071194 -1.636420 -0.910088 0.300166 -10.837971 -4.642065 5.780308 8.323426 5.557085 -11.227144 25.997817 0.000000 0.000000 0.000000 -44.694872 -22.036198 11.684506 -22.358614 -3.559372 -1.767731 -10.712577 -16.618920 2.092770 0.000000 0.000000 0.000000 45.706138 14.860083 10.345301 29.368759 9.690852 -1.518090 3.904039 23.422435 1.412352 0.000000 0.000000 0.000000
-0.087660 0.636358 1.846208 -2.956781 -6.424000 -18.995332 42.892653 -0.271747 9.754706 -15.445197 6.559225 44.820277 15.847298 41.852333 -27.042350 0.000000 0.000000 0.000000 -34.695980 0.487076 0.189879 17.225563 -6.016556 56.839344 -10.185179 -31.255435 -34.125767 0.000000 0.000000 0.000000 0.039286 0.454049 -9.118253 1.564445 -0.794442 -12.283207 -5.461393 7.036185 12.879277 7.922608 -12.897760 20.200796 0.000000 0.000000 0.000000 -40.639908 -18.278873 8.378437 -25.540861 -2.488290 -2.568379 -15.145910 -16.864276 2.745041 0.000000 0.000000 0.000000 43.083300 13.177269 9.361941 33.433539 5.687757 -3.090534 5.935944 25.640173 2.057108 0.000000 0.000000 0.000000
-0.088936 0.611864 1.852032 -3.386371 -6.962984 -18.744789 47.211445 -2.060801 15.365055 -22.086111 8.668962 36.689251 13.101789 41.405005 -39.589353 0.000000 0.000000 0.000000 -37.926697 1.680122 3.997516 22.430556 -8.634295 51.907664 -9.070158 -29.427047 -46.363051 0.000000 0.000000 0.000000 -0.395625 0.924863 -17.818393 6.516068 -2.552350 -16.326714 -8.296789 8.526256 20.763595 11.223113 -16.538095 15.425516 0.000000 0.000000 0.000000 -37.205633 -15.602180 6.784256 -24.648700 -1.689615 -3.328746 -21.360361 -14.571723 3.075267 0.000000 0.000000 0.000000 42.285062 11.986292 9.076686 32.659622 2.336472 -4.602496 9.343680 27.360524 2.969544 0.000000 0.000000 0.000000
-0.089493 0.586788 1.856554 -3.837628 -7.548678 -20.272876 50.192842 -3.209531 18.839209 -24.185422 9.254009 35.575782 11.691522 39.507533 -46.379661 0.000000 0.000000 0.000000 -41.407319 2.329545 5.306881 26.247594 -10.832527 53.228465 -8.815233 -27.012159 -50.593285 0.000000 0.000000 0.000000 1.040583 1.683713 -22.508462 11.440687 -4.353379 -15.997019 -13.310994 10.375588 18.612035 12.914687 -21.921479 21.413940 0.000000 0.000000 0.000000 -33.737701 -14.496450 5.248300 -23.737377 2.492842 -3.634780 -25.004259 -13.827556 3.312093 0.000000 0.000000 0.000000 41.071493 11.042319 9.085231 32.950801 -2.906030 -5.765554 11.599414 32.094322 4.140779 0.000000 0.000000 0.000000
-0.089626 0.542601 1.860203 -3.804897 -9.137925 -22.956094 58.640097 -4.945423 22.686505 -32.589841 12.863850 36.553747 10.932724 34.976917 -52.703954 0.000000 0.000000 0.000000 -49.568832 2.754481 3.169528 32.374104 -15.346037 59.807144 -8.789949 -22.069030 -51.920577 0.000000 0.000000 0.000000 2.947581 2.879064 -26.790284 8.795458 -3.257323 -16.830725 -9.744638 8.954242 24.430123 16.204765 -21.821517 12.176106 0.000000 0.000000 0.000000 -29.869785 -11.235757 4.645098 -25.157853 0.256967 -4.239480 -29.400289 -12.873859 3.578732 0.000000 0.000000 0.000000 35.021535 10.591332 7.377963 35.252864 -4.856629 -6.772834 12.878847 38.028947 5.516211 0.000000 0.000000 0.000000
-0.089748 0.496669 1.863005 -4.763431 -6.804394 -25.464117 65.618439 -7.006708 22.068656 -36.742381 14.767563 39.811079 10.691916 30.170219 -58.995374 0.000000 0.000000 0.000000 -58.366976 2.990630 4.377530 37.593295 -20.657523 64.245623 -8.870908 -16.618744 -51.032983 0.000000 0.000000 0.000000 1.888355 2.540784 -29.013928 9.306030 -4.211208 -11.393055 -10.276420 6.073240 18.471571 8.395190 -18.703338 33.873615 0.000000 0.000000 0.000000 -27.812623 -10.764406 4.305669 -27.022535 2.640160 -4.349679 -29.150613 -8.530337 2.307531 0.000000 0.000000 0.000000 36.319530 12.827238 8.188347 33.722361 -11.407766 -6.859057 10.038270 40.526912 4.578286 0.000000 0.000000 0.000000
-0.089206 0.451672 1.863978 -4.143450 -8.610982 -30.836208 76.247467 -8.882611 23.908932 -41.790252 17.754140 45.626563 11.353325 23.897570 -59.864797 0.000000 0.000000 0.000000 -67.635806 2.876736 1.164614 37.646955 -22.508103 73.611039 -8.541299 -7.957544 -47.426068 0.000000 0.000000 0.000000 3.242918 3.056493 -26.935099 -0.295318 0.006585 -4.499103 1.016268 2.039197 11.435153 8.929834 -9.642198 11.462096 0.000000 0.000000 0.000000 -20.332943 -12.537342 6.110025 -35.720770 3.755270 -5.467000 -33.906392 -6.256844 2.134844 0.000000 0.000000 0.000000 27.694596 13.128039 5.959322 38.739757 -13.861115 -7.509459 7.998253 43.370894 4.353611 0.000000 0.000000 0.000000
-0.088638 0.423497 1.863709 -4.959984 -7.390730 -30.784672 85.866635 -13.111709 23.791500 -57.188584 20.823824 35.790937 11.347813 21.183450 -57.848363 0.000000 0.000000 0.000000 -72.960263 6.884057 7.319181 46.830649 -26.588142 63.666956 -9.649511 -5.658575 -55.137466 0.000000 0.000000 0.000000 3.715576 3.036382 -26.822382 0.887675 -0.421982 -10.509482 -1.559885 2.933656 16.574539 13.668202 -11.991575 0.796561 0.000000 0.000000 0.000000 -15.743819 -11.509910 5.060750 -38.306174 6.152475 -6.914684 -35.559481 -10.783817 3.796880 0.000000 0.000000 0.000000 26.209442 10.412052 4.891885 40.702474 -11.591087 -7.976167 -20.144977 53.012814 -7.872601 0.000000 0.000000 0.000000
